{"type": "Feature","bbox": [34.9076,37.6985,35.3127,38.2399],"geometry": {"type": "MultiPolygon","coordinates": [[[[35.2658,37.9592,2385.3657],[35.3076,38.0231,2160.0239],[35.3109,38.0314,2221.6914],[35.3125,38.0503,1962.5729],[35.3127,38.1533,1222.7678],[35.3112,38.169,1086.5618],[35.308,38.1773,1080.995],[35.2951,38.1984,1075.9581],[35.2731,38.2288,1072.5444],[35.26,38.2399,1071.3917],[35.2474,38.2308,1071.2683],[35.236,38.2251,1072.3167],[35.1971,38.2206,1078.2725],[35.1759,38.2136,1086.8],[35.1486,38.2085,1100.8066],[35.0824,38.1828,1461.0341],[35.0477,38.1576,1394.199],[35.0296,38.1403,1401.7908],[34.9924,38.0816,1477.8926],[34.9411,38.0379,1543.3262],[34.9105,37.9915,1943.9919],[34.9076,37.9838,2119.03],[34.9083,37.97,2045.165],[34.9188,37.9512,1990.5686],[34.9258,37.9303,2030.8635],[34.9405,37.907,2261.2351],[34.9598,37.8848,2297.6399],[34.9609,37.8758,2030.5852],[34.9593,37.8694,1910.4836],[34.949,37.851,2011.7446],[34.9168,37.8045,1786.3931],[34.9234,37.7723,1790.9219],[34.9326,37.7559,1714.1288],[34.9385,37.7375,1876.5492],[34.9485,37.7184,1870.6824],[34.9509,37.6988,1621.0126],[35.0147,37.6985,1410.6367],[35.0399,37.701,1945.5576],[35.0731,37.7136,2881.3752],[35.0897,37.7244,3071.2659],[35.118,37.7468,2733.1526],[35.1266,37.7555,2595.8823],[35.1342,37.7676,2085.8135],[35.1446,37.7787,2776.0195],[35.1811,37.8065,3113.9849],[35.1981,37.8141,3112.9802],[35.2137,37.8321,3427.9075],[35.2166,37.8366,3235.5808],[35.2186,37.8442,3171.1853],[35.2178,37.8494,2989.9219],[35.2092,37.8654,2973.5891],[35.2068,37.877,3086.8845],[35.2063,37.9044,3208.5178],[35.2094,37.919,3171.1843],[35.224,37.9421,2708.249],[35.2303,37.948,2746.1704],[35.2417,37.9536,2569.0015],[35.2658,37.9592,2385.3657]]]]}
,"properties": {"GID_2": "TUR.62.3_1","GID_0": "TUR","country": "Turkey","GID_1": "TUR.62_1","province": "Nigde","NL_NAME_1": "NA","county": "Çamardı","VARNAME_2": "NA","NL_NAME_2": "NA","TYPE_2": "District","ENGTYPE_2": "District","CC_2": "NA","HASC_2": "TR.NG.CA","name": "Çamardı.county","area_km2": 1376.274,"hist_schema_id": "Elevation0-9000","hist_area_km2": {"1075": 40.854,"1100": 15.115,"1125": 9.9,"1150": 9.5,"1175": 9.834,"1200": 8.751,"1225": 10.486,"1250": 10.487,"1275": 8.788,"1300": 9.625,"1325": 13.034,"1350": 15.376,"1375": 16.385,"1400": 25.883,"1425": 29.568,"1450": 35.288,"1475": 40.415,"1500": 46.421,"1525": 49.266,"1550": 50.949,"1575": 45.524,"1600": 41.081,"1625": 36.45,"1650": 37.868,"1675": 37.247,"1700": 36.565,"1725": 33.472,"1750": 35.026,"1775": 33.019,"1800": 31.881,"1825": 30.094,"1850": 28.472,"1875": 28.556,"1900": 25.13,"1925": 23.14,"1950": 22.557,"1975": 19.716,"2000": 17.942,"2025": 15.703,"2050": 13.597,"2075": 11.106,"2100": 9.868,"2125": 9.099,"2150": 8.964,"2175": 9.8,"2200": 8.528,"2225": 7.992,"2250": 7.792,"2275": 7.574,"2300": 7.775,"2325": 8.208,"2350": 8.024,"2375": 7.021,"2400": 6.956,"2425": 6.07,"2450": 6.537,"2475": 6.07,"2500": 6.02,"2525": 5.552,"2550": 5.669,"2575": 5.753,"2600": 5.854,"2625": 5.369,"2650": 5.369,"2675": 5.821,"2700": 5.47,"2725": 4.717,"2750": 5.771,"2775": 5.821,"2800": 6.273,"2825": 6.575,"2850": 7.042,"2875": 7.194,"2900": 7.009,"2925": 6.474,"2950": 6.609,"2975": 6.375,"3000": 5.856,"3025": 5.605,"3050": 5.857,"3075": 5.707,"3100": 4.871,"3125": 4.854,"3150": 4.888,"3175": 5.19,"3200": 3.6,"3225": 3.516,"3250": 2.813,"3275": 2.445,"3300": 2.344,"3325": 1.875,"3350": 1.507,"3375": 1.491,"3400": 1.658,"3425": 1.273,"3450": 1.005,"3475": 0.938,"3500": 0.536,"3525": 0.452,"3550": 0.251,"3575": 0.302,"3600": 0.151,"3625": 0.067,"3650": 0.067,"3675": 0.05,"3700": 0.017}}}