{"type": "Feature","bbox": [35.8518,36.9525,36.7286,37.6512],"geometry": {"type": "MultiPolygon","coordinates": [[[[36.6064,37.166,1179.988],[36.6251,37.1855,971.4908],[36.6445,37.1956,1690.4346],[36.6643,37.2106,1571.151],[36.6725,37.2189,1285.7563],[36.6853,37.2374,1506.5057],[36.7163,37.2631,1235.3354],[36.7286,37.2761,1266.6967],[36.7093,37.2886,1134.1483],[36.6693,37.3189,1326.4548],[36.651,37.33,1340.8696],[36.6425,37.3496,1451.47],[36.6133,37.3846,1530.0819],[36.6021,37.3949,1386.4186],[36.592,37.4016,1531.1023],[36.5828,37.4052,1610.9229],[36.5687,37.4064,1494.0408],[36.5582,37.4045,1597.4072],[36.5498,37.4002,1233.0538],[36.5336,37.3838,1084.5759],[36.5135,37.3806,689.4235],[36.4889,37.368899999999996,860.3105],[36.4623,37.3715,328.5249],[36.442,37.3701,209.3445],[36.3942,37.3523,139.6923],[36.3786,37.349,137.375],[36.3279,37.3484,281.7969],[36.2948,37.3504,137.0],[36.258,37.362,150.9989],[36.2503,37.3668,162.4789],[36.2435,37.3758,275.4743],[36.2389,37.403,231.5464],[36.2283,37.4251,298.1358],[36.2252,37.47,470.049],[36.2139,37.4919,508.3686],[36.2121,37.5002,402.4821],[36.2128,37.517,491.3675],[36.2174,37.5271,681.5635],[36.2338,37.5506,645.9969],[36.2578,37.5706,521.0815],[36.2695,37.5823,959.2851],[36.2829,37.6033,1220.2609],[36.2897,37.6243,1215.5857],[36.299,37.6407,1176.2043],[36.3024,37.6512,1182.8265],[36.2143,37.6511,1551.7965],[36.2023,37.6497,1673.1738],[36.1504,37.6354,1344.2903],[36.132,37.6216,1425.967],[36.1023,37.6113,1263.2791],[36.0665,37.5869,674.0524],[36.0389,37.5747,363.056],[36.0281,37.5667,510.4268],[36.0193,37.5575,416.0698],[35.9386,37.4313,47.3244],[35.9143,37.4061,40.1479],[35.8832,37.3569,47.4439],[35.8809,37.3394,45.5281],[35.8818,37.2416,31.5068],[35.8871,37.2287,30.773],[35.9043,37.2083,29.4948],[35.8851,37.1873,28.604],[35.8556,37.1436,26.7045],[35.8518,37.1339,27.6432],[35.8528,37.1287,27.1756],[35.8581,37.1228,27.2721],[35.8634,37.1205,27.1784],[35.8695,37.1202,25.9017],[35.9575,37.1545,31.025],[35.9844,37.1703,32.7595],[36.001,37.1742,32.9344],[36.0146,37.1664,32.1829],[36.0323,37.1591,36.3595],[36.0396,37.1539,37.3581],[36.0452,37.1475,39.2558],[36.0594,37.1239,40.2293],[36.0614,37.1089,37.5806],[36.0603,37.0906,38.1332],[36.0576,37.082,37.9486],[36.0475,37.0625,33.4647],[36.0416,37.0256,216.2116],[36.0881,37.0227,212.2257],[36.1645,37.0223,132.5987],[36.1795,37.02,241.2864],[36.2046,37.0124,276.1534],[36.2547,37.0087,746.3824],[36.2899,36.9944,1275.6716],[36.2983,36.9866,1058.1287],[36.3117,36.9685,1056.2484],[36.3472,36.9553,1514.1312],[36.3716,36.9525,1702.2653],[36.4426,36.9533,1324.959],[36.4628,36.977,1428.0287],[36.4686,36.9955,1860.3544],[36.4776,37.0119,1702.1375],[36.4845,37.033,1357.1099],[36.5029,37.0541,975.0256],[36.5138,37.0798,893.2365],[36.5289,37.1031,774.3677],[36.5463,37.1195,890.3418],[36.6064,37.166,1179.988]]]]}
,"properties": {"GID_1": "TUR.64_1","GID_0": "TUR","country": "Turkey","province": "Osmaniye","VARNAME_1": "NA","NL_NAME_1": "NA","TYPE_1": "Il","ENGTYPE_1": "Province","CC_1": "NA","HASC_1": "TR.OS","ISO_1": "TR-80","name": "Osmaniye.province","area_km2": 3071.212,"hist_schema_id": "Elevation0-9000","hist_area_km2": {"25": 257.314,"50": 382.311,"75": 117.163,"100": 106.419,"125": 125.739,"150": 97.198,"175": 89.975,"200": 85.217,"225": 89.377,"250": 93.762,"275": 100.587,"300": 90.738,"325": 78.673,"350": 67.409,"375": 56.849,"400": 44.133,"425": 36.001,"450": 29.589,"475": 23.957,"500": 23.381,"525": 26.922,"550": 25.112,"575": 26.497,"600": 26.74,"625": 25.512,"650": 27.56,"675": 27.968,"700": 26.532,"725": 25.553,"750": 25.613,"775": 25.714,"800": 24.447,"825": 23.967,"850": 24.812,"875": 23.814,"900": 24.65,"925": 26.69,"950": 26.902,"975": 25.886,"1000": 25.552,"1025": 24.824,"1050": 27.859,"1075": 28.471,"1100": 28.034,"1125": 28.224,"1150": 30.303,"1175": 27.939,"1200": 26.711,"1225": 26.944,"1250": 25.005,"1275": 23.824,"1300": 22.985,"1325": 21.317,"1350": 20.292,"1375": 18.116,"1400": 17.376,"1425": 14.439,"1450": 14.39,"1475": 13.799,"1500": 11.586,"1525": 11.046,"1550": 10.386,"1575": 10.287,"1600": 8.647,"1625": 8.209,"1650": 7.196,"1675": 6.318,"1700": 5.931,"1725": 5.238,"1750": 4.324,"1775": 3.58,"1800": 3.277,"1825": 2.99,"1850": 2.703,"1875": 2.095,"1900": 2.299,"1925": 1.826,"1950": 1.792,"1975": 1.844,"2000": 1.777,"2025": 1.709,"2050": 1.337,"2075": 0.931,"2100": 0.423,"2125": 0.169,"2150": 0.102,"2175": 0.067}}}