{"type":"Feature","properties":{"ISO3166-1-Alpha-3":"TUR","country":"Turkey","fill":"#F00","id":"4842","name":"Osmaniye"},
"geometry":{"type": "Polygon","coordinates": [[[36.27988,37.6691,1094.022],[36.20297,37.66951,1540.245],[36.11001,37.66435,1467.8699],[36.06353,37.60237,956.072],[36.00672,37.49908,289.8618],[35.93958,37.36997,36.8734],[35.93958,37.29251,34.6768],[35.96974,37.21967,32.4866],[35.99073,37.22065,33.522],[36.05592,37.21048,39.0737],[36.08456,37.19176,36.5744],[36.0927,37.17853,41.8101],[36.10484,37.12208,43.3551],[36.08935,37.07044,40.1096],[36.0616,37.00968,255.5679],[36.10532,37.01547,120.9733],[36.14625,37.00632,80.5336],[36.188,37.00539,167.263],[36.23534,37.01536,608.332],[36.28061,37.00433,1070.0504],[36.31358,36.97596,1153.7859],[36.35213,36.95656,1605.4084],[36.40205,36.95557,1710.2013],[36.45186,36.96069,1624.822],[36.47615,36.9973,1962.4888],[36.51305,37.02541,1618.188],[36.58271,37.0966,1333.5604],[36.63738,37.18274,998.0548],[36.67614,37.22961,1138.1289],[36.7212,37.27119,1137.4514],[36.6781,37.32248,1444.6625],[36.62384,37.36273,1879.7723],[36.58881,37.38178,1666.842],[36.55057,37.38971,1377.0674],[36.47016,37.3771,287.0],[36.44111,37.37234,391.1719],[36.40391,37.36108,292.7413],[36.37073,37.35627,167.0723],[36.35409,37.3709,227.3546],[36.34169,37.36656,165.6696],[36.32929,37.36402,137.0],[36.31885,37.35966,137.0],[36.31244,37.34981,137.0],[36.30355,37.34906,137.0],[36.262,37.38898,139.3196],[36.25746,37.45529,195.3946],[36.24691,37.46758,264.9618],[36.23276,37.47833,379.2939],[36.22025,37.50644,306.2735],[36.22862,37.53678,739.7476],[36.25684,37.56133,535.249],[36.27947,37.59096,1223.0228],[36.27988,37.6691,1094.022]]]}}