{"type": "Feature","bbox": [34.7833,36.5385,36.4914,38.4664],"geometry": {"type": "MultiPolygon","coordinates": [[[[35.4143,36.5882,0.0],[35.4207,36.5907,5.8908],[35.4393,36.5918,0.0],[35.4496,36.5907,0.9177],[35.4512,36.589,0.0],[35.4554,36.5901,0.0],[35.5004,36.5857,0.937],[35.531,36.5774,1.5041],[35.5493,36.5699,0.0],[35.5579,36.5646,0.0],[35.5679,36.5657,0.0],[35.5687,36.5674,0.1436],[35.5674,36.5704,-0.7009],[35.5696,36.5749,-1.0],[35.5724,36.5732,0.3438],[35.5738,36.5793,-0.1649],[35.5818,36.5907,2.0205],[35.601,36.5957,2.0338],[35.6071,36.5996,2.3749],[35.6176,36.6021,1.6938],[35.6218,36.6043,0.852],[35.6304,36.6129,0.3051],[35.6365,36.6257,0.4042],[35.6374,36.6401,0.0],[35.6363,36.6476,1.0096],[35.6379,36.6576,0.1262],[35.6421,36.6651,0.181],[35.6482,36.6715,0.0],[35.661,36.6799,0.2028],[35.6901,36.6918,0.0],[35.7038,36.7001,0.0],[35.7068,36.7026,0.0805],[35.7071,36.7049,0.0],[35.7085,36.7032,0.0],[35.7126,36.7049,0.0],[35.7132,36.7065,0.0],[35.7146,36.7051,0.0],[35.7226,36.7107,0.0],[35.7218,36.7115,0.0],[35.7154,36.7093,0.0],[35.7096,36.7107,0.0],[35.7118,36.7135,0.0],[35.7163,36.7154,0.0],[35.7238,36.7121,0.0],[35.7043,36.7232,0.0],[35.7043,36.721,0.0],[35.7068,36.7196,0.0409],[35.6974,36.7207,0.0],[35.6954,36.719,0.0],[35.7001,36.7188,-0.0662],[35.7015,36.7154,0.0],[35.7057,36.7176,0.0],[35.7065,36.7132,-0.197],[35.7032,36.7143,0.0],[35.7012,36.7132,-0.1576],[35.701,36.7149,0.0],[35.6974,36.7137,-0.2364],[35.6946,36.7163,0.0],[35.6899,36.7165,0.0],[35.6882,36.716,0.0],[35.6893,36.7143,-0.0094],[35.6837,36.7135,-0.044],[35.6818,36.7115,-0.1293],[35.6749,36.7121,0.0],[35.6679,36.7104,-0.2639],[35.671,36.7137,-0.0024],[35.6674,36.7137,-0.2164],[35.6624,36.7096,-0.057],[35.654,36.7079,-0.0468],[35.6574,36.7124,0.0],[35.6538,36.7149,-0.093],[35.654,36.7171,-0.2446],[35.6621,36.7249,0.0],[35.6613,36.7274,0.0],[35.6568,36.729,0.0],[35.6551,36.726,0.0],[35.6551,36.721,0.0],[35.6515,36.7176,-0.0108],[35.6512,36.714,0.0],[35.6529,36.7126,0.0],[35.6454,36.7076,-0.1006],[35.644,36.7151,-0.0712],[35.6449,36.7193,-0.2779],[35.6476,36.7212,0.0],[35.6454,36.7229,0.0],[35.6457,36.7265,0.0],[35.6524,36.7313,-0.0979],[35.6557,36.731,0.0],[35.656,36.7365,0.0],[35.6543,36.7399,0.0],[35.6521,36.7393,0.0],[35.6532,36.7376,0.0],[35.6493,36.734,0.0],[35.6449,36.7324,0.0],[35.6357,36.734,0.0],[35.6243,36.7337,0.0],[35.6243,36.731,0.0],[35.6282,36.7293,0.0],[35.6263,36.7274,0.0],[35.631,36.7263,0.0],[35.6296,36.7215,0.0],[35.624,36.7176,0.0],[35.6213,36.7132,-0.236],[35.6193,36.714,0.0],[35.6171,36.7121,0.0],[35.6165,36.7154,0.0],[35.6138,36.7163,0.0],[35.6115,36.7132,0.0592],[35.6071,36.7129,-0.0478],[35.606,36.7076,0.0],[35.6093,36.7054,0.0],[35.6096,36.7035,0.002],[35.6071,36.7004,0.0],[35.6013,36.699,0.0],[35.6021,36.6918,0.0],[35.5976,36.6921,0.0],[35.5968,36.6871,0.0],[35.5926,36.686,0.0],[35.5904,36.6821,0.0],[35.5846,36.6796,0.0],[35.5815,36.6801,0.0],[35.5807,36.6818,-0.1334],[35.5838,36.684,0.0],[35.584,36.6862,0.0],[35.5771,36.6826,-0.0313],[35.574,36.6854,-0.0863],[35.5743,36.6893,-0.058],[35.5724,36.6932,0.0],[35.5696,36.6915,-0.319],[35.5671,36.6921,0.0],[35.5693,36.6976,0.0],[35.5729,36.6985,-0.032],[35.569,36.7012,-0.0701],[35.5701,36.7065,0.0],[35.5596,36.7024,-0.3121],[35.5582,36.6985,-0.1779],[35.5543,36.6996,-0.0808],[35.5574,36.7057,0.1361],[35.5615,36.7074,-0.1398],[35.5638,36.7132,0.0],[35.5696,36.714,-0.1199],[35.5751,36.7121,0.0316],[35.5762,36.7101,0.0],[35.5807,36.7121,0.2709],[35.5876,36.7096,0.0],[35.5915,36.711,0.0235],[35.5921,36.7085,0.0],[35.5982,36.7074,0.0055],[35.5971,36.7015,0.016],[35.5996,36.6999,0.0178],[35.5985,36.7015,0.0],[35.6004,36.7032,0.0],[35.5979,36.7051,0.0],[35.604,36.7054,0.0],[35.5962,36.7107,0.0],[35.5957,36.7157,-0.0833],[35.5965,36.7188,-0.0457],[35.6004,36.7207,0.0],[35.6032,36.7271,-0.1083],[35.6063,36.7265,0.0],[35.6079,36.731,-0.1108],[35.6129,36.7321,-0.1822],[35.6085,36.7276,-0.0224],[35.609,36.7263,-0.0026],[35.6121,36.726,0.1983],[35.6099,36.7221,0.0],[35.6096,36.7163,0.0713],[35.6071,36.7149,0.02],[35.6093,36.7143,0.0591],[35.6157,36.7229,0.0],[35.6193,36.7343,1.159],[35.6218,36.739,1.7389],[35.6257,36.7412,0.1301],[35.6271,36.7457,2.3928],[35.6351,36.7463,-0.0125],[35.6371,36.7496,0.0061],[35.6413,36.751,0.0],[35.6432,36.7574,2.4542],[35.6463,36.759,1.3657],[35.6504,36.7585,0.0],[35.6526,36.7621,2.276],[35.6582,36.7613,0.0],[35.6668,36.7671,8.6369],[35.6735,36.7676,4.279],[35.6818,36.7657,0.9935],[35.6835,36.7674,6.3413],[35.6913,36.7679,3.4921],[35.7026,36.7657,5.0684],[35.7046,36.7596,0.0],[35.7113,36.759,0.7054],[35.7182,36.7629,2.9588],[35.7285,36.7635,0.0],[35.7396,36.7679,1.0907],[35.7585,36.7704,0.0],[35.7946,36.7657,0.0],[35.7924,36.7704,1.2421],[35.8026,36.7788,33.2952],[35.8107,36.7793,3.2295],[35.8135,36.7821,6.4715],[35.8199,36.7832,0.3037],[35.8215,36.7863,4.0933],[35.826,36.786,1.0308],[35.8307,36.7885,0.0],[35.836,36.794,6.5061],[35.8418,36.7951,0.0],[35.8449,36.7974,0.0],[35.8443,36.7996,6.2011],[35.8471,36.8018,0.0],[35.8504,36.8107,5.0595],[35.859,36.8154,0.7018],[35.8693,36.8185,0.0],[35.8693,36.8218,1.542],[35.8765,36.8288,11.9718],[35.8851,36.8324,0.0],[35.886,36.8371,4.0013],[35.8979,36.839,2.7607],[35.9004,36.8432,9.9496],[35.8993,36.8474,20.7384],[35.9101,36.858,1.3331],[35.9124,36.8643,4.9771],[35.9185,36.8679,5.9564],[35.9185,36.8726,12.7366],[35.9251,36.8779,10.022],[35.934,36.8799,0.5337],[35.9188,36.889,113.4628],[35.9136,36.8955,67.9139],[35.9126,36.9035,87.3544],[35.9143,36.9085,170.1857],[35.9274,36.929,84.6328],[35.947,36.9569,122.7962],[35.9786,36.9828,185.7419],[35.9956,36.9944,179.8536],[36.0118,37.0024,200.9411],[36.0416,37.0256,216.2116],[36.0475,37.0625,33.4647],[36.0576,37.082,37.9486],[36.0603,37.0906,38.1332],[36.0614,37.1089,37.5806],[36.0607,37.118,40.6141],[36.057,37.1292,40.5026],[36.0452,37.1475,39.2558],[36.0396,37.1539,37.3581],[36.0323,37.1591,36.3595],[36.0146,37.1664,32.1829],[36.001,37.1742,32.9344],[35.9844,37.1703,32.7595],[35.9575,37.1545,31.025],[35.8748,37.1217,26.6625],[35.8634,37.1205,27.1784],[35.8581,37.1228,27.2721],[35.8528,37.1287,27.1756],[35.8518,37.1339,27.6432],[35.8556,37.1436,26.7045],[35.8851,37.1873,28.604],[35.9043,37.2083,29.4948],[35.8871,37.2287,30.773],[35.8818,37.2416,31.5068],[35.8809,37.3394,45.5281],[35.8832,37.3569,47.4439],[35.9143,37.4061,40.1479],[35.9386,37.4313,47.3244],[36.0193,37.5575,416.0698],[36.0281,37.5667,510.4268],[36.048,37.5795,576.6544],[36.0665,37.5869,674.0524],[36.1023,37.6113,1263.2791],[36.132,37.6216,1425.967],[36.144,37.6317,1282.499],[36.1538,37.6369,1259.2766],[36.1805,37.6428,1257.9799],[36.2023,37.6497,1673.1738],[36.2143,37.6511,1551.7965],[36.3024,37.6512,1182.8265],[36.307,37.6642,1200.6722],[36.3599,37.7453,1531.6299],[36.3627,37.7589,1606.7898],[36.3601,37.7747,1397.3458],[36.3369,37.8011,1867.6884],[36.3209,37.8268,1839.1624],[36.3181,37.8384,1740.2289],[36.3152,37.8856,1493.6228],[36.3204,37.9036,1743.6173],[36.3296,37.92,1534.0568],[36.3321,37.9287,1681.4353],[36.334,37.9908,1765.6079],[36.3376,38.0019,1804.3867],[36.3446,38.0133,1869.9204],[36.3517,38.0343,1895.2917],[36.36,38.0482,2144.0371],[36.3656,38.0667,2280.1748],[36.3733,38.0822,2259.0476],[36.3807,38.1132,1958.8704],[36.3911,38.1322,1947.4052],[36.3961,38.1597,2246.7422],[36.4061,38.1788,1725.921],[36.4112,38.2063,1597.0146],[36.4211,38.2254,1591.0537],[36.4273,38.2554,1545.749],[36.4486,38.2786,1554.8994],[36.463,38.2976,1625.051],[36.4767,38.308,1739.3389],[36.4914,38.3163,1962.7607],[36.4734,38.3366,1648.778],[36.4437,38.3832,1503.9012],[36.4407,38.391,1518.1617],[36.4361,38.4185,1614.0011],[36.4221,38.4422,1675.9109],[36.4135,38.4515,1753.3252],[36.4027,38.4594,1943.8567],[36.3931,38.4639,2112.8989],[36.3776,38.4664,1924.3712],[36.3129,38.4653,1730.3859],[36.2714,38.4524,2325.6655],[36.2309,38.4349,2629.1162],[36.2003,38.4289,2525.011],[36.1614,38.4135,2091.1094],[36.1469,38.4022,2001.241],[36.1413,38.3957,2174.8445],[36.1114,38.3491,1909.9998],[36.0979,38.3236,2209.8948],[36.0892,38.302,2225.8555],[36.0377,38.2233,2184.2495],[36.0271,38.2031,1970.5011],[36.0134,38.1856,2139.7861],[36.0014,38.1781,2229.0002],[35.9747,38.1725,1897.1077],[35.9441,38.1617,1637.4989],[35.9192,38.1507,1803.8789],[35.9085,38.1439,1606.2266],[35.8873,38.1371,1890.3816],[35.8636,38.1206,2251.145],[35.8446,38.1149,2187.9829],[35.8337,38.1089,2077.4424],[35.8062,38.102,2343.1685],[35.7613,38.085,1817.0798],[35.734,38.0799,2182.3618],[35.681,38.0597,1902.8978],[35.6608,38.0348,1938.4248],[35.6539,38.0137,1746.5983],[35.6448,37.9972,1750.8425],[35.6394,37.9786,2008.6833],[35.6272,37.9612,1717.8961],[35.621,37.9558,1747.6567],[35.5968,37.9464,1770.7362],[35.5569,37.9411,1444.7446],[35.5319,37.9332,1105.802],[35.4973,37.9292,1051.958],[35.4721,37.9212,1174.1171],[35.4568,37.9196,1496.6746],[35.4256,37.9206,2122.4641],[35.3968,37.9293,1831.0875],[35.3621,37.9333,1982.7996],[35.3368,37.941,2273.2031],[35.302,37.9448,2497.6453],[35.2658,37.9592,2385.3657],[35.2417,37.9536,2569.0015],[35.2303,37.948,2746.1704],[35.224,37.9421,2708.249],[35.2094,37.919,3171.1843],[35.2076,37.9133,2996.4316],[35.2061,37.8892,3173.4409],[35.2077,37.8711,3113.4104],[35.2092,37.8654,2973.5891],[35.2178,37.8494,2989.9219],[35.2186,37.8442,3171.1853],[35.2166,37.8366,3235.5808],[35.2137,37.8321,3427.9075],[35.1981,37.8141,3112.9802],[35.1811,37.8065,3113.9849],[35.1446,37.7787,2776.0195],[35.1342,37.7676,2085.8135],[35.1226,37.7511,2873.4551],[35.0816,37.7187,3165.9639],[35.0731,37.7136,2881.3752],[35.043,37.7019,1941.1045],[35.0258,37.6989,1275.9683],[34.9509,37.6988,1621.0126],[34.9124,37.7097,1584.2358],[34.889,37.7112,1584.5432],[34.8695,37.71,1712.3977],[34.8585,37.7071,1881.1497],[34.846,37.7,2144.7642],[34.8267,37.6849,1958.7048],[34.8184,37.6749,1786.5328],[34.816,37.6639,1797.2937],[34.8183,37.653,2119.5757],[34.8423,37.6164,1769.4988],[34.8493,37.5953,1962.1665],[34.8585,37.5788,1756.3687],[34.8609,37.5612,1771.9711],[34.8608,37.525,1255.5957],[34.8573,37.5139,1259.3372],[34.8516,37.5076,1230.9165],[34.8439,37.5029,1147.7905],[34.8254,37.4955,940.1803],[34.8133,37.488,998.7125],[34.7966,37.4752,1262.2988],[34.7883,37.4652,1735.1826],[34.7849,37.4507,1809.7126],[34.7833,37.396,2016.5337],[34.7863,37.3793,1875.8494],[34.7894,37.3716,1982.4108],[34.8422,37.2906,1761.0007],[34.8584,37.2617,1398.7499],[34.862,37.2485,1156.1407],[34.8713,37.2321,1060.2891],[34.8781,37.211,763.9355],[34.9001,37.1763,661.3771],[34.9038,37.1659,568.4874],[34.9072,37.1438,395.4279],[34.917,37.1246,224.1276],[34.9208,37.0997,215.7592],[34.9252,37.0897,243.8912],[34.9346,37.077,271.0678],[34.9408,37.0716,114.1998],[34.9815,37.055,112.9678],[35.0008,37.0415,178.7362],[35.007,37.0344,140.0624],[35.0271,37.001,45.5747],[35.0414,36.9812,35.9273],[35.0546,36.9704,30.9384],[35.0548,36.8969,7.6296],[35.0578,36.8849,5.8165],[35.0678,36.8652,5.0688],[35.0696,36.8526,4.9685],[35.0698,36.8335,3.2488],[35.0672,36.8179,3.0458],[35.0598,36.8069,2.2404],[35.0474,36.7947,2.1363],[35.0425,36.7812,2.1564],[35.0348,36.771,3.0542],[35.0228,36.7675,2.1125],[34.9837,36.7657,1.1949],[34.9498,36.754,0.4912],[34.9379,36.7472,0.051],[34.9273,36.7389,0.0454],[34.9152,36.7249,0.0],[34.9574,36.724,0.9408],[34.994,36.7132,0.1076],[34.9979,36.7135,1.3251],[35.001,36.711,0.6565],[35.0418,36.6937,0.7452],[35.0782,36.6746,0.0],[35.0918,36.6701,1.2661],[35.0943,36.6668,0.0],[35.099,36.6643,0.0],[35.1029,36.666,-0.227],[35.1051,36.6613,0.278],[35.1082,36.6593,0.7383],[35.1082,36.6574,0.0],[35.1113,36.6582,0.684],[35.1232,36.6535,0.4104],[35.1329,36.6476,0.2589],[35.136,36.6476,1.5234],[35.1524,36.639,2.985],[35.2054,36.6168,2.7244],[35.2249,36.6057,0.3514],[35.236,36.6021,6.4344],[35.2665,36.586,1.068],[35.2979,36.5724,3.6616],[35.3063,36.5668,1.1662],[35.3151,36.564,3.1351],[35.3165,36.5615,1.2188],[35.3196,36.5615,2.157],[35.321,36.5588,1.3419],[35.3246,36.5588,1.1675],[35.3271,36.5657,0.0],[35.3224,36.5696,0.2425],[35.3204,36.5735,0.7866],[35.301,36.5812,4.1373],[35.2843,36.5932,2.1867],[35.2718,36.606,-0.3104],[35.2735,36.6087,-1.0],[35.2679,36.6087,2.2846],[35.2615,36.6154,-0.5743],[35.2376,36.6315,1.2751],[35.2263,36.6415,-1.0],[35.2182,36.646,-1.0],[35.2115,36.6485,0.2389],[35.2082,36.6476,-0.823],[35.1993,36.6496,-0.8271],[35.1821,36.6599,0.4073],[35.176,36.6615,1.3633],[35.1704,36.6657,-1.0],[35.1738,36.6662,-1.0],[35.1718,36.6682,-1.0],[35.1735,36.6699,-1.0],[35.1732,36.674,-1.0],[35.1701,36.6751,-1.0],[35.1699,36.6729,-0.852],[35.1654,36.6715,-1.0],[35.1649,36.6699,-1.0],[35.1646,36.6721,-1.0],[35.1696,36.6763,-0.7268],[35.1646,36.6729,-1.0],[35.1635,36.676,-0.0344],[35.1646,36.6813,-1.0],[35.1696,36.6876,-1.0],[35.1729,36.6896,0.0534],[35.1768,36.6885,-1.0],[35.1771,36.691,-0.7496],[35.1807,36.6929,-1.0],[35.1821,36.6904,-1.0],[35.1849,36.6907,-1.0],[35.1868,36.6929,0.0104],[35.1957,36.6885,-1.0],[35.2024,36.6899,-0.2988],[35.2043,36.6854,-0.6618],[35.2068,36.6888,0.8744],[35.2079,36.6846,-1.0],[35.2082,36.6874,0.2792],[35.2099,36.6876,0.7241],[35.2101,36.6846,-1.0],[35.2129,36.684,-0.4159],[35.2099,36.6821,-1.0],[35.2132,36.6818,-1.0],[35.2163,36.6854,-0.2231],[35.2185,36.6857,0.6667],[35.2204,36.6835,-0.0418],[35.2182,36.6818,-1.0],[35.2193,36.6779,-1.0],[35.2243,36.6782,-1.0],[35.2271,36.6818,0.1532],[35.2301,36.6793,0.7385],[35.2321,36.6749,-0.1721],[35.234,36.6771,1.3314],[35.2396,36.6771,0.5163],[35.2435,36.6796,0.3847],[35.251,36.6782,0.4985],[35.2535,36.6768,0.4012],[35.2535,36.671,0.1938],[35.2576,36.6657,0.2466],[35.2649,36.6624,0.8695],[35.2715,36.6618,0.1625],[35.2699,36.6601,0.0714],[35.2676,36.6607,0.0355],[35.2701,36.6579,0.1128],[35.2643,36.6529,0.0257],[35.2579,36.6529,0.0033],[35.2532,36.6549,-0.0129],[35.2521,36.6535,-0.218],[35.249,36.654,-0.1521],[35.251,36.6507,-0.7385],[35.2607,36.646,-0.1828],[35.264,36.6393,-1.0],[35.2676,36.6401,-1.0],[35.2668,36.6451,-0.3407],[35.2685,36.6471,0.2391],[35.2715,36.6465,-0.3667],[35.2699,36.6499,-0.8797],[35.271,36.6521,0.4069],[35.2768,36.6463,-0.8358],[35.2815,36.6443,0.053],[35.2826,36.6393,-0.1335],[35.2849,36.6435,-0.0944],[35.2879,36.6435,-0.0691],[35.2837,36.6332,-0.0518],[35.2818,36.6329,-0.501],[35.2815,36.6307,-0.6245],[35.2851,36.6268,-1.0],[35.2885,36.6299,-1.0],[35.2921,36.6301,-1.0],[35.3112,36.6251,-0.8291],[35.3243,36.619,-0.175],[35.3462,36.6035,-0.7885],[35.3471,36.599,-0.4461],[35.339,36.6001,-0.1049],[35.3363,36.5988,-1.0],[35.3363,36.5965,-1.0],[35.3376,36.5965,-0.0967],[35.3365,36.5896,-1.0],[35.3271,36.5893,-0.7679],[35.3276,36.5876,-1.0],[35.3376,36.5882,-0.5937],[35.3282,36.5857,-1.0],[35.3315,36.5824,-1.0],[35.3351,36.5838,-0.2573],[35.3335,36.5807,-0.4002],[35.3354,36.5776,-0.2351],[35.3221,36.5724,0.7866],[35.3238,36.5699,0.2425],[35.3296,36.5679,0.2709],[35.3257,36.5579,1.325],[35.3368,36.5468,0.0],[35.339,36.5435,38.5015],[35.339,36.5385,0.0],[35.3429,36.5396,0.0],[35.3474,36.5443,16.8886],[35.3543,36.5443,5.5649],[35.3596,36.5501,0.0],[35.3682,36.5524,6.5866],[35.3721,36.5515,0.4838],[35.376,36.5535,0.0],[35.3801,36.5588,10.2416],[35.3832,36.5579,0.0],[35.3851,36.5621,3.296],[35.3921,36.5671,18.7448],[35.4068,36.5729,0.7576],[35.4046,36.5799,0.0],[35.4085,36.586,19.6192],[35.4143,36.5882,0.0]]],
[[[35.2796,36.6401,-0.3472],[35.2782,36.6407,-0.1811],[35.2829,36.6368,-0.8112],[35.2818,36.639,-0.1335],[35.2796,36.6401,-0.3472]]],
[[[35.2724,36.6443,-0.4356],[35.271,36.6449,-0.4356],[35.2713,36.6432,-0.0857],[35.274,36.6421,0.1329],[35.274,36.6432,0.1329],[35.2724,36.6443,-0.4356]]],
[[[35.5918,36.7032,0.0],[35.5899,36.7032,0.0],[35.5899,36.6999,0.0],[35.5915,36.6996,0.0],[35.5904,36.7026,0.0],[35.5918,36.7032,0.0]]],
[[[35.2088,36.6499,-1.0],[35.2065,36.6507,-1.0],[35.206,36.6493,-1.0],[35.2093,36.649,-1.0],[35.2088,36.6499,-1.0]]],
[[[35.2118,36.6538,-1.0],[35.2118,36.6554,-1.0],[35.2096,36.6551,-1.0],[35.211,36.6532,-1.0],[35.2118,36.6538,-1.0]]],
[[[35.2143,36.659,-1.0],[35.2135,36.6599,-1.0],[35.2107,36.6596,-1.0],[35.211,36.6587,-1.0],[35.2143,36.659,-1.0]]],
[[[35.2107,36.6779,-1.0],[35.2085,36.6787,-1.0],[35.2124,36.6768,-1.0],[35.2124,36.6776,-1.0],[35.2107,36.6779,-1.0]]],
[[[35.684,36.7157,0.0],[35.681,36.7163,0.0],[35.6774,36.714,0.0],[35.6796,36.7126,-0.024],[35.684,36.7157,0.0]]],
[[[35.6979,36.7268,0.0],[35.6963,36.7274,0.0],[35.6974,36.7238,0.0],[35.7029,36.7235,0.0],[35.7029,36.7243,0.0],[35.6979,36.7268,0.0]]],
[[[35.6079,36.7043,0.0],[35.6051,36.7054,0.0],[35.6013,36.7002,0.0],[35.6063,36.701,0.0],[35.606,36.7038,0.0],[35.6079,36.7043,0.0]]]]}
,"properties": {"GID_1": "TUR.1_1","GID_0": "TUR","country": "Turkey","province": "Adana","VARNAME_1": "Seyhan","NL_NAME_1": "NA","TYPE_1": "Il","ENGTYPE_1": "Province","CC_1": "NA","HASC_1": "TR.AA","ISO_1": "TR-01","name": "Adana.province","area_km2": 15828.34,"hist_schema_id": "Elevation0-9000","hist_area_km2": {"0": 1614.38,"25": 1267.6,"50": 643.74,"75": 445.63,"100": 361.69,"125": 459.53,"150": 384.91,"175": 361.55,"200": 332.1,"225": 293.59,"250": 217.52,"275": 166.87,"300": 130.1,"325": 112.03,"350": 95.59,"375": 86.67,"400": 78.97,"425": 72.58,"450": 74.43,"475": 77.62,"500": 73.97,"525": 71.91,"550": 71.42,"575": 69.49,"600": 68.55,"625": 73.61,"650": 72.9,"675": 76.4,"700": 83.65,"725": 88.81,"750": 93.23,"775": 101.09,"800": 110.13,"825": 114.24,"850": 120.84,"875": 128.99,"900": 124.89,"925": 125.71,"950": 122.48,"975": 121.72,"1000": 116.82,"1025": 110.78,"1050": 114.25,"1075": 118.61,"1100": 118.9,"1125": 121.52,"1150": 127.22,"1175": 132.02,"1200": 131.07,"1225": 134.0,"1250": 134.61,"1275": 132.79,"1300": 134.62,"1325": 146.72,"1350": 156.39,"1375": 169.83,"1400": 192.51,"1425": 216.81,"1450": 215.91,"1475": 212.55,"1500": 211.95,"1525": 222.7,"1550": 217.84,"1575": 201.02,"1600": 184.66,"1625": 176.56,"1650": 169.12,"1675": 157.49,"1700": 153.21,"1725": 144.11,"1750": 142.94,"1775": 126.66,"1800": 114.29,"1825": 105.14,"1850": 94.14,"1875": 84.9,"1900": 75.67,"1925": 71.99,"1950": 64.6,"1975": 61.36,"2000": 57.66,"2025": 52.16,"2050": 51.4,"2075": 46.52,"2100": 42.39,"2125": 39.11,"2150": 37.37,"2175": 33.18,"2200": 32.56,"2225": 30.89,"2250": 30.97,"2275": 29.99,"2300": 30.88,"2325": 25.07,"2350": 22.98,"2375": 20.19,"2400": 17.24,"2425": 14.65,"2450": 12.73,"2475": 11.6,"2500": 11.77,"2525": 10.77,"2550": 10.13,"2575": 9.12,"2600": 8.64,"2625": 8.58,"2650": 8.47,"2675": 7.84,"2700": 8.16,"2725": 8.41,"2750": 7.29,"2775": 7.93,"2800": 7.93,"2825": 8.36,"2850": 7.78,"2875": 7.6,"2900": 8.21,"2925": 8.19,"2950": 8.86,"2975": 8.34,"3000": 8.64,"3025": 8.37,"3050": 8.14,"3075": 8.93,"3100": 8.17,"3125": 8.34,"3150": 8.49,"3175": 7.32,"3200": 7.3,"3225": 6.1,"3250": 4.79,"3275": 4.06,"3300": 3.43,"3325": 2.85,"3350": 2.13,"3375": 1.99,"3400": 1.58,"3425": 1.42,"3450": 1.63,"3475": 0.9,"3500": 0.65,"3525": 0.49,"3550": 0.59,"3575": 0.22,"3600": 0.22}}}