{"type": "Feature","id": 139603.0,"bbox": [35.250254753521233,37.210150457806577,35.410411003521233,37.287176824994077],"geometry": {"type": "Polygon","coordinates": [[[35.344248894146233,37.277106024212827,202.3819],[35.344248894146233,37.277106024212827,202.3819],[35.314707878521233,37.262823797650327,121.5546],[35.304698112896233,37.256537176556577,152.1799],[35.286875847271233,37.241095282025327,158.2126],[35.259165886333733,37.233648992962827,147.2958],[35.250254753521233,37.227423407025327,117.0],[35.268687370708733,37.211920477337827,117.0],[35.305552605083733,37.210150457806577,117.0],[35.329112175396233,37.237494207806577,117.0],[35.357432487896233,37.252020574994077,117.0],[35.381968620708733,37.250006414837827,117.0],[35.395640495708733,37.259772039837827,131.4664],[35.410411003521233,37.276678778119077,117.0],[35.385630730083733,37.285467840619077,150.9285],[35.368907097271233,37.287176824994077,200.7044],[35.344248894146233,37.277106024212827,202.3819]]]}
,"properties": {"name": null,"lge_id": null,"pfafstette": 39.0,"lke_type": "N","altitude": 137,"objectid": 86928,"scalerank": 10,"featurecla": "Lake","note": "_untitled_86928","funkyname": 0,"min_zoom": 6.0,"min_label": 7.0,"area_km2": 46.42891,"hist_schema_id": "Elevation0-9000","hist_area_km2": {"125": 35.52787,"150": 5.31577,"175": 4.0667,"200": 1.40048,"225": 0.11809}}}