{"type": "Feature","id": "3018","bbox": [34.78985,36.54108,36.5055,38.47471],"geometry": {"type": "Polygon","coordinates": [[[36.5055,38.32293,2198.5701],[36.46261,38.35797,1621.3265],[36.43729,38.40972,1554.9946],[36.40008,38.45657,2083.5859],[36.34799,38.47471,2291.2693],[36.26686,38.45776,2165.0869],[36.18997,38.42355,2264.6455],[36.14594,38.39512,2211.5591],[36.10325,38.31218,2024.7366],[36.07556,38.28188,2333.5801],[36.03308,38.21333,1818.8175],[35.97902,38.15496,2129.1445],[35.60768,37.95376,1676.4719],[35.62964,37.77024,1337.5616],[35.57719,37.7505,1490.9749],[35.45365,37.78877,1330.2161],[35.3632,37.8073,1245.0154],[35.19065,37.81811,3128.303],[35.0597,37.71354,2504.8823],[34.96193,37.7007,1952.3224],[34.91056,37.71356,1601.6012],[34.85971,37.71661,1876.6235],[34.82778,37.68018,1961.2959],[34.83263,37.6299,1552.5017],[34.85806,37.57983,1756.3687],[34.86519,37.55303,1861.2135],[34.84989,37.51058,1172.408],[34.83563,37.49854,1147.2971],[34.81982,37.48856,1128.0916],[34.7946,37.4572,2152.5837],[34.78985,37.43513,2265.5869],[34.7916,37.38772,1710.116],[34.82437,37.32842,1892.658],[34.86188,37.272709999999996,1545.7852],[34.90984,37.24323,1069.4265],[34.91294,37.14096,292.5301],[34.93495,37.08365,273.9933],[34.98208,37.05552,115.4479],[35.04316,37.05769,228.4555],[35.08171,37.02596,68.0357],[35.05216,36.96353,26.2741],[35.05247,36.907,8.9534],[35.06724,36.85067,4.8486],[35.07107,36.82282,2.5194],[35.06673,36.79569,2.9944],[35.029,36.76827,2.8519],[34.98684,36.7591,2.3076],[34.93402,36.72933,0.8042],[34.93332,36.72749,0.6988],[34.94646,36.72797,0.9784],[34.96241,36.72671,1.1192],[34.98227,36.72077,1.2655],[35.01417,36.70307,0.0],[35.04184,36.69522,0.939],[35.29469,36.5725,1.2759],[35.30885,36.56904,3.2982],[35.32016,36.56468,4.6017],[35.33579,36.5456,0.0],[35.34604,36.54108,0.0],[35.34799,36.54438,16.8886],[35.37403,36.56159,18.9596],[35.39536,36.56761,0.0],[35.40447,36.57193,0.438],[35.40805,36.57929,0.0],[35.41326,36.58369,0.0],[35.43719,36.59422,2.4881],[35.44549,36.59634,3.6529],[35.48878,36.59203,1.4604],[35.53102,36.58271,1.2027],[35.49684,36.59443,-1.0],[35.48854,36.59707,-1.0],[35.47869,36.59854,-1.0],[35.48121,36.60725,-0.1135],[35.49,36.61392,-0.2135],[35.50367,36.61685,0.0689],[35.51336,36.61298,-0.2382],[35.54469,36.5895,-1.0],[35.55714,36.58747,-0.1229],[35.58937,36.5895,0.1409],[35.59881,36.5915,0.0],[35.61394,36.60053,1.5236],[35.62355,36.60253,0.0],[35.63136,36.60716,0.0],[35.63299,36.61815,0.0],[35.63315,36.63093,0.0476],[35.63746,36.64102,0.0],[35.64373,36.64887,0.0],[35.65219,36.66673,0.0],[35.65797,36.6752,0.0],[35.69557,36.7062,-0.7774],[35.68002,36.70307,-1.0],[35.66676,36.69611,0.8747],[35.62208,36.65424,0.0],[35.60865,36.64688,0.0],[35.6067,36.65778,0.0],[35.62257,36.68073,0.045],[35.65016,36.69782,0.0],[35.70916,36.71988,-0.0193],[35.69606,36.72394,0.0],[35.68556,36.72077,0.0],[35.67579,36.71532,0.0],[35.66481,36.71239,-0.0615],[35.6574,36.71752,0.0],[35.65382,36.72736,0.0],[35.64812,36.73322,-0.2946],[35.63404,36.72671,0.0],[35.63917,36.72036,0.0],[35.64047,36.71336,-0.1009],[35.63868,36.70628,0.0095],[35.63404,36.69937,-0.1658],[35.63168,36.70433,0.0],[35.62916,36.70824,0.0],[35.6255,36.71092,0.0],[35.6198,36.71239,0.0],[35.61687,36.69623,0.0],[35.59449,36.70173,0.0],[35.57944,36.68513,0.0],[35.57301,36.70067,0.0],[35.58229,36.7128,0.3081],[35.59685,36.72492,-0.1847],[35.6067,36.74038,0.4902],[35.615,36.73566,-0.2174],[35.61817,36.73163,0.9734],[35.61744,36.72679,0.0],[35.61354,36.71988,0.0],[35.62452,36.72602,0.0],[35.63624,36.74461,0.0],[35.64772,36.75397,0.0],[35.68409,36.76463,0.0],[35.7671,36.76773,0.0],[35.80543,36.77509,0.0],[35.82065,36.78514,0.7003],[35.85385,36.81582,68.0468],[35.86362,36.82225,15.2654],[35.88014,36.82591,0.0],[35.89381,36.83491,0.0],[35.93252,36.87299,0.0],[35.93252,36.873,0.0],[35.91639,36.89341,89.3216],[35.91701,36.93483,112.1879],[35.99928,37.01048,185.0908],[36.01757,37.02001,181.686],[36.03897,37.01673,190.3619],[36.0616,37.00968,255.5679],[36.08935,37.07044,40.1096],[36.10484,37.12208,43.3551],[36.0927,37.17853,41.8101],[36.08456,37.19176,36.5744],[36.05592,37.21048,39.0737],[35.99073,37.22065,33.522],[35.96974,37.21967,32.4866],[35.93958,37.29251,34.6768],[35.93958,37.36997,36.8734],[36.00672,37.49908,289.8618],[36.06353,37.60237,956.072],[36.11001,37.66435,1467.8699],[36.20297,37.66951,1540.245],[36.27988,37.6691,1094.022],[36.30707,37.69749,1215.2502],[36.32619,37.70643,1173.3329],[36.35967,37.73175,1472.5923],[36.36226,37.77258,1382.9514],[36.33084,37.83431,1567.0933],[36.32412,37.88133,1800.5504],[36.32567,37.91195,1649.9928],[36.33859,37.97768,1684.1716],[36.36835,38.0421,1880.4846],[36.41807,38.21883,1581.1116],[36.44928,38.28087,1549.7887],[36.5055,38.32293,2198.5701]]]}
,"properties": {"ISO3166-1-Alpha-3": "TUR","country": "Turkey","fill": "#F0F","name": "Adana","area_km2": 15343.36,"hist_schema_id": "Elevation0-9000","hist_area_km2": {"0": 1633.35,"25": 1447.39,"50": 743.86,"75": 437.27,"100": 355.01,"125": 456.85,"150": 383.05,"175": 360.07,"200": 333.0,"225": 296.95,"250": 222.77,"275": 169.53,"300": 132.24,"325": 113.19,"350": 96.39,"375": 87.37,"400": 79.58,"425": 72.95,"450": 74.56,"475": 77.67,"500": 73.95,"525": 71.65,"550": 71.33,"575": 69.67,"600": 68.19,"625": 72.97,"650": 72.16,"675": 75.02,"700": 82.35,"725": 86.94,"750": 91.43,"775": 98.57,"800": 107.27,"825": 110.76,"850": 117.63,"875": 124.31,"900": 119.86,"925": 120.4,"950": 117.39,"975": 116.33,"1000": 110.28,"1025": 102.78,"1050": 105.71,"1075": 109.98,"1100": 110.5,"1125": 113.01,"1150": 116.58,"1175": 120.74,"1200": 122.05,"1225": 125.5,"1250": 124.62,"1275": 122.35,"1300": 123.94,"1325": 136.13,"1350": 146.02,"1375": 157.9,"1400": 177.52,"1425": 199.77,"1450": 197.72,"1475": 194.38,"1500": 192.97,"1525": 204.04,"1550": 200.53,"1575": 185.34,"1600": 168.64,"1625": 160.3,"1650": 153.6,"1675": 142.08,"1700": 138.3,"1725": 128.24,"1750": 127.71,"1775": 114.47,"1800": 100.54,"1825": 89.69,"1850": 80.9,"1875": 74.1,"1900": 65.86,"1925": 61.72,"1950": 55.57,"1975": 52.96,"2000": 49.82,"2025": 44.4,"2050": 43.98,"2075": 39.56,"2100": 36.03,"2125": 32.29,"2150": 30.3,"2175": 26.28,"2200": 24.86,"2225": 23.12,"2250": 22.63,"2275": 21.81,"2300": 23.21,"2325": 18.13,"2350": 17.28,"2375": 14.51,"2400": 12.46,"2425": 10.45,"2450": 9.1,"2475": 7.98,"2500": 8.35,"2525": 8.13,"2550": 7.85,"2575": 7.0,"2600": 6.73,"2625": 6.4,"2650": 5.61,"2675": 4.91,"2700": 5.26,"2725": 5.03,"2750": 4.71,"2775": 4.73,"2800": 4.88,"2825": 5.3,"2850": 4.72,"2875": 4.72,"2900": 4.61,"2925": 4.44,"2950": 4.53,"2975": 4.17,"3000": 4.79,"3025": 4.16,"3050": 4.39,"3075": 4.64,"3100": 4.37,"3125": 4.34,"3150": 5.25,"3175": 4.24,"3200": 4.27,"3225": 3.77,"3250": 3.6,"3275": 3.27,"3300": 2.68,"3325": 2.23,"3350": 1.81,"3375": 1.69,"3400": 1.46,"3425": 1.26,"3450": 1.29,"3475": 0.77,"3500": 0.57,"3525": 0.47,"3550": 0.64,"3575": 0.27,"3600": 0.23}}}