{"type":"Feature","properties":{"GID_2":"TUR.69.4_1","GID_0":"TUR","country":"Turkey","GID_1":"TUR.69_1","province":"Siirt","NL_NAME_1":"NA","county":"Kurtalan","VARNAME_2":"NA","NL_NAME_2":"NA","TYPE_2":"District","ENGTYPE_2":"District","CC_2":"NA","HASC_2":"TR.SI.KU","name":"Kurtalan.county"},
"geometry":{"type": "MultiPolygon","coordinates": [[[[41.7009,37.7777,716.9011],[41.7455,37.7469,504.2158],[41.758,37.7423,477.4951],[41.7683,37.7427,480.9395],[41.7886,37.7498,502.5365],[41.8125,37.7543,619.1444],[41.839,37.7642,789.2418],[41.8479,37.797,574.0809],[41.8545,37.8042,593.7217],[41.8666,37.8122,510.4361],[41.873,37.8211,511.827],[41.8776,37.8354,516.8745],[41.8824,37.8441,657.0913],[41.8619,37.8692,859.4279],[41.8324,37.9159,640.6172],[41.8258,37.9371,734.7519],[41.8168,37.9535,647.3088],[41.8121,37.981,624.399],[41.8054,37.991,588.3814],[41.7757,38.0197,545.1041],[41.6772,38.0204,923.6444],[41.6655,38.0224,951.1521],[41.6444,38.0294,980.8312],[41.6204,38.0339,916.4029],[41.6067,38.0385,931.4594],[41.5506,38.0209,700.7964],[41.5233,38.0196,680.1438],[41.4813,38.0212,599.6221],[41.4842,37.9998,640.8536],[41.4808,37.9862,661.5475],[41.4701,37.9767,687.7851],[41.4433,37.9645,599.2177],[41.4259,37.9495,674.0502],[41.4141,37.9312,842.8894],[41.4112,37.9239,884.1632],[41.4121,37.9158,766.9016],[41.4175,37.9081,775.325],[41.4333,37.8951,769.7645],[41.4515,37.8837,798.7858],[41.5187,37.8585,803.3321],[41.5465,37.8566,679.0074],[41.714,37.8577,997.5945],[41.7316,37.8551,766.7111],[41.7368,37.8511,755.3662],[41.7393,37.8459,758.0801],[41.7401,37.8374,762.4656],[41.7379,37.8256,773.3407],[41.7197,37.7971,906.2559],[41.7009,37.7777,716.9011]]]]}}