{"type":"Feature","properties":{"GID_2":"TUR.26.5_1","GID_0":"TUR","country":"Turkey","GID_1":"TUR.26_1","province":"Diyarbakir","NL_NAME_1":"NA","county":"Dicle","VARNAME_2":"NA","NL_NAME_2":"NA","TYPE_2":"District","ENGTYPE_2":"District","CC_2":"NA","HASC_2":"TR.DY.DI","name":"Dicle.county"},
"geometry":{"type": "MultiPolygon","coordinates": [[[[40.2921,38.4748,878.1604],[40.0546,38.475,1031.0825],[40.0338,38.4769,1028.6997],[40.008,38.4846,944.0325],[39.9582,38.4888,961.2566],[39.9295,38.4973,1093.458],[39.9014,38.499,1061.5259],[39.862,38.4982,1023.4118],[39.8523,38.4949,947.1425],[39.848,38.4913,1045.2899],[39.8372,38.4767,1167.0909],[39.8295,38.4531,960.0165],[39.8181,38.4329,905.2128],[39.8566,38.4152,1062.9124],[39.8744,38.397,1035.2366],[39.891,38.3855,914.5848],[39.9246,38.3731,866.34],[39.9514,38.3682,790.5],[39.9616,38.3618,790.5],[39.9652,38.3574,876.562],[39.9679,38.3489,1031.8203],[39.9704,38.316,1070.5497],[39.9795,38.2993,923.9608],[39.983,38.2888,898.366],[40.0116,38.2915,893.0528],[40.0295,38.2977,912.5655],[40.0532,38.3024,881.0877],[40.0821,38.3112,941.7666],[40.1066,38.3127,983.4677],[40.1305,38.3119,852.8134],[40.144,38.3082,893.858],[40.16,38.2944,799.8941],[40.1815,38.2832,779.4758],[40.1878,38.2776,791.9409],[40.1995,38.2626,814.3745],[40.2135,38.2553,856.8327],[40.2334,38.2532,853.7084],[40.3218,38.2536,849.7728],[40.3539,38.2521,780.4668],[40.3913,38.2786,834.5692],[40.4104,38.2891,867.2438],[40.4005,38.2971,886.1714],[40.3632,38.3179,822.7874],[40.3353,38.3301,824.0577],[40.32,38.3427,779.4091],[40.3164,38.3477,774.3662],[40.3137,38.3567,782.376],[40.3141,38.4002,905.5972],[40.3121,38.4083,926.3026],[40.3084,38.4128,962.6783],[40.2991,38.416,1196.6179],[40.2704,38.4187,994.0984],[40.2622,38.4227,992.9771],[40.2581,38.4267,996.3569],[40.2556,38.4344,1163.0493],[40.2583,38.4418,1357.5723],[40.2642,38.4473,1410.682],[40.2802,38.4571,1120.2231],[40.2921,38.4748,878.1604]]]]}}