{"type": "Feature","bbox": [34.2213,40.3417,34.6049,40.6093],"geometry": {"type": "MultiPolygon","coordinates": [[[[34.2486,40.4845,526.1211],[34.225,40.4485,700.2191],[34.2213,40.4353,777.6137],[34.2225,40.427,860.1893],[34.2272,40.4191,853.7267],[34.2369,40.4103,768.9375],[34.2486,40.403,752.7436],[34.2753,40.3938,761.6262],[34.2812,40.393,706.0377],[34.2898,40.3946,781.9582],[34.31,40.4018,879.6213],[34.3195,40.4088,812.5284],[34.324,40.4157,740.7522],[34.3292,40.4338,774.9258],[34.3397,40.4436,708.9954],[34.3566,40.4478,636.874],[34.3818,40.4466,744.9426],[34.391,40.4428,726.6217],[34.3974,40.4369,857.3223],[34.3996,40.4318,949.3818],[34.3985,40.4237,1012.2688],[34.3926,40.4164,996.7689],[34.3629,40.393,1096.277],[34.3577,40.3852,1139.7635],[34.356,40.3769,1235.5349],[34.3572,40.3686,1153.7225],[34.3599,40.3632,1140.4761],[34.3745,40.3501,1003.0121],[34.3872,40.344,1003.5794],[34.4022,40.3417,990.3768],[34.5386,40.3417,1226.329],[34.5364,40.3594,1298.7833],[34.5372,40.3794,1245.2605],[34.5396,40.3875,1238.7117],[34.5488,40.4038,1173.9106],[34.5546,40.434,967.8936],[34.5713,40.4597,767.5828],[34.6,40.4844,875.6193],[34.6044,40.491,844.9489],[34.6043,40.4977,761.9796],[34.5985,40.5112,674.2185],[34.5969,40.5281,622.7569],[34.5985,40.545,599.0451],[34.6049,40.5628,599.2297],[34.6017,40.5697,596.9432],[34.5858,40.5875,548.4619],[34.5813,40.6045,538.5508],[34.5594,40.6093,508.6207],[34.5415,40.6082,507.5],[34.5261,40.6011,507.5],[34.4935,40.5786,517.5131],[34.46,40.5712,511.0909],[34.4301,40.5598,513.9189],[34.4163,40.5518,515.8018],[34.4122,40.5385,604.3542],[34.3997,40.5214,569.1649],[34.3953,40.518,564.5379],[34.3736,40.5078,540.1266],[34.3402,40.4958,575.9625],[34.313,40.4904,560.5503],[34.2918,40.4834,673.5929],[34.27,40.4821,625.0291],[34.2486,40.4845,526.1211]]]]}
,"properties": {"GID_2": "TUR.24.14_1","GID_0": "TUR","country": "Turkey","GID_1": "TUR.24_1","province": "Çorum","NL_NAME_1": "NA","county": "Uğurludağ","VARNAME_2": "NA","NL_NAME_2": "NA","TYPE_2": "District","ENGTYPE_2": "District","CC_2": "NA","HASC_2": "TR.CM.UG","name": "Uğurludağ.county","area_km2": 528.542,"hist_schema_id": "Elevation0-9000","hist_area_km2": {"500": 5.5061,"525": 8.1493,"550": 14.8549,"575": 23.6408,"600": 23.8838,"625": 28.029,"650": 27.9818,"675": 28.2593,"700": 31.3439,"725": 33.2855,"750": 35.5513,"775": 26.7137,"800": 20.8253,"825": 18.0514,"850": 14.5022,"875": 10.3723,"900": 9.0021,"925": 7.7934,"950": 7.4875,"975": 7.5207,"1000": 8.151,"1025": 8.9109,"1050": 8.8468,"1075": 8.7024,"1100": 8.5575,"1125": 7.637,"1150": 7.8159,"1175": 7.4121,"1200": 7.1214,"1225": 6.411,"1250": 7.2671,"1275": 7.881,"1300": 7.6228,"1325": 7.6877,"1350": 7.3808,"1375": 6.8158,"1400": 5.5403,"1425": 4.0871,"1450": 4.4913,"1475": 3.3282,"1500": 2.2942,"1525": 1.3248,"1550": 0.4846,"1575": 0.0162}}}