{"type":"Feature","properties":{"GID_2":"TUR.18.1_1","GID_0":"TUR","country":"Turkey","GID_1":"TUR.18_1","province":"Bitlis","NL_NAME_1":"NA","county":"Adilcevaz","VARNAME_2":"NA","NL_NAME_2":"NA","TYPE_2":"District","ENGTYPE_2":"District","CC_2":"NA","HASC_2":"TR.BT.AD","name":"Adilcevaz.county"},
"geometry":{"type": "MultiPolygon","coordinates": [[[[42.7498,39.0371,1919.2498],[42.7486,39.025,2013.9445],[42.7501,39.0126,2108.6301],[42.7601,38.9928,2274.6367],[42.766,38.966,2469.2996],[42.7741,38.9511,2768.1509],[42.7732,38.9442,2811.188],[42.769,38.9404,2802.8984],[42.7598,38.9381,2655.1289],[42.7382,38.9361,2469.1372],[42.7164,38.9296,2357.4609],[42.7047,38.9278,2289.8135],[42.6264,38.9269,2287.1157],[42.5986,38.9298,2134.519],[42.5612,38.9434,2097.2275],[42.5705,38.9166,2242.2058],[42.5939,38.8796,2279.8823],[42.5998,38.8611,2362.7734],[42.609,38.8447,2271.1267],[42.6114,38.8359,2226.311],[42.6127,38.8108,1920.0725],[42.6113,38.7857,1679.1672],[42.6087,38.7768,1647.5],[42.5994,38.7604,1647.5],[42.5955,38.7459,1647.5],[42.6139,38.7377,1647.5],[42.6401,38.7214,1647.5],[42.6616,38.7123,1647.5],[42.7001,38.6862,1647.5],[42.7756,38.6569,1647.5],[42.8082,38.6385,1647.5],[42.8259,38.6359,1647.5],[42.8744,38.636,1647.5],[42.8924,38.6344,1647.5],[42.9462,38.6143,1647.5],[42.9597,38.6148,1647.5],[42.9645,38.6179,1647.5],[42.9645,38.6213,1647.5],[42.9723,38.6326,1647.5],[42.9975,38.6579,1647.5],[43.0089,38.6744,1647.5],[43.0406,38.702,1647.5],[43.0519,38.7188,1647.5],[43.0633,38.7298,1647.5],[43.0847,38.7455,1647.5],[43.1122,38.7574,1647.5],[43.1453,38.78,1647.5],[43.1742,38.7937,1647.5],[43.182,38.802,1647.5],[43.1951,38.8228,1647.5],[43.1982,38.8423,1647.5],[43.1979,38.8802,1647.5],[43.1278,38.9334,1647.5],[43.0192,38.9751,1857.6829],[43.0114,38.9798,1835.4324],[43.0057,38.9862,1988.585],[43.0022,38.9998,2159.8604],[43.0033,39.0314,2173.1016],[43.0062,39.0423,2145.7422],[43.0165,39.0613,2072.8604],[43.0225,39.0955,1851.0492],[42.9895,39.0873,1780.7557],[42.9716,39.081,1777.7045],[42.9333,39.0762,1803.6682],[42.9042,39.0678,1826.0085],[42.8279,39.0651,1859.8368],[42.7498,39.0371,1919.2498]]]]}}