{"type": "Feature","bbox": [35.5153,41.1986,36.1315,41.7351],"geometry": {"type": "MultiPolygon","coordinates": [[[[35.5511,41.28,489.8893],[35.5679,41.2926,243.4917],[35.5806,41.311,352.1525],[35.5941,41.323,224.4568],[35.609,41.3298,420.9261],[35.6268,41.3303,429.1934],[35.637,41.3275,583.2534],[35.6455,41.3226,721.8048],[35.6966,41.2824,1013.2455],[35.7068,41.2713,886.2573],[35.7174,41.2515,826.8408],[35.7526,41.2295,845.462],[35.7672,41.2261,932.212],[35.779,41.2254,1027.001],[35.8511,41.2247,824.1364],[35.8616,41.2222,878.1593],[35.9061,41.2048,971.177],[35.9417,41.1986,814.9962],[35.9523,41.2248,767.7327],[35.9648,41.2373,756.3928],[35.978,41.2457,801.85],[35.9966,41.2524,716.9664],[36.0279,41.2666,743.6194],[36.0135,41.2849,910.6205],[36.0066,41.3059,1065.6189],[35.9835,41.3424,770.4244],[35.9829,41.3504,774.4624],[35.9862,41.3577,781.3127],[36.0036,41.3758,463.4896],[35.9865,41.3965,318.0336],[35.9824,41.4042,462.3601],[35.9804,41.4166,387.6485],[35.9797,41.4484,171.6452],[35.9761,41.4599,136.0809],[35.9605,41.4826,116.2597],[35.9402,41.4965,107.7214],[35.936,41.504,86.88],[35.9348,41.5156,123.7091],[35.9374,41.5276,112.1681],[35.9501,41.5446,43.9262],[35.9575,41.5496,52.2139],[35.9679,41.5518,66.7502],[35.9955,41.5523,46.304],[36.0279,41.551,8.2898],[36.0394,41.549,9.2003],[36.0572,41.5427,0.9756],[36.0809,41.5381,-0.5925],[36.1021,41.5307,2.6856],[36.1276,41.5249,0.9701],[36.131,41.5404,0.0748],[36.1315,41.5579,0.0],[36.1235,41.5807,0.3592],[36.1149,41.6263,0.0],[36.0915,41.6479,0.1826],[36.0782,41.6685,0.0],[36.0576,41.6862,0.0],[36.0343,41.6985,0.0],[36.0079,41.7093,0.0],[36.0029,41.7099,-0.1044],[36.0004,41.7126,0.2028],[35.9943,41.7151,0.7654],[35.9888,41.7215,0.0],[35.9868,41.7218,0.0],[35.9871,41.7235,0.0],[35.976,41.7279,0.0],[35.9776,41.7243,0.0],[35.9754,41.7282,0.0],[35.9643,41.7318,0.2355],[35.9637,41.7332,0.1642],[35.9579,41.7337,0.0],[35.959,41.7296,-0.0116],[35.9549,41.7351,0.118],[35.9415,41.7287,1.1619],[35.9301,41.7246,1.149],[35.9293,41.7254,1.149],[35.9271,41.7235,0.8235],[35.8729,41.7035,1.2739],[35.8713,41.7032,0.6912],[35.871,41.7046,0.0],[35.8668,41.7012,1.4196],[35.8451,41.6932,1.5066],[35.7751,41.6729,0.864],[35.7693,41.6693,1.3878],[35.7649,41.6696,1.7411],[35.7635,41.6679,1.8118],[35.7604,41.6688,0.0],[35.7588,41.6668,1.7261],[35.725,41.6587,1.9323],[35.7301,41.6435,0.2572],[35.7679,41.5858,73.2774],[35.7702,41.5749,89.5896],[35.768,41.564,119.1171],[35.7516,41.543,112.2239],[35.7303,41.5314,164.6427],[35.6876,41.5004,452.7047],[35.6633,41.4901,673.5973],[35.6502,41.4818,815.2047],[35.6395,41.4716,897.5104],[35.6262,41.4527,836.5266],[35.6033,41.434,1037.6697],[35.5887,41.4258,988.1929],[35.5461,41.4102,1110.7983],[35.5382,41.4056,1059.3354],[35.532,41.3996,1077.0757],[35.5172,41.3766,1046.141],[35.5153,41.3684,930.6879],[35.5157,41.3601,704.9455],[35.5186,41.3524,507.8708],[35.527,41.3386,450.5537],[35.5328,41.3201,276.454],[35.5426,41.3038,178.0],[35.5511,41.28,489.8893]]]]}
,"properties": {"GID_2": "TUR.67.4_1","GID_0": "TUR","country": "Turkey","GID_1": "TUR.67_1","province": "Samsun","NL_NAME_1": "NA","county": "Bafra","VARNAME_2": "NA","NL_NAME_2": "NA","TYPE_2": "District","ENGTYPE_2": "District","CC_2": "NA","HASC_2": "TR.SS.BA","name": "Bafra.county","area_km2": 1567.01,"hist_schema_id": "Elevation0-9000","hist_area_km2": {"0": 385.974,"25": 91.507,"50": 51.65,"75": 39.163,"100": 40.252,"125": 38.75,"150": 31.039,"175": 51.53,"200": 28.516,"225": 26.754,"250": 26.676,"275": 24.692,"300": 23.599,"325": 22.441,"350": 20.374,"375": 21.362,"400": 21.332,"425": 20.934,"450": 21.254,"475": 21.765,"500": 21.464,"525": 20.829,"550": 21.339,"575": 22.358,"600": 21.963,"625": 23.763,"650": 25.135,"675": 25.695,"700": 27.576,"725": 27.673,"750": 29.013,"775": 28.744,"800": 27.041,"825": 27.121,"850": 26.914,"875": 25.861,"900": 25.733,"925": 24.013,"950": 20.795,"975": 18.389,"1000": 16.7,"1025": 13.546,"1050": 11.922,"1075": 9.487,"1100": 5.985,"1125": 4.201,"1150": 1.798,"1175": 1.177,"1200": 0.493,"1225": 0.398,"1250": 0.302,"1275": 0.016}}}