{"type":"Feature","properties":{"GID_2":"TUR.31.6_1","GID_0":"TUR","country":"Turkey","GID_1":"TUR.31_1","province":"Erzurum","NL_NAME_1":"NA","county":"İspir","VARNAME_2":"NA","NL_NAME_2":"NA","TYPE_2":"District","ENGTYPE_2":"District","CC_2":"NA","HASC_2":"TR.EM.IS","name":"İspir.county"},
"geometry":{"type": "MultiPolygon","coordinates": [[[[41.1223,40.8085,3032.7925],[41.1041,40.7961,2890.4719],[41.0776,40.7844,3209.9941],[41.0413,40.7596,3296.7412],[41.023,40.7525,3362.7573],[40.9962,40.7364,3410.1985],[40.9477,40.7178,3025.0144],[40.9237,40.7031,3235.7288],[40.9027,40.6945,2967.9902],[40.8759,40.6783,3218.5566],[40.8548,40.6697,3144.4709],[40.8279,40.6537,3231.4172],[40.7005,40.6047,2898.3308],[40.7152,40.5905,2822.1152],[40.7229,40.5857,2890.604],[40.7402,40.5787,2752.7156],[40.747,40.5735,2552.8809],[40.7501,40.5692,2418.2542],[40.7513,40.564,2318.3254],[40.7505,40.5588,2319.3872],[40.7425,40.5457,1965.061],[40.7392,40.535,1999.3064],[40.7381,40.5179,2103.7798],[40.7404,40.5039,2107.1184],[40.7498,40.4916,2126.1453],[40.7921,40.4575,1528.4409],[40.8093,40.4317,1461.8594],[40.8174,40.4082,1822.918],[40.8279,40.3891,1947.2943],[40.8294,40.3751,1918.892],[40.8275,40.3641,2064.7227],[40.8226,40.3571,2300.4409],[40.8119,40.3508,2308.0396],[40.8016,40.3489,2294.6841],[40.7688,40.3482,2286.4946],[40.7547,40.3463,2496.4226],[40.7069,40.3282,2082.7324],[40.6796,40.323,2088.7717],[40.6317,40.3051,2333.1206],[40.6113,40.3013,2302.2778],[40.5988,40.2971,2336.5659],[40.5881,40.2908,2092.7444],[40.5899,40.2714,2255.291],[40.5965,40.2623,2380.0352],[40.6042,40.2574,2551.9719],[40.6378,40.2457,2291.3577],[40.6689,40.2427,1895.9072],[40.6983,40.2344,2131.5447],[40.7298,40.2311,2424.1152],[40.7418,40.2453,2113.0703],[40.7516,40.2524,1995.0472],[40.788,40.2659,2157.5017],[40.8497,40.2686,2275.7207],[40.8856,40.2781,2397.9385],[40.9475,40.2791,2263.1194],[40.9654,40.2821,2495.9438],[40.9987,40.2955,2370.7544],[41.0146,40.3077,2201.3125],[41.0282,40.3263,2199.957],[41.0347,40.332,2233.4717],[41.0695,40.3468,2461.5757],[41.0837,40.3484,2589.2273],[41.0977,40.3464,2704.9443],[41.128,40.3304,2832.498],[41.129,40.3573,2863.5007],[41.1278,40.3745,2616.2275],[41.1254,40.3825,2775.0374],[41.116,40.3988,3008.9021],[41.1141,40.4155,2834.27],[41.116,40.4265,2760.0229],[41.1272,40.4485,2413.5425],[41.1292,40.4756,2237.0278],[41.131,40.4844,2127.3003],[41.1339,40.49,2119.5417],[41.1511,40.5062,2144.5735],[41.1688,40.5181,2491.9673],[41.2053,40.5329,2434.6941],[41.2357,40.5438,2018.0204],[41.263,40.549,2000.8269],[41.3108,40.5671,2582.6758],[41.3384,40.572,2968.1233],[41.3626,40.5793,2350.9963],[41.3512,40.6034,2234.6301],[41.3415,40.62,2403.293],[41.3393,40.6319,1904.4547],[41.3396,40.6502,1500.9038],[41.3439,40.6643,1459.1097],[41.3945,40.7401,1154.35],[41.3977,40.7474,1417.3312],[41.3979,40.7528,1648.9521],[41.3934,40.7625,1987.2562],[41.3856,40.7722,2290.0132],[41.378,40.7772,2337.2192],[41.3707,40.779,2330.6416],[41.2245,40.779,2856.582],[41.1991,40.7802,2493.6138],[41.1874,40.783,2734.9333],[41.1223,40.8085,3032.7925]]]]}}