{"type": "Feature","bbox": [41.2141,38.253,41.6624,38.5442],"geometry": {"type": "MultiPolygon","coordinates": [[[[41.6624,38.4211,1884.1699],[41.6526,38.4426,1799.9937],[41.6479,38.4701,2263.2529],[41.6391,38.4867,2112.8391],[41.6322,38.5078,2018.8406],[41.618899999999996,38.5224,1604.8263],[41.5991,38.5369,1733.113],[41.5857,38.5424,1748.4902],[41.5603,38.5442,1873.6692],[41.5222,38.5419,2118.1565],[41.506,38.5436,2285.0371],[41.4724,38.5438,2290.3276],[41.4527,38.5403,1874.3992],[41.4303,38.5309,2165.3354],[41.4169,38.5222,2059.3596],[41.4317,38.504,1889.9902],[41.4343,38.4973,2027.3352],[41.4312,38.4886,1804.9995],[41.4214,38.4772,1859.3347],[41.4083,38.4739,1724.2406],[41.3661,38.4737,1345.384],[41.3512,38.4716,1324.3838],[41.2611,38.4373,995.2083],[41.2494,38.4284,1011.4475],[41.2454,38.4212,851.6002],[41.2406,38.4056,748.843],[41.233,38.3917,791.3289],[41.2268,38.3618,848.0483],[41.216,38.3392,1059.5997],[41.2143,38.3236,1061.7936],[41.2141,38.253,771.2855],[41.3673,38.2534,1170.6741],[41.3783,38.2553,1045.0651],[41.3993,38.2625,1242.2528],[41.4232,38.2669,1375.5964],[41.4537,38.2779,1584.58],[41.4885,38.2928,1540.1083],[41.4968,38.3005,1500.2007],[41.5066,38.3147,1589.3267],[41.5164,38.3233,1724.4275],[41.5279,38.3305,1875.6575],[41.5467,38.3379,1486.5823],[41.5583,38.345,1775.5155],[41.5702,38.356,1837.2307],[41.5842,38.3755,2098.0688],[41.6058,38.3931,1768.073],[41.618,38.4004,1825.0709],[41.6367,38.4076,1971.269],[41.6624,38.4211,1884.1699]]]]}
,"properties": {"GID_2": "TUR.14.6_1","GID_0": "TUR","country": "Turkey","GID_1": "TUR.14_1","province": "Batman","NL_NAME_1": "NA","county": "Sason","VARNAME_2": "NA","NL_NAME_2": "NA","TYPE_2": "District","ENGTYPE_2": "District","CC_2": "NA","HASC_2": "TR.BM.SA","name": "Sason.county","area_km2": 825.5659,"hist_schema_id": "Elevation0-9000","hist_area_km2": {"650": 0.5161,"675": 2.6466,"700": 4.427,"725": 7.6376,"750": 9.1505,"775": 12.7267,"800": 12.9762,"825": 13.1079,"850": 12.8069,"875": 12.8233,"900": 12.8554,"925": 12.7545,"950": 13.2197,"975": 14.5834,"1000": 14.7993,"1025": 15.0479,"1050": 14.7483,"1075": 15.0652,"1100": 15.1975,"1125": 15.2809,"1150": 15.7471,"1175": 17.3425,"1200": 15.1122,"1225": 12.2173,"1250": 11.501,"1275": 11.8489,"1300": 11.3333,"1325": 11.6648,"1350": 12.2956,"1375": 12.096,"1400": 11.5132,"1425": 12.8086,"1450": 13.1733,"1475": 13.6223,"1500": 14.7694,"1525": 15.9332,"1550": 14.0544,"1575": 15.1338,"1600": 14.7519,"1625": 17.2129,"1650": 16.7484,"1675": 16.331,"1700": 14.9517,"1725": 16.5122,"1750": 16.2128,"1775": 15.9124,"1800": 16.6099,"1825": 14.8325,"1850": 13.8848,"1875": 14.2503,"1900": 12.057,"1925": 13.2515,"1950": 11.4577,"1975": 10.5105,"2000": 10.112,"2025": 9.8461,"2050": 9.5306,"2075": 8.8836,"2100": 8.6503,"2125": 7.6373,"2150": 6.7567,"2175": 5.6777,"2200": 5.3456,"2225": 4.6983,"2250": 3.8847,"2275": 3.6356,"2300": 3.5361,"2325": 3.254,"2350": 2.7062,"2375": 2.5566,"2400": 2.0589,"2425": 1.7765,"2450": 1.7433,"2475": 1.5274,"2500": 1.4276,"2525": 1.494,"2550": 1.66,"2575": 1.3281,"2600": 0.9464,"2625": 1.0792,"2650": 0.9797,"2675": 0.7638,"2700": 0.5482,"2725": 0.2825,"2750": 0.2161,"2775": 0.2825,"2800": 0.1662,"2825": 0.1496,"2850": 0.1662,"2875": 0.0997,"2900": 0.0332,"2925": 0.0997}}}