{"type":"Feature","properties":{"GID_2":"TUR.26.13_1","GID_0":"TUR","country":"Turkey","GID_1":"TUR.26_1","province":"Diyarbakir","NL_NAME_1":"NA","county":"Merkez","VARNAME_2":"DiyarbakirMerkezi","NL_NAME_2":"NA","TYPE_2":"District","ENGTYPE_2":"District","CC_2":"NA","HASC_2":"TR.DY.DY","name":"Merkez.county"},
"geometry":{"type": "MultiPolygon","coordinates": [[[[40.658,38.097,686.3331],[40.6838,38.1357,724.8065],[40.6884,38.1486,739.995],[40.6771,38.1614,779.3433],[40.6702,38.1825,778.5634],[40.6559,38.206,830.1408],[40.6378,38.2289,848.3432],[40.6087,38.2205,794.4539],[40.5699,38.2157,814.0674],[40.5572,38.209,804.545],[40.5331,38.1912,780.3464],[40.5272,38.1891,771.5407],[40.5208,38.1893,763.9852],[40.5121,38.195,767.0195],[40.5064,38.2103,771.4711],[40.5008,38.2158,789.9374],[40.4911,38.2181,769.0817],[40.4538,38.2199,733.0549],[40.4472,38.2221,713.1331],[40.4397,38.2272,696.7052],[40.4342,38.2368,743.478],[40.4298,38.264,739.6234],[40.4104,38.2891,867.2438],[40.3913,38.2786,834.5692],[40.3539,38.2521,780.4668],[40.3659,38.2351,787.8146],[40.3669,38.2305,772.2191],[40.3653,38.2257,760.2677],[40.3574,38.2172,775.5859],[40.3119,38.1823,758.2324],[40.3031,38.1734,723.861],[40.2939,38.1595,724.9887],[40.2896,38.1556,730.9584],[40.2815,38.1512,759.8465],[40.2745,38.1495,767.0513],[40.1862,38.148,758.272],[40.176,38.1456,746.1854],[40.1347,38.1291,707.2544],[40.1247,38.1266,662.5232],[40.1064,38.1253,784.3574],[40.0658,38.1264,802.836],[40.0494,38.1325,786.5529],[40.0246,38.1509,786.0172],[40.0027,38.1711,820.2135],[39.995,38.1829,885.4036],[39.9888,38.1887,914.2661],[39.9808,38.193,913.6255],[39.9677,38.1957,927.6049],[39.9644,38.1851,928.8671],[39.955,38.1688,906.9697],[39.9481,38.1478,773.3486],[39.9196,38.1035,803.623],[39.8952,38.0784,767.1509],[39.8805,38.055,765.0916],[39.8727,38.0315,772.1172],[39.8215,37.9527,861.9838],[39.8136,37.9291,891.9019],[39.8042,37.9128,916.2872],[39.7987,37.8942,981.219],[39.7745,37.8573,1138.7252],[39.7616,37.8334,1243.4309],[39.7992,37.8018,1441.972],[39.8122,37.793,1551.7673],[39.8232,37.788,1605.6857],[39.8782,37.8091,1276.325],[39.9053,37.8144,1113.6583],[39.9232,37.8206,1022.9238],[39.9731,37.8246,917.295],[40.0096,37.834,855.7102],[40.1717,37.8345,721.6649],[40.1872,37.8328,710.6247],[40.2086,37.8256,705.7667],[40.2195,37.8236,709.3199],[40.2623,37.8227,701.6525],[40.2775,37.8244,659.7523],[40.2872,37.8273,588.9863],[40.3142,37.8384,581.7209],[40.3434,37.8554,632.1472],[40.361,37.8572,668.6147],[40.3747,37.8539,687.8148],[40.4038,37.837,627.0072],[40.4228,37.8342,617.382],[40.4405,37.8368,609.3873],[40.4565,37.8505,610.5039],[40.4644,37.8546,636.3541],[40.4745,37.8568,621.2229],[40.4926,37.8577,590.5785],[40.4929,37.8779,559.7209],[40.4949,37.889,573.1559],[40.5042,37.9054,676.8932],[40.5116,37.9263,692.0493],[40.52,37.9399,628.936],[40.5216,37.9452,602.809],[40.5214,37.9562,616.9341],[40.5178,37.9641,639.6027],[40.5001,37.9819,650.7172],[40.4941,37.9925,659.8217],[40.4921,38.0043,647.1843],[40.4918,38.0224,656.4645],[40.4943,38.0362,681.2372],[40.4975,38.0409,712.666],[40.5238,38.054,744.1124],[40.5544,38.0647,723.7106],[40.5784,38.069,692.6402],[40.5996,38.076,721.2458],[40.6268,38.0814,751.7291],[40.658,38.097,686.3331]]]]}}