{"type":"Feature","properties":{"GID_2":"TUR.12.16_1","GID_0":"TUR","country":"Turkey","GID_1":"TUR.12_1","province":"Balikesir","NL_NAME_1":"NA","county":"Merkez","VARNAME_2":"BalikesirMerkezi\rMerkez","NL_NAME_2":"NA","TYPE_2":"District","ENGTYPE_2":"District","CC_2":"NA","HASC_2":"TR.BK.BK","name":"Merkez.county"},
"geometry":{"type": "MultiPolygon","coordinates": [[[[27.6804,39.6491,196.1984],[27.6688,39.6307,211.4502],[27.651,39.6182,291.7396],[27.6441,39.6097,394.2225],[27.6379,39.5916,431.9819],[27.6289,39.5747,490.9619],[27.6248,39.5445,485.2316],[27.6638,39.544,372.3541],[27.68,39.5413,454.549],[27.6849,39.5383,460.1713],[27.7011,39.5218,533.5864],[27.7378,39.4918,359.9892],[27.7435,39.4844,383.072],[27.7462,39.4758,408.2962],[27.7469,39.4427,621.0461],[27.7487,39.4309,616.9109],[27.7718,39.3935,424.7506],[27.7765,39.3806,523.0858],[27.7864,39.3701,853.9537],[27.7915,39.3573,841.4326],[27.8166,39.3552,843.3633],[27.8454,39.3469,645.8745],[27.8815,39.3456,803.8279],[27.8966,39.3572,757.9972],[27.899,39.365,606.3914],[27.9036,39.3719,532.1125],[27.9104,39.3776,490.5954],[27.9255,39.386,507.9446],[27.9302,39.4027,443.3757],[27.9503,39.4364,306.1576],[27.9504,39.4409,305.4948],[27.9475,39.4474,276.5774],[27.9375,39.4636,284.2421],[27.9081,39.4878,173.6013],[27.8994,39.4976,154.864],[27.8966,39.5112,132.7608],[27.899,39.5193,125.3467],[27.9027,39.5238,119.0169],[27.9133,39.5301,115.0912],[27.9245,39.5321,121.7774],[28.0007,39.5322,185.5847],[28.0158,39.5344,205.8997],[28.0335,39.5407,195.2252],[28.0439,39.5426,266.8267],[28.0952,39.5429,238.2125],[28.0887,39.5654,149.0195],[28.0693,39.586,117.6454],[28.0646,39.5936,108.6566],[28.0625,39.6048,95.5103],[28.0621,39.6323,90.7546],[28.0602,39.6443,101.9213],[28.0355,39.684,225.0475],[28.0324,39.6957,367.9888],[28.0317,39.711,272.7378],[28.035,39.7289,290.0604],[28.0495,39.7478,358.3399],[28.0573,39.7518,507.5045],[28.1007,39.7624,299.5291],[28.0889,39.7773,166.34],[28.0764,39.7858,178.8652],[28.0192,39.8073,317.05],[27.9893,39.8132,423.004],[27.9769,39.8216,359.2252],[27.9724,39.832,452.365],[27.9725,39.8459,518.7827],[27.9758,39.8568,485.692],[27.9847,39.8703,410.8315],[27.9883,39.8868,367.761],[27.9873,39.898,385.6117],[27.9852,39.9034,398.1786],[27.9767,39.9131,326.6152],[27.9653,39.921,345.8592],[27.9496,39.9289,444.6777],[27.9183,39.9275,435.2268],[27.8991,39.9251,439.0234],[27.8813,39.9188,386.5829],[27.8678,39.916,309.6872],[27.8556,39.9035,266.2319],[27.8331,39.8681,323.0205],[27.8037,39.8427,223.2579],[27.7952,39.8337,252.5358],[27.7518,39.7661,493.3242],[27.7441,39.7425,293.6461],[27.7297,39.719,301.3102],[27.6992,39.6726,309.0505],[27.6804,39.6491,196.1984]]]]}}