{"type": "Feature","bbox": [33.0279,40.9132,33.4492,41.0889],"geometry": {"type": "MultiPolygon","coordinates": [[[[33.2294,40.9155,1450.2754],[33.259,40.9132,1336.686],[33.3043,40.9136,1451.3728],[33.3198,40.9159,1494.8685],[33.345,40.9234,1548.0044],[33.3914,40.9264,1442.686],[33.4221,40.9371,1446.2484],[33.4305,40.9414,1442.2622],[33.4395,40.9491,1502.7855],[33.4492,40.9623,1469.1626],[33.4226,40.9597,1709.795],[33.3929,40.96,1772.1453],[33.3792,40.9628,1491.8297],[33.3556,40.972,1353.5742],[33.3428,40.98,1036.9658],[33.3316,40.996,732.5692],[33.3229,41.0049,699.2245],[33.2963,41.0247,857.359],[33.2445,41.045,695.1744],[33.2152,41.0624,712.8531],[33.1584,41.0846,810.1271],[33.137,41.088,1045.7725],[33.0771,41.0889,1150.7039],[33.0485,41.0423,922.2196],[33.0279,41.0165,928.1813],[33.0675,41.0188,992.8853],[33.0858,41.017,960.766],[33.092,41.0144,1088.7382],[33.0975,41.0086,1135.8853],[33.1075,40.9889,1354.3169],[33.1262,40.993899999999996,1568.9246],[33.1464,40.9933,1593.7251],[33.1543,40.9893,1667.8401],[33.1701,40.9729,1573.9106],[33.1844,40.9639,1153.4043],[33.1989,40.9607,912.2947],[33.2253,40.9603,782.4945],[33.2385,40.9581,746.5942],[33.2434,40.9544,810.3801],[33.2456,40.9497,968.2504],[33.2449,40.9395,1174.8643],[33.2294,40.9155,1450.2754]]]]}
,"properties": {"GID_2": "TUR.23.2_1","GID_0": "TUR","country": "Turkey","GID_1": "TUR.23_1","province": "Çankiri","NL_NAME_1": "NA","county": "Bayramören","VARNAME_2": "NA","NL_NAME_2": "NA","TYPE_2": "District","ENGTYPE_2": "District","CC_2": "NA","HASC_2": "TR.CI.BA","name": "Bayramören.county","area_km2": 295.1309,"hist_schema_id": "Elevation0-9000","hist_area_km2": {"500": 0.016,"525": 1.2949,"550": 1.5028,"575": 2.334,"600": 3.1494,"625": 2.8458,"650": 3.2456,"675": 3.5814,"700": 5.4858,"725": 6.382,"750": 7.0063,"775": 6.9257,"800": 7.118,"825": 6.9579,"850": 7.598,"875": 8.0136,"900": 7.8382,"925": 8.2222,"950": 8.5581,"975": 8.3667,"1000": 9.0227,"1025": 8.3191,"1050": 8.3513,"1075": 7.4235,"1100": 6.2712,"1125": 5.9676,"1150": 5.8239,"1175": 5.8085,"1200": 4.9447,"1225": 4.5766,"1250": 5.0731,"1275": 4.8971,"1300": 5.1211,"1325": 4.593,"1350": 4.7852,"1375": 5.2334,"1400": 5.2657,"1425": 6.2912,"1450": 7.2526,"1475": 8.406,"1500": 6.804,"1525": 5.7795,"1550": 5.9236,"1575": 6.084,"1600": 6.2604,"1625": 4.8356,"1650": 4.8196,"1675": 4.4351,"1700": 3.7145,"1725": 3.5863,"1750": 4.0024,"1775": 2.6101,"1800": 1.9538,"1825": 1.4734,"1850": 1.2011,"1875": 0.7527,"1900": 0.4965,"1925": 0.4164,"1950": 0.1121}}}