{"type": "Feature","bbox": [36.4354,36.2559,36.6692,36.4458],"geometry": {"type": "MultiPolygon","coordinates": [[[[36.5685,36.4458,220.0911],[36.5588,36.4408,205.3],[36.5368,36.4396,171.1874],[36.5229,36.4365,86.9963],[36.4963,36.4213,85.4367],[36.4786,36.4137,84.5804],[36.4716,36.4084,84.2079],[36.4668,36.4016,84.4685],[36.4591,36.381,84.3471],[36.4381,36.3579,82.9297],[36.4354,36.3498,82.8356],[36.4354,36.3327,81.6209],[36.4365,36.3261,82.4854],[36.4829,36.3238,88.0553],[36.4961,36.3203,89.872],[36.5074,36.3111,92.8217],[36.5141,36.2993,95.0625],[36.5285,36.2804,97.9651],[36.5554,36.2671,149.6175],[36.5819,36.257,172.1449],[36.5952,36.2559,197.6093],[36.6015,36.2576,238.0385],[36.6089,36.2625,191.9247],[36.6238,36.2828,178.1774],[36.6572,36.3118,188.7028],[36.6691,36.3189,190.5596],[36.6692,36.3262,223.0034],[36.6662,36.3302,202.8658],[36.6593,36.334,170.4244],[36.6502,36.3361,149.9147],[36.6394,36.3356,141.6467],[36.6215,36.3288,128.5151],[36.6116,36.3279,122.0929],[36.6078,36.3299,117.5951],[36.6077,36.3329,117.4663],[36.612,36.3407,147.2487],[36.6277,36.3542,163.4964],[36.6278,36.3597,174.7026],[36.6203,36.3749,236.9321],[36.6235,36.388,274.8086],[36.6226,36.3912,316.0129],[36.6157,36.3927,325.0516],[36.6067,36.3913,381.4556],[36.5993,36.3923,219.315],[36.5932,36.3942,155.614],[36.5891,36.3978,148.8355],[36.5867,36.4019,152.647],[36.585,36.4117,167.804],[36.5769,36.4248,177.1521],[36.5756,36.4386,196.3156],[36.5735,36.4423,209.9205],[36.5685,36.4458,220.0911]]]]}
,"properties": {"GID_2": "TUR.37.8_1","GID_0": "TUR","country": "Turkey","GID_1": "TUR.37_1","province": "Hatay","NL_NAME_1": "NA","county": "Kumlu","VARNAME_2": "NA","NL_NAME_2": "NA","TYPE_2": "District","ENGTYPE_2": "District","CC_2": "NA","HASC_2": "TR.HT.KU","name": "Kumlu.county","area_km2": 240.7977,"hist_schema_id": "Elevation0-9000","hist_area_km2": {"75": 37.9682,"100": 118.3093,"125": 32.4877,"150": 25.7894,"175": 13.6608,"200": 6.4707,"225": 2.6975,"250": 0.9733,"275": 0.6657,"300": 0.9046,"325": 0.495,"350": 0.256,"375": 0.0683,"400": 0.0512}}}