{"type":"Feature","properties":{"GID_2":"TUR.57.6_1","GID_0":"TUR","country":"Turkey","GID_1":"TUR.57_1","province":"Mardin","NL_NAME_1":"NA","county":"Midyat","VARNAME_2":"NA","NL_NAME_2":"NA","TYPE_2":"District","ENGTYPE_2":"District","CC_2":"NA","HASC_2":"TR.MR.MI","name":"Midyat.county"},
"geometry":{"type": "MultiPolygon","coordinates": [[[[41.189,37.5568,1091.7344],[41.1421,37.5243,1064.5518],[41.1111,37.5139,1087.6672],[41.1249,37.4855,977.3061],[41.135,37.4748,953.0018],[41.1506,37.4645,947.8647],[41.1995,37.4466,981.9342],[41.2236,37.435,994.6444],[41.251,37.4066,924.757],[41.2637,37.388,944.2086],[41.2962,37.3599,936.6973],[41.3083,37.3402,913.9009],[41.3251,37.3252,935.418],[41.3388,37.3069,975.8165],[41.3516,37.2988,961.5579],[41.3817,37.2878,922.1971],[41.3994,37.2874,942.7466],[41.4123,37.2909,938.982],[41.4506,37.3063,844.8907],[41.465,37.3093,920.0026],[41.5742,37.3094,979.8727],[41.5939,37.3108,1013.4394],[41.6076,37.3153,1003.4133],[41.6306,37.3291,990.5726],[41.6478,37.3322,952.9133],[41.6583,37.3313,902.5446],[41.6791,37.3241,865.6517],[41.6942,37.3217,871.6406],[41.7183,37.3213,840.4267],[41.7427,37.3234,808.9189],[41.739,37.3371,798.8521],[41.7378,37.3574,746.3569],[41.7381,37.4432,746.1366],[41.7407,37.4683,894.5291],[41.6893,37.5111,922.1915],[41.668,37.5259,972.6253],[41.6554,37.5298,961.2783],[41.6259,37.5318,950.7062],[41.614,37.5359,992.2635],[41.6055,37.5435,996.5724],[41.5946,37.5596,1045.3955],[41.5732,37.5775,1133.6602],[41.5485,37.5755,1216.9681],[41.5229,37.568,1224.5649],[41.4883,37.5638,1217.4431],[41.4667,37.557,1170.7814],[41.4461,37.5544,1138.3301],[41.2288,37.5544,1060.5747],[41.189,37.5568,1091.7344]]]]}}