{"type":"Feature","properties":{"GID_2":"TUR.7.3_1","GID_0":"TUR","country":"Turkey","GID_1":"TUR.7_1","province":"Ankara","NL_NAME_1":"NA","county":"Ayaş","VARNAME_2":"NA","NL_NAME_2":"NA","TYPE_2":"District","ENGTYPE_2":"District","CC_2":"NA","HASC_2":"TR.AN.AY","name":"Ayaş.county"},
"geometry":{"type": "MultiPolygon","coordinates": [[[[31.9823,39.8664,903.3692],[31.9959,39.8691,896.0114],[32.0174,39.8763,805.2238],[32.0637,39.8793,766.1001],[32.0998,39.889,675.2208],[32.1349,39.8901,927.1113],[32.1578,39.8882,757.6745],[32.1915,39.8758,702.8479],[32.2208,39.8584,731.4772],[32.2696,39.8399,845.7653],[32.2887,39.8309,792.4286],[32.2954,39.826,780.9662],[32.3138,39.8014,761.1403],[32.3187,39.7982,756.3669],[32.3349,39.7965,729.3947],[32.3473,39.8008,741.5487],[32.354,39.806399999999996,761.748],[32.3703,39.8321,870.5402],[32.3779,39.8563,760.1063],[32.3918,39.8788,780.6776],[32.4046,39.8869,781.9804],[32.4463,39.8914,773.9897],[32.457,39.8976,766.2253],[32.4606,39.902,765.7125],[32.4631,39.91,783.15],[32.4607,39.9236,838.0413],[32.4364,39.9603,1021.2268],[32.4305,39.9788,970.1084],[32.4191,40.0004,1096.5193],[32.4179,40.0144,1224.8682],[32.4197,40.0256,1243.6191],[32.4374,40.0541,1384.0114],[32.4524,40.067,1174.1775],[32.4676,40.0748,1063.6478],[32.5102,40.0906,892.2525],[32.5405,40.1052,872.4559],[32.5388,40.1202,899.5962],[32.5396,40.1356,994.5449],[32.5422,40.1443,962.7443],[32.5513,40.1611,1017.0234],[32.5539,40.1769,1112.9534],[32.5525,40.1995,1202.0438],[32.5474,40.2126,1258.2118],[32.5192,40.2255,1128.1931],[32.5048,40.2271,1077.1097],[32.4903,40.2266,1111.4374],[32.3879,40.1997,1226.8857],[32.3807,40.1956,1215.0608],[32.3733,40.1787,1199.5654],[32.3689,40.1722,1185.1608],[32.3481,40.1601,978.2555],[32.3295,40.1462,966.7498],[32.3182,40.1352,816.0898],[32.3105,40.1234,791.774],[32.3046,40.1174,910.5563],[32.297,40.1126,1049.9283],[32.2635,40.1003,877.216],[32.2365,40.0985,715.5002],[32.1979,40.1005,723.3086],[32.1641,40.1128,827.4645],[32.1457,40.1229,791.2753],[32.1357,40.11,792.1226],[32.1075,40.0656,708.4207],[32.0996,40.042,844.8217],[32.0701,39.9953,1041.9272],[32.0594,39.9843,1037.5453],[32.019,39.9516,1045.0723],[31.9998,39.9239,1005.2256],[31.9844,39.8978,986.389],[31.9824,39.8867,916.9804],[31.9823,39.8664,903.3692]]]]}}