{"type": "Feature","bbox": [35.8809,37.2675,36.1368,37.6216],"geometry": {"type": "MultiPolygon","coordinates": [[[[35.8822,37.2675,33.2313],[35.921,37.2689,32.072],[35.9583,37.2825,34.037],[35.9816,37.2966,38.3818],[36.005,37.3074,38.18],[36.0115,37.313,42.146],[36.0212,37.3269,44.2194],[36.0305,37.3357,49.1111],[36.0446,37.345,54.2446],[36.0653,37.3538,61.9858],[36.0756,37.3637,74.3214],[36.0875,37.382,83.0621],[36.0905,37.3901,95.968],[36.0926,37.444,221.7915],[36.0951,37.4524,219.0432],[36.1051,37.4718,260.3183],[36.109,37.5196,352.8315],[36.1184,37.5361,522.6329],[36.1244,37.5545,656.2184],[36.1357,37.5767,908.5295],[36.1368,37.6012,1407.5725],[36.132,37.6216,1425.967],[36.1023,37.6113,1263.2791],[36.0665,37.5869,674.0524],[36.0389,37.5747,363.056],[36.0281,37.5667,510.4268],[36.0193,37.5575,416.0698],[35.9386,37.4313,47.3244],[35.9143,37.4061,40.1479],[35.8843,37.3596,47.306399999999996],[35.8818,37.3512,49.1555],[35.8809,37.3394,45.5281],[35.8822,37.2675,33.2313]]]]}
,"properties": {"GID_2": "TUR.64.6_1","GID_0": "TUR","country": "Turkey","GID_1": "TUR.64_1","province": "Osmaniye","NL_NAME_1": "NA","county": "Sumbas","VARNAME_2": "NA","NL_NAME_2": "NA","TYPE_2": "District","ENGTYPE_2": "District","CC_2": "NA","HASC_2": "TR.OS.SU","name": "Sumbas.county","area_km2": 435.0969,"hist_schema_id": "Elevation0-9000","hist_area_km2": {"25": 55.127,"50": 145.7705,"75": 34.1993,"100": 19.4298,"125": 14.173,"150": 12.2863,"175": 12.604,"200": 11.5259,"225": 11.7773,"250": 10.3293,"275": 10.3286,"300": 8.5783,"325": 6.7108,"350": 5.5834,"375": 3.9181,"400": 3.262,"425": 2.4547,"450": 2.1184,"475": 1.8997,"500": 2.1015,"525": 2.4376,"550": 2.9755,"575": 3.3116,"600": 2.4711,"625": 2.2189,"650": 2.1347,"675": 1.9498,"700": 2.0506,"725": 1.9497,"750": 1.9497,"775": 1.479,"800": 1.3782,"825": 1.6302,"850": 1.7479,"875": 1.7646,"900": 2.2687,"925": 2.5542,"950": 2.1005,"975": 2.3354,"1000": 2.2684,"1025": 2.1507,"1050": 2.3019,"1075": 2.3691,"1100": 2.0834,"1125": 1.8649,"1150": 1.1928,"1175": 1.4279,"1200": 1.1591,"1225": 0.8399,"1250": 0.8231,"1275": 0.4703,"1300": 0.4367,"1325": 0.3527,"1350": 0.1512,"1375": 0.084,"1400": 0.2016,"1425": 0.0336}}}