{"type": "Feature","bbox": [27.7879,37.727,28.1329,38.022],"geometry": {"type": "MultiPolygon","coordinates": [[[[28.1175,37.7341,342.1612],[28.1196,37.7756,335.83],[28.1222,37.7843,278.5821],[28.1301,37.7981,126.6532],[28.1329,37.8099,50.0219],[28.1319,37.8251,41.6751],[28.126,37.8378,41.8351],[28.0872,37.8223,38.9858],[28.0717,37.8197,38.86],[28.0488,37.8206,38.5508],[28.04,37.8245,42.5713],[28.035,37.8304,45.936],[28.0345,37.8351,49.0373],[28.0362,37.8392,53.591],[28.0561,37.8707,134.4006],[28.0581,37.8799,201.5974],[28.0589,37.8957,222.8471],[28.0581,37.985,836.6121],[28.0542,37.9964,1074.3307],[28.0369,38.022,1584.8177],[27.9937,38.0084,734.3911],[27.9781,38.0068,972.131],[27.9537,38.0067,1102.1688],[27.9387,38.0184,1445.2771],[27.9288,38.0078,1216.7212],[27.9236,37.9951,1408.7422],[27.8984,37.9931,919.9975],[27.8737,37.9857,1153.5016],[27.8569,37.984,1039.8019],[27.8377,37.9616,1303.5049],[27.8228,37.9383,1035.5594],[27.8146,37.9149,616.7623],[27.8054,37.8982,414.5884],[27.8034,37.886,253.2801],[27.8021,37.8421,54.5795],[27.7996,37.8333,40.1089],[27.7897,37.8138,22.5002],[27.7879,37.7988,23.9556],[27.788,37.774,25.8673],[27.8097,37.7731,27.538],[27.8231,37.769,28.7342],[27.8474,37.7516,29.4061],[27.8709,37.7295,34.7563],[27.9075,37.727,172.2727],[27.9442,37.7283,336.1311],[27.9549,37.7308,578.6029],[27.9994,37.7482,319.5056],[28.0187,37.7505,296.2709],[28.0382,37.749,223.1913],[28.0671,37.7403,194.3454],[28.1024,37.7373,259.4099],[28.1175,37.7341,342.1612]]]]}
,"properties": {"GID_2": "TUR.11.13_1","GID_0": "TUR","country": "Turkey","GID_1": "TUR.11_1","province": "Aydin","NL_NAME_1": "NA","county": "Merkez","VARNAME_2": "AydinMerkez","NL_NAME_2": "NA","TYPE_2": "District","ENGTYPE_2": "District","CC_2": "NA","HASC_2": "TR.AY.AY","name": "Merkez.county","area_km2": 676.55,"hist_schema_id": "Elevation0-9000","hist_area_km2": {"25": 99.2016,"50": 87.3205,"75": 27.0774,"100": 16.1933,"125": 16.0425,"150": 18.3192,"175": 20.3114,"200": 19.2746,"225": 19.0411,"250": 19.41,"275": 17.1992,"300": 16.3131,"325": 16.3128,"350": 14.3015,"375": 11.857,"400": 11.6714,"425": 11.1023,"450": 10.9506,"475": 10.0114,"500": 9.7933,"525": 8.4193,"550": 8.7867,"575": 8.5008,"600": 7.3283,"625": 6.9433,"650": 7.3439,"675": 6.289,"700": 5.4518,"725": 5.4341,"750": 5.133,"775": 5.1833,"800": 4.9156,"825": 5.1329,"850": 5.3667,"875": 5.6006,"900": 5.6842,"925": 5.634,"950": 6.0516,"975": 5.4332,"1000": 5.4997,"1025": 6.0513,"1050": 5.2823,"1075": 5.6833,"1100": 5.232,"1125": 4.9644,"1150": 4.9476,"1175": 4.2454,"1200": 4.8472,"1225": 4.5629,"1250": 4.1115,"1275": 4.1118,"1300": 3.6269,"1325": 3.56,"1350": 3.6436,"1375": 3.2591,"1400": 2.741,"1425": 2.5403,"1450": 2.0222,"1475": 1.5376,"1500": 1.4205,"1525": 0.7855,"1550": 0.6016,"1575": 0.3844,"1600": 0.2674,"1625": 0.1671,"1650": 0.0835,"1675": 0.0334}}}