{"type":"Feature","properties":{"GID_1":"TUR.34_1","GID_0":"TUR","country":"Turkey","province":"Giresun","VARNAME_1":"Kerasund","NL_NAME_1":"NA","TYPE_1":"Il","ENGTYPE_1":"Province","CC_1":"NA","HASC_1":"TR.GI","ISO_1":"TR-28","name":"Giresun.province"},
"geometry":{"type": "MultiPolygon","coordinates": [[[[38.5233,40.1169,1487.6775],[38.5372,40.1193,1551.7219],[38.5707,40.1161,1600.5869],[38.6251,40.096,1864.5681],[38.649,40.0916,1833.5779],[38.6702,40.0846,1922.4034],[38.709,40.0799,1893.3175],[38.7387,40.0632,1793.3811],[38.7737,40.0488,1353.5988],[38.8457,40.0474,1956.0504],[38.8743,40.0502,1909.4636],[38.8959,40.0572,1972.7952],[38.9285,40.0627,1977.8196],[38.9431,40.0764,1832.6917],[38.9481,40.0831,1697.8108],[38.9504,40.0968,1295.7616],[38.948,40.1049,1353.1865],[38.9367,40.1169,1175.2734],[38.9128,40.1365,1619.2443],[38.909,40.1417,1641.3617],[38.9063,40.1498,1517.8754],[38.9057,40.1698,1511.113],[38.9073,40.1836,1693.047],[38.9055,40.2338,2019.2156],[38.906,40.2452,1859.8101],[38.909,40.2562,1772.3263],[38.9222,40.2702,1713.5273],[38.9612,40.2985,1882.5171],[39.0484,40.3332,2512.4097],[39.0715,40.3507,3023.6868],[39.071,40.3643,3020.1909],[39.0672,40.3749,2997.5818],[39.0542,40.3871,2991.4839],[39.0434,40.3935,2791.72],[39.0219,40.402,2875.4429],[38.9834,40.4282,2444.6426],[38.9504,40.4417,1981.8431],[38.9316,40.4477,2034.6003],[38.9138,40.4441,1952.1616],[38.903,40.444,2074.1287],[38.8893,40.4463,1989.3505],[38.8656,40.4552,2276.729],[38.855,40.4614,2103.3582],[38.8494,40.4679,2209.2935],[38.8461,40.4796,2284.0752],[38.8465,40.4982,2349.6948],[38.8495,40.5131,2013.7317],[38.8469,40.5283,1894.4353],[38.8472,40.5619,2122.1233],[38.8525,40.5753,1719.6052],[38.9043,40.6538,2139.4775],[38.922,40.6832,1844.8497],[38.933,40.6957,1760.2668],[38.9522,40.7113,1869.1882],[38.9654,40.7194,1523.3337],[38.9893,40.7291,569.3578],[39.0265,40.7576,1018.0074],[39.108,40.7585,1307.6105],[39.1219,40.7622,1388.5811],[39.1496,40.7755,1667.3336],[39.1349,40.7965,1411.4893],[39.1298,40.8233,962.7506],[39.1193,40.8454,738.5233],[39.1165,40.871,1653.9021],[39.1185,40.8907,1731.9393],[39.1179,40.9509,438.1103],[39.1211,40.9662,413.3962],[39.1291,40.98,654.1057],[39.1357,40.9972,543.1887],[39.1446,41.008,728.6381],[39.1481,41.0369,269.7336],[39.1606,41.0496,59.5281],[39.1705,41.0687,198.7897],[39.1787,41.074,0.0],[39.1743,41.074,0.95],[39.1707,41.0776,0.0],[39.1626,41.0793,0.0],[39.1357,41.0607,3.762],[39.1162,41.051,5.2609],[39.0868,41.0451,10.0943],[39.0735,41.0449,0.3763],[39.0679,41.0415,7.0255],[39.0638,41.0421,0.0],[39.0576,41.0379,3.6104],[39.0262,41.0329,2.4358],[39.0079,41.0324,0.3735],[39.0032,41.0349,4.4043],[39.0035,41.0363,0.0],[39.0065,41.0371,0.0],[38.9971,41.0385,3.5806],[38.9874,41.0365,4.4541],[38.9832,41.0365,4.9311],[38.9799,41.0387,20.4443],[38.9696,41.0363,4.863],[38.9571,41.0379,0.0],[38.9487,41.0365,13.7637],[38.9407,41.0387,37.9349],[38.9335,41.0438,0.0],[38.9251,41.0393,2.6888],[38.9185,41.0396,0.656],[38.8854,41.0174,0.7872],[38.8715,41.0112,0.0],[38.8662,41.0107,0.0],[38.8629,41.0121,0.0],[38.8421,41.0101,1.731],[38.8332,41.0049,22.6422],[38.8279,41.0068,0.7017],[38.8265,41.0046,1.9547],[38.8235,41.0049,4.8367],[38.8218,41.0082,1.6392],[38.8174,41.0071,0.4928],[38.8168,41.0104,0.6027],[38.8187,41.0115,0.0],[38.8121,41.0101,0.0],[38.8115,41.0076,0.0],[38.8071,41.0051,0.0],[38.8076,41.0032,6.7393],[38.8051,41.0032,1.8712],[38.8029,41.0001,21.3572],[38.7976,40.999,12.6654],[38.7929,41.0015,0.0],[38.7935,40.9968,1.7293],[38.7901,40.994,1.9036],[38.7843,40.9918,28.053],[38.7818,40.9929,1.4888],[38.7504,40.9704,4.4394],[38.7226,40.9538,0.0],[38.7207,40.9543,0.0],[38.7149,40.9507,0.0],[38.6921,40.9474,0.8289],[38.6862,40.9474,0.0],[38.6799,40.9496,1.8283],[38.6749,40.949,0.0],[38.6613,40.9554,61.6234],[38.6543,40.9629,3.8328],[38.6554,40.9646,1.4764],[38.6496,40.9699,0.0],[38.6443,40.9707,5.9693],[38.6432,40.9743,0.0],[38.641,40.9743,0.0],[38.6415,40.9721,8.8991],[38.6335,40.9707,0.0],[38.6246,40.9735,7.5752],[38.6218,40.9718,16.9961],[38.6204,40.9676,3.7666],[38.611,40.9668,15.4542],[38.6071,40.9596,7.611],[38.599,40.954,1.4008],[38.5951,40.9538,0.0],[38.5935,40.9488,8.1483],[38.5871,40.9443,1.4344],[38.5796,40.9432,21.5107],[38.5768,40.9399,16.793],[38.5743,40.9401,2.1649],[38.5685,40.9338,1.204],[38.5571,40.9293,0.955],[38.5415,40.9204,34.4967],[38.529,40.9165,16.1586],[38.5238,40.9185,4.3541],[38.5057,40.9179,3.1766],[38.5018,40.916,12.1976],[38.494,40.9165,7.3856],[38.4801,40.9132,32.1575],[38.4757,40.9151,31.2831],[38.4732,40.9185,3.5863],[38.4693,40.9188,0.0],[38.4582,40.9151,12.8581],[38.4507,40.9162,0.7183],[38.4463,40.9146,17.9889],[38.4382,40.9149,0.2226],[38.4299,40.9113,4.8268],[38.4254,40.9121,4.3567],[38.4201,40.9162,5.3052],[38.4071,40.9143,3.0057],[38.401,40.9154,6.7823],[38.3943,40.9196,13.7722],[38.3926,40.9238,0.0],[38.3896,40.9243,2.6439],[38.3815,40.9229,0.489],[38.376,40.9207,0.0],[38.3776,40.9201,0.0],[38.3818,40.9224,0.489],[38.3849,40.9218,2.1278],[38.3829,40.9179,3.8914],[38.3799,40.9168,0.5189],[38.3779,40.9185,0.0],[38.3785,40.9149,8.2781],[38.3765,40.914,2.4312],[38.3774,40.9168,0.3224],[38.3763,40.9165,0.3224],[38.3757,40.9135,7.5721],[38.3688,40.9096,4.338],[38.3563,40.909,1.7908],[38.3229,40.9199,3.1501],[38.3213,40.9226,0.0],[38.3096,40.9285,20.3953],[38.3065,40.9315,3.1472],[38.3071,40.9338,0.0],[38.3046,40.9354,1.7523],[38.2912,40.9374,6.5111],[38.2876,40.9393,0.0],[38.2879,40.9437,0.0],[38.2832,40.9451,16.0078],[38.2665,40.944,4.8905],[38.2612,40.9451,13.6949],[38.2368,40.9399,7.155],[38.2004,40.9379,6.5833],[38.1876,40.939,1.9834],[38.1854,40.9418,0.6524],[38.1815,40.9432,0.0],[38.1876,40.9443,0.0],[38.1826,40.9449,0.0],[38.1801,40.9432,3.1326],[38.1662,40.9463,1.6886],[38.1635,40.9471,4.9388],[38.1618,40.9499,10.6199],[38.1565,40.9496,7.6925],[38.1557,40.9512,0.0],[38.1524,40.9504,25.7084],[38.1507,40.9538,0.0],[38.1329,40.9526,2.2799],[38.124,40.9538,0.7854],[38.1232,40.9551,0.7854],[38.1186,40.9415,181.6526],[38.1089,40.9222,348.7878],[38.0983,40.9068,470.5129],[38.09,40.8865,574.3828],[38.0713,40.8643,575.1614],[38.0618,40.8385,1077.8848],[38.0243,40.7807,1264.0537],[38.0183,40.7522,1007.2914],[38.0156,40.7537,1109.168],[38.0113,40.7534,902.1711],[38.0086,40.7483,1103.8696],[38.0112,40.7423,1336.2288],[38.0389,40.7011,1682.3912],[38.0614,40.6781,1436.8436],[38.0707,40.6639,1024.3582],[38.0895,40.6453,1140.677],[38.1004,40.6289,1645.3745],[38.1166,40.6118,1661.5828],[38.1241,40.5919,1865.8086],[38.1281,40.5756,2063.4429],[38.1375,40.5593,2047.6791],[38.1424,40.5436,2370.4287],[38.148,40.5345,2679.7563],[38.1554,40.5283,2896.1348],[38.1557,40.5087,2612.1479],[38.1825,40.4662,2237.4595],[38.1848,40.4581,2134.3562],[38.1857,40.4439,2100.2109],[38.1891,40.4334,1779.2979],[38.1982,40.4167,1720.3622],[38.2031,40.3897,2052.0232],[38.2131,40.3701,2098.4485],[38.2181,40.3431,1424.5906],[38.2288,40.3208,1081.3265],[38.232,40.2759,1171.7135],[38.2418,40.2565,1018.2601],[38.2441,40.248,929.9915],[38.2449,40.2149,1200.6035],[38.2471,40.2034,1516.4738],[38.25,40.1984,1353.507],[38.2564,40.1926,1232.5997],[38.2827,40.1804,1072.2402],[38.3158,40.1578,845.0],[38.3668,40.1375,965.5779],[38.3964,40.12,1097.7754],[38.453,40.0978,1071.8755],[38.4628,40.0963,1066.204],[38.4695,40.097,1087.2118],[38.4922,40.1042,1235.8777],[38.508,40.1119,1383.5098],[38.5233,40.1169,1487.6775]]],
[[[38.4385,40.929,0.0],[38.4357,40.9307,0.0],[38.4351,40.9287,0.0],[38.4374,40.9282,0.0],[38.4385,40.929,0.0]]]]}}