{"type":"Feature","properties":{"featurecla":"River","scalerank":9,"rivernum":1060,"dissolve":"1060River","name":"Kelkit1","name_alt":null,"note":null,"min_zoom":7.1,"strokeweig":0.2,"name_en":"Kelkit","min_label":8.1},
"geometry":{"type": "LineString","coordinates": [[39.015234375,40.099383856244117,1422.3015],[38.99072265625,40.106073309369116,1453.965],[38.980224609375,40.10687897343162,1277.9542],[38.970800781250006,40.10394928593162,1204.7605],[38.953857421875,40.11847565311912,1309.7823],[38.93515625,40.12177155155662,1164.3901],[38.892333984375,40.11762116093162,1276.9132],[38.77587890625,40.13629791874412,1100.1948],[38.620361328125,40.13349030155662,1042.745],[38.534082031250023,40.14362213749412,953.8444],[38.497949218750023,40.15350983280662,1038.011],[38.468994140625,40.164911199994116,934.8055],[38.458105468750006,40.16657135624412,941.3113],[38.446191406250023,40.164911199994116,913.1649],[38.438085937500006,40.160419012494117,1011.5424],[38.43212890625,40.15570709843162,1113.2355],[38.426513671875,40.15350983280662,1036.2197],[38.415917968750023,40.152362371869117,865.2908],[38.402929687500006,40.147235418744117,953.7018],[38.392480468750023,40.14606354374412,845.0],[38.37939453125,40.147723699994117,845.0],[38.372167968750006,40.15167877811912,845.0],[38.367285156250006,40.15619537968162,853.4149],[38.361425781250006,40.15973541874412,845.0],[38.3203125,40.172723699994116,847.4569],[38.32568359375,40.192743231244116,845.0],[38.317773437500023,40.20538971561912,845.0],[38.260644531250023,40.235467840619116,845.0],[38.24755859375,40.23993561405662,845.0],[38.189453125,40.24164459843162,845.0],[38.169677734375,40.248065496869117,806.2543],[38.159277343750006,40.24909088749412,973.9638],[38.139746093750006,40.24835846561912,749.5],[38.119238281250006,40.245477606244116,749.5],[38.1025390625,40.23908112186912,749.5],[38.094482421875,40.22797272343162,754.6284],[38.090722656250023,40.230096746869116,749.5],[38.08984375,40.230340887494116,749.5],[38.089746093750023,40.231317449994116,749.5],[38.087646484375,40.23541901249412,767.8184],[38.068115234375,40.226336981244117,756.4561],[38.046972656250006,40.22345612186912,855.5679],[38.027099609375,40.228045965619117,734.2915],[38.010839843750006,40.24115631718162,1081.403],[37.99072265625,40.236932684369116,717.4725],[37.96923828125,40.24457428593162,786.5992],[37.947167968750023,40.25543854374412,918.8046],[37.925195312500023,40.261004949994117,928.1066],[37.9169921875,40.26434967655662,838.3973],[37.902587890625,40.27875397343162,1191.5001],[37.890722656250006,40.282098699994116,1125.9193],[37.867431640625,40.28363678593162,944.3174],[37.00732421875,40.494256903119116,653.5855],[36.968359375,40.511590887494116,422.8535],[36.943115234375,40.532489324994117,284.4397],[36.938232421875,40.54523346561912,281.3951],[36.929443359375,40.598260809369116,315.3345],[36.922558593750011,40.60724518436912,414.5013],[36.891210937500006,40.61774323124412,274.8361],[36.881591796875,40.62518952030662,311.9771],[36.817773437500023,40.627069403119116,280.7023],[36.805908203125,40.62518952030662,262.8602],[36.799072265625,40.63263580936912,253.4565],[36.803125,40.63593170780662,256.2809],[36.804101562500023,40.63764069218162,296.5108],[36.804296875,40.64044830936912,371.4196],[36.805908203125,40.64691803593162,371.8491],[36.794042968750006,40.64227936405662,297.4478],[36.786865234375,40.647723699994117,342.8619],[36.77978515625,40.65619537968162,335.985],[36.76806640625,40.66058991093162,342.8591],[36.743554687500023,40.661249090619116,314.3394],[36.728417968750023,40.65924713749412,268.492],[36.716552734375,40.65314362186912,225.7779],[36.692480468750006,40.672967840619116,245.6449],[36.68115234375,40.67853424686912,251.4467],[36.650146484375,40.68195221561912,218.05],[36.5796875,40.70270416874412,200.0237],[36.55224609375,40.715838934369117,217.5078],[36.529882812500006,40.73334381718162,194.5627],[36.517968750000023,40.75556061405662,192.3904]]}}