{"type": "Feature","id": "2292","bbox": [38.06272,40.05254,39.14835,41.07247],"geometry": {"type": "Polygon","coordinates": [[[39.14441,40.77136,1888.5294],[39.12602,40.80955,1234.6919],[39.11744,40.90112,1669.3939],[39.12012,40.9512,402.4483],[39.14834,41.07243,0.0],[39.14835,41.07247,0.0],[39.1312,41.06147,0.0],[39.12233,41.05728,0.0],[39.04176,41.0434,0.0],[38.9275,41.04263,0.0],[38.90838,41.03767,0.0],[38.89234,41.02709,0.0],[38.87582,41.01895,0.0],[38.80592,41.00776,0.0],[38.7837,41.00178,0.0],[38.77906,40.99921,0.0],[38.7754,40.99335,0.0],[38.75514,40.97529,0.0],[38.74334,40.97248,0.0],[38.73308,40.96613,0.0],[38.72462,40.95917,0.0],[38.71762,40.95478,0.0],[38.70704,40.95287,0.0],[38.68775,40.9527,0.0],[38.67791,40.94864,16.8364],[38.67091,40.95454,0.0],[38.65545,40.9711,0.0],[38.64926,40.97529,0.0],[38.63705,40.97602,0.0],[38.60475,40.96845,0.0],[38.59156,40.96255,0.0],[38.55486,40.935,0.0],[38.5394,40.92691,0.0],[38.46372,40.92377,0.0],[38.45232,40.91673,4.6568],[38.42677,40.91865,0.0],[38.38933,40.92691,0.0],[38.35125,40.91787,0.0],[38.3309,40.91787,0.0],[38.28736,40.94721,0.0],[38.26832,40.95038,0.0],[38.22413,40.94115,0.0],[38.20143,40.94135,0.0],[38.16131,40.95209,0.0],[38.1142,40.95816,3.3764],[38.11419,40.95812,3.3764],[38.11336,40.9543,25.7714],[38.11533,40.91944,332.1348],[38.10106,40.88913,490.7894],[38.07936,40.87048,500.7497],[38.06293,40.84627,840.1912],[38.06272,40.81454,1331.2263],[38.07967,40.78604,1218.201],[38.08505,40.75229,1424.7767],[38.0805,40.7179,1268.2543],[38.0836,40.68436,1248.4951],[38.07915,40.65106,1056.5818],[38.06727,40.63196,1757.627],[38.06334,40.60522,1936.7625],[38.15832,40.52355,2984.0679],[38.24049,40.28522,1156.538],[38.23821,40.22858,913.9772],[38.2748,40.18607,1143.4669],[38.33113,40.16468,902.7443],[38.39231,40.12827,1049.3035],[38.45422,40.09988,1102.4442],[38.55633,40.11939,1651.7689],[38.66103,40.09347,1839.3606],[38.76159,40.05495,1296.8625],[38.80552,40.05254,1879.4011],[38.89254,40.05761,1981.24],[38.93326,40.07133,2126.1013],[38.94236,40.1051,1360.3705],[38.91466,40.13215,1552.2092],[38.90567,40.16703,1452.4504],[38.91021,40.20328,1678.7999],[38.90587,40.23687,1979.7324],[38.90711,40.26987,1738.9146],[38.92902,40.29046,1805.6836],[39.02959,40.33304,2822.3662],[39.05977,40.35188,2920.7668],[39.06545,40.38839,3227.7483],[39.04302,40.39356,2791.72],[39.01574,40.41469,2719.8328],[38.98794,40.43255,2372.5498],[38.8698,40.45422,2292.0012],[38.84231,40.48017,2221.5896],[38.83973,40.51603,2082.2617],[38.84655,40.56083,1984.3516],[38.84872,40.56845,1925.3635],[38.85936,40.57995,1824.9991],[38.88975,40.60372,1872.7321],[38.90856,40.63003,1995.6329],[38.89554,40.66088,1960.8484],[38.90773,40.68672,1825.7417],[38.93977,40.70212,1882.7065],[38.96892,40.72103,1456.168],[38.9931,40.72625,647.3788],[39.01243,40.73436,522.9235],[39.01656,40.74862,1082.3271],[39.02442,40.76054,1144.9658],[39.14441,40.77136,1888.5294]]]}
,"properties": {"ISO3166-1-Alpha-3": "TUR","country": "Turkey","fill": "#F0F","name": "Giresun","area_km2": 6755.94,"hist_schema_id": "Elevation0-9000","hist_area_km2": {"0": 79.581,"25": 36.175,"50": 36.498,"75": 38.31,"100": 43.309,"125": 47.974,"150": 51.454,"175": 54.885,"200": 59.375,"225": 62.152,"250": 63.984,"275": 66.456,"300": 66.045,"325": 65.183,"350": 65.894,"375": 67.631,"400": 66.128,"425": 66.39,"450": 63.831,"475": 60.629,"500": 59.461,"525": 56.517,"550": 55.16,"575": 52.583,"600": 52.363,"625": 49.288,"650": 47.961,"675": 47.245,"700": 46.092,"725": 43.848,"750": 42.454,"775": 42.17,"800": 42.253,"825": 40.57,"850": 74.264,"875": 54.647,"900": 55.047,"925": 53.456,"950": 55.958,"975": 56.288,"1000": 54.867,"1025": 58.735,"1050": 61.351,"1075": 62.022,"1100": 67.413,"1125": 70.465,"1150": 68.233,"1175": 70.059,"1200": 69.788,"1225": 69.516,"1250": 70.804,"1275": 73.002,"1300": 72.1,"1325": 70.052,"1350": 74.176,"1375": 75.856,"1400": 77.488,"1425": 79.579,"1450": 83.282,"1475": 86.577,"1500": 89.879,"1525": 92.287,"1550": 98.765,"1575": 103.389,"1600": 107.65,"1625": 106.577,"1650": 108.233,"1675": 111.412,"1700": 112.547,"1725": 111.334,"1750": 110.19,"1775": 112.772,"1800": 115.292,"1825": 113.268,"1850": 111.841,"1875": 108.818,"1900": 106.88,"1925": 102.65,"1950": 100.376,"1975": 96.071,"2000": 93.41,"2025": 89.541,"2050": 85.742,"2075": 82.971,"2100": 77.375,"2125": 71.472,"2150": 60.711,"2175": 52.809,"2200": 45.747,"2225": 40.004,"2250": 34.795,"2275": 33.024,"2300": 29.538,"2325": 25.393,"2350": 22.519,"2375": 18.985,"2400": 17.468,"2425": 15.098,"2450": 14.679,"2475": 14.372,"2500": 12.292,"2525": 11.841,"2550": 9.696,"2575": 8.406,"2600": 6.631,"2625": 5.776,"2650": 5.648,"2675": 5.309,"2700": 4.712,"2725": 4.502,"2750": 4.6,"2775": 4.002,"2800": 4.115,"2825": 3.679,"2850": 3.776,"2875": 2.969,"2900": 2.84,"2925": 1.63,"2950": 1.275,"2975": 0.661,"3000": 0.452,"3025": 0.194,"3050": 0.081}}}