{"type":"Feature","properties":{"GID_2":"TUR.78.8_1","GID_0":"TUR","country":"Turkey","GID_1":"TUR.78_1","province":"Van","NL_NAME_1":"NA","county":"Gürpınar","VARNAME_2":"NA","NL_NAME_2":"NA","TYPE_2":"District","ENGTYPE_2":"District","CC_2":"NA","HASC_2":"TR.VA.GU","name":"Gürpınar.county"},
"geometry":{"type": "MultiPolygon","coordinates": [[[[43.8927,37.7004,1725.9944],[43.9148,37.7058,1903.6292],[43.9697,37.7268,2299.9275],[43.9507,37.7606,2824.9751],[43.9476,37.7689,2928.1431],[43.946,37.7877,2942.2249],[43.9467,37.8389,2275.0894],[43.9489,37.8512,2346.95],[43.958,37.8679,2101.9956],[43.9605,37.8767,2215.2771],[43.9619,37.9206,2258.5288],[43.9639,37.9327,2186.4165],[43.973,37.9495,2054.9624],[43.9802,37.9704,2139.9946],[44.0024,38.005,2133.6614],[44.0063,38.0164,2155.4668],[44.0073,38.0355,2251.0608],[44.0065,38.1616,2562.063],[44.0089,38.177,2429.5618],[44.0138,38.1843,2814.5212],[44.0208,38.1897,2724.2437],[44.0505,38.2011,2635.4023],[44.065,38.2035,3021.626],[44.0953,38.2044,2973.0398],[44.1083,38.2079,2813.4304],[44.1143,38.2134,2489.9607],[44.1246,38.2285,2818.6597],[44.129,38.2554,2729.6582],[44.1347,38.2666,2825.5476],[44.1531,38.2825,2731.0249],[44.1754,38.2956,2413.5134],[44.1325,38.3285,2931.3638],[44.1171,38.3427,2764.562],[44.1081,38.3569,2560.2588],[44.0856,38.3798,2591.1406],[44.0573,38.4243,2512.499],[44.0529,38.4371,2639.2212],[44.0367,38.4465,2374.6089],[43.9796,38.4686,2366.9766],[43.9697,38.471,2379.9934],[43.9376,38.474,2347.7207],[43.9164,38.4811,2345.334],[43.8891,38.4863,2427.3464],[43.856,38.4987,2315.9006],[43.8267,38.5137,2279.5317],[43.7964,38.498,2487.8247],[43.7823,38.4959,2596.9045],[43.753,38.4951,2408.0916],[43.7358,38.4922,2439.1882],[43.7087,38.4819,2460.8857],[43.6794,38.4644,2754.1914],[43.6308,38.4457,2405.7334],[43.604,38.4294,2249.063],[43.5803,38.4195,2210.5569],[43.5341,38.3858,1944.6548],[43.5023,38.371,1835.9768],[43.4905,38.3616,1819.7498],[43.4757,38.346,1775.2913],[43.4541,38.3366,1764.5028],[43.445,38.3348,1759.0693],[43.4268,38.3114,1758.1821],[43.423,38.3025,1768.1229],[43.4216,38.2929,1782.8202],[43.4227,38.2635,1871.9666],[43.4253,38.2517,2048.9587],[43.4471,38.2177,2442.4302],[43.4551,38.1942,2200.0171],[43.4796,38.1544,2058.5713],[43.4819,38.1361,2059.6553],[43.4824,38.0554,2351.7607],[43.4796,38.048,2531.6973],[43.4714,38.0439,2471.2996],[43.4626,38.045,2543.7322],[43.4271,38.0608,2406.3777],[43.4179,38.0634,1942.6146],[43.4044,38.0617,2365.4575],[43.3991,38.0587,2325.2627],[43.3933,38.0524,2458.3281],[43.3902,38.0408,2282.9062],[43.3911,38.0196,1930.3226],[43.3944,38.0079,1928.4965],[43.4047,37.9886,1903.2802],[43.4067,37.9646,2120.4854],[43.4037,37.9408,2153.9114],[43.3941,37.9244,2376.3369],[43.3916,37.9163,2435.9263],[43.3907,37.905,2194.5498],[43.3934,37.8912,2267.9812],[43.4098,37.8701,2209.8804],[43.4592,37.8483,2756.2666],[43.4856,37.8292,2978.3291],[43.5039,37.813,2844.4385],[43.5089,37.8052,2672.0603],[43.5148,37.7868,2500.9229],[43.5237,37.7704,2556.6113],[43.5256,37.7592,2742.6162],[43.5258,37.739,2840.9619],[43.5408,37.7274,2922.9504],[43.6029,37.7266,2427.6187],[43.6144,37.7246,2617.5308],[43.6391,37.717,2985.647],[43.6758,37.7153,3282.416],[43.738,37.7165,3073.6399],[43.7495,37.7185,3037.6072],[43.7706,37.7254,2459.9021],[43.7846,37.7262,2009.105],[43.7986,37.7236,1811.759],[43.8459,37.7057,1780.4431],[43.8927,37.7004,1725.9944]]]]}}