{"type": "Feature","bbox": [29.5166,36.9272,29.8774,37.3465],"geometry": {"type": "MultiPolygon","coordinates": [[[[29.8774,37.1614,1912.8864],[29.8422,37.1706,1814.983],[29.8183,37.1853,1385.7004],[29.7975,37.1941,1354.0676],[29.7677,37.2112,1366.8318],[29.7536,37.2134,1213.1411],[29.7135,37.2153,1197.9028],[29.6741,37.23,1217.4368],[29.6614,37.2389,1378.3372],[29.6531,37.2473,1439.2542],[29.6277,37.2868,1578.3937],[29.6204,37.292,1250.0637],[29.6025,37.2989,1178.5049],[29.5918,37.3052,1375.699],[29.5379,37.3465,885.8375],[29.5274,37.3215,892.4244],[29.5166,37.3072,924.2787],[29.5354,37.2903,1019.377],[29.5883,37.2497,1045.3947],[29.5992,37.2386,1038.889],[29.6031,37.2279,1021.2753],[29.6043,37.2025,1155.8623],[29.6073,37.1916,1069.0939],[29.6265,37.171,979.6642],[29.6314,37.1635,974.7875],[29.6374,37.1451,1033.8121],[29.6465,37.1287,1063.062],[29.6488,37.1069,1037.9517],[29.6508,37.101,1073.6033],[29.6903,37.0381,1207.8463],[29.6969,37.0169,1493.8083],[29.7051,37.0031,1540.1598],[29.7117,36.982,1598.5083],[29.721,36.9656,1664.4581],[29.7263,36.9468,1625.9553],[29.7372,36.9272,1286.3129],[29.7522,36.9354,1317.7761],[29.7618,36.9428,1387.725],[29.7754,36.9611,1367.5635],[29.8091,36.991,1478.8606],[29.8244,37.0143,1431.2266],[29.8283,37.0282,1418.075],[29.8302,37.0673,1394.5917],[29.8412,37.0894,1396.8545],[29.846,37.1168,1733.1084],[29.8629,37.1452,2157.3337],[29.8774,37.1614,1912.8864]]]]}
,"properties": {"GID_2": "TUR.20.4_1","GID_0": "TUR","country": "Turkey","GID_1": "TUR.20_1","province": "Burdur","NL_NAME_1": "NA","county": "Çavdır","VARNAME_2": "NA","NL_NAME_2": "NA","TYPE_2": "District","ENGTYPE_2": "District","CC_2": "NA","HASC_2": "TR.BD.CA","name": "Çavdır.county","area_km2": 505.8464,"hist_schema_id": "Elevation0-9000","hist_area_km2": {"875": 2.1073,"900": 0.7924,"925": 1.2984,"950": 1.4671,"975": 6.3332,"1000": 10.5385,"1025": 15.0654,"1050": 19.0714,"1075": 19.8359,"1100": 18.9757,"1125": 20.2648,"1150": 19.3516,"1175": 18.0496,"1200": 26.5916,"1225": 27.0667,"1250": 22.2712,"1275": 17.0179,"1300": 14.3158,"1325": 13.7258,"1350": 13.2548,"1375": 12.9511,"1400": 32.833,"1425": 15.4087,"1450": 11.2634,"1475": 14.143,"1500": 17.9706,"1525": 15.5511,"1550": 13.8415,"1575": 10.6245,"1600": 7.9163,"1625": 6.5296,"1650": 4.854,"1675": 4.5319,"1700": 3.6523,"1725": 2.8235,"1750": 2.722,"1775": 2.4173,"1800": 2.2478,"1825": 2.4845,"1850": 2.6364,"1875": 2.3153,"1900": 2.6364,"1925": 2.8223,"1950": 2.4506,"1975": 2.2986,"2000": 2.2817,"2025": 2.8736,"2050": 3.2285,"2075": 3.1102,"2100": 2.5354,"2125": 1.7748,"2150": 0.9297,"2175": 0.8282,"2200": 0.4226,"2225": 0.186,"2250": 0.2536,"2275": 0.0845,"2300": 0.0169}}}