{"type": "Feature","bbox": [37.3821,40.7243,37.5611,40.9005],"geometry": {"type": "MultiPolygon","coordinates": [[[[37.5556,40.725,783.7904],[37.5571,40.7463,765.5699],[37.5611,40.7613,870.1578],[37.5239,40.7737,889.7749],[37.4957,40.7937,860.5494],[37.5008,40.806399999999996,697.7867],[37.5206,40.8275,1118.4589],[37.5258,40.8402,983.6709],[37.5154,40.8506,1029.0103],[37.5026,40.869,612.9188],[37.4643,40.9005,170.9989],[37.4493,40.895,193.8514],[37.4358,40.8869,273.7429],[37.4411,40.879,229.8512],[37.4547,40.8704,143.8323],[37.4621,40.8623,386.096],[37.4655,40.8504,711.2325],[37.4672,40.8124,342.3922],[37.4709,40.8042,344.3226],[37.4806,40.7937,379.3776],[37.4775,40.7874,313.8379],[37.4713,40.7825,379.2099],[37.4526,40.7735,484.5578],[37.4013,40.7538,944.8067],[37.3821,40.7369,943.7842],[37.4416,40.7342,511.2625],[37.4669,40.7266,735.4152],[37.4824,40.7243,841.6122],[37.5556,40.725,783.7904]]]]}
,"properties": {"GID_2": "TUR.63.11_1","GID_0": "TUR","country": "Turkey","GID_1": "TUR.63_1","province": "Ordu","NL_NAME_1": "NA","county": "Kabataş","VARNAME_2": "NA","NL_NAME_2": "NA","TYPE_2": "District","ENGTYPE_2": "District","CC_2": "NA","HASC_2": "TR.OR.KT","name": "Kabataş.county","area_km2": 111.46995,"hist_schema_id": "Elevation0-9000","hist_area_km2": {"100": 0.81747,"125": 1.07398,"150": 1.07396,"175": 0.91369,"200": 0.91369,"225": 0.81751,"250": 0.67327,"275": 0.64128,"300": 0.60936,"325": 0.76993,"350": 1.36382,"375": 1.62077,"400": 2.10245,"425": 2.66495,"450": 3.33927,"475": 3.48368,"500": 3.78909,"525": 3.74109,"550": 4.73661,"575": 4.43202,"600": 4.64036,"625": 4.80093,"650": 4.80095,"675": 4.6403,"700": 4.91304,"725": 4.81708,"750": 4.76869,"775": 5.04151,"800": 4.97732,"825": 4.23829,"850": 3.82076,"875": 3.64428,"900": 3.37122,"925": 2.60053,"950": 2.71264,"975": 2.05429,"1000": 1.94176,"1025": 1.29969,"1050": 1.28365,"1075": 0.65795,"1100": 0.54565,"1125": 0.14451,"1150": 0.09636,"1175": 0.04818,"1200": 0.03212}}}