{"type":"Feature","properties":{"GID_2":"TUR.37.12_1","GID_0":"TUR","country":"Turkey","GID_1":"TUR.37_1","province":"Hatay","NL_NAME_1":"NA","county":"Yayladağı","VARNAME_2":"NA","NL_NAME_2":"NA","TYPE_2":"District","ENGTYPE_2":"District","CC_2":"NA","HASC_2":"TR.HT.YA","name":"Yayladağı.county"},
"geometry":{"type": "MultiPolygon","coordinates": [[[[36.206,35.9435,446.9165],[36.2085,35.9516,359.3063],[36.1904,35.9529,476.2719],[36.1841,35.9556,494.3931],[36.1799,35.9606,475.8094],[36.1778,35.9695,468.4636],[36.1779,35.9792,432.6969],[36.1828,35.9994,530.5399],[36.1384,35.998,823.2273],[36.1014,35.9988,861.3759],[36.0459,36.0132,612.7977],[36.0233,36.0105,515.5701],[35.9793,36.0089,10.7116],[35.9799,36.0071,17.2043],[35.9779,36.0065,0.0],[35.9787,36.0043,52.8337],[35.9765,36.0046,0.0],[35.9762,36.0029,12.4393],[35.9701,36.0004,0.0],[35.9596,35.9926,0.0],[35.9571,35.9824,1.5752],[35.9551,35.9829,1.5085],[35.9415,35.9701,11.635],[35.9368,35.9682,5.3256],[35.929,35.9618,6.3213],[35.9296,35.9582,55.1038],[35.9282,35.9568,69.6199],[35.9232,35.9565,19.9699],[35.9212,35.9504,86.3855],[35.919,35.9493,11.1169],[35.9179,35.9412,0.0],[35.9193,35.9396,38.8893],[35.9185,35.9323,0.0],[35.9358,35.9187,502.0439],[35.9509,35.9218,801.9933],[35.9937,35.9393,1053.8921],[36.0015,35.9409,862.4837],[36.0085,35.9403,729.7434],[36.0163,35.9341,645.9278],[36.0229,35.9245,552.9534],[36.0217,35.9087,463.6972],[36.0149,35.8899,466.4027],[36.0163,35.8837,597.4088],[36.0187,35.8811,623.735],[36.0499,35.8791,346.3019],[36.1164,35.8655,419.5571],[36.1341,35.8553,566.4886],[36.1417,35.8465,489.5526],[36.1548,35.8202,548.8625],[36.1691,35.8154,435.4628],[36.1831,35.8356,490.1706],[36.1891,35.8844,604.611],[36.1809,35.9017,527.6805],[36.1877,35.9185,574.8767],[36.206,35.9435,446.9165]]]]}}