{"type":"Feature","properties":{"GID_2":"TUR.49.6_1","GID_0":"TUR","country":"Turkey","GID_1":"TUR.49_1","province":"Kinkkale","NL_NAME_1":"NA","county":"Keskin","VARNAME_2":"NA","NL_NAME_2":"NA","TYPE_2":"District","ENGTYPE_2":"District","CC_2":"NA","HASC_2":"TR.KK.KE","name":"Keskin.county"},
"geometry":{"type": "MultiPolygon","coordinates": [[[[33.439,39.4877,828.0482],[33.449,39.4714,939.9195],[33.4507,39.4637,963.9731],[33.4497,39.4584,965.7369],[33.4417,39.445,972.8132],[33.438,39.4346,969.6016],[33.4577,39.4292,1051.3708],[33.4876,39.4083,1080.8147],[33.4995,39.4022,1012.0348],[33.5266,39.3969,1111.2783],[33.5444,39.3905,1175.4475],[33.5685,39.3863,1099.8641],[33.5849,39.3811,1050.7],[33.5947,39.3844,1069.5819],[33.6065,39.391,1063.0724],[33.662,39.4339,997.6866],[33.6796,39.4438,999.924],[33.7047,39.4465,1006.0474],[33.7602,39.4446,1007.7848],[33.7788,39.468,981.1561],[33.7867,39.4916,924.2173],[33.8014,39.5147,910.0273],[33.8125,39.5238,894.1322],[33.8272,39.5297,843.5732],[33.8392,39.538,833.2786],[33.8558,39.5633,824.5408],[33.8613,39.5936,831.481],[33.8705,39.61,854.716],[33.8773,39.6311,872.7162],[33.8868,39.6474,849.4504],[33.8923,39.6661,794.141],[33.9006,39.6798,808.6168],[33.9061,39.6983,800.4414],[33.9108,39.7058,854.8506],[33.9254,39.7188,789.8392],[33.9633,39.7477,750.2024],[33.9774,39.7567,736.4312],[33.9917,39.7631,712.1935],[34.0029,39.7715,785.7087],[33.9925,39.7894,739.568],[33.9848,39.7936,707.896],[33.9685,39.7937,771.6439],[33.9481,39.7866,702.5556],[33.9329,39.784,786.9788],[33.876,39.7834,1049.9551],[33.8644,39.785,1101.9805],[33.8541,39.7889,1045.1687],[33.8297,39.8068,1112.7672],[33.7586,39.7535,1162.8583],[33.7375,39.7451,1214.0188],[33.7079,39.7275,1139.845],[33.6721,39.7177,1433.7017],[33.6637,39.6954,1251.4364],[33.6564,39.6862,1204.627],[33.6476,39.6808,1266.8035],[33.6324,39.6754,1151.7676],[33.6192,39.6675,1124.0491],[33.4876,39.566,1240.4261],[33.4744,39.5543,968.7521],[33.4621,39.536,824.0599],[33.4358,39.5098,809.1755],[33.439,39.4877,828.0482]]]]}}