{"type": "Feature","bbox": [36.6251,36.9872,37.0521,37.367],"geometry": {"type": "MultiPolygon","coordinates": [[[[36.9617,36.9872,965.4568],[36.9779,36.9966,1016.1729],[37.0133,37.0105,721.6422],[37.0327,37.0322,816.9888],[37.0476,37.0555,927.8955],[37.0518,37.0695,909.2262],[37.0516,37.1001,1267.0048],[37.0494,37.1131,1079.3392],[37.0521,37.1353,1306.6174],[37.0509,37.1436,1287.2441],[37.045,37.1531,1259.1062],[37.0354,37.1595,1185.1111],[37.0163,37.1685,1129.7],[37.0091,37.1775,1096.7922],[37.0067,37.1955,1059.9631],[37.0108,37.2174,883.4468],[36.9789,37.2222,623.7601],[36.9708,37.2267,596.9247],[36.965,37.233,590.9354],[36.9582,37.2536,591.2457],[36.9496,37.2703,549.824],[36.9447,37.2974,575.548],[36.9342,37.3196,565.7795],[36.9305,37.3451,559.1017],[36.9248,37.3541,491.9308],[36.9137,37.3634,488.4733],[36.9024,37.367,484.3768],[36.8938,37.3646,483.2853],[36.8644,37.3433,479.5524],[36.8379,37.3315,474.6528],[36.8016,37.3066,476.6714],[36.7806,37.2979,566.5253],[36.7537,37.282,846.9302],[36.7286,37.2761,1266.6967],[36.7163,37.2631,1235.3354],[36.6853,37.2374,1506.5057],[36.6725,37.2189,1285.7563],[36.6643,37.2106,1571.151],[36.6445,37.1956,1690.4346],[36.6251,37.1855,971.4908],[36.6396,37.1761,823.5422],[36.6561,37.1557,1129.8942],[36.6808,37.1352,537.9916],[36.7018,37.1211,484.5028],[36.7229,37.112,479.8559],[36.7317,37.1046,480.424],[36.7361,37.0945,482.3012],[36.7393,37.0726,486.1572],[36.7485,37.0533,509.4437],[36.7519,37.0325,516.2194],[36.7542,37.028,561.2827],[36.7588,37.0244,536.558],[36.7755,37.0214,534.7232],[36.8217,37.0222,796.5635],[36.8367,37.024,876.0098],[36.858,37.0313,966.8666],[36.869,37.0333,996.2125],[36.8962,37.0346,1046.3562],[36.9184,37.0334,1087.1676],[36.9277,37.0303,1063.1184],[36.9318,37.0266,1065.1545],[36.943,37.0121,1091.3623],[36.9515,36.9978,844.132],[36.9617,36.9872,965.4568]]]]}
,"properties": {"GID_2": "TUR.33.5_1","GID_0": "TUR","country": "Turkey","GID_1": "TUR.33_1","province": "Gaziantep","NL_NAME_1": "NA","county": "Nurdağı","VARNAME_2": "NA","NL_NAME_2": "NA","TYPE_2": "District","ENGTYPE_2": "District","CC_2": "NA","HASC_2": "TR.GA.NU","name": "Nurdağı.county","area_km2": 908.5076,"hist_schema_id": "Elevation0-9000","hist_area_km2": {"475": 129.0419,"500": 82.2989,"525": 66.3036,"550": 55.1063,"575": 48.8693,"600": 44.3266,"625": 25.184,"650": 19.8691,"675": 16.7471,"700": 19.4047,"725": 20.9122,"750": 19.7636,"775": 19.4437,"800": 21.6089,"825": 22.0002,"850": 20.2063,"875": 20.0196,"900": 19.8512,"925": 20.8658,"950": 25.8386,"975": 23.0974,"1000": 23.0955,"1025": 22.0137,"1050": 23.9049,"1075": 20.9621,"1100": 17.0388,"1125": 12.237,"1150": 8.0623,"1175": 6.3547,"1200": 5.1715,"1225": 4.3771,"1250": 4.2249,"1275": 3.9713,"1300": 2.8048,"1325": 3.0584,"1350": 2.1967,"1375": 1.6218,"1400": 1.2328,"1425": 0.7936,"1450": 0.7936,"1475": 0.8273,"1500": 0.4559,"1525": 0.4053,"1550": 0.4222,"1575": 0.2364,"1600": 0.3208,"1625": 0.3884,"1650": 0.2364,"1675": 0.2195,"1700": 0.152,"1725": 0.1182,"1750": 0.0169,"1775": 0.0338}}}