{"type": "Feature","bbox": [27.5287,41.6864,28.0918,41.9966],"geometry": {"type": "MultiPolygon","coordinates": [[[[27.5416,41.9075,409.48],[27.5311,41.8972,413.289],[27.5287,41.8884,380.5063],[27.5321,41.8796,354.5551],[27.5438,41.8612,472.675],[27.5648,41.8317,504.2271],[27.6001,41.8005,674.7553],[27.6176,41.7926,674.4188],[27.7417,41.7456,623.7736],[27.7617,41.7437,527.1968],[27.9028,41.744,201.7492],[27.9269,41.7422,325.5432],[28.0383,41.6997,105.7351],[28.062,41.695,46.7293],[28.0918,41.6864,0.0],[28.0885,41.6896,0.0],[28.0804,41.6907,3.8916],[28.0713,41.6963,4.2447],[28.0713,41.6987,0.0],[28.0679,41.6996,43.2609],[28.0643,41.7032,26.7018],[28.0626,41.7065,0.0],[28.0629,41.7124,0.0],[28.0549,41.7188,0.0],[28.049,41.7212,4.4148],[28.0454,41.726,0.7131],[28.0454,41.7304,10.9919],[28.041,41.7313,11.9287],[28.0399,41.7382,0.0],[28.0449,41.7401,0.0],[28.0426,41.7432,0.0],[28.0435,41.7457,0.0],[28.0404,41.7479,4.3099],[28.0424,41.7487,0.0],[28.0421,41.7526,0.0],[28.0382,41.754,3.3085],[28.0385,41.756,0.0],[28.0338,41.7621,0.0],[28.0301,41.761,2.7813],[28.0312,41.7629,0.0],[28.028199999999998,41.7654,2.4253],[28.0251,41.7651,16.9569],[28.0176,41.771,0.0489],[28.0107,41.7807,0.3948],[28.0043,41.7863,16.007],[28.0043,41.7887,2.8824],[27.9957,41.7974,3.0526],[27.9846,41.8176,0.5262],[27.9788,41.8351,15.3808],[27.9768,41.846,3.0221],[27.9787,41.8657,0.6889],[27.9732,41.8651,0.24],[27.9732,41.8615,0.2679],[27.9704,41.8624,0.1163],[27.971,41.8654,0.2679],[27.9746,41.8682,0.0469],[27.9796,41.8682,0.4171],[27.9813,41.8707,9.6529],[27.9849,41.8704,0.0],[27.9893,41.8779,3.3361],[27.9893,41.8807,1.5801],[27.9957,41.8876,0.608],[28.0104,41.894,6.5361],[28.0163,41.8943,3.178],[28.021,41.8926,3.5725],[28.0249,41.889,0.3624],[28.0287,41.8885,0.7004],[28.0418,41.8804,0.0],[28.0549,41.881,0.0],[28.0579,41.8832,0.0],[28.054,41.8937,7.8639],[28.054,41.8982,0.0],[28.0504,41.9018,9.7587],[28.049,41.9063,0.0],[28.046,41.9076,11.6588],[28.0474,41.9099,0.0],[28.044,41.9137,0.0],[28.0462,41.9165,0.0],[28.0479,41.924,2.3533],[28.0429,41.934,0.0],[28.0449,41.9382,0.0],[28.049,41.9401,0.0],[28.0501,41.9451,6.9527],[28.0476,41.9479,7.4162],[28.046,41.9538,0.0],[28.0407,41.956,6.5267],[28.0407,41.9588,2.8466],[28.0435,41.9599,0.0733],[28.0432,41.9626,0.0],[28.0365,41.9671,0.0],[28.0326,41.9657,0.5866],[28.0324,41.9688,0.8377],[28.0301,41.9696,7.5678],[28.0263,41.9751,4.5924],[28.0279,41.9821,2.3287],[28.0347,41.9824,0.1826],[28.0313,41.987,35.5137],[28.0171,41.986,9.2795],[28.0193,41.981,5.4502],[28.0154,41.9787,25.9067],[27.9941,41.9763,85.7416],[27.976,41.9769,127.4696],[27.9653,41.9845,124.8153],[27.9606,41.9835,108.9981],[27.9574,41.9789,35.9319],[27.9399,41.9724,171.815],[27.9379,41.9778,52.2504],[27.9314,41.9748,57.0381],[27.9192,41.9776,18.7963],[27.916,41.9698,61.7884],[27.9095,41.9724,81.2727],[27.9028,41.9686,161.943],[27.8967,41.9689,92.9525],[27.8894,41.9738,190.4278],[27.8885,41.9761,188.1643],[27.8906,41.9819,102.1585],[27.8888,41.9842,171.4589],[27.8762,41.9851,228.4169],[27.8563,41.9961,59.3411],[27.8519,41.9966,26.6394],[27.8493,41.9949,29.8586],[27.8499,41.986,143.609],[27.8464,41.9837,172.0163],[27.8432,41.9834,178.5003],[27.8422,41.9916,30.844],[27.8378,41.9914,61.4663],[27.8364,41.9834,181.9456],[27.829,41.9837,145.8986],[27.821,41.9867,58.8517],[27.813,41.9798,163.1378],[27.8107,41.9706,159.8864],[27.8129,41.9658,228.4158],[27.8155,41.9646,186.1788],[27.8162,41.9589,181.8053],[27.8144,41.954,83.3281],[27.8165,41.9511,168.0382],[27.8192,41.9506,149.6031],[27.8243,41.9533,167.7766],[27.8269,41.9514,150.677],[27.8274,41.9454,106.8139],[27.8244,41.9423,130.3428],[27.8202,41.941,193.8822],[27.8164,41.9414,158.3703],[27.8144,41.9448,124.4731],[27.8065,41.9438,176.4449],[27.8053,41.9372,251.7363],[27.8025,41.9357,267.4392],[27.7994,41.9367,274.4468],[27.7986,41.9417,250.4305],[27.7947,41.9439,130.3119],[27.7831,41.9411,237.882],[27.7776,41.946,210.9905],[27.7736,41.9452,258.5219],[27.7725,41.9464,227.0728],[27.7787,41.9542,79.5907],[27.7701,41.9582,196.2799],[27.7636,41.9546,293.5634],[27.7541,41.9598,266.3051],[27.7375,41.9603,331.1081],[27.7349,41.9625,278.9685],[27.7404,41.9677,179.8896],[27.7291,41.9727,117.0552],[27.7251,41.9679,219.6147],[27.7223,41.967,295.3565],[27.7152,41.9707,270.0712],[27.6926,41.973,142.1183],[27.692,41.9709,176.4038],[27.6961,41.9665,264.4599],[27.6936,41.9649,212.6604],[27.6813,41.9669,215.5849],[27.6761,41.9649,219.7153],[27.6738,41.9584,273.3322],[27.6704,41.9575,204.8472],[27.6685,41.9526,231.4479],[27.6654,41.9522,246.8938],[27.6632,41.9577,213.59],[27.6536,41.9516,314.0409],[27.6512,41.9521,311.2702],[27.6496,41.9566,296.7138],[27.6429,41.9554,232.7925],[27.634,41.9504,355.3605],[27.6323,41.9544,241.0527],[27.625,41.9518,244.0422],[27.6166,41.9543,316.9927],[27.6141,41.9532,298.7325],[27.6147,41.9509,271.866],[27.6226,41.9452,258.543],[27.6081,41.9376,265.5758],[27.6026,41.9361,321.1748],[27.6023,41.9424,286.7051],[27.5969,41.9442,288.2597],[27.5807,41.9309,353.7045],[27.5774,41.9315,347.8775],[27.5716,41.9366,293.1957],[27.5686,41.9366,351.1584],[27.5687,41.9315,281.9676],[27.5608,41.922,332.2417],[27.5686,41.9204,288.5482],[27.569,41.9178,292.458],[27.5574,41.9136,380.7786],[27.5574,41.9122,380.7786],[27.5654,41.9103,336.38],[27.5674,41.9063,310.901],[27.5639,41.9014,337.4434],[27.5514,41.8996,330.7037],[27.5416,41.9075,409.48]]]]}
,"properties": {"GID_2": "TUR.50.2_1","GID_0": "TUR","country": "Turkey","GID_1": "TUR.50_1","province": "Kirklareli","NL_NAME_1": "NA","county": "Demirköy","VARNAME_2": "NA","NL_NAME_2": "NA","TYPE_2": "District","ENGTYPE_2": "District","CC_2": "NA","HASC_2": "TR.KL.DE","name": "Demirköy.county","area_km2": 903.7934,"hist_schema_id": "Elevation0-9000","hist_area_km2": {"0": 14.4311,"25": 57.5929,"50": 54.0782,"75": 44.3649,"100": 40.0992,"125": 34.8407,"150": 35.9625,"175": 39.1357,"200": 34.2798,"225": 28.9072,"250": 30.5812,"275": 34.7284,"300": 41.7017,"325": 48.456,"350": 49.3662,"375": 41.8627,"400": 40.5074,"425": 34.039,"450": 29.4512,"475": 26.646,"500": 23.837,"525": 20.3967,"550": 17.8869,"575": 16.4519,"600": 15.4096,"625": 13.9883,"650": 10.6854,"675": 8.5199,"700": 6.1962,"725": 4.0466,"750": 2.4343,"775": 1.6756,"800": 0.6639,"825": 0.4268,"850": 0.1265,"875": 0.0158}}}