{"type": "Feature","bbox": [34.248,39.1713,34.6394,39.4922],"geometry": {"type": "MultiPolygon","coordinates": [[[[34.3777,39.4922,1116.8109],[34.3627,39.4765,1275.8379],[34.3357,39.4544,1278.0522],[34.3274,39.4445,1233.8115],[34.3247,39.4358,1209.0355],[34.3234,39.4117,1170.334],[34.3207,39.4,1149.8511],[34.2682,39.3189,1144.1721],[34.26,39.2955,1154.4888],[34.2498,39.2761,1173.507],[34.248,39.2459,1275.9963],[34.249,39.2339,1263.8914],[34.2515,39.2253,1269.1339],[34.2658,39.2018,1256.8169],[34.2803,39.182,1280.3317],[34.2927,39.1713,1363.3983],[34.3112,39.2002,1169.2406],[34.3196,39.2093,1142.0256],[34.4073,39.2778,1117.998],[34.4269,39.2907,1119.0894],[34.4936,39.3158,1132.5442],[34.5408,39.3186,1135.947],[34.5653,39.3265,1144.4304],[34.5757,39.3283,1146.0175],[34.6092,39.3272,1179.707],[34.6089,39.3655,1045.2411],[34.6106,39.3805,1096.809],[34.6138,39.3886,1120.2311],[34.6359,39.4231,1089.8097],[34.6394,39.4337,1085.636],[34.5443,39.4337,1200.0796],[34.5204,39.4362,1060.2007],[34.5025,39.4423,1022.0329],[34.4733,39.4495,1199.3953],[34.464,39.4564,1090.7815],[34.4544,39.4695,1037.1333],[34.448,39.4751,1025.411],[34.4193,39.4877,1074.7439],[34.4026,39.4915,1118.6224],[34.3777,39.4922,1116.8109]]]]}
,"properties": {"GID_2": "TUR.51.3_1","GID_0": "TUR","country": "Turkey","GID_1": "TUR.51_1","province": "Kirsehir","NL_NAME_1": "NA","county": "Boztepe","VARNAME_2": "NA","NL_NAME_2": "NA","TYPE_2": "District","ENGTYPE_2": "District","CC_2": "NA","HASC_2": "TR.KH.BO","name": "Boztepe.county","area_km2": 563.7492,"hist_schema_id": "Elevation0-9000","hist_area_km2": {"1025": 0.9986,"1050": 4.4219,"1075": 8.6495,"1100": 11.5004,"1125": 211.2635,"1150": 133.2774,"1175": 89.6246,"1200": 39.3768,"1225": 23.9549,"1250": 16.7093,"1275": 11.0704,"1300": 7.0564,"1325": 4.6986,"1350": 1.0156,"1375": 0.115,"1400": 0.0164}}}