{"type":"Feature","properties":{"GID_2":"TUR.77.6_1","GID_0":"TUR","country":"Turkey","GID_1":"TUR.77_1","province":"Usak","NL_NAME_1":"NA","county":"Ulubey","VARNAME_2":"NA","NL_NAME_2":"NA","TYPE_2":"District","ENGTYPE_2":"District","CC_2":"NA","HASC_2":"TR.US.UL","name":"Ulubey.county"},
"geometry":{"type": "MultiPolygon","coordinates": [[[[29.4259,38.2617,1039.7634],[29.4271,38.2987,1065.7412],[29.4296,38.3072,1073.0439],[29.4369,38.3207,928.4598],[29.4377,38.3258,910.315],[29.4368,38.3309,855.6685],[29.4276,38.3493,815.7507],[29.4282,38.3629,806.9999],[29.4327,38.3707,801.262],[29.4506,38.3887,698.2291],[29.4628,38.4043,673.2964],[29.4732,38.4103,717.5439],[29.4863,38.413,811.6415],[29.4875,38.462,890.536],[29.4601,38.4595,873.2886],[29.4344,38.4606,843.5747],[29.4245,38.4631,865.4536],[29.3799,38.4802,848.954],[29.3377,38.4854,835.9243],[29.3252,38.4916,843.3668],[29.3126,38.5022,859.3466],[29.2872,38.5429,955.9208],[29.2697,38.5578,989.1516],[29.2602,38.5623,1018.6276],[29.249,38.5644,1014.5267],[29.1945,38.5661,1011.2811],[29.1747,38.5402,988.8961],[29.1684,38.5105,1018.0056],[29.1575,38.4878,1009.3975],[29.1558,38.4686,935.4789],[29.1561,38.3945,654.3262],[29.1583,38.3823,646.6173],[29.1673,38.3656,679.477],[29.1703,38.3534,673.1541],[29.1703,38.2816,574.7089],[29.1728,38.2659,487.6276],[29.1776,38.258,659.4267],[29.1974,38.2376,631.9282],[29.2142,38.2125,440.5],[29.2213,38.1955,440.5],[29.2326,38.2015,459.925],[29.262,38.2127,486.7273],[29.2981,38.2163,514.3403],[29.3254,38.225,660.6096],[29.3493,38.2295,749.1295],[29.382,38.2479,972.9402],[29.4122,38.2593,986.6835],[29.4259,38.2617,1039.7634]]]]}}