{"type":"Feature","properties":{"GID_2":"TUR.62.6_1","GID_0":"TUR","country":"Turkey","GID_1":"TUR.62_1","province":"Nigde","NL_NAME_1":"NA","county":"Ulukışla","VARNAME_2":"NA","NL_NAME_2":"NA","TYPE_2":"District","ENGTYPE_2":"District","CC_2":"NA","HASC_2":"TR.NG.UL","name":"Ulukışla.county"},
"geometry":{"type": "MultiPolygon","coordinates": [[[[34.9509,37.6988,1621.0126],[34.9485,37.7184,1870.6824],[34.9385,37.7375,1876.5492],[34.9326,37.7559,1714.1288],[34.9234,37.7723,1790.9219],[34.9168,37.8045,1786.3931],[34.8815,37.8037,1931.9919],[34.8591,37.8004,1885.3167],[34.8319,37.7902,1842.9471],[34.82,37.7834,1854.6685],[34.8075,37.7726,1848.3906],[34.7855,37.7411,1465.5327],[34.7762,37.735,1585.8811],[34.7321,37.7232,1438.7844],[34.6634,37.7216,1426.1062],[34.652,37.7196,1443.0181],[34.6274,37.7121,1457.1079],[34.5654,37.7091,1204.8228],[34.5016,37.6855,1231.9041],[34.4788,37.6707,1262.0076],[34.4532,37.6476,1200.4562],[34.4501,37.6396,1220.7546],[34.4375,37.6186,1398.244],[34.3996,37.5608,1614.8459],[34.3958,37.5497,1732.3684],[34.3922,37.5287,1660.5315],[34.3831,37.512,1648.0725],[34.3802,37.5004,1636.644],[34.38,37.4729,1525.0428],[34.3843,37.454,1739.5853],[34.4027,37.4536,1808.0256],[34.4147,37.4498,1987.2878],[34.4283,37.4409,2115.0837],[34.4693,37.4086,2351.8362],[34.4822,37.3956,2758.0718],[34.5099,37.3493,2857.5439],[34.5798,37.3497,1788.2357],[34.5998,37.3514,2305.1411],[34.6337,37.3635,2380.416],[34.6629,37.3811,2241.1174],[34.6961,37.394,2799.1187],[34.7187,37.3965,2285.6406],[34.7833,37.396,2016.5337],[34.7849,37.4507,1809.7126],[34.7883,37.4652,1735.1826],[34.7966,37.4752,1262.2988],[34.8133,37.488,998.7125],[34.8254,37.4955,940.1803],[34.8439,37.5029,1147.7905],[34.8516,37.5076,1230.9165],[34.8573,37.5139,1259.3372],[34.8608,37.525,1255.5957],[34.8609,37.5612,1771.9711],[34.8585,37.5788,1756.3687],[34.8493,37.5953,1962.1665],[34.8423,37.6164,1769.4988],[34.8183,37.653,2119.5757],[34.816,37.6639,1797.2937],[34.8184,37.6749,1786.5328],[34.8267,37.6849,1958.7048],[34.846,37.7,2144.7642],[34.8585,37.7071,1881.1497],[34.8695,37.71,1712.3977],[34.889,37.7112,1584.5432],[34.9124,37.7097,1584.2358],[34.9509,37.6988,1621.0126]]]]}}