{"type": "Feature","bbox": [43.8125,38.4371,44.3186,38.9612],"geometry": {"type": "MultiPolygon","coordinates": [[[[44.1911,38.9612,2439.5798],[44.1742,38.9609,2365.9744],[44.1605,38.9584,2447.123],[44.13,38.9476,2280.3774],[44.0952,38.9329,2196.1025],[44.0889,38.927,2154.9646],[44.0862,38.9221,2154.1365],[44.0826,38.8976,2161.4629],[44.0793,38.8896,2142.082],[44.0681,38.8781,2099.4353],[44.0528,38.8698,2064.0986],[44.0386,38.8676,2108.3223],[44.024,38.8679,2042.5929],[44.0101,38.8702,2074.9753],[43.9924,38.8768,2201.325],[43.9698,38.8796,2384.7517],[43.8949,38.8796,2239.6716],[43.8787,38.8781,2289.627],[43.8568,38.8714,2593.7307],[43.8303,38.866,2458.3254],[43.818,38.8575,2424.6707],[43.8132,38.8467,2415.2549],[43.8125,38.8316,2196.5132],[43.8155,38.8137,2121.5264],[43.8249,38.7971,2161.1177],[43.8279,38.7856,2214.0903],[43.8282,38.7612,2351.1748],[43.8249,38.7446,2517.8213],[43.8538,38.7183,2559.4688],[43.8691,38.6949,2216.5962],[43.8727,38.684,2081.5547],[43.8736,38.6751,2020.6775],[43.8736,38.6419,2040.4495],[43.8718,38.6302,2038.0176],[43.8679,38.6221,2081.1428],[43.8503,38.6041,2126.6963],[43.8455,38.5963,2167.7559],[43.8411,38.5605,2292.6331],[43.8303,38.5384,2232.8193],[43.8267,38.5137,2279.5317],[43.856,38.4987,2315.9006],[43.8891,38.4863,2427.3464],[43.9164,38.4811,2345.334],[43.9376,38.474,2347.7207],[43.9697,38.471,2379.9934],[43.9796,38.4686,2366.9766],[44.0367,38.4465,2374.6089],[44.0529,38.4371,2639.2212],[44.0697,38.4404,2673.1382],[44.0942,38.4517,2595.2505],[44.1086,38.4707,2363.2715],[44.1151,38.4914,2517.8228],[44.1199,38.4983,2381.3865],[44.1299,38.5049,2244.7791],[44.148,38.5113,2249.1382],[44.168,38.5212,2166.7227],[44.1702,38.5257,2172.0935],[44.1699,38.5304,2181.478],[44.1622,38.5431,2188.5161],[44.1558,38.5613,2169.5222],[44.1468,38.5773,2174.7864],[44.146,38.5826,2176.0151],[44.1479,38.5902,2200.1641],[44.206,38.6807,2211.7012],[44.2121,38.6879,2256.0022],[44.2225,38.6962,2344.6912],[44.235,38.7025,2387.8159],[44.2639,38.7072,2619.9724],[44.2757,38.7107,2472.3657],[44.2786,38.7134,2501.9756],[44.2772,38.716,2559.9531],[44.2955,38.7444,2459.2439],[44.298,38.7519,2459.6809],[44.2972,38.7698,2435.5376],[44.3,38.7813,2510.4785],[44.3134,38.7929,2602.4924],[44.3186,38.8003,2673.6191],[44.3161,38.8339,2592.9482],[44.313,38.8397,2724.5278],[44.3025,38.8493,2667.2168],[44.2903,38.8553,2520.1265],[44.262,38.8528,2453.855],[44.256,38.8551,2358.0996],[44.2457,38.8768,2239.1084],[44.2296,38.8857,2246.5596],[44.2241,38.8919,2250.6226],[44.222,38.8959,2384.6218],[44.223,38.9025,2379.9421],[44.2189,38.9155,2661.4534],[44.2069,38.9242,2372.6584],[44.2026,38.931,2350.4438],[44.2034,38.9383,2361.573],[44.2091,38.9498,2427.7905],[44.2085,38.9539,2474.2937],[44.2057,38.9561,2462.6084],[44.1935,38.9579,2412.3662],[44.1911,38.9612,2439.5798]]]]}
,"properties": {"GID_2": "TUR.78.11_1","GID_0": "TUR","country": "Turkey","GID_1": "TUR.78_1","province": "Van","NL_NAME_1": "NA","county": "Özalp","VARNAME_2": "NA","NL_NAME_2": "NA","TYPE_2": "District","ENGTYPE_2": "District","CC_2": "NA","HASC_2": "TR.VA.OZ","name": "Özalp.county","area_km2": 1579.671,"hist_schema_id": "Elevation0-9000","hist_area_km2": {"1925": 0.563,"1950": 9.024,"1975": 13.049,"2000": 35.792,"2025": 107.404,"2050": 136.106,"2075": 114.792,"2100": 108.086,"2125": 110.032,"2150": 107.28,"2175": 114.404,"2200": 94.182,"2225": 78.545,"2250": 67.818,"2275": 60.587,"2300": 52.351,"2325": 48.942,"2350": 58.283,"2375": 43.81,"2400": 36.583,"2425": 28.139,"2450": 24.485,"2475": 19.674,"2500": 16.097,"2525": 16.111,"2550": 14.074,"2575": 12.782,"2600": 11.094,"2625": 9.241,"2650": 7.468,"2675": 5.961,"2700": 5.316,"2725": 4.687,"2750": 3.198,"2775": 1.64,"2800": 1.06,"2825": 0.729,"2850": 0.265,"2875": 0.017}}}