{"type":"Feature","properties":{"GID_2":"TUR.53.1_1","GID_0":"TUR","country":"Turkey","GID_1":"TUR.53_1","province":"Konya","NL_NAME_1":"NA","county":"Ahırlı","VARNAME_2":"NA","NL_NAME_2":"NA","TYPE_2":"District","ENGTYPE_2":"District","CC_2":"NA","HASC_2":"TR.KO.AH","name":"Ahırlı.county"},
"geometry":{"type": "MultiPolygon","coordinates": [[[[32.0678,37.1357,1893.7671],[32.0986,37.145,1714.2028],[32.1219,37.157,1331.7554],[32.1255,37.1637,1431.4878],[32.1289,37.1848,1532.0381],[32.1335,37.1924,1523.0601],[32.143,37.2015,1350.5264],[32.173,37.2245,1250.4299],[32.1835,37.2363,1258.7908],[32.1903,37.269,1341.9209],[32.199,37.2827,1236.3002],[32.2095,37.3042,1202.9829],[32.1995,37.3275,1323.6072],[32.194,37.3342,1357.8445],[32.1768,37.3471,1226.7281],[32.1407,37.3609,1286.1178],[32.127,37.3633,1230.2722],[32.1235,37.3528,1236.8312],[32.112,37.3349,1196.8333],[32.1126,37.2638,1121.8197],[32.109,37.2529,1130.6377],[32.1038,37.2489,1142.6168],[32.0855,37.246,1137.6735],[32.0216,37.2463,1422.1521],[31.9971,37.2482,1165.8545],[31.9865,37.2528,1116.8458],[31.979,37.2598,1410.3242],[31.9675,37.2842,1403.6248],[31.9417,37.2663,1494.0579],[31.9328,37.2558,1869.6431],[31.9224,37.2308,1537.4655],[31.9969,37.1733,1751.151],[32.0255,37.1607,1684.3831],[32.0544,37.1412,1774.9225],[32.0678,37.1357,1893.7671]]]]}}