{"type":"Feature","properties":{"GID_1":"TUR.42_1","GID_0":"TUR","country":"Turkey","province":"K.Maras","VARNAME_1":"Kahramanmaraş","NL_NAME_1":"NA","TYPE_1":"Il","ENGTYPE_1":"Province","CC_1":"NA","HASC_1":"TR.KM","ISO_1":"NA","name":"K.Maras.province"},
"geometry":{"type": "MultiPolygon","coordinates": [[[[37.623,37.5121,826.5522],[37.5731,37.5505,888.3605],[37.5322,37.5663,958.7065],[37.5003,37.5696,1072.1143],[37.4838,37.5733,924.7853],[37.4505,37.587,808.3819],[37.4265,37.6048,907.9849],[37.4198,37.6114,939.804],[37.4146,37.6218,1037.2899],[37.4139,37.6302,903.4179],[37.4166,37.6448,927.6773],[37.4138,37.6621,953.8041],[37.4132,37.6794,996.4658],[37.4146,37.6907,1011.0557],[37.4166,37.6961,1018.7026],[37.4222,37.7033,1035.4926],[37.4345,37.7138,992.4326],[37.457,37.7282,1179.3146],[37.4804,37.7387,1135.0858],[37.4871,37.7445,1279.8322],[37.4971,37.757,1227.8453],[37.5087,37.7604,1223.408],[37.5258,37.7727,1309.2792],[37.5405,37.7933,1080.6956],[37.5582,37.8087,957.9552],[37.5704,37.8283,944.7351],[37.5914,37.8491,1277.5339],[37.6349,37.9168,1678.354],[37.6429,37.9402,1721.1047],[37.6663,37.9773,1147.9773],[37.6731,37.9984,1192.6494],[37.6975,38.0381,1305.6337],[37.7033,38.0566,1500.1702],[37.7125,38.0733,1607.9344],[37.7175,38.1002,1837.8792],[37.7283,38.1228,2099.7832],[37.7325,38.1468,2332.874],[37.7417,38.1635,2403.5437],[37.7486,38.1846,2204.9839],[37.7709,38.2192,2313.8315],[37.7741,38.2271,2221.1633],[37.7756,38.2416,1992.2336],[37.7761,38.2927,1945.6564],[37.7738,38.3101,1861.2534],[37.771,38.3155,1791.2349],[37.7593,38.3266,1693.1377],[37.7507,38.3322,1652.302],[37.7289,38.3411,1689.0732],[37.6993,38.3581,1668.1729],[37.6632,38.3688,2021.9414],[37.6394,38.3815,2018.8281],[37.4894,38.4401,1851.895],[37.4555,38.452,1860.1216],[37.4091,38.4551,1719.432],[37.3805,38.4636,1647.7325],[37.3617,38.4654,1605.2272],[37.2437,38.4651,1702.7651],[37.2252,38.4632,1891.1995],[37.206,38.4584,1877.1177],[37.1978,38.4611,1762.4233],[37.192,38.4668,1770.6631],[37.1897,38.4746,1748.4144],[37.191,38.4855,1671.1315],[37.195,38.4928,1671.7559],[37.2076,38.5111,1677.7734],[37.2139,38.517,1694.2732],[37.2465,38.5328,1802.7189],[37.2741,38.5544,1887.7719],[37.2797,38.5618,1912.7246],[37.2894,38.58,2224.2773],[37.2884,38.5959,2070.3567],[37.2517,38.5936,1993.9332],[37.1332,38.5933,2044.4587],[37.1167,38.591,2021.459],[37.095,38.584,2033.941],[37.0599,38.5782,1979.3922],[37.0391,38.5945,1972.8098],[37.0242,38.6033,1837.9321],[36.994,38.6147,1782.3688],[36.9668,38.62,1822.3821],[36.9457,38.6272,1990.2588],[36.9314,38.6287,1951.8469],[36.9099,38.6271,1946.4717],[36.8814,38.6185,1664.5963],[36.835,38.6154,1930.7216],[36.8136,38.6082,1954.2552],[36.7865,38.6029,1857.7651],[36.7653,38.5956,1896.6219],[36.7227,38.5896,1841.6346],[36.7097,38.5825,1851.686],[36.6991,38.5722,1863.0332],[36.6965,38.5672,1837.5737],[36.6927,38.5277,1766.4858],[36.6787,38.5041,1832.3702],[36.6686,38.4927,1805.4791],[36.6413,38.4696,1586.829],[36.6298,38.4531,1841.8992],[36.6126,38.4364,1970.655],[36.6072,38.43,1965.7106],[36.585,38.3948,2175.4917],[36.5507,38.3646,2199.7634],[36.5359,38.3439,2684.7568],[36.5244,38.3338,2466.6809],[36.5091,38.3229,2227.0879],[36.5009,38.3187,2161.2012],[36.4914,38.3163,1962.7607],[36.4767,38.308,1739.3389],[36.463,38.2976,1625.051],[36.4486,38.2786,1554.8994],[36.4289,38.258,1549.2047],[36.4247,38.2474,1608.6809],[36.4211,38.2254,1591.0537],[36.4112,38.2063,1597.0146],[36.4061,38.1788,1725.921],[36.3961,38.1597,2246.7422],[36.3911,38.1322,1947.4052],[36.3807,38.1132,1958.8704],[36.3733,38.0822,2259.0476],[36.3656,38.0667,2280.1748],[36.36,38.0482,2144.0371],[36.3517,38.0343,1895.2917],[36.3446,38.0133,1869.9204],[36.3354,37.9967,1769.8823],[36.3331,37.9816,1723.0317],[36.3321,37.9287,1681.4353],[36.3296,37.92,1534.0568],[36.3204,37.9036,1743.6173],[36.3152,37.8856,1493.6228],[36.319,37.8325,1609.4978],[36.3209,37.8268,1839.1624],[36.3369,37.8011,1867.6884],[36.3601,37.7747,1397.3458],[36.3627,37.7589,1606.7898],[36.3599,37.7453,1531.6299],[36.307,37.6642,1200.6722],[36.299,37.6407,1176.2043],[36.2897,37.6243,1215.5857],[36.2829,37.6033,1220.2609],[36.2653,37.5774,802.4446],[36.2388,37.5552,671.6956],[36.2296,37.5457,625.9377],[36.2146,37.5224,516.434],[36.2118,37.5086,494.708],[36.2139,37.4919,508.3686],[36.2252,37.47,470.049],[36.2283,37.4251,298.1358],[36.2389,37.403,231.5464],[36.2435,37.3758,275.4743],[36.2503,37.3668,162.4789],[36.258,37.362,150.9989],[36.2948,37.3504,137.0],[36.3279,37.3484,281.7969],[36.3786,37.349,137.375],[36.3942,37.3523,139.6923],[36.442,37.3701,209.3445],[36.4623,37.3715,328.5249],[36.4889,37.368899999999996,860.3105],[36.5135,37.3806,689.4235],[36.5336,37.3838,1084.5759],[36.5498,37.4002,1233.0538],[36.5582,37.4045,1597.4072],[36.5687,37.4064,1494.0408],[36.5828,37.4052,1610.9229],[36.592,37.4016,1531.1023],[36.6021,37.3949,1386.4186],[36.6133,37.3846,1530.0819],[36.6425,37.3496,1451.47],[36.651,37.33,1340.8696],[36.6693,37.3189,1326.4548],[36.7093,37.2886,1134.1483],[36.7286,37.2761,1266.6967],[36.7537,37.282,846.9302],[36.7806,37.2979,566.5253],[36.8016,37.3066,476.6714],[36.8379,37.3315,474.6528],[36.8644,37.3433,479.5524],[36.8938,37.3646,483.2853],[36.8993,37.3667,483.9463],[36.9056,37.3667,485.295],[36.9185,37.3601,490.8961],[36.9248,37.3541,491.9308],[36.9305,37.3451,559.1017],[36.9342,37.3196,565.7795],[36.9447,37.2974,575.548],[36.9496,37.2703,549.824],[36.9582,37.2536,591.2457],[36.965,37.233,590.9354],[36.9708,37.2267,596.9247],[36.9789,37.2222,623.7601],[37.0108,37.2174,883.4468],[37.0483,37.2347,653.3826],[37.0631,37.2534,553.1206],[37.0718,37.2678,541.5337],[37.0892,37.2826,542.4551],[37.1174,37.2954,549.0284],[37.1555,37.3211,743.4363],[37.1859,37.3329,1092.626],[37.1959,37.3352,991.6705],[37.2279,37.3382,989.3334],[37.256,37.3465,849.8327],[37.288,37.3498,817.0288],[37.3129,37.3576,768.8109],[37.3629,37.3614,909.5073],[37.3916,37.37,867.5471],[37.4307,37.371,790.1516],[37.4596,37.3673,838.7374],[37.4833,37.3728,768.1796],[37.5083,37.3808,757.4216],[37.5244,37.3819,789.1259],[37.5428,37.3802,770.2811],[37.562,37.3845,626.8163],[37.5947,37.3975,588.3669],[37.6059,37.4068,561.098],[37.6216,37.4328,543.6725],[37.6236,37.445,558.3206],[37.623,37.5121,826.5522]]]]}}