{"type": "Feature","id": 141827.0,"bbox": [36.851328972271233,37.703192449994077,36.929698112896233,37.758368231244077],"geometry": {"type": "Polygon","coordinates": [[[36.929698112896233,37.740301824994077,595.2761],[36.922251823833733,37.758368231244077,670.8077],[36.898448112896233,37.742254949994077,751.5714],[36.873301628521233,37.729864813275327,693.7982],[36.851328972271233,37.715887762494077,587.0],[36.873057487896233,37.703192449994077,587.0],[36.884043816021233,37.713263250775327,604.3266],[36.909922722271233,37.727484442181577,594.8622],[36.929698112896233,37.740301824994077,595.2761]]]}
,"properties": {"name": null,"lge_id": null,"pfafstette": 2515.0,"lke_type": null,"altitude": 600,"objectid": 88395,"scalerank": 12,"featurecla": "Lake","note": "_untitled_88395","funkyname": 0,"min_zoom": 7.0,"min_label": 8.0,"area_km2": 14.43816,"hist_schema_id": "Elevation0-9000","hist_area_km2": {"575": 5.28265,"600": 1.30799,"625": 2.24705,"650": 1.66009,"675": 1.42532,"700": 1.1905,"725": 0.75451,"750": 0.41916,"775": 0.11736,"800": 0.03353}}}