{"type":"Feature","properties":{"featurecla":"River","scalerank":9,"rivernum":1056,"dissolve":"1056River","name":"Ceyhan","name_alt":null,"note":null,"min_zoom":7.1,"strokeweig":0.15,"name_en":"Ceyhan","min_label":8.1},
"geometry":{"type": "LineString","coordinates": [[36.723388671875,38.638446356244117,1893.3654],[36.739990234375,38.630877996869117,1841.0972],[36.83837890625,38.651483465619116,1785.1815],[36.8505859375,38.65265534061912,1762.4697],[36.86669921875,38.65082428593162,1845.1674],[36.875390625000023,38.645624090619116,1746.526],[36.891503906250023,38.62787506718162,1822.7432],[36.90234375,38.61163971561912,1769.7542],[36.90771484375,38.58917877811912,1662.2979],[36.902441406250006,38.569842840619117,1664.1982],[36.881591796875,38.56329987186912,1584.1106],[36.889746093750006,38.54083893436912,1613.9369],[36.885986328125,38.52228424686912,1447.2919],[36.874609375,38.506854559369117,1391.3472],[36.860058593750011,38.49359772343162,1361.1549]]}}