{"type":"Feature","properties":{"ISO3166-1-Alpha-3":"TUR","country":"Turkey","fill":"#00F","id":"2283","name":"K. Maras"},
"geometry":{"type": "Polygon","coordinates": [[[37.05968,38.58808,2010.5747],[37.03364,38.59741,1889.7443],[37.00883,38.61051,1798.3521],[36.87892,38.62503,1672.8633],[36.74745,38.5994,1873.5417],[36.71366,38.58297,1840.8414],[36.69402,38.55235,1819.0056],[36.68203,38.49992,1869.7111],[36.64999,38.4591,1689.858],[36.5733,38.38939,2374.7043],[36.54168,38.35327,2478.0327],[36.5055,38.32293,2198.5701],[36.44928,38.28087,1549.7887],[36.41807,38.21883,1581.1116],[36.36835,38.0421,1880.4846],[36.33859,37.97768,1684.1716],[36.32567,37.91195,1649.9928],[36.32412,37.88133,1800.5504],[36.33084,37.83431,1567.0933],[36.36226,37.77258,1382.9514],[36.35967,37.73175,1472.5923],[36.32619,37.70643,1173.3329],[36.30707,37.69749,1215.2502],[36.27988,37.6691,1094.022],[36.27947,37.59096,1223.0228],[36.25684,37.56133,535.249],[36.22862,37.53678,739.7476],[36.22025,37.50644,306.2735],[36.23276,37.47833,379.2939],[36.24691,37.46758,264.9618],[36.25746,37.45529,195.3946],[36.262,37.38898,139.3196],[36.30355,37.34906,137.0],[36.31244,37.34981,137.0],[36.31885,37.35966,137.0],[36.32929,37.36402,137.0],[36.34169,37.36656,165.6696],[36.35409,37.3709,227.3546],[36.37073,37.35627,167.0723],[36.40391,37.36108,292.7413],[36.44111,37.37234,391.1719],[36.47016,37.3771,287.0],[36.55057,37.38971,1377.0674],[36.58881,37.38178,1666.842],[36.62384,37.36273,1879.7723],[36.6781,37.32248,1444.6625],[36.7212,37.27119,1137.4514],[36.84223,37.31545,474.2628],[36.88956,37.36674,481.6901],[36.93773,37.34217,519.2665],[36.96635,37.25323,594.0588],[37.04325,37.23328,715.3568],[37.1342,37.30966,552.7112],[37.19022,37.33147,998.3653],[37.31476,37.34935,790.0455],[37.44922,37.38632,793.1815],[37.51175,37.39304,640.4053],[37.57479,37.39185,654.7465],[37.61727,37.41441,542.3386],[37.6304,37.45963,566.0468],[37.62295,37.48893,699.5409],[37.62512,37.51882,859.3896],[37.5166,37.57218,1047.3743],[37.45707,37.58964,858.9571],[37.42173,37.63507,872.2527],[37.42224,37.69413,988.7512],[37.46193,37.73377,1151.1846],[37.51702,37.77248,1320.3833],[37.56528,37.82048,906.5016],[37.60693,37.87955,1305.0526],[37.6582,38.0267,1339.3209],[37.68176,38.05675,1378.62],[37.69685,38.06936,1393.5979],[37.71525,38.09269,1881.9421],[37.72135,38.12263,2533.7959],[37.77623,38.23718,2001.4833],[37.78232,38.27836,2096.6423],[37.73365,38.34621,1649.3007],[37.6552,38.37466,1974.415],[37.58719,38.38998,1447.5415],[37.45966,38.44957,1860.5372],[37.31073,38.47491,1527.916],[37.29171,38.47349,1620.7462],[37.25512,38.46652,1826.5972],[37.23714,38.46716,1888.6143],[37.22587,38.52633,1737.9524],[37.28437,38.60359,1919.4449],[37.05968,38.58808,2010.5747]]]}}