{"type": "Feature","bbox": [31.5895,38.4687,32.5331,39.0681],"geometry": {"type": "MultiPolygon","coordinates": [[[[31.6196,38.8073,1120.2915],[31.6185,38.7931,1057.3579],[31.6162,38.785,1056.7168],[31.608,38.7712,1071.8135],[31.6019,38.7528,1018.9308],[31.5923,38.7365,1017.9877],[31.5895,38.7256,1035.1661],[31.5909,38.706,1096.7064],[31.6108,38.675,1125.1848],[31.6238,38.6643,1199.2908],[31.6564,38.6493,1011.1501],[31.6793,38.6326,1207.7],[31.6895,38.6394,1148.5798],[31.6988,38.6429,1239.4631],[31.7129,38.644,1368.7905],[31.7232,38.6421,1401.7993],[31.7335,38.636,1457.2451],[31.746,38.6229,1519.9353],[31.7795,38.6031,1444.972],[31.8058,38.5909,1097.4316],[31.8119,38.585,1260.6204],[31.8263,38.5617,1285.2549],[31.8313,38.5314,1195.615],[31.8466,38.5052,1461.9565],[31.8591,38.4931,1345.8495],[31.8812,38.4794,1183.5917],[31.9189,38.4806,1468.2958],[31.9329,38.4784,1479.7413],[31.9506,38.4718,1488.2477],[31.9618,38.4697,1515.8467],[31.9849,38.4687,1454.7388],[31.9993,38.4703,1387.5365],[32.0053,38.4728,1455.5322],[32.0094,38.4765,1530.3494],[32.0205,38.4911,1381.3813],[32.0291,38.5058,1272.7542],[32.0359,38.513,1292.2767],[32.0643,38.5337,1047.7317],[32.0845,38.5392,1001.8414],[32.0995,38.5275,993.8276],[32.1117,38.5403,981.3066],[32.1189,38.556399999999996,969.4664],[32.1203,38.5643,968.426],[32.1347,38.5896,981.4951],[32.1462,38.604,990.7798],[32.1574,38.6087,998.8242],[32.1817,38.6084,999.4266],[32.2096,38.5994,1016.5074],[32.2416,38.5961,991.0458],[32.2516,38.5938,1000.2008],[32.3086,38.5717,1020.8917],[32.338,38.5544,1020.4584],[32.3686,38.5419,1037.6631],[32.3885,38.5534,1030.6729],[32.3992,38.5614,1034.6849],[32.4127,38.5746,1040.6169],[32.4287,38.6004,1048.4504],[32.4293,38.6142,1057.1427],[32.4274,38.6197,1055.0074],[32.4195,38.629,1067.3401],[32.401,38.643,1082.4535],[32.3767,38.6567,1072.7461],[32.3727,38.6605,1078.9275],[32.3699,38.6678,1083.5825],[32.3693,38.6759,1082.3802],[32.3721,38.6896,1089.1344],[32.3888,38.7105,1123.9495],[32.4046,38.7142,1114.2852],[32.4292,38.7116,1125.4675],[32.4615,38.6954,1084.9491],[32.4602,38.7221,1118.9301],[32.4635,38.7358,1114.4847],[32.4714,38.7451,1118.3193],[32.4943,38.7637,1114.7274],[32.5028,38.7726,1103.718],[32.5177,38.796,1112.5544],[32.5235,38.8145,1084.1315],[32.5324,38.8304,1090.2156],[32.5331,38.8384,1134.0779],[32.5302,38.8457,1134.7354],[32.5166,38.8659,1148.7216],[32.5071,38.873,1139.7897],[32.4859,38.8818,1135.5493],[32.4722,38.8914,1129.2372],[32.4634,38.9006,1130.0037],[32.4555,38.9126,1129.1761],[32.434,38.9357,1133.8667],[32.4313,38.9442,1143.1935],[32.4304,38.9562,1151.131],[32.4325,39.011,998.5615],[32.3996,39.0199,1059.3118],[32.3904,39.0267,1126.1865],[32.3818,39.0363,1082.3271],[32.3607,39.0466,976.752],[32.3274,39.0539,1082.2832],[32.2945,39.0681,1018.2089],[32.2803,39.0645,1072.1099],[32.2557,39.061,941.0264],[32.2307,39.0532,978.443],[32.1959,39.0494,977.0529],[32.1743,39.0424,959.8024],[32.1607,39.0397,925.3079],[32.1612,38.9771,962.2773],[32.159,38.962,972.8828],[32.1543,38.954,985.2307],[32.1473,38.9472,969.0872],[32.1327,38.9383,946.6505],[32.1176,38.935,928.0858],[32.1055,38.9345,922.5437],[32.0312,38.9352,926.939],[32.0154,38.9369,917.3457],[31.9939,38.944,944.0907],[31.9826,38.946,945.1715],[31.9299,38.9469,893.0829],[31.9065,38.9443,889.0132],[31.8853,38.9372,892.1713],[31.8615,38.9326,894.3645],[31.7837,38.9029,1226.8965],[31.73,38.8984,1082.1544],[31.7051,38.8905,1255.948],[31.6743,38.8838,1196.3167],[31.6678,38.8761,1231.8033],[31.6452,38.8409,1195.3081],[31.6271,38.8247,1264.9012],[31.6196,38.8073,1120.2915]]]]}
,"properties": {"GID_2": "TUR.53.31_1","GID_0": "TUR","country": "Turkey","GID_1": "TUR.53_1","province": "Konya","NL_NAME_1": "NA","county": "Yunak","VARNAME_2": "NA","NL_NAME_2": "NA","TYPE_2": "District","ENGTYPE_2": "District","CC_2": "NA","HASC_2": "TR.KO.YU","name": "Yunak.county","area_km2": 3235.288,"hist_schema_id": "Elevation0-9000","hist_area_km2": {"875": 2.507,"900": 75.726,"925": 257.4,"950": 303.94,"975": 418.701,"1000": 431.809,"1025": 287.879,"1050": 316.3,"1075": 275.696,"1100": 193.195,"1125": 176.907,"1150": 101.835,"1175": 65.444,"1200": 39.908,"1225": 29.461,"1250": 26.298,"1275": 22.149,"1300": 19.075,"1325": 18.618,"1350": 18.467,"1375": 17.248,"1400": 15.993,"1425": 17.935,"1450": 22.063,"1475": 20.956,"1500": 17.377,"1525": 14.558,"1550": 9.267,"1575": 7.875,"1600": 5.951,"1625": 2.9,"1650": 0.727,"1675": 0.463,"1700": 0.363,"1725": 0.248,"1750": 0.05}}}