{"type": "Feature","bbox": [34.2046,38.3507,35.074,39.4866],"geometry": {"type": "MultiPolygon","coordinates": [[[[34.3863,38.4521,1210.3433],[34.3929,38.4437,1204.1162],[34.3944,38.4389,1202.5884],[34.4168,38.4278,1206.9678],[34.4521,38.4027,1270.5505],[34.4881,38.3882,1290.0717],[34.5221,38.3808,1302.3735],[34.5238,38.3778,1307.9347],[34.5278,38.3761,1306.8118],[34.5393,38.3757,1294.2219],[34.5665,38.3836,1399.5928],[34.6023,38.3877,1362.1821],[34.6532,38.407,1341.8171],[34.6707,38.4087,1381.761],[34.6843,38.4062,1391.5067],[34.7142,38.3941,1380.7224],[34.7552,38.366,1364.9406],[34.7852,38.3539,1422.1274],[34.8061,38.3507,1537.3265],[34.8311,38.353,1502.0769],[34.8522,38.3604,1521.1854],[34.8762,38.3647,1515.3809],[34.8987,38.374,1520.7952],[34.9075,38.3808,1526.8123],[34.9196,38.3982,1502.0901],[34.9218,38.4064,1432.1604],[34.9225,38.4323,1540.808],[34.9191,38.4426,1552.9906],[34.9088,38.4619,1558.0021],[34.907,38.4905,1585.7787],[34.908,38.5048,1594.9539],[34.9103,38.513,1610.4576],[34.9268,38.5382,1265.6274],[34.9394,38.5464,1282.7927],[34.9663,38.5515,1570.8105],[34.9843,38.5576,1299.0869],[35.0082,38.5617,1496.6509],[35.018,38.5654,1540.8015],[35.0364,38.5796,1324.1812],[35.0524,38.6011,1582.7954],[35.0701,38.6135,1509.1914],[35.0731,38.6401,1495.0748],[35.074,38.7239,1118.8979],[35.0727,38.7396,1074.9871],[35.069,38.7483,1075.4814],[35.0601,38.7575,1112.0474],[35.0454,38.7663,1064.4661],[35.0345,38.769,1018.4129],[35.0073,38.7711,1083.7107],[34.9966,38.7733,1134.9363],[34.9674,38.7853,978.0],[34.9532,38.7983,978.0],[34.9533,38.8293,1081.3821],[34.955,38.8446,1079.996],[34.966,38.8669,1174.5562],[34.9704,38.9028,1251.6246],[34.9811,38.9251,1215.1267],[34.9855,38.961,1198.3354],[34.996,38.9835,1153.9491],[35.0008,39.0103,1141.6602],[35.0058,39.0182,1129.8435],[35.0131,39.0249,1121.8975],[35.0374,39.0381,1125.9531],[35.0173,39.062,1106.0741],[35.0101,39.0829,1098.2461],[35.0022,39.0967,1112.8646],[34.9997,39.1105,1109.105],[35.0019,39.1294,1113.4401],[34.9961,39.1408,1070.2148],[34.9853,39.15,1050.9526],[34.9776,39.1533,1063.1614],[34.9582,39.1739,1080.3767],[34.9049,39.2153,1090.8823],[34.8959,39.2275,1110.0079],[34.8954,39.2412,983.6016],[34.9075,39.2653,981.4053],[34.9114,39.2991,1082.2014],[34.9236,39.3229,1063.6423],[34.9237,39.3306,1026.2875],[34.9219,39.3354,1023.8884],[34.9156,39.3407,1041.3882],[34.8996,39.348,1055.3888],[34.8172,39.3781,948.5314],[34.7966,39.3881,962.1978],[34.7935,39.392,941.9219],[34.7935,39.3988,960.6817],[34.8009,39.4107,972.1948],[34.8017,39.4183,960.3981],[34.798,39.4253,972.7169],[34.7912,39.4306,965.0197],[34.6857,39.4707,1047.7859],[34.6566,39.4866,1071.0435],[34.6522,39.4606,1180.2227],[34.643,39.4442,1155.9775],[34.6359,39.4231,1089.8097],[34.6138,39.3886,1120.2311],[34.6106,39.3805,1096.809],[34.6089,39.3655,1045.2411],[34.6092,39.3272,1179.707],[34.6223,39.3205,1165.2419],[34.6322,39.3178,1155.1619],[34.6486,39.3167,1110.8275],[34.6618,39.3178,1134.6454],[34.6713,39.3205,1027.6833],[34.6799,39.3254,1024.7778],[34.7157,39.3541,1008.5419],[34.7266,39.3609,1008.3677],[34.7352,39.363,976.1019],[34.7434,39.3623,973.8964],[34.751,39.3581,954.9351],[34.7546,39.3516,981.2178],[34.7535,39.347,991.1552],[34.7405,39.3274,1026.757],[34.7053,39.2975,985.4294],[34.6867,39.2699,1022.7007],[34.6848,39.2602,1000.1281],[34.6864,39.2506,993.5405],[34.6956,39.2353,1012.2909],[34.6965,39.2312,1004.9694],[34.6962,39.2269,1013.5636],[34.6929,39.2203,1002.6441],[34.666,39.1982,1129.0573],[34.6346,39.1844,1171.901],[34.6282,39.1786,1189.0908],[34.6253,39.1736,1186.78],[34.6229,39.1589,1178.4498],[34.6239,39.1437,1159.7806],[34.6273,39.1321,1158.6909],[34.6379,39.1133,1147.1903],[34.6385,39.1051,1142.5596],[34.6362,39.0971,1136.5845],[34.6303,39.0907,1135.1294],[34.6219,39.0864,1145.901],[34.6107,39.0846,1151.6021],[34.5778,39.0844,1140.0896],[34.5718,39.0828,1153.4019],[34.5676,39.0791,1168.0408],[34.567,39.0722,1251.7479],[34.5748,39.0601,1240.7515],[34.5782,39.0496,1188.887],[34.5787,39.0383,1174.1799],[34.5768,39.0301,1197.1542],[34.5739,39.0252,1223.4426],[34.5673,39.0195,1214.7075],[34.5407,39.0076,1234.8826],[34.5297,38.9998,1199.4307],[34.5208,38.9906,1182.3687],[34.5065,38.9671,1144.8005],[34.4994,38.9461,1125.9331],[34.4801,38.9255,1176.0275],[34.4754,38.9179,1190.0927],[34.4731,38.9068,1163.3776],[34.473,38.8867,1081.7043],[34.4595,38.8837,1062.0123],[34.4419,38.8775,1052.2311],[34.428,38.876,1036.8561],[34.4141,38.8776,1039.5692],[34.3966,38.8838,1035.953],[34.3853,38.8859,1026.5785],[34.3654,38.8867,1018.9296],[34.3395,38.8855,932.2395],[34.3218,38.8742,870.3135],[34.3145,38.8675,882.2491],[34.309,38.857,912.1404],[34.3072,38.8261,930.0942],[34.303,38.8159,958.206],[34.294,38.8084,977.8143],[34.2762,38.8013,1011.3994],[34.2626,38.7937,1044.8663],[34.2593,38.7831,1088.3035],[34.2498,38.7667,1221.7535],[34.2443,38.7481,1263.3954],[34.2065,38.6908,1108.0159],[34.2047,38.6858,1110.6388],[34.2046,38.6804,1117.04],[34.2076,38.6731,1120.8488],[34.2234,38.6509,1150.4664],[34.2308,38.6458,1157.8667],[34.2543,38.6358,1116.4945],[34.269,38.6247,1116.6689],[34.2763,38.6158,1115.3875],[34.2896,38.5949,1117.666],[34.3102,38.5502,1140.1709],[34.3188,38.5365,1166.191],[34.3285,38.51,1182.6174],[34.333,38.5085,1184.5619],[34.3355,38.5056,1186.4956],[34.3463,38.4813,1259.041],[34.348,38.4734,1277.3446],[34.3717,38.4632,1210.0718],[34.3863,38.4521,1210.3433]]]]}
,"properties": {"GID_1": "TUR.61_1","GID_0": "TUR","country": "Turkey","province": "Nevsehir","VARNAME_1": "Nevşehir","NL_NAME_1": "NA","TYPE_1": "Il","ENGTYPE_1": "Province","CC_1": "NA","HASC_1": "TR.NV","ISO_1": "TR-50","name": "Nevsehir.province","area_km2": 5135.335,"hist_schema_id": "Elevation0-9000","hist_area_km2": {"875": 24.986,"900": 59.685,"925": 105.126,"950": 166.953,"975": 199.825,"1000": 231.267,"1025": 238.152,"1050": 225.878,"1075": 219.902,"1100": 223.648,"1125": 276.678,"1150": 525.296,"1175": 319.493,"1200": 229.213,"1225": 235.154,"1250": 245.053,"1275": 200.094,"1300": 193.8,"1325": 151.909,"1350": 132.415,"1375": 135.307,"1400": 140.522,"1425": 108.804,"1450": 95.571,"1475": 75.822,"1500": 82.478,"1525": 92.403,"1550": 85.557,"1575": 44.096,"1600": 19.076,"1625": 10.419,"1650": 7.965,"1675": 6.142,"1700": 4.416,"1725": 4.499,"1750": 3.702,"1775": 3.387,"1800": 2.906,"1825": 2.69,"1850": 1.627,"1875": 1.312,"1900": 0.88,"1925": 0.747,"1950": 0.432,"1975": 0.05}}}