{"type": "Feature","bbox": [29.8627,38.7097,30.1711,38.9142],"geometry": {"type": "MultiPolygon","coordinates": [[[[29.9755,38.7422,1570.6678],[29.9961,38.7585,1597.7849],[30.0748,38.7885,1157.2205],[30.1022,38.8075,1228.5227],[30.1154,38.8209,1259.9911],[30.1508,38.8773,1198.0667],[30.1711,38.9026,1211.5684],[30.0666,38.9006,1146.0328],[30.0526,38.8959,1142.4019],[30.0256,38.8758,1186.7878],[30.0135,38.8717,1341.0068],[30.0052,38.8745,1354.474],[30.0001,38.8802,1324.7677],[29.9971,38.9026,1149.9148],[29.9932,38.9092,1133.6967],[29.9877,38.9121,1133.629],[29.9703,38.9142,1170.8693],[29.9239,38.9137,1547.757],[29.9094,38.911,1430.0392],[29.9012,38.9066,1611.5177],[29.8935,38.8983,1497.1648],[29.8746,38.8678,1285.4235],[29.8627,38.8551,1119.5291],[29.8638,38.841,1132.5658],[29.8662,38.8329,1123.3362],[29.8877,38.7988,1104.9751],[29.8913,38.7901,1196.0752],[29.8944,38.7097,1296.8888],[29.9242,38.7194,1465.2841],[29.954,38.7361,1586.9309],[29.9755,38.7422,1570.6678]]]]}
,"properties": {"GID_2": "TUR.54.5_1","GID_0": "TUR","country": "Turkey","GID_1": "TUR.54_1","province": "Kütahya","NL_NAME_1": "NA","county": "Dumlupınar","VARNAME_2": "NA","NL_NAME_2": "NA","TYPE_2": "District","ENGTYPE_2": "District","CC_2": "NA","HASC_2": "TR.KU.DU","name": "Dumlupınar.county","area_km2": 341.66,"hist_schema_id": "Elevation0-9000","hist_area_km2": {"1000": 0.2808,"1025": 2.5436,"1050": 4.7233,"1075": 8.1252,"1100": 9.7437,"1125": 10.5522,"1150": 18.2446,"1175": 26.4178,"1200": 30.0687,"1225": 32.6176,"1250": 38.0027,"1275": 33.6464,"1300": 24.4975,"1325": 18.9806,"1350": 17.3777,"1375": 13.4301,"1400": 9.2174,"1425": 7.5817,"1450": 6.029,"1475": 6.0621,"1500": 5.3526,"1525": 4.7261,"1550": 4.7601,"1575": 3.6529,"1600": 2.9095,"1625": 1.4713,"1650": 0.5456,"1675": 0.0661,"1700": 0.0331}}}