{"type":"Feature","properties":{"GID_2":"TUR.39.4_1","GID_0":"TUR","country":"Turkey","GID_1":"TUR.39_1","province":"Isparta","NL_NAME_1":"NA","county":"Gelendost","VARNAME_2":"NA","NL_NAME_2":"NA","TYPE_2":"District","ENGTYPE_2":"District","CC_2":"NA","HASC_2":"TR.IP.GE","name":"Gelendost.county"},
"geometry":{"type": "MultiPolygon","coordinates": [[[[31.1838,37.9582,2066.9114],[31.2212,37.9886,1776.8113],[31.2261,37.9962,1782.8152],[31.2281,38.0045,1521.0848],[31.2272,38.0213,1785.0686],[31.2212,38.031,1635.0793],[31.211,38.0375,1530.9313],[31.1739,38.052,2107.1191],[31.1698,38.0558,2045.2632],[31.167,38.0632,1802.6411],[31.1669,38.074,1585.0814],[31.1702,38.0849,1477.2872],[31.1945,38.1101,1484.9503],[31.2057,38.136,1376.5416],[31.1809,38.1571,1366.8136],[31.1276,38.1974,1066.9507],[31.0916,38.2118,1080.3055],[31.0815,38.2135,1051.9583],[31.0279,38.2142,1039.9822],[31.0037,38.2117,1177.9135],[30.986,38.2052,1252.4272],[30.9589,38.2,1445.3568],[30.9499,38.1958,1348.8505],[30.8765,38.1413,917.2797],[30.8924,38.1222,916.5],[30.9008,38.0988,916.5],[30.9239,38.0617,916.5],[30.9267,38.0502,916.5],[30.9278,38.014,916.5],[30.9312,38.003,916.5],[30.9462,37.9794,916.5],[30.9556,37.9705,916.5],[30.9667,37.9628,1075.2584],[31.0031,37.9485,1296.2629],[31.0307,37.9458,1526.2544],[31.0833,37.9473,1815.4457],[31.1085,37.9551,1883.4751],[31.1234,37.9574,1985.7471],[31.1838,37.9582,2066.9114]]]]}}