{"type":"Feature","properties":{"GID_2":"TUR.37.11_1","GID_0":"TUR","country":"Turkey","GID_1":"TUR.37_1","province":"Hatay","NL_NAME_1":"NA","county":"Samandağ","VARNAME_2":"NA","NL_NAME_2":"NA","TYPE_2":"District","ENGTYPE_2":"District","CC_2":"NA","HASC_2":"TR.HT.SA","name":"Samandağ.county"},
"geometry":{"type": "MultiPolygon","coordinates": [[[[35.8049,36.2671,11.0736],[35.8104,36.2599,0.0],[35.8129,36.2593,18.5706],[35.819,36.2535,0.0],[35.8218,36.2474,0.0],[35.8304,36.2404,0.0],[35.8307,36.2379,9.8947],[35.8382,36.2326,1.2519],[35.8407,36.2268,0.0],[35.8532,36.2118,6.8124],[35.8535,36.2085,0.0],[35.8576,36.2012,15.3892],[35.8599,36.2004,7.088],[35.8657,36.1907,52.0529],[35.8718,36.1846,31.6731],[35.8735,36.1796,0.0],[35.8771,36.1782,1.1078],[35.8787,36.1724,0.0],[35.8854,36.1701,3.8949],[35.896,36.159,16.3502],[35.9049,36.1457,31.2223],[35.9038,36.1435,0.0],[35.9104,36.1385,6.7877],[35.9118,36.1318,0.0],[35.9143,36.1296,0.5232],[35.9132,36.1265,0.0],[35.916,36.1254,0.0],[35.9113,36.1265,0.0],[35.9132,36.1243,0.0],[35.9193,36.1243,5.9121],[35.9376,36.0957,1.2728],[35.9451,36.0801,0.0],[35.9504,36.0732,0.6215],[35.9543,36.0624,0.6498],[35.964,36.044,0.0],[35.9785,36.0204,0.0],[35.9813,36.0126,2.7339],[35.9813,36.0104,23.3869],[35.9793,36.0089,10.7116],[36.0233,36.0105,515.5701],[36.0459,36.0132,612.7977],[36.0427,36.0268,538.5929],[36.0387,36.0342,441.8034],[36.0295,36.0413,314.7213],[36.012,36.0478,363.1681],[36.0049,36.0528,389.7032],[36.0006,36.0597,228.6584],[36.0013,36.0678,89.9684],[36.0112,36.0789,12.3188],[36.0459,36.1049,357.3616],[36.067,36.1195,55.1863],[36.0824,36.1275,46.346],[36.0859,36.1324,101.2071],[36.0862,36.1362,108.5139],[36.0849,36.1404,111.6344],[36.0696,36.1624,157.346],[36.047,36.1779,164.4886],[36.0394,36.1974,310.2206],[36.0264,36.2186,536.0487],[36.0205,36.2254,557.6829],[35.9056,36.3154,993.3453],[35.8778,36.3032,1311.5978],[35.8321,36.2861,784.3168],[35.8049,36.2671,11.0736]]]]}}