{"type":"Feature","properties":{"GID_2":"TUR.26.1_1","GID_0":"TUR","country":"Turkey","GID_1":"TUR.26_1","province":"Diyarbakir","NL_NAME_1":"NA","county":"Bismil","VARNAME_2":"NA","NL_NAME_2":"NA","TYPE_2":"District","ENGTYPE_2":"District","CC_2":"NA","HASC_2":"TR.DY.BI","name":"Bismil.county"},
"geometry":{"type": "MultiPolygon","coordinates": [[[[41.1124,37.8047,784.275],[41.079,37.8125,767.1663],[41.0517,37.8251,698.9454],[41.0352,37.8462,528.0888],[41.033,37.8544,524.7554],[41.0336,37.8626,525.6312],[41.0357,37.868,525.9627],[41.0416,37.8743,528.4785],[41.0736,37.8892,537.5847],[41.102,37.9116,543.1395],[41.153,37.9916,555.4734],[41.1002,38.0075,669.1506],[41.0383,38.0087,747.4623],[41.0197,38.011,683.6804],[40.9897,38.0226,726.2313],[40.9572,38.041,751.392],[40.9305,38.044,698.5916],[40.8625,38.0442,728.9781],[40.8435,38.0423,666.3238],[40.8297,38.0349,611.0103],[40.8168,38.0165,597.9644],[40.8022,38.0037,626.9758],[40.7893,37.9989,614.3355],[40.7787,37.9995,659.3023],[40.7693,38.0037,670.6965],[40.759,38.0118,632.4619],[40.7391,38.0366,714.337],[40.7133,38.0491,702.9874],[40.6998,38.0589,742.719],[40.6919,38.0683,741.3328],[40.6863,38.0826,704.9329],[40.6831,38.0866,722.4716],[40.658,38.097,686.3331],[40.6268,38.0814,751.7291],[40.5996,38.076,721.2458],[40.5784,38.069,692.6402],[40.5544,38.0647,723.7106],[40.5238,38.054,744.1124],[40.5021,38.0441,736.1018],[40.4975,38.0409,712.666],[40.4943,38.0362,681.2372],[40.4918,38.0224,656.4645],[40.4921,38.0043,647.1843],[40.4941,37.9925,659.8217],[40.5001,37.9819,650.7172],[40.5178,37.9641,639.6027],[40.5206,37.9589,632.4404],[40.522,37.9507,612.9208],[40.52,37.9399,628.936],[40.5116,37.9263,692.0493],[40.5042,37.9054,676.8932],[40.4949,37.889,573.1559],[40.4929,37.8779,559.7209],[40.4926,37.8577,590.5785],[40.506,37.8497,577.9938],[40.53,37.8395,548.6509],[40.5897,37.7948,625.3948],[40.6405,37.7683,646.243],[40.6556,37.7651,612.9251],[40.7006,37.7643,631.7352],[40.7158,37.7616,664.5018],[40.7277,37.7539,649.9597],[40.738,37.74,632.9078],[40.7459,37.7335,655.3643],[40.7824,37.7192,673.9203],[40.8022,37.7174,665.8068],[40.851,37.7181,646.6911],[40.8663,37.7204,624.386],[40.8842,37.7266,653.8364],[40.8955,37.7285,677.5294],[40.9639,37.7306,648.4514],[41.0005,37.7401,617.3277],[41.0245,37.7409,605.0636],[41.0518,37.7396,636.5194],[41.0585,37.7417,650.0591],[41.0737,37.7492,577.073],[41.0996,37.7695,596.3408],[41.1064,37.7794,650.4347],[41.1124,37.8047,784.275]]]]}}