{"type": "Feature","bbox": [31.5285,37.969,31.7982,38.2715],"geometry": {"type": "MultiPolygon","coordinates": [[[[31.5345,38.0379,1519.7687],[31.5745,38.0238,1448.9056],[31.6011,38.0075,1441.9401],[31.6465,37.9899,1688.1223],[31.6758,37.9729,1646.0813],[31.6896,37.9697,1510.3483],[31.7078,37.969,1678.6431],[31.7111,37.9796,1705.0403],[31.7193,37.9934,1551.6873],[31.7241,38.0092,1568.1001],[31.7281,38.017,1514.2894],[31.7586,38.0441,1456.3718],[31.7647,38.0516,1513.5216],[31.7718,38.0726,1448.5071],[31.7811,38.089,1408.718],[31.786,38.1049,1379.1318],[31.7959,38.121,1234.5536],[31.7982,38.1345,1168.2979],[31.797,38.1399,1167.7073],[31.7941,38.1448,1155.2959],[31.7846,38.152,1236.974],[31.7516,38.1586,1152.3661],[31.7278,38.1699,1182.5663],[31.7234,38.1799,1238.4846],[31.7229,38.2125,1254.083],[31.7203,38.2241,1238.5236],[31.7043,38.2499,1116.7546],[31.6851,38.2715,1167.8208],[31.6194,38.2466,1077.479],[31.601,38.2348,1102.5214],[31.5945,38.2286,1121.6071],[31.5854,38.2147,1180.3427],[31.5795,38.2087,1216.6581],[31.5513,38.1955,1594.0712],[31.5285,38.1774,1851.5007],[31.5511,38.1619,1645.705],[31.578,38.1503,1529.8231],[31.6001,38.1353,1641.2173],[31.6139,38.1221,1504.6652],[31.6176,38.1141,1501.6742],[31.6188,38.1057,1468.702],[31.6182,38.0943,1442.6605],[31.6157,38.0862,1593.7974],[31.5993,38.065,1605.8434],[31.5749,38.0536,1601.9061],[31.5561,38.0475,1690.0828],[31.5345,38.0379,1519.7687]]]]}
,"properties": {"GID_2": "TUR.53.12_1","GID_0": "TUR","country": "Turkey","GID_1": "TUR.53_1","province": "Konya","NL_NAME_1": "NA","county": "Doğanhisar","VARNAME_2": "NA","NL_NAME_2": "NA","TYPE_2": "District","ENGTYPE_2": "District","CC_2": "NA","HASC_2": "TR.KO.DO","name": "Doğanhisar.county","area_km2": 432.7785,"hist_schema_id": "Elevation0-9000","hist_area_km2": {"1075": 0.5662,"1100": 5.1627,"1125": 15.7552,"1150": 24.1557,"1175": 47.9951,"1200": 29.12,"1225": 19.7051,"1250": 19.5877,"1275": 12.1233,"1300": 11.2892,"1325": 9.6234,"1350": 9.5237,"1375": 11.5593,"1400": 15.7982,"1425": 19.5217,"1450": 17.3383,"1475": 18.6435,"1500": 17.9449,"1525": 18.1642,"1550": 14.2914,"1575": 14.0578,"1600": 12.8395,"1625": 11.5708,"1650": 10.5193,"1675": 9.3349,"1700": 8.1826,"1725": 6.0281,"1750": 4.1915,"1775": 3.7736,"1800": 2.588,"1825": 2.2041,"1850": 2.2876,"1875": 1.3526,"1900": 1.2524,"1925": 1.3862,"1950": 0.9019,"1975": 0.6514,"2000": 0.6514,"2025": 0.5011,"2050": 0.4009,"2075": 0.1336,"2100": 0.1002}}}