{"type": "Feature","bbox": [32.4112,37.1733,33.2013,37.7357],"geometry": {"type": "MultiPolygon","coordinates": [[[[33.2013,37.4533,1170.0464],[33.1827,37.4775,1170.3738],[33.168,37.5009,1154.8198],[33.1598,37.5243,1026.4531],[33.1507,37.541,1016.3507],[33.1485,37.556,1017.5042],[33.1487,37.6029,999.1081],[33.1457,37.6178,999.3834],[33.1297,37.6432,999.8668],[33.1102,37.6611,1002.331],[33.0748,37.6515,1001.8118],[33.024,37.6319,998.7779],[32.9836,37.63,1000.4677],[32.9431,37.632,1001.8741],[32.8466,37.6689,1003.1098],[32.8296,37.6799,1002.8232],[32.787,37.7133,1000.8224],[32.7725,37.7218,1000.0663],[32.7455,37.7323,999.7322],[32.7319,37.7352,999.5236],[32.7024,37.7357,999.6414],[32.6845,37.7333,1000.1705],[32.6453,37.7174,1004.2805],[32.6261,37.7039,1006.2472],[32.613,37.6908,1008.6683],[32.6109,37.6803,1010.114],[32.6196,37.6645,1010.5562],[32.6227,37.6538,1010.5054],[32.6226,37.6281,1012.4106],[32.6203,37.6199,1014.1586],[32.6121,37.606,1016.8599],[32.606,37.5852,1021.191],[32.6004,37.5789,1022.6473],[32.5953,37.5757,1025.0582],[32.5817,37.5738,1034.1191],[32.5749,37.5756,1045.4863],[32.5662,37.5806,1052.0963],[32.5522,37.5939,1059.9415],[32.5396,37.6128,1061.5675],[32.5152,37.636,1056.6445],[32.4892,37.6204,1103.5812],[32.476,37.6065,1147.0869],[32.4732,37.5978,1304.3206],[32.4722,37.5855,1188.9249],[32.4722,37.5542,1106.5083],[32.474,37.5328,1116.9614],[32.4773,37.5246,1092.1416],[32.4953,37.4999,1076.8163],[32.4949,37.4961,1086.882],[32.4972,37.4933,1089.4545],[32.5219,37.4865,1061.7892],[32.5455,37.4745,1083.8553],[32.5684,37.4434,1059.134],[32.5847,37.4261,1042.6383],[32.5865,37.4211,1047.0809],[32.5858,37.4165,1055.3812],[32.5763,37.4028,1069.6509],[32.5639,37.398,1080.1448],[32.4377,37.3988,1111.5555],[32.4201,37.396,1116.6011],[32.4149,37.392,1105.7941],[32.4124,37.3868,1121.3225],[32.4112,37.3781,1145.2466],[32.4128,37.3266,1233.4482],[32.4168,37.3151,1246.4756],[32.4316,37.2939,1445.186],[32.4242,37.262,1433.111],[32.4146,37.2457,1430.365],[32.4119,37.237,1403.3452],[32.4119,37.2227,1479.6443],[32.4167,37.2153,1445.3455],[32.4263,37.2117,1487.6671],[32.5072,37.2118,1386.1212],[32.5309,37.2093,1367.1295],[32.5661,37.1955,1347.9983],[32.5967,37.1733,1408.4576],[32.6052,37.2035,1338.3636],[32.6105,37.2339,1416.6138],[32.6399,37.2805,1209.9512],[32.6579,37.2975,1138.2452],[32.7094,37.3374,1097.0195],[32.7257,37.348,1091.1566],[32.7619,37.3617,1064.5505],[32.7785,37.3632,1058.7507],[32.7953,37.3622,1051.3928],[32.8048,37.3598,1051.3324],[32.8345,37.3478,1061.4132],[32.861,37.3308,1044.7886],[32.8792,37.3214,1048.0873],[32.8972,37.3528,1067.5004],[32.9091,37.3638,1048.884],[32.9238,37.3726,1040.0671],[32.951,37.3828,1031.5334],[32.9613,37.3852,1030.844],[33.0422,37.3857,1083.8557],[33.0531,37.3872,1189.8633],[33.0623,37.3909,1308.2838],[33.0709,37.3985,1241.14],[33.0784,37.4104,1230.8552],[33.0979,37.4312,1254.3589],[33.1072,37.4451,1342.8918],[33.1201,37.4534,1140.0798],[33.1311,37.4557,1138.761],[33.1475,37.4563,1122.2661],[33.2013,37.4533,1170.0464]]]]}
,"properties": {"GID_2": "TUR.53.9_1","GID_0": "TUR","country": "Turkey","GID_1": "TUR.53_1","province": "Konya","NL_NAME_1": "NA","county": "Çumra","VARNAME_2": "NA","NL_NAME_2": "NA","TYPE_2": "District","ENGTYPE_2": "District","CC_2": "NA","HASC_2": "TR.KO.CU","name": "Çumra.county","area_km2": 2220.216,"hist_schema_id": "Elevation0-9000","hist_area_km2": {"1000": 734.135,"1025": 468.037,"1050": 273.916,"1075": 222.801,"1100": 111.829,"1125": 64.365,"1150": 41.248,"1175": 29.378,"1200": 22.81,"1225": 21.908,"1250": 19.318,"1275": 17.649,"1300": 16.911,"1325": 17.978,"1350": 22.171,"1375": 30.478,"1400": 33.312,"1425": 30.174,"1450": 22.207,"1475": 12.015,"1500": 4.438,"1525": 1.536,"1550": 0.793,"1575": 0.523,"1600": 0.287}}}