{"type":"Feature","properties":{"GID_2":"TUR.49.4_1","GID_0":"TUR","country":"Turkey","GID_1":"TUR.49_1","province":"Kinkkale","NL_NAME_1":"NA","county":"Delice","VARNAME_2":"NA","NL_NAME_2":"NA","TYPE_2":"District","ENGTYPE_2":"District","CC_2":"NA","HASC_2":"TR.KK.DE","name":"Delice.county"},
"geometry":{"type": "MultiPolygon","coordinates": [[[[34.016,40.2405,838.0038],[34.0095,40.2195,739.2003],[34.0059,40.2127,810.0643],[33.9972,40.2039,895.5975],[33.9567,40.1713,1156.5331],[33.9455,40.1548,1197.5385],[33.9246,40.134,1158.059],[33.9022,40.0988,1219.3184],[33.89,40.0862,1188.2794],[33.8936,40.0757,1144.9613],[33.9017,40.062,1100.6901],[33.9046,40.05,1144.066],[33.9043,39.9331,883.8279],[33.9013,39.9242,864.3764],[33.8976,39.9191,845.4496],[33.8625,39.8873,899.5771],[33.8338,39.8432,1043.4247],[33.8298,39.8299,1051.2485],[33.8297,39.8068,1112.7672],[33.8481,39.7924,1072.99],[33.8606,39.786,1127.5735],[33.8881,39.7829,961.8615],[33.9329,39.784,786.9788],[33.9481,39.7866,702.5556],[33.9685,39.7937,771.6439],[33.9784,39.7944,745.8954],[33.9848,39.7936,707.896],[33.9925,39.7894,739.568],[34.0029,39.7715,785.7087],[34.0384,39.7854,789.8771],[34.0491,39.7914,729.3947],[34.0689,39.8084,706.7439],[34.07,39.8444,656.5284],[34.0688,39.8665,656.7064],[34.0663,39.8755,652.8384],[34.0575,39.892,672.9464],[34.0543,39.9049,661.8475],[34.0548,39.9345,734.5063],[34.0579,39.9454,677.2834],[34.066,39.9551,723.6313],[34.1042,39.9841,711.9097],[34.1348,39.9982,748.1083],[34.1711,40.0222,699.9385],[34.1914,40.0302,707.2238],[34.1986,40.0373,738.7611],[34.1977,40.0448,749.0871],[34.1892,40.0527,729.6052],[34.1776,40.0594,659.1503],[34.1592,40.0663,667.1111],[34.1498,40.0734,703.2452],[34.1253,40.1107,690.5085],[34.1054,40.1311,694.201],[34.1018,40.139,665.6652],[34.0978,40.1638,677.152],[34.0879,40.183,662.0927],[34.0854,40.2133,576.1132],[34.0812,40.2228,607.371],[34.0545,40.2354,594.5649],[34.016,40.2405,838.0038]]]]}}