{"type": "Feature","bbox": [36.2358,36.2892,36.6042,36.6506],"geometry": {"type": "MultiPolygon","coordinates": [[[[36.5889,36.6393,272.4807],[36.5529,36.6381,232.9266],[36.5236,36.639,187.663],[36.5118,36.641,176.1147],[36.49,36.648,167.4105],[36.4735,36.6497,174.284],[36.3371,36.6506,980.1906],[36.3254,36.6255,1353.8802],[36.3047,36.6047,1515.38],[36.2805,36.5673,1380.8936],[36.2522,36.5399,1068.5879],[36.255,36.5117,1558.1985],[36.2539,36.4857,1112.1553],[36.2513,36.4765,687.8105],[36.2422,36.4597,295.3294],[36.2358,36.428,213.801],[36.2406,36.412,286.2128],[36.2447,36.4042,140.9003],[36.2752,36.3772,78.3201],[36.2825,36.3667,77.4142],[36.2849,36.3515,75.7375],[36.2843,36.2892,80.3083],[36.3141,36.2895,81.0247],[36.3282,36.2916,80.2492],[36.346,36.2978,78.2603],[36.3729,36.3036,80.7321],[36.406,36.3212,79.2113],[36.4365,36.3261,82.4854],[36.4348,36.3413,81.6726],[36.4369,36.3553,83.1281],[36.4416,36.3629,82.5829],[36.4591,36.381,84.3471],[36.4668,36.4016,84.4685],[36.4716,36.4084,84.2079],[36.4786,36.4137,84.5804],[36.4963,36.4213,85.4367],[36.5229,36.4365,86.9963],[36.5368,36.4396,171.1874],[36.5588,36.4408,205.3],[36.5685,36.4458,220.0911],[36.5678,36.4677,220.8588],[36.555,36.4858,190.1137],[36.557,36.4918,191.3663],[36.5529,36.497,192.705],[36.553,36.5011,195.6],[36.5734,36.5121,229.2959],[36.5833,36.5227,266.0782],[36.5913,36.5375,320.631],[36.6042,36.5791,401.5745],[36.6006,36.6005,465.4604],[36.5879,36.6305,257.916],[36.5889,36.6393,272.4807]]]]}
,"properties": {"GID_2": "TUR.37.7_1","GID_0": "TUR","country": "Turkey","GID_1": "TUR.37_1","province": "Hatay","NL_NAME_1": "NA","county": "Kırıkhan","VARNAME_2": "NA","NL_NAME_2": "NA","TYPE_2": "District","ENGTYPE_2": "District","CC_2": "NA","HASC_2": "TR.HT.KI","name": "Kırıkhan.county","area_km2": 890.9025,"hist_schema_id": "Elevation0-9000","hist_area_km2": {"75": 353.4305,"100": 96.8588,"125": 52.8322,"150": 45.0455,"175": 37.9789,"200": 36.252,"225": 34.9711,"250": 24.6127,"275": 18.108,"300": 15.2459,"325": 12.8946,"350": 10.5777,"375": 8.7045,"400": 8.4494,"425": 7.1382,"450": 5.9118,"475": 4.5826,"500": 3.5432,"525": 3.3898,"550": 3.3729,"575": 3.5089,"600": 3.1512,"625": 3.4575,"650": 3.134,"675": 2.9466,"700": 2.9975,"725": 2.4866,"750": 2.3331,"775": 2.3331,"800": 2.5203,"825": 2.929,"850": 2.3671,"875": 3.0993,"900": 3.2184,"925": 2.7418,"950": 3.3207,"975": 3.1841,"1000": 2.9285,"1025": 3.1669,"1050": 3.2179,"1075": 4.8688,"1100": 5.0561,"1125": 4.3922,"1150": 4.1878,"1175": 3.8987,"1200": 3.5581,"1225": 2.8942,"1250": 2.6898,"1275": 2.196,"1300": 2.0428,"1325": 1.5663,"1350": 1.5322,"1375": 1.2768,"1400": 0.8003,"1425": 0.9366,"1450": 1.0047,"1475": 1.0047,"1500": 1.0046,"1525": 0.9196,"1550": 0.579,"1575": 0.3577,"1600": 0.3237,"1625": 0.3237,"1650": 0.3237,"1675": 0.1363,"1700": 0.0852}}}