{"type":"Feature","properties":{"GID_2":"TUR.47.8_1","GID_0":"TUR","country":"Turkey","GID_1":"TUR.47_1","province":"Kayseri","NL_NAME_1":"NA","county":"Melikgazi","VARNAME_2":"NA","NL_NAME_2":"NA","TYPE_2":"District","ENGTYPE_2":"District","CC_2":"NA","HASC_2":"TR.KY.KM","name":"Melikgazi.county"},
"geometry":{"type": "MultiPolygon","coordinates": [[[[35.4937,38.6494,1392.4617],[35.5154,38.6535,1342.1279],[35.5301,38.6599,1325.8718],[35.5656,38.7005,1160.4553],[35.5686,38.7143,1171.6034],[35.5663,38.7326,1125.1887],[35.5575,38.7426,1106.7627],[35.5384,38.7584,1075.5812],[35.5225,38.7669,1059.5416],[35.4954,38.7724,1051.8623],[35.444,38.7912,1068.0652],[35.4163,38.7931,1106.1201],[35.2977,38.7926,1338.4258],[35.3008,38.767,1036.1099],[35.3211,38.7693,1180.7549],[35.339,38.7678,1083.6541],[35.3488,38.7642,1036.3682],[35.3754,38.7493,1038.0547],[35.414,38.7446,1046.4377],[35.4269,38.7393,1051.2449],[35.4351,38.7334,1058.0878],[35.4422,38.7268,1061.2043],[35.4521,38.7127,1057.6178],[35.4581,38.7068,1087.9651],[35.4799,38.6963,1137.6624],[35.4889,38.689,1088.4292],[35.4918,38.6842,1100.3776],[35.4938,38.6761,1172.5663],[35.4937,38.6494,1392.4617]]]]}}