{"type":"Feature","properties":{"GID_2":"TUR.53.2_1","GID_0":"TUR","country":"Turkey","GID_1":"TUR.53_1","province":"Konya","NL_NAME_1":"NA","county":"Akören","VARNAME_2":"NA","NL_NAME_2":"NA","TYPE_2":"District","ENGTYPE_2":"District","CC_2":"NA","HASC_2":"TR.KO.AK","name":"Akören.county"},
"geometry":{"type": "MultiPolygon","coordinates": [[[[32.2095,37.3042,1202.9829],[32.3152,37.3048,1582.7214],[32.3317,37.303,1564.8525],[32.3535,37.2961,1478.2618],[32.3653,37.294,1428.1477],[32.4316,37.2939,1445.186],[32.4168,37.3151,1246.4756],[32.4128,37.3266,1233.4482],[32.4112,37.3781,1145.2466],[32.4124,37.3868,1121.3225],[32.4172,37.3943,1101.8635],[32.4267,37.3979,1114.7841],[32.4377,37.3988,1111.5555],[32.5639,37.398,1080.1448],[32.5763,37.4028,1069.6509],[32.5825,37.4105,1060.7249],[32.5865,37.4211,1047.0809],[32.5847,37.4261,1042.6383],[32.5684,37.4434,1059.134],[32.559,37.4577,1077.0864],[32.5434,37.4763,1085.4358],[32.5219,37.4865,1061.7892],[32.4972,37.4933,1089.4545],[32.4949,37.4961,1086.882],[32.4953,37.4999,1076.8163],[32.4642,37.5026,1057.1664],[32.4071,37.5027,1135.3608],[32.3876,37.5008,1136.223],[32.3696,37.4951,1122.7025],[32.36,37.4938,1086.739],[32.3251,37.5023,1140.6208],[32.3056,37.5035,1131.5],[32.2861,37.5025,1188.6421],[32.272,37.4978,1321.2372],[32.2585,37.4879,1354.3375],[32.2511,37.4783,1232.8137],[32.2462,37.4643,1181.5],[32.2429,37.4603,1263.3096],[32.2374,37.4577,1269.3846],[32.2279,37.4566,1261.4557],[32.2118,37.4599,1348.4443],[32.1885,37.4696,1475.7581],[32.1811,37.4748,1608.6692],[32.1747,37.4841,1638.9904],[32.1713,37.5061,1795.2085],[32.168,37.5107,1924.5115],[32.1561,37.5143,2018.1086],[32.143,37.5124,1951.4155],[32.1273,37.503,2174.6658],[32.1282,37.4548,1735.542],[32.1308,37.4459,1810.5621],[32.1399,37.4293,1573.182],[32.1425,37.4083,1435.1052],[32.1401,37.3904,1373.0205],[32.1307,37.3737,1287.4734],[32.127,37.3633,1230.2722],[32.1407,37.3609,1286.1178],[32.1711,37.3499,1238.3845],[32.1847,37.342,1296.6555],[32.1995,37.3275,1323.6072],[32.2095,37.3042,1202.9829]]]]}}