{"type": "Feature","bbox": [42.836,40.6963,43.2773,40.9872],"geometry": {"type": "MultiPolygon","coordinates": [[[[43.0422,40.9705,2775.1694],[42.9935,40.9618,2413.1968],[42.9333,40.9391,2085.167],[42.9152,40.9275,2102.0967],[42.9002,40.9113,2113.8267],[42.8903,40.8934,2134.5527],[42.8843,40.875,2202.9065],[42.8733,40.8527,2222.8086],[42.8717,40.837,2256.2209],[42.8718,40.7857,2266.9016],[42.8696,40.7703,2358.5269],[42.8605,40.7536,2432.8918],[42.8532,40.7326,2642.9346],[42.836,40.7135,2738.5305],[42.8761,40.6979,2435.7046],[42.8941,40.6963,2349.2129],[42.9121,40.6977,2157.7258],[42.9488,40.7117,2165.0752],[42.9896,40.7394,1869.3014],[43.0,40.7424,1951.4561],[43.0108,40.7433,2045.0017],[43.0288,40.7422,1947.7692],[43.0567,40.7335,1875.5188],[43.0921,40.7292,1917.146],[43.1165,40.7209,1753.5994],[43.1409,40.7198,1752.5898],[43.1529,40.7233,1675.2307],[43.1708,40.7416,1710.8479],[43.185,40.7506,1705.2412],[43.1995,40.754,1702.1091],[43.2421,40.7562,1667.2145],[43.2546,40.7607,1662.757],[43.2752,40.7725,1627.5031],[43.2773,40.7894,1640.6841],[43.2761,40.806399999999996,1675.4708],[43.266,40.8255,1705.2621],[43.2575,40.849,1830.1736],[43.2242,40.879,2201.1392],[43.2108,40.8979,2245.1941],[43.1941,40.9126,2131.4692],[43.1648,40.934,2498.24],[43.1377,40.9455,2819.1702],[43.1227,40.9562,3051.5784],[43.1143,40.9678,2977.6924],[43.1126,40.9845,2945.3623],[43.0901,40.9872,2921.6458],[43.0721,40.9858,2802.5835],[43.0598,40.9812,2837.175],[43.0422,40.9705,2775.1694]]]]}
,"properties": {"GID_2": "TUR.45.8_1","GID_0": "TUR","country": "Turkey","GID_1": "TUR.45_1","province": "Kars","NL_NAME_1": "NA","county": "Susuz","VARNAME_2": "NA","NL_NAME_2": "NA","TYPE_2": "District","ENGTYPE_2": "District","CC_2": "NA","HASC_2": "TR.KA.SU","name": "Susuz.county","area_km2": 769.3598,"hist_schema_id": "Elevation0-9000","hist_area_km2": {"1625": 3.7565,"1650": 7.5291,"1675": 16.182,"1700": 22.1217,"1725": 22.3467,"1750": 22.7835,"1775": 16.6317,"1800": 12.7624,"1825": 9.4054,"1850": 8.0567,"1875": 8.1213,"1900": 8.8442,"1925": 9.7436,"1950": 10.9953,"1975": 11.7981,"2000": 11.6054,"2025": 13.2259,"2050": 14.8291,"2075": 14.8116,"2100": 25.8894,"2125": 41.5401,"2150": 34.948,"2175": 36.3758,"2200": 42.2119,"2225": 42.7253,"2250": 28.0215,"2275": 24.0295,"2300": 23.7265,"2325": 24.8854,"2350": 22.718,"2375": 14.6297,"2400": 13.2175,"2425": 10.5704,"2450": 10.3462,"2475": 9.3981,"2500": 8.8372,"2525": 8.2423,"2550": 8.1296,"2575": 6.9744,"2600": 6.5423,"2625": 6.8154,"2650": 7.0735,"2675": 6.0953,"2700": 5.2099,"2725": 4.0211,"2750": 3.5077,"2775": 3.6838,"2800": 3.8759,"2825": 3.9397,"2850": 3.7475,"2875": 3.8272,"2900": 3.9554,"2925": 3.699,"2950": 3.5548,"2975": 3.4586,"3000": 3.0582,"3025": 2.9622,"3050": 2.6738,"3075": 2.1134,"3100": 1.393,"3125": 0.8486,"3150": 0.2402,"3175": 0.0801,"3200": 0.016}}}