{"type":"Feature","properties":{"GID_2":"TUR.24.2_1","GID_0":"TUR","country":"Turkey","GID_1":"TUR.24_1","province":"Çorum","NL_NAME_1":"NA","county":"Bayat","VARNAME_2":"NA","NL_NAME_2":"NA","TYPE_2":"District","ENGTYPE_2":"District","CC_2":"NA","HASC_2":"TR.CM.BA","name":"Bayat.county"},
"geometry":{"type": "MultiPolygon","coordinates": [[[[34.1312,40.4935,632.7583],[34.1564,40.4956,549.0916],[34.1807,40.5035,576.8435],[34.1984,40.5041,622.5728],[34.2113,40.5008,671.2495],[34.2353,40.4914,544.2053],[34.2486,40.4845,526.1211],[34.27,40.4821,625.0291],[34.2918,40.4834,673.5929],[34.313,40.4904,560.5503],[34.3402,40.4958,575.9625],[34.3736,40.5078,540.1266],[34.3953,40.518,564.5379],[34.3997,40.5214,569.1649],[34.4122,40.5385,604.3542],[34.4163,40.5518,515.8018],[34.4041,40.564,533.1985],[34.3908,40.5846,572.144],[34.389,40.5912,584.5991],[34.3912,40.5999,604.6461],[34.4096,40.6286,601.7407],[34.4105,40.6352,610.4015],[34.3996,40.6555,708.0488],[34.3895,40.6687,745.3259],[34.375,40.6922,831.4159],[34.3706,40.7204,1012.4947],[34.3679,40.7278,1074.8005],[34.3556,40.7485,1468.8193],[34.3471,40.755,1553.239],[34.3414,40.7561,1519.5909],[34.3358,40.755,1438.7396],[34.3179,40.7442,1778.6968],[34.3092,40.743,1662.2261],[34.2959,40.7491,1497.7239],[34.2748,40.767,1595.3911],[34.2681,40.7795,1727.3302],[34.2663,40.8067,1671.0182],[34.2637,40.8183,1409.2532],[34.2406,40.8554,1651.8531],[34.2324,40.8788,1568.9493],[34.2142,40.9029,1532.4795],[34.1907,40.892,1390.62],[34.1635,40.8866,1493.5443],[34.1156,40.8686,1716.1952],[34.0884,40.8633,1587.5945],[34.0672,40.8561,1544.7094],[34.0359,40.851,1542.2826],[34.0538,40.8186,1806.2385],[34.0572,40.8008,1684.3977],[34.0554,40.7797,1370.6401],[34.0452,40.7602,1366.6407],[34.0421,40.7481,1230.2772],[34.0411,40.7157,1191.8625],[34.0424,40.6899,1094.1238],[34.0449,40.6808,1084.4622],[34.0538,40.6641,894.696],[34.0589,40.6372,848.0355],[34.0688,40.6176,761.7227],[34.0738,40.5906,788.904],[34.0828,40.5739,699.6435],[34.0896,40.5528,645.9984],[34.0979,40.539,649.2204],[34.1035,40.5205,647.0501],[34.1128,40.5041,611.7365],[34.1162,40.4935,610.7028],[34.1312,40.4935,632.7583]]]]}}