{"type":"Feature","properties":{"GID_2":"TUR.62.2_1","GID_0":"TUR","country":"Turkey","GID_1":"TUR.62_1","province":"Nigde","NL_NAME_1":"NA","county":"Bor","VARNAME_2":"NA","NL_NAME_2":"NA","TYPE_2":"District","ENGTYPE_2":"District","CC_2":"NA","HASC_2":"TR.NG.BO","name":"Bor.county"},
"geometry":{"type": "MultiPolygon","coordinates": [[[[34.2237,37.942,1252.0801],[34.2385,37.9368,1248.5559],[34.2598,37.9214,1148.5459],[34.2711,37.9104,1178.5187],[34.2843,37.8914,1153.0352],[34.3269,37.8564,1070.9221],[34.3421,37.8356,1059.6777],[34.3609,37.8169,1054.6121],[34.3701,37.8028,1052.917],[34.3909,37.782,1051.2594],[34.4001,37.7678,1050.0333],[34.421,37.7471,1051.176],[34.4534,37.6959,1126.5214],[34.4555,37.6776,1179.3582],[34.4532,37.6476,1200.4562],[34.4788,37.6707,1262.0076],[34.4955,37.6824,1246.2705],[34.5586,37.7073,1199.4033],[34.5767,37.7104,1213.5809],[34.6274,37.7121,1457.1079],[34.652,37.7196,1443.0181],[34.6634,37.7216,1426.1062],[34.7321,37.7232,1438.7844],[34.7762,37.735,1585.8811],[34.7855,37.7411,1465.5327],[34.8075,37.7726,1848.3906],[34.82,37.7834,1854.6685],[34.8319,37.7902,1842.9471],[34.8659,37.8022,2041.228],[34.9168,37.8045,1786.3931],[34.949,37.851,2011.7446],[34.9608,37.8738,1973.1686],[34.9598,37.8848,2297.6399],[34.8106,37.8848,2176.8896],[34.7875,37.8878,1896.913],[34.7747,37.8943,1894.7377],[34.7493,37.9129,1788.9536],[34.74,37.918,1912.957],[34.7098,37.9293,1649.6191],[34.6795,37.9355,1215.578],[34.6225,37.957,1233.0729],[34.6086,37.9679,1333.3276],[34.5719,38.0263,2136.6187],[34.5436,38.0546,2667.425],[34.5206,38.0399,2228.7024],[34.4722,38.0027,1750.7351],[34.458,37.9936,1715.459],[34.4247,37.9809,1319.9631],[34.3975,37.9756,1203.5876],[34.3765,37.9683,1127.9189],[34.3624,37.9676,1112.3452],[34.352,37.9695,1114.7676],[34.3228,37.9863,1174.8677],[34.3087,37.9899,1190.2247],[34.2544,37.9907,1296.6892],[34.232,37.988,1278.0596],[34.1997,37.9723,1195.0344],[34.2237,37.942,1252.0801]]]]}}