{"type":"Feature","properties":{"GID_1":"TUR.49_1","GID_0":"TUR","country":"Turkey","province":"Kinkkale","VARNAME_1":"Kırıkkale","NL_NAME_1":"NA","TYPE_1":"Il","ENGTYPE_1":"Province","CC_1":"NA","HASC_1":"TR.KK","ISO_1":"NA","name":"Kinkkale.province"},
"geometry":{"type": "MultiPolygon","coordinates": [[[[33.5042,39.2398,882.759],[33.5138,39.2471,848.0],[33.528,39.2548,848.0],[33.5313,39.2706,875.6816],[33.5394,39.2843,918.951],[33.5458,39.3012,989.3571],[33.5561,39.3139,1015.941],[33.5613,39.3286,1061.2468],[33.5707,39.3449,1174.1024],[33.5761,39.3638,1114.0516],[33.5849,39.3811,1050.7],[33.5947,39.3844,1069.5819],[33.6065,39.391,1063.0724],[33.662,39.4339,997.6866],[33.6796,39.4438,999.924],[33.7047,39.4465,1006.0474],[33.7602,39.4446,1007.7848],[33.7788,39.468,981.1561],[33.7867,39.4916,924.2173],[33.8014,39.5147,910.0273],[33.8125,39.5238,894.1322],[33.8272,39.5297,843.5732],[33.8392,39.538,833.2786],[33.8558,39.5633,824.5408],[33.8613,39.5936,831.481],[33.8705,39.61,854.716],[33.8773,39.6311,872.7162],[33.8868,39.6474,849.4504],[33.8923,39.6661,794.141],[33.9006,39.6798,808.6168],[33.9061,39.6983,800.4414],[33.9108,39.7058,854.8506],[33.9254,39.7188,789.8392],[33.9717,39.7533,749.2291],[33.9917,39.7631,712.1935],[34.0029,39.7715,785.7087],[34.0439,39.7881,760.3831],[34.0565,39.7969,729.702],[34.0689,39.8084,706.7439],[34.07,39.8444,656.5284],[34.0688,39.8665,656.7064],[34.0663,39.8755,652.8384],[34.0575,39.892,672.9464],[34.0543,39.9049,661.8475],[34.0548,39.9345,734.5063],[34.0579,39.9454,677.2834],[34.066,39.9551,723.6313],[34.1042,39.9841,711.9097],[34.1348,39.9982,748.1083],[34.1711,40.0222,699.9385],[34.1914,40.0302,707.2238],[34.1974,40.0352,736.7473],[34.1992,40.0397,751.1768],[34.196,40.0469,743.0507],[34.1892,40.0527,729.6052],[34.1776,40.0594,659.1503],[34.1592,40.0663,667.1111],[34.1498,40.0734,703.2452],[34.1253,40.1107,690.5085],[34.1054,40.1311,694.201],[34.1018,40.139,665.6652],[34.0978,40.1638,677.152],[34.0879,40.183,662.0927],[34.0841,40.2183,575.5266],[34.079,40.2245,618.3218],[34.0545,40.2354,594.5649],[34.016,40.2405,838.0038],[33.9755,40.2508,1000.1252],[33.9689,40.255,923.3196],[33.9655,40.2608,795.5469],[33.9179,40.2616,762.2877],[33.8816,40.271,725.4644],[33.8355,40.2746,703.8435],[33.8139,40.2814,731.9919],[33.794,40.284,693.9617],[33.7556,40.2839,686.0584],[33.7291,40.2784,643.9974],[33.7015,40.2527,780.7562],[33.6861,40.2318,900.7503],[33.6611,40.2109,935.11],[33.6527,40.2019,974.8031],[33.6093,40.1343,865.285],[33.6013,40.1108,931.4781],[33.592,40.0944,1117.8691],[33.5869,40.0669,1102.2258],[33.5765,40.0481,1061.3837],[33.5757,40.0344,1083.4277],[33.5773,40.029,1099.4812],[33.6149,39.9713,1180.5293],[33.6194,39.9583,1094.5847],[33.6183,39.9183,941.851],[33.6138,39.9078,998.2086],[33.6033,39.8919,949.9251],[33.5905,39.8812,887.2632],[33.5609,39.8684,803.9922],[33.5155,39.8515,761.694],[33.5059,39.8449,729.3666],[33.4999,39.8362,715.7502],[33.4701,39.8283,674.7274],[33.4341,39.814,829.0515],[33.3746,39.7691,976.3807],[33.3563,39.7511,1139.9335],[33.336,39.7102,1249.5229],[33.3315,39.6744,1103.6421],[33.3199,39.6488,1048.7355],[33.3181,39.6229,1022.3525],[33.3204,39.595,944.2676],[33.3176,39.5746,920.8465],[33.3158,39.5664,894.0237],[33.3057,39.5471,945.4291],[33.3005,39.5202,863.9611],[33.2898,39.4978,900.8405],[33.2855,39.4619,807.6697],[33.2764,39.4452,811.9185],[33.268,39.4218,807.561],[33.2451,39.399,832.463],[33.2343,39.3812,843.4546],[33.2338,39.3744,822.3868],[33.2401,39.3663,817.9303],[33.2867,39.3304,857.2029],[33.3236,39.3288,910.6398],[33.3526,39.3201,830.8975],[33.3694,39.3172,828.4514],[33.3884,39.2851,904.1406],[33.3903,39.2774,923.6296],[33.3882,39.2698,887.4562],[33.3658,39.2362,937.5443],[33.3656,39.2256,941.8316],[33.3816,39.2003,916.9691],[33.4005,39.1815,898.5986],[33.4104,39.1658,900.6976],[33.4169,39.1611,900.7743],[33.4228,39.1597,887.9465],[33.4288,39.1607,878.5291],[33.4407,39.1684,867.2726],[33.4486,39.1767,885.8707],[33.4594,39.1936,856.7081],[33.4908,39.2214,875.4781],[33.5042,39.2398,882.759]]]]}}