{"type": "Feature","id": "3019","bbox": [33.27309,39.26678,34.10131,40.33955],"geometry": {"type": "Polygon","coordinates": [[[33.96416,40.2655,770.2119],[33.87052,40.2723,683.0658],[33.59519,40.33955,977.1088],[33.58206,40.2579,676.5096],[33.56853,40.20098,600.8741],[33.56853,40.13321,961.0853],[33.57659,40.07357,1116.7155],[33.56207,40.01647,1180.3185],[33.44687,40.00572,684.3746],[33.37274,39.9816,1117.7463],[33.3279,39.8969,762.2479],[33.30299,39.8122,918.5537],[33.27309,39.7275,1204.5724],[33.298,39.6428,1125.0013],[33.37772,39.56806,875.848],[33.40602,39.52973,739.5701],[33.44475,39.3874,817.9454],[33.5245,39.26678,848.0],[33.63663,39.41871,1036.1655],[33.7989,39.5204,922.501],[33.86763,39.6042,874.4909],[33.91279,39.70688,869.5823],[34.0733,39.82573,660.6226],[34.06317,39.84571,656.6783],[34.06638,39.86687,652.4957],[34.06172,39.88782,665.8437],[34.05253,39.90762,659.1495],[34.05087,39.95862,637.0353],[34.07764,40.00019,635.6421],[34.09759,40.02433,614.0704],[34.10131,40.05688,609.977],[34.08808,40.08598,602.1851],[34.08684,40.09784,599.6499],[34.08446,40.1091,598.2469],[34.06565,40.12463,605.3761],[34.04167,40.12716,643.226],[34.01635,40.1467,702.2262],[33.97522,40.21801,895.3596],[33.96416,40.2655,770.2119]]]}
,"properties": {"ISO3166-1-Alpha-3": "TUR","country": "Turkey","fill": "#F0F","name": "Kinkkale","area_km2": 4660.28,"hist_schema_id": "Elevation0-9000","hist_area_km2": {"575": 6.145,"600": 26.143,"625": 31.87,"650": 66.582,"675": 104.469,"700": 127.725,"725": 164.348,"750": 157.764,"775": 163.589,"800": 164.314,"825": 159.019,"850": 181.837,"875": 216.471,"900": 246.061,"925": 265.831,"950": 278.282,"975": 282.206,"1000": 267.044,"1025": 259.485,"1050": 237.522,"1075": 219.63,"1100": 198.991,"1125": 177.004,"1150": 148.816,"1175": 117.402,"1200": 92.572,"1225": 72.914,"1250": 52.347,"1275": 37.856,"1300": 28.534,"1325": 23.535,"1350": 19.273,"1375": 15.248,"1400": 12.524,"1425": 10.486,"1450": 7.844,"1475": 5.755,"1500": 3.798,"1525": 3.031,"1550": 1.727,"1575": 1.01,"1600": 0.928,"1625": 0.586,"1650": 0.505,"1675": 0.635,"1700": 0.407,"1725": 0.195}}}