{"type": "Feature","bbox": [31.2337,37.6316,31.4524,37.9345],"geometry": {"type": "MultiPolygon","coordinates": [[[[31.3917,37.6316,1626.172],[31.3952,37.6422,1382.7083],[31.4045,37.6585,1420.3566],[31.4104,37.677,1231.6665],[31.4195,37.6938,1146.5881],[31.4255,37.7236,1137.0273],[31.4336,37.7375,1127.2579],[31.4396,37.7559,1122.0],[31.4507,37.778,1122.0],[31.4524,37.7963,1122.0],[31.4523,37.8528,1122.0],[31.44,37.8655,1122.0],[31.4322,37.8812,1122.0],[31.4318,37.8874,1122.0],[31.4255,37.9004,1122.0],[31.4236,37.9083,1122.0],[31.4248,37.9312,1122.0],[31.4073,37.9338,1122.0],[31.3813,37.9345,1122.0],[31.3603,37.9306,1122.0],[31.331,37.9135,1122.0],[31.2337,37.8763,2214.2207],[31.2522,37.8541,2098.9392],[31.2571,37.8413,2206.9912],[31.2583,37.8282,2129.509],[31.262,37.8215,1961.7098],[31.2824,37.8108,2044.135],[31.3031,37.803,1838.2715],[31.3102,37.7978,1800.1318],[31.3152,37.7906,1782.6545],[31.3177,37.7723,1849.9952],[31.3164,37.6828,2002.5095],[31.3176,37.6735,2370.8533],[31.3214,37.6648,2115.3271],[31.3357,37.6507,1603.7959],[31.3562,37.6369,1352.4521],[31.37,37.6327,1448.2302],[31.3917,37.6316,1626.172]]]]}
,"properties": {"GID_2": "TUR.39.13_1","GID_0": "TUR","country": "Turkey","GID_1": "TUR.39_1","province": "Isparta","NL_NAME_1": "NA","county": "Yenişarbademli","VARNAME_2": "NA","NL_NAME_2": "NA","TYPE_2": "District","ENGTYPE_2": "District","CC_2": "NA","HASC_2": "TR.IP.YS","name": "Yenişarbademli.county","area_km2": 377.7795,"hist_schema_id": "Elevation0-9000","hist_area_km2": {"1125": 112.8649,"1150": 15.2523,"1175": 12.4053,"1200": 10.2091,"1225": 8.0285,"1250": 8.3484,"1275": 7.7115,"1300": 7.9801,"1325": 9.1368,"1350": 9.0198,"1375": 9.2535,"1400": 9.3712,"1425": 9.6742,"1450": 8.918,"1475": 7.2908,"1500": 6.1672,"1525": 5.7146,"1550": 6.1335,"1575": 5.731,"1600": 6.066,"1625": 7.4398,"1650": 6.2169,"1675": 5.7974,"1700": 5.4623,"1725": 4.8086,"1750": 4.8261,"1775": 4.9774,"1800": 4.7423,"1825": 4.6251,"1850": 4.0044,"1875": 4.807,"1900": 6.1634,"1925": 3.8352,"1950": 2.981,"1975": 3.5003,"2000": 3.2487,"2025": 4.1692,"2050": 3.0977,"2075": 2.8969,"2100": 3.2315,"2125": 2.6957,"2150": 1.9089,"2175": 2.1432,"2200": 1.5906,"2225": 1.1221,"2250": 0.7704,"2275": 0.4522,"2300": 0.3853,"2325": 0.2345,"2350": 0.2011,"2375": 0.1339,"2400": 0.0335}}}