{"type":"Feature","properties":{"GID_2":"TUR.71.1_1","GID_0":"TUR","country":"Turkey","GID_1":"TUR.71_1","province":"Sirnak","NL_NAME_1":"NA","county":"Beytüşşebap","VARNAME_2":"NA","NL_NAME_2":"NA","TYPE_2":"District","ENGTYPE_2":"District","CC_2":"NA","HASC_2":"TR.SR.BE","name":"Beytüşşebap.county"},
"geometry":{"type": "MultiPolygon","coordinates": [[[[43.435,37.4191,2050.6875],[43.4349,37.5034,1347.3972],[43.4366,37.5225,2084.7222],[43.4639,37.5829,2280.1523],[43.4656,37.6299,2498.1187],[43.4677,37.642,2588.5432],[43.4907,37.679,2638.0283],[43.4942,37.6875,2803.4092],[43.4959,37.7026,2770.8291],[43.4957,37.7274,3052.1494],[43.3177,37.7279,2515.2783],[43.3019,37.7303,2455.2466],[43.2764,37.7379,2635.6653],[43.2155,37.741,2783.7246],[43.1678,37.7588,3007.2368],[43.1565,37.7616,2745.1152],[43.0542,37.7636,2138.5474],[43.0394,37.7683,2128.6738],[43.0169,37.7814,2268.6594],[42.9987,37.7899,2432.3044],[42.9891,37.7993,2344.2178],[42.9853,37.8093,2503.145],[42.9636,37.8105,2509.3181],[42.9434,37.785,2198.3906],[42.9367,37.7521,2001.2535],[42.9285,37.7384,1842.8982],[42.9218,37.7172,2000.4716],[42.9134,37.7035,2084.8003],[42.9069,37.6823,2407.2346],[42.8922,37.6589,2016.6429],[42.8838,37.6499,1890.0176],[42.8566,37.6267,1683.2788],[42.8406,37.6054,1496.4172],[42.7963,37.5688,2029.4426],[42.7912,37.5613,2042.7128],[42.7816,37.5393,2323.5747],[42.8054,37.5321,2523.6162],[42.8165,37.5305,2587.3584],[42.8861,37.5302,2876.3521],[42.9083,37.5274,3060.8479],[42.938,37.5107,2327.9456],[42.9624,37.4996,1807.7339],[43.0095,37.4651,2157.6606],[43.0428,37.4517,2250.4402],[43.0528,37.4494,2090.2305],[43.0848,37.4462,2160.8621],[43.1132,37.4378,2027.1481],[43.1711,37.4354,1271.158],[43.1996,37.427,1354.2314],[43.235,37.4231,1603.5264],[43.3161,37.3924,3034.0732],[43.34,37.3881,2734.5408],[43.3612,37.3809,3164.8262],[43.3884,37.3756,2552.9443],[43.4061,37.369,2967.6006],[43.4356,37.3612,2353.8992],[43.435,37.4191,2050.6875]]]]}}