{"type":"Feature","properties":{"GID_2":"TUR.68.5_1","GID_0":"TUR","country":"Turkey","GID_1":"TUR.68_1","province":"Sanliurfa","NL_NAME_1":"NA","county":"Halfeti","VARNAME_2":"NA","NL_NAME_2":"NA","TYPE_2":"District","ENGTYPE_2":"District","CC_2":"NA","HASC_2":"TR.SU.HF","name":"Halfeti.county"},
"geometry":{"type": "MultiPolygon","coordinates": [[[[38.0515,37.4376,380.5],[38.0288,37.4403,426.6232],[38.0028,37.4407,463.6181],[37.9884,37.4391,389.5922],[37.9758,37.434,381.6544],[37.9494,37.4145,525.0438],[37.93,37.3976,648.3032],[37.9058,37.3599,397.8685],[37.8998,37.353,477.4763],[37.8724,37.3298,429.8378],[37.861,37.3177,448.8151],[37.8484,37.3125,519.9735],[37.8485,37.2854,418.4812],[37.847,37.2727,397.2048],[37.8438,37.2645,425.3194],[37.8303,37.2439,628.4055],[37.8332,37.2031,380.0],[37.8365,37.1855,415.5057],[37.8454,37.1687,386.7867],[37.8504,37.1418,483.469],[37.8626,37.1165,441.3952],[37.8902,37.1146,599.9692],[37.9662,37.1142,432.9239],[37.997,37.1168,486.3323],[38.0274,37.1279,529.8303],[38.0491,37.1383,644.9058],[38.0538,37.1411,728.6434],[38.0646,37.1524,758.4058],[38.0749,37.1583,738.4742],[38.0858,37.1605,742.5742],[38.1284,37.1626,674.3762],[38.1656,37.176,687.3391],[38.1888,37.1918,676.9771],[38.2386,37.2321,606.5619],[38.2226,37.2402,612.9965],[38.1769,37.2575,606.795],[38.1525,37.2721,565.9885],[38.1324,37.2808,631.0122],[38.1214,37.2901,618.7965],[38.0931,37.3341,549.6091],[38.0899,37.3424,561.4052],[38.0884,37.364,544.2925],[38.0898,37.4201,523.1105],[38.0608,37.4312,381.1457],[38.0515,37.4376,380.5]]]]}}