{"type": "Feature","bbox": [32.9594,36.1193,33.6709,36.5227],"geometry": {"type": "MultiPolygon","coordinates": [[[[33.5304,36.1288,0.0],[33.529,36.1279,2.1389],[33.5315,36.124,0.2716],[33.5299,36.1235,1.9672],[33.5288,36.1193,0.0],[33.5293,36.1204,0.0],[33.5335,36.1199,0.0],[33.5349,36.1215,0.0],[33.5304,36.1288,0.0]]],
[[[32.9606,36.451,1490.3148],[32.9594,36.4508,1489.6995],[32.9716,36.4397,1348.0637],[32.9821,36.4334,1345.817],[33.0119,36.4216,1354.0039],[33.0698,36.4059,1484.7927],[33.0821,36.3995,1315.6459],[33.0924,36.3912,1330.2363],[33.0993,36.3809,1347.0206],[33.1011,36.3719,1334.4653],[33.1004,36.322,1187.7772],[33.1027,36.307,1151.6372],[33.1098,36.2966,1367.3779],[33.1307,36.2799,1398.1099],[33.1473,36.2887,1388.3351],[33.1742,36.2944,1253.2078],[33.1956,36.3015,1244.947],[33.2068,36.3029,1199.5325],[33.2688,36.3026,932.8807],[33.2829,36.2997,914.6774],[33.31,36.2894,954.0031],[33.4001,36.2545,719.6182],[33.4247,36.2432,491.6332],[33.4291,36.2398,173.3068],[33.4439,36.2208,101.1369],[33.4591,36.1947,86.921],[33.4601,36.1837,108.2971],[33.4591,36.1783,144.047],[33.4455,36.1538,1.947],[33.4479,36.1529,0.0],[33.4549,36.1549,0.0],[33.4596,36.1574,5.0619],[33.4601,36.1596,0.4523],[33.4637,36.1596,1.34],[33.4676,36.1574,3.0423],[33.474,36.1593,17.3668],[33.4882,36.1526,0.8299],[33.4935,36.1524,2.8127],[33.4985,36.1488,0.9496],[33.4996,36.1501,0.0],[33.5043,36.1501,0.0],[33.511,36.1468,0.0],[33.5151,36.1468,0.0],[33.5163,36.1437,0.0],[33.519,36.1426,0.0],[33.5304,36.1449,0.3816],[33.5318,36.1429,0.0],[33.5276,36.1418,0.0],[33.5282,36.1404,0.0],[33.5371,36.1413,0.7298],[33.539,36.1396,0.484],[33.5401,36.1426,13.498],[33.5426,36.1429,3.9376],[33.544,36.1415,3.9099],[33.5426,36.139,8.053],[33.5462,36.139,7.5944],[33.5476,36.1368,2.2941],[33.5454,36.1354,22.6166],[33.5376,36.136,0.0],[33.5357,36.1343,0.0],[33.5371,36.1338,5.5048],[33.536,36.1288,0.0],[33.541,36.1249,0.0],[33.5499,36.1276,35.0241],[33.5546,36.1257,21.7688],[33.5599,36.1268,0.0],[33.561,36.1254,0.0],[33.5632,36.1276,0.0],[33.5635,36.131,0.0],[33.5665,36.1312,8.8397],[33.5646,36.1363,10.0618],[33.5682,36.1363,0.0],[33.5696,36.1382,0.0],[33.5687,36.141,142.326],[33.5701,36.139,3.0675],[33.5718,36.1421,18.4124],[33.5765,36.1451,8.0893],[33.574,36.1549,1.9139],[33.5776,36.1585,0.0],[33.5818,36.1565,0.0],[33.5835,36.1604,0.0],[33.5854,36.1613,17.1693],[33.5849,36.1635,28.1522],[33.5868,36.1668,0.0],[33.591,36.171,14.3255],[33.5925,36.176,35.3242],[33.591,36.1845,237.07],[33.5981,36.1971,350.2955],[33.6158,36.2227,497.2216],[33.6538,36.257,873.082],[33.6691,36.2801,956.5088],[33.6709,36.2855,955.1143],[33.6701,36.2992,896.6717],[33.6653,36.3062,1007.1172],[33.6607,36.3099,1028.4119],[33.6094,36.3291,1084.5946],[33.5875,36.3391,1039.7318],[33.5831,36.3424,1042.0178],[33.5718,36.3571,1016.4291],[33.568,36.3645,997.7146],[33.5663,36.3728,896.9953],[33.5662,36.4017,785.5844],[33.5682,36.4158,774.9254],[33.5773,36.4365,461.1338],[33.5581,36.4414,319.8569],[33.5077,36.4426,482.1194],[33.4928,36.445,485.3353],[33.4804,36.4513,451.3691],[33.4481,36.4764,305.4995],[33.4334,36.4853,267.6177],[33.4232,36.4881,249.2646],[33.3879,36.492,462.6927],[33.3368,36.5109,502.6183],[33.3181,36.5127,709.0135],[33.2484,36.5131,992.8184],[33.2373,36.5148,1029.6055],[33.2132,36.5226,428.4204],[33.1994,36.5227,395.1366],[33.1895,36.5207,365.68],[33.1623,36.5108,581.6445],[33.0547,36.4688,1390.5188],[33.0159,36.4642,1171.2109],[32.9913,36.4563,1386.6985],[32.9606,36.451,1490.3148]]]]}
,"properties": {"GID_2": "TUR.58.6_1","GID_0": "TUR","country": "Turkey","GID_1": "TUR.58_1","province": "Mersin","NL_NAME_1": "NA","county": "Gülnar","VARNAME_2": "NA","NL_NAME_2": "NA","TYPE_2": "District","ENGTYPE_2": "District","CC_2": "NA","HASC_2": "TR.IC.GU","name": "Gülnar.county","area_km2": 1311.633,"hist_schema_id": "Elevation0-9000","hist_area_km2": {"0": 4.434,"25": 5.546,"50": 5.067,"75": 6.453,"100": 6.144,"125": 6.024,"150": 7.068,"175": 7.768,"200": 8.982,"225": 8.981,"250": 10.023,"275": 10.398,"300": 10.995,"325": 11.334,"350": 11.108,"375": 10.662,"400": 11.772,"425": 13.701,"450": 15.493,"475": 18.719,"500": 17.709,"525": 18.189,"550": 18.651,"575": 16.583,"600": 15.18,"625": 15.06,"650": 15.012,"675": 17.009,"700": 19.148,"725": 19.951,"750": 22.068,"775": 22.164,"800": 20.041,"825": 20.469,"850": 21.65,"875": 26.09,"900": 33.026,"925": 32.185,"950": 38.567,"975": 44.441,"1000": 47.889,"1025": 50.414,"1050": 44.094,"1075": 37.147,"1100": 28.61,"1125": 23.351,"1150": 20.959,"1175": 24.273,"1200": 24.202,"1225": 25.603,"1250": 27.361,"1275": 31.302,"1300": 47.287,"1325": 44.947,"1350": 39.997,"1375": 45.556,"1400": 39.498,"1425": 28.306,"1450": 14.743,"1475": 8.48,"1500": 4.18,"1525": 4.247,"1550": 2.779,"1575": 1.228,"1600": 0.989,"1625": 0.17,"1650": 0.153}}}