{"type": "Feature","bbox": [33.0199,40.7113,33.2456,40.993899999999996],"geometry": {"type": "MultiPolygon","coordinates": [[[[33.1075,40.9889,1354.3169],[33.1056,40.9814,1444.8978],[33.0984,40.9679,1567.9783],[33.093,40.9494,1200.1206],[33.0784,40.9259,968.8347],[33.0671,40.9145,1058.5155],[33.0296,40.8849,1506.9343],[33.0238,40.8775,1526.1306],[33.0206,40.8666,1417.1506],[33.0199,40.8552,1430.9164],[33.0209,40.8321,1333.7656],[33.0227,40.8239,1316.4362],[33.0321,40.8075,1224.5603],[33.0377,40.789,1179.2566],[33.0471,40.7726,1386.9117],[33.0538,40.7515,1603.1788],[33.0738,40.7262,1450.7395],[33.1071,40.7274,1573.0726],[33.1318,40.7262,1498.6655],[33.1423,40.7236,1557.5598],[33.1693,40.7113,1420.8188],[33.171,40.7385,1537.4462],[33.1751,40.7518,1642.8081],[33.2055,40.7983,1488.9556],[33.2374,40.8255,1233.6187],[33.2441,40.8353,1197.88],[33.2454,40.8435,1163.5437],[33.2441,40.8516,1217.2288],[33.2347,40.8678,1308.1467],[33.2322,40.8758,1306.3407],[33.2294,40.9155,1450.2754],[33.2449,40.9395,1174.8643],[33.2456,40.9497,968.2504],[33.2413,40.9564,755.8835],[33.2322,40.9597,768.5032],[33.1989,40.9607,912.2947],[33.1844,40.9639,1153.4043],[33.1701,40.9729,1573.9106],[33.1543,40.9893,1667.8401],[33.1464,40.9933,1593.7251],[33.1262,40.993899999999996,1568.9246],[33.1075,40.9889,1354.3169]]]]}
,"properties": {"GID_2": "TUR.23.1_1","GID_0": "TUR","country": "Turkey","GID_1": "TUR.23_1","province": "Çankiri","NL_NAME_1": "NA","county": "Atkaracalar","VARNAME_2": "NA","NL_NAME_2": "NA","TYPE_2": "District","ENGTYPE_2": "District","CC_2": "NA","HASC_2": "TR.CI.AT","name": "Atkaracalar.county","area_km2": 397.8098,"hist_schema_id": "Elevation0-9000","hist_area_km2": {"750": 1.0408,"775": 1.9536,"800": 2.8826,"825": 3.6516,"850": 3.3153,"875": 3.0111,"900": 2.8349,"925": 3.1713,"950": 2.9792,"975": 3.2515,"1000": 3.5558,"1025": 4.0525,"1050": 4.389,"1075": 4.341,"1100": 3.4921,"1125": 3.6045,"1150": 3.4447,"1175": 6.5242,"1200": 23.8243,"1225": 32.692,"1250": 41.9744,"1275": 33.8218,"1300": 25.2553,"1325": 19.9001,"1350": 16.4205,"1375": 16.0363,"1400": 14.6895,"1425": 12.7663,"1450": 13.172,"1475": 10.7984,"1500": 10.0771,"1525": 9.9012,"1550": 8.5504,"1575": 7.4923,"1600": 6.7549,"1625": 4.9586,"1650": 4.8615,"1675": 5.1179,"1700": 5.0052,"1725": 4.5075,"1750": 3.4334,"1775": 2.5048,"1800": 0.9957,"1825": 0.803}}}