{"type":"Feature","properties":{"GID_1":"TUR.47_1","GID_0":"TUR","country":"Turkey","province":"Kayseri","VARNAME_1":"NA","NL_NAME_1":"NA","TYPE_1":"Il","ENGTYPE_1":"Province","CC_1":"NA","HASC_1":"TR.KY","ISO_1":"TR-38","name":"Kayseri.province"},
"geometry":{"type": "MultiPolygon","coordinates": [[[[35.5319,37.9332,1105.802],[35.5569,37.9411,1444.7446],[35.5968,37.9464,1770.7362],[35.6234,37.9573,1782.0947],[35.6394,37.9786,2008.6833],[35.6448,37.9972,1750.8425],[35.6539,38.0137,1746.5983],[35.6608,38.0348,1938.4248],[35.681,38.0597,1902.8978],[35.734,38.0799,2182.3618],[35.7613,38.085,1817.0798],[35.8062,38.102,2343.1685],[35.8337,38.1089,2077.4424],[35.8446,38.1149,2187.9829],[35.8636,38.1206,2251.145],[35.8873,38.1371,1890.3816],[35.9085,38.1439,1606.2266],[35.9192,38.1507,1803.8789],[35.9441,38.1617,1637.4989],[35.9747,38.1725,1897.1077],[35.9949,38.1762,2229.5073],[36.0079,38.1814,2151.8237],[36.0134,38.1856,2139.7861],[36.0271,38.2031,1970.5011],[36.0377,38.2233,2184.2495],[36.0892,38.302,2225.8555],[36.0979,38.3236,2209.8948],[36.1114,38.3491,1909.9998],[36.1413,38.3957,2174.8445],[36.1538,38.4081,2102.1577],[36.1699,38.4179,2246.9624],[36.2003,38.4289,2525.011],[36.2309,38.4349,2629.1162],[36.2714,38.4524,2325.6655],[36.3054,38.4637,1955.6526],[36.3208,38.4661,2074.0234],[36.3855,38.4656,2023.1179],[36.4027,38.4594,1943.8567],[36.4135,38.4515,1753.3252],[36.4221,38.4422,1675.9109],[36.4361,38.4185,1614.0011],[36.4407,38.391,1518.1617],[36.4437,38.3832,1503.9012],[36.4734,38.3366,1648.778],[36.4914,38.3163,1962.7607],[36.5009,38.3187,2161.2012],[36.5091,38.3229,2227.0879],[36.5315,38.3398,2699.7947],[36.5414,38.3504,2614.073],[36.5507,38.3646,2199.7634],[36.585,38.3948,2175.4917],[36.6072,38.43,1965.7106],[36.6298,38.4531,1841.8992],[36.6413,38.4696,1586.829],[36.6753,38.4993,1927.1986],[36.6927,38.5277,1766.4858],[36.6952,38.5616,1818.3595],[36.6991,38.5722,1863.0332],[36.705,38.5787,1876.4788],[36.7147,38.5858,1855.8208],[36.7227,38.5896,1841.6346],[36.7323,38.5911,1858.6925],[36.7371,38.6005,1839.8635],[36.7433,38.6161,1884.0233],[36.7527,38.6327,1829.5842],[36.756,38.6657,2036.098],[36.7584,38.6744,2050.9346],[36.7957,38.7323,2138.0918],[36.8037,38.7558,2605.6299],[36.8132,38.7721,2514.3469],[36.8188,38.7907,2445.8591],[36.8271,38.8045,2256.9404],[36.8339,38.8256,2068.4585],[36.8574,38.8627,1898.4537],[36.8642,38.8838,1856.574],[36.8735,38.9002,1849.9692],[36.8792,38.9187,1890.6317],[36.8885,38.9351,1818.262],[36.8942,38.9536,1889.734],[36.9177,38.9907,1715.6638],[36.9234,39.0092,1726.021],[36.9328,39.0256,1732.376],[36.9386,39.0446,1710.4216],[36.9441,39.055,1683.6875],[36.9452,39.0594,1670.3341],[36.943,39.0659,1685.817],[36.9171,39.1075,1716.6543],[36.9016,39.1219,1714.9121],[36.8782,39.1378,1732.8348],[36.8387,39.1498,1768.0858],[36.8153,39.1623,1744.7971],[36.7888,39.1724,1789.4491],[36.7652,39.1761,1827.9399],[36.6151,39.1763,1669.6941],[36.5959,39.1746,1822.795],[36.5146,39.1437,1638.1323],[36.4907,39.1391,1710.2253],[36.4698,39.1319,1620.2488],[36.4594,39.1304,1644.949],[36.4418,39.132,1696.7311],[36.3944,39.1504,1836.2673],[36.374,39.1534,1800.7605],[36.3231,39.1334,1629.3635],[36.3074,39.1303,1581.2881],[36.1143,39.131,1214.2369],[36.0817,39.1297,1273.8269],[36.0579,39.1308,1353.6774],[36.0483,39.1331,1430.5289],[36.0127,39.1481,1327.1852],[35.961,39.1878,1150.2476],[35.9482,39.2008,1132.7299],[35.9387,39.2152,1227.3945],[35.905,39.245,1553.3168],[35.8854,39.2763,1478.0345],[35.8418,39.2839,1611.2583],[35.8126,39.2994,1797.6558],[35.7893,39.2768,1749.8318],[35.7156,39.22,2183.4753],[35.7071,39.215,2100.1064],[35.6771,39.2032,1669.4958],[35.6541,39.2,1612.9714],[35.5788,39.2004,1481.2947],[35.551,39.203,1426.838],[35.5182,39.1874,1350.0134],[35.495,39.1891,1291.3822],[35.4811,39.1889,1298.7834],[35.4718,39.1868,1307.3718],[35.467,39.1831,1340.5702],[35.464,39.176,1366.6445],[35.464,39.1567,1339.597],[35.4677,39.1429,1284.6936],[35.4774,39.1295,1298.4077],[35.4884,39.1099,1301.8276],[35.4878,39.1053,1287.9465],[35.483,39.0996,1256.7219],[35.3282,39.0395,1280.3464],[35.2915,39.0283,1231.4767],[35.2711,39.0173,1251.3069],[35.2412,39.0057,1289.1021],[35.2206,39.0033,1308.5465],[35.2102,39.0049,1288.1868],[35.1889,39.0119,1234.4872],[35.1505,39.0169,1190.2673],[35.1059,39.034,1129.8315],[35.0917,39.037,1108.3586],[35.0374,39.0381,1125.9531],[35.0131,39.0249,1121.8975],[35.0058,39.0182,1129.8435],[35.0008,39.0103,1141.6602],[34.996,38.9835,1153.9491],[34.9855,38.961,1198.3354],[34.9811,38.9251,1215.1267],[34.9704,38.9028,1251.6246],[34.966,38.8669,1174.5562],[34.955,38.8446,1079.996],[34.9533,38.8293,1081.3821],[34.9532,38.7983,978.0],[34.9674,38.7853,978.0],[34.9966,38.7733,1134.9363],[35.0073,38.7711,1083.7107],[35.0345,38.769,1018.4129],[35.0454,38.7663,1064.4661],[35.0601,38.7575,1112.0474],[35.069,38.7483,1075.4814],[35.0727,38.7396,1074.9871],[35.074,38.7239,1118.8979],[35.0731,38.6401,1495.0748],[35.0701,38.6135,1509.1914],[35.0524,38.6011,1582.7954],[35.0364,38.5796,1324.1812],[35.018,38.5654,1540.8015],[35.0082,38.5617,1496.6509],[34.9843,38.5576,1299.0869],[34.9663,38.5515,1570.8105],[34.9394,38.5464,1282.7927],[34.9268,38.5382,1265.6274],[34.9103,38.513,1610.4576],[34.908,38.5048,1594.9539],[34.9073,38.4732,1577.4371],[34.9106,38.4565,1568.6997],[34.9191,38.4426,1552.9906],[34.9225,38.4323,1540.808],[34.9738,38.4317,1604.1552],[34.984,38.4287,1604.1877],[34.9937,38.4217,1635.2134],[35.0096,38.3964,1620.2537],[35.015,38.3777,1449.7957],[35.0241,38.3613,1490.0925],[35.0308,38.3401,1307.3378],[35.0388,38.3262,1237.9108],[35.0453,38.3051,1326.4342],[35.0575,38.2877,1471.697],[35.0636,38.2823,1495.0673],[35.0881,38.2708,1334.692],[35.1223,38.259,1109.5819],[35.1423,38.2573,1081.0712],[35.2206,38.2574,1071.0651],[35.2361,38.2548,1071.0706],[35.2488,38.2482,1071.3018],[35.26,38.2399,1071.3917],[35.2796,38.2215,1073.6515],[35.308,38.1773,1080.995],[35.3112,38.169,1086.5618],[35.3127,38.1533,1222.7678],[35.3122,38.0407,2082.4414],[35.3109,38.0314,2221.6914],[35.3076,38.0231,2160.0239],[35.2658,37.9592,2385.3657],[35.302,37.9448,2497.6453],[35.3368,37.941,2273.2031],[35.3621,37.9333,1982.7996],[35.3968,37.9293,1831.0875],[35.4256,37.9206,2122.4641],[35.4646,37.9201,1317.4504],[35.4788,37.923,1060.1724],[35.4973,37.9292,1051.958],[35.5319,37.9332,1105.802]]]]}}