{"type": "Feature","id": "2287","bbox": [34.91501,37.7505,36.93628,39.33445],"geometry": {"type": "Polygon","coordinates": [[[36.21043,39.19546,1445.8278],[36.11152,39.2057,1152.6826],[36.01664,39.25939,1273.7979],[35.98367,39.26331,1242.1111],[35.95143,39.27357,1337.9709],[35.94285,39.28158,1319.8972],[35.93014,39.30298,1379.0225],[35.92104,39.31217,1390.6946],[35.87236,39.3315,1602.6879],[35.81986,39.33445,1641.255],[35.73573,39.24391,2123.1606],[35.41151,39.08082,1246.2383],[35.36686,39.06909,1241.4281],[35.25483,39.0133,1274.0206],[35.02776,39.04113,1115.016],[35.01422,39.02263,1123.01],[35.00358,39.00191,1141.8356],[35.0011,38.97752,1159.0817],[35.00131,38.95333,1180.6243],[34.98084,38.89931,1251.8787],[34.95273,38.84812,1089.5424],[34.99965,38.77588,1129.9882],[35.06911,38.70487,1190.5264],[35.06518,38.65842,1324.5366],[35.07541,38.61258,1465.4174],[35.07097,38.56584,1454.4419],[34.9825,38.45497,1527.2391],[34.94157,38.4212,1566.8702],[34.91501,38.37939,1499.9133],[34.98487,38.22751,1351.0797],[35.04399,38.17814,1382.3093],[35.20563,38.17661,1150.8528],[35.23251,38.10995,1828.8945],[35.22279,38.06734,1760.6331],[35.22817,38.02476,2619.2625],[35.24842,37.9905,2729.2668],[35.25886,37.95396,2264.4407],[35.21246,37.93081,3034.2075],[35.20749,37.87916,3104.4651],[35.19065,37.81811,3128.303],[35.3632,37.8073,1245.0154],[35.45365,37.78877,1330.2161],[35.57719,37.7505,1490.9749],[35.62964,37.77024,1337.5616],[35.60768,37.95376,1676.4719],[35.97902,38.15496,2129.1445],[36.03308,38.21333,1818.8175],[36.07556,38.28188,2333.5801],[36.10325,38.31218,2024.7366],[36.14594,38.39512,2211.5591],[36.18997,38.42355,2264.6455],[36.26686,38.45776,2165.0869],[36.34799,38.47471,2291.2693],[36.40008,38.45657,2083.5859],[36.43729,38.40972,1554.9946],[36.46261,38.35797,1621.3265],[36.5055,38.32293,2198.5701],[36.54168,38.35327,2478.0327],[36.5733,38.38939,2374.7043],[36.64999,38.4591,1689.858],[36.68203,38.49992,1869.7111],[36.69402,38.55235,1819.0056],[36.71366,38.58297,1840.8414],[36.74745,38.5994,1873.5417],[36.75024,38.64043,1858.9062],[36.77391,38.67425,2124.0403],[36.78115,38.68883,2093.9062],[36.78497,38.70549,2115.533],[36.82528,38.79626,2360.0261],[36.85153,38.87551,1865.9678],[36.87096,38.91349,1888.3907],[36.89359,38.94966,1852.2048],[36.93628,39.04421,1712.9003],[36.89979,39.13345,1719.0856],[36.82052,39.16634,1753.6094],[36.73433,39.17885,1890.5564],[36.64121,39.17885,1677.4696],[36.55129,39.15508,1729.8259],[36.50127,39.16864,1662.6682],[36.45207,39.1982,1627.1931],[36.28671,39.21644,1495.5476],[36.21043,39.19546,1445.8278]]]}
,"properties": {"ISO3166-1-Alpha-3": "TUR","country": "Turkey","fill": "#FF0","name": "Kayseri","area_km2": 17528.52,"hist_schema_id": "Elevation0-9000","hist_area_km2": {"675": 0.2,"700": 0.47,"725": 0.75,"750": 1.07,"775": 1.34,"800": 1.72,"825": 2.13,"850": 1.84,"875": 2.66,"900": 3.21,"925": 3.21,"950": 3.25,"975": 20.9,"1000": 45.19,"1025": 120.64,"1050": 181.46,"1075": 836.74,"1100": 463.73,"1125": 409.13,"1150": 395.39,"1175": 344.44,"1200": 357.87,"1225": 339.15,"1250": 299.81,"1275": 313.84,"1300": 361.25,"1325": 394.35,"1350": 434.45,"1375": 459.51,"1400": 480.61,"1425": 527.08,"1450": 625.93,"1475": 618.73,"1500": 572.19,"1525": 533.69,"1550": 551.2,"1575": 638.58,"1600": 650.1,"1625": 540.99,"1650": 510.89,"1675": 511.48,"1700": 508.97,"1725": 515.79,"1750": 409.37,"1775": 303.93,"1800": 261.78,"1825": 239.98,"1850": 220.71,"1875": 205.87,"1900": 190.87,"1925": 180.38,"1950": 166.94,"1975": 153.01,"2000": 139.43,"2025": 128.4,"2050": 114.69,"2075": 101.95,"2100": 91.78,"2125": 83.52,"2150": 76.66,"2175": 70.11,"2200": 66.73,"2225": 60.8,"2250": 58.79,"2275": 53.43,"2300": 50.89,"2325": 46.22,"2350": 40.69,"2375": 37.02,"2400": 33.79,"2425": 31.78,"2450": 27.76,"2475": 25.21,"2500": 24.5,"2525": 20.94,"2550": 17.34,"2575": 13.41,"2600": 11.73,"2625": 11.03,"2650": 10.19,"2675": 9.49,"2700": 8.23,"2725": 8.03,"2750": 6.53,"2775": 7.39,"2800": 6.49,"2825": 6.39,"2850": 6.25,"2875": 6.03,"2900": 6.97,"2925": 6.67,"2950": 7.24,"2975": 6.58,"3000": 5.96,"3025": 6.26,"3050": 5.71,"3075": 6.0,"3100": 5.8,"3125": 6.23,"3150": 5.45,"3175": 5.03,"3200": 4.25,"3225": 3.46,"3250": 2.39,"3275": 1.6,"3300": 1.68,"3325": 1.38,"3350": 0.85,"3375": 0.73,"3400": 0.77,"3425": 0.95,"3450": 0.92,"3475": 0.58,"3500": 0.52,"3525": 0.4,"3550": 0.23,"3575": 0.3,"3600": 0.28,"3650": 0.15}}}