{"type": "Feature","bbox": [39.2832,38.3354,39.7862,38.6032],"geometry": {"type": "MultiPolygon","coordinates": [[[[39.5177,38.3555,1563.0979],[39.5461,38.3617,1442.4738],[39.5639,38.3681,1322.7098],[39.5793,38.3703,1212.0507],[39.7141,38.3701,1027.7637],[39.734,38.3713,957.0591],[39.7451,38.3743,892.1964],[39.7689,38.3901,880.7907],[39.7862,38.4049,1053.7979],[39.768,38.4299,1201.0331],[39.7502,38.4478,1602.8235],[39.7453,38.4559,1560.311],[39.7431,38.4681,1751.155],[39.7421,38.5028,1494.048],[39.7399,38.5119,1673.5488],[39.7345,38.5235,1710.7174],[39.7229,38.5275,1750.7451],[39.7106,38.5358,1490.926],[39.7024,38.5438,1255.7198],[39.6953,38.5558,1246.5719],[39.6877,38.5644,1150.229],[39.6487,38.5957,1435.9064],[39.6403,38.6003,1406.2946],[39.6311,38.6028,1624.3455],[39.6184,38.6032,1821.7341],[39.606,38.6005,1909.5376],[39.5463,38.577,1460.1885],[39.5252,38.563,1447.4475],[39.5072,38.5467,1530.3171],[39.4817,38.5069,1237.5],[39.4386,38.4717,1419.5616],[39.4246,38.4578,1623.1443],[39.4231,38.4532,1610.4756],[39.4183,38.4474,1618.6522],[39.408,38.4416,1657.9171],[39.3662,38.4248,1805.3763],[39.3565,38.4157,1845.5413],[39.3505,38.4029,1764.9552],[39.3468,38.3986,1854.2098],[39.3381,38.3952,1847.5248],[39.3124,38.3899,1899.0349],[39.2832,38.367,1828.0476],[39.3013,38.3539,1609.3997],[39.3118,38.3484,1769.615],[39.3385,38.3382,1467.6423],[39.358,38.3357,1368.5731],[39.3987,38.3354,1640.9597],[39.4224,38.3375,1775.6699],[39.47,38.3554,1618.0179],[39.4815,38.358,1580.1542],[39.4979,38.3584,1452.5493],[39.5177,38.3555,1563.0979]]]]}
,"properties": {"GID_2": "TUR.29.8_1","GID_0": "TUR","country": "Turkey","GID_1": "TUR.29_1","province": "Elazığ","NL_NAME_1": "NA","county": "Maden","VARNAME_2": "NA","NL_NAME_2": "NA","TYPE_2": "District","ENGTYPE_2": "District","CC_2": "NA","HASC_2": "TR.EG.MA","name": "Maden.county","area_km2": 697.0228,"hist_schema_id": "Elevation0-9000","hist_area_km2": {"875": 0.3822,"900": 1.396,"925": 2.5925,"950": 4.0215,"975": 5.2501,"1000": 4.602,"1025": 4.6674,"1050": 5.2325,"1075": 6.013,"1100": 6.4778,"1125": 6.5771,"1150": 7.074,"1175": 8.0532,"1200": 8.5848,"1225": 15.1918,"1250": 35.6547,"1275": 30.8985,"1300": 43.4272,"1325": 38.1607,"1350": 34.5343,"1375": 32.9538,"1400": 32.3593,"1425": 30.7848,"1450": 29.8539,"1475": 29.5892,"1500": 27.8294,"1525": 27.3017,"1550": 26.4195,"1575": 24.559,"1600": 22.7156,"1625": 20.7582,"1650": 19.2803,"1675": 17.4857,"1700": 15.1933,"1725": 13.3667,"1750": 11.3905,"1775": 10.8085,"1800": 8.1348,"1825": 6.5901,"1850": 4.9124,"1875": 3.7341,"1900": 3.0367,"1925": 2.9699,"1950": 1.6757,"1975": 1.4601,"2000": 1.3602,"2025": 0.647,"2050": 0.3482,"2075": 0.2321,"2100": 0.2155,"2125": 0.1823,"2150": 0.0829}}}