{"type": "Feature","bbox": [35.2915,38.9669,35.6449,39.203],"geometry": {"type": "MultiPolygon","coordinates": [[[[35.6447,39.0786,1511.1057],[35.6449,39.1039,1550.5828],[35.6415,39.1176,1549.5719],[35.6175,39.1428,1582.6433],[35.6054,39.161,1711.7759],[35.6025,39.1683,1553.8162],[35.6026,39.1737,1616.8794],[35.606,39.1809,1711.3899],[35.6235,39.2001,1659.1963],[35.5788,39.2004,1481.2947],[35.551,39.203,1426.838],[35.5182,39.1874,1350.0134],[35.4811,39.1889,1298.7834],[35.4718,39.1868,1307.3718],[35.467,39.1831,1340.5702],[35.464,39.176,1366.6445],[35.464,39.1567,1339.597],[35.4677,39.1429,1284.6936],[35.4774,39.1295,1298.4077],[35.4884,39.1099,1301.8276],[35.4878,39.1053,1287.9465],[35.483,39.0996,1256.7219],[35.3282,39.0395,1280.3464],[35.2915,39.0283,1231.4767],[35.3167,38.9918,1203.3287],[35.3227,38.9857,1138.772],[35.3304,38.981,1135.5078],[35.3571,38.9706,1125.8491],[35.3672,38.9682,1119.7983],[35.3967,38.9669,1123.5591],[35.4262,38.9683,1192.6075],[35.4362,38.9707,1186.7969],[35.5264,39.0058,1244.9481],[35.5768,39.0418,1375.5911],[35.6045,39.0542,1484.3774],[35.6447,39.0786,1511.1057]]]]}
,"properties": {"GID_2": "TUR.47.4_1","GID_0": "TUR","country": "Turkey","GID_1": "TUR.47_1","province": "Kayseri","NL_NAME_1": "NA","county": "Felahiye","VARNAME_2": "NA","NL_NAME_2": "NA","TYPE_2": "District","ENGTYPE_2": "District","CC_2": "NA","HASC_2": "TR.KY.FE","name": "Felahiye.county","area_km2": 396.7773,"hist_schema_id": "Elevation0-9000","hist_area_km2": {"1100": 5.8489,"1125": 5.1901,"1150": 5.833,"1175": 6.0962,"1200": 9.0424,"1225": 14.1626,"1250": 18.9697,"1275": 26.0141,"1300": 40.4721,"1325": 44.7792,"1350": 41.0428,"1375": 31.6936,"1400": 26.2817,"1425": 22.4962,"1450": 19.6333,"1475": 15.8153,"1500": 13.2478,"1525": 11.1412,"1550": 8.9359,"1575": 7.8003,"1600": 6.6648,"1625": 5.4965,"1650": 4.1145,"1675": 2.2875,"1700": 1.4646,"1725": 0.8062,"1750": 0.3454,"1775": 0.411,"1800": 0.1973,"1825": 0.2137,"1850": 0.1479,"1875": 0.1151,"1900": 0.0164}}}