{"type": "Feature","bbox": [36.061,40.5237,36.4728,40.9811],"geometry": {"type": "MultiPolygon","coordinates": [[[[36.3252,40.5237,1270.6304],[36.3475,40.5467,1084.9686],[36.3621,40.5673,1332.7334],[36.3764,40.5789,1267.8658],[36.3972,40.5914,1430.4424],[36.4054,40.6003,1369.5747],[36.4376,40.6277,1112.6591],[36.4561,40.6558,461.3272],[36.4621,40.6859,367.4042],[36.4728,40.7075,235.3579],[36.4722,40.7211,209.4499],[36.4622,40.74,202.5969],[36.4564,40.7701,237.3354],[36.4415,40.7936,369.2083],[36.4208,40.8138,223.6379],[36.4168,40.8226,261.3795],[36.4186,40.8313,280.0878],[36.4318,40.852,455.6981],[36.448,40.8698,193.9054],[36.4275,40.8796,428.3229],[36.4012,40.8951,781.3497],[36.3833,40.9024,778.7015],[36.3762,40.9077,739.796],[36.3714,40.9147,907.3071],[36.3695,40.9229,1121.8815],[36.3698,40.9371,1034.2819],[36.3724,40.9521,983.1374],[36.311,40.9602,822.3628],[36.2665,40.9774,872.1215],[36.256,40.9799,942.3379],[36.2362,40.9811,895.275],[36.2039,40.98,932.1694],[36.2029,40.9707,891.3027],[36.2001,40.964,799.6452],[36.1895,40.9576,717.2919],[36.1895,40.923,1149.8169],[36.1865,40.912,1094.2743],[36.1809,40.9047,1113.0881],[36.1522,40.8828,1139.4974],[36.1278,40.8725,1099.8846],[36.1009,40.8564,1150.6733],[36.061,40.8431,1565.5189],[36.0853,40.8288,1612.1014],[36.0924,40.8221,1587.281],[36.0972,40.8143,1853.4398],[36.1009,40.7779,699.1638],[36.1106,40.7587,414.6691],[36.113,40.7499,380.6191],[36.1139,40.7029,671.2978],[36.1158,40.6938,558.9877],[36.1207,40.6857,595.9727],[36.1328,40.6745,628.9005],[36.1622,40.6525,1088.65],[36.1723,40.6466,1051.5927],[36.1931,40.6387,1209.1376],[36.2128,40.6251,1292.1016],[36.2278,40.6117,1300.4294],[36.2365,40.5976,1269.9792],[36.2439,40.5893,1337.4999],[36.3061,40.5404,950.4036],[36.3252,40.5237,1270.6304]]]]}
,"properties": {"GID_2": "TUR.6.7_1","GID_0": "TUR","country": "Turkey","GID_1": "TUR.6_1","province": "Amasya","NL_NAME_1": "NA","county": "Taşova","VARNAME_2": "NA","NL_NAME_2": "NA","TYPE_2": "District","ENGTYPE_2": "District","CC_2": "NA","HASC_2": "TR.AM.TA","name": "Taşova.county","area_km2": 1058.2953,"hist_schema_id": "Elevation0-9000","hist_area_km2": {"175": 3.0155,"200": 13.7791,"225": 18.534,"250": 21.8919,"275": 21.9881,"300": 23.8031,"325": 24.4937,"350": 27.6252,"375": 27.9158,"400": 28.1721,"425": 26.0681,"450": 29.332,"475": 29.4115,"500": 31.5672,"525": 31.26,"550": 29.6807,"575": 28.8606,"600": 26.4949,"625": 23.1956,"650": 23.1763,"675": 22.7076,"700": 21.8722,"725": 22.1122,"750": 23.4228,"775": 20.5995,"800": 20.3394,"825": 20.0518,"850": 21.5411,"875": 20.7718,"900": 19.2494,"925": 17.9356,"950": 17.0071,"975": 15.4376,"1000": 15.6312,"1025": 15.2307,"1050": 15.634,"1075": 16.8867,"1100": 17.3208,"1125": 16.9688,"1150": 16.7297,"1175": 16.876,"1200": 14.6585,"1225": 12.2554,"1250": 10.3155,"1275": 8.3407,"1300": 8.0997,"1325": 7.5232,"1350": 6.6887,"1375": 6.3365,"1400": 6.6107,"1425": 6.2888,"1450": 6.3375,"1475": 6.546,"1500": 6.3697,"1525": 6.0481,"1550": 5.3083,"1575": 6.7728,"1600": 6.6599,"1625": 6.6443,"1650": 5.9201,"1675": 5.4218,"1700": 4.4567,"1725": 4.5859,"1750": 3.5402,"1775": 2.6555,"1800": 2.6397,"1825": 2.2852,"1850": 2.4142,"1875": 1.1912,"1900": 0.483,"1925": 0.2576,"1950": 0.0483}}}