{"type": "Feature","bbox": [41.6067,38.0177,42.033,38.1952],"geometry": {"type": "MultiPolygon","coordinates": [[[[41.6067,38.0385,931.4594],[41.6204,38.0339,916.4029],[41.6444,38.0294,980.8312],[41.6655,38.0224,951.1521],[41.6772,38.0204,923.6444],[41.8985,38.0196,571.7242],[41.9335,38.0177,732.8577],[42.0187,38.0858,903.9988],[42.0233,38.0929,1007.2346],[42.033,38.1235,1078.7915],[42.0295,38.1278,1261.2202],[42.0081,38.1394,1188.5803],[41.9884,38.1524,999.1238],[41.979,38.1563,790.4134],[41.9655,38.1564,1151.8911],[41.9383,38.1485,1224.6895],[41.9166,38.1483,1273.0179],[41.9061,38.1501,1299.3708],[41.8848,38.1574,1327.2644],[41.8347,38.1612,849.4788],[41.81,38.1692,734.3217],[41.7649,38.1773,1074.6189],[41.7196,38.1927,936.6858],[41.6749,38.1952,915.0513],[41.6668,38.1792,1008.4264],[41.662,38.1516,917.6825],[41.6521,38.1325,828.7628],[41.6461,38.1024,1150.0],[41.6221,38.0655,1019.4398],[41.6067,38.0385,931.4594]]]]}
,"properties": {"GID_2": "TUR.69.2_1","GID_0": "TUR","country": "Turkey","GID_1": "TUR.69_1","province": "Siirt","NL_NAME_1": "NA","county": "Baykan","VARNAME_2": "NA","NL_NAME_2": "NA","TYPE_2": "District","ENGTYPE_2": "District","CC_2": "NA","HASC_2": "TR.SI.BA","name": "Baykan.county","area_km2": 516.7929,"hist_schema_id": "Elevation0-9000","hist_area_km2": {"550": 2.1709,"575": 3.8401,"600": 5.3931,"625": 7.8466,"650": 12.1524,"675": 15.5053,"700": 21.5273,"725": 24.5636,"750": 24.3948,"775": 25.7444,"800": 26.9444,"825": 25.5946,"850": 23.6274,"875": 25.562,"900": 26.231,"925": 28.35,"950": 27.9844,"975": 25.3301,"1000": 23.5445,"1025": 21.0571,"1050": 17.066,"1075": 14.7971,"1100": 12.6613,"1125": 10.3093,"1150": 9.0248,"1175": 8.6414,"1200": 6.6061,"1225": 5.6886,"1250": 5.4551,"1275": 4.8881,"1300": 5.0049,"1325": 4.1374,"1350": 4.1711,"1375": 3.27,"1400": 2.1689,"1425": 1.5016,"1450": 0.9843,"1475": 1.0677,"1500": 0.8008,"1525": 0.5005,"1550": 0.2669,"1575": 0.2336,"1600": 0.1502,"1625": 0.0334}}}