{"type":"Feature","properties":{"GID_2":"TUR.58.10_1","GID_0":"TUR","country":"Turkey","GID_1":"TUR.58_1","province":"Mersin","NL_NAME_1":"NA","county":"Tarsus","VARNAME_2":"NA","NL_NAME_2":"NA","TYPE_2":"District","ENGTYPE_2":"District","CC_2":"NA","HASC_2":"TR.IC.TA","name":"Tarsus.county"},
"geometry":{"type": "MultiPolygon","coordinates": [[[[34.8584,37.2617,1398.7499],[34.8422,37.2906,1761.0007],[34.7894,37.3716,1982.4108],[34.7863,37.3793,1875.8494],[34.7833,37.396,2016.5337],[34.7187,37.3965,2285.6406],[34.6961,37.394,2799.1187],[34.6629,37.3811,2241.1174],[34.6337,37.3635,2380.416],[34.5998,37.3514,2305.1411],[34.5798,37.3497,1788.2357],[34.5099,37.3493,2857.5439],[34.5141,37.3331,2747.0303],[34.5358,37.2997,1744.5837],[34.5812,37.2623,1382.9314],[34.5942,37.2438,2160.8669],[34.6147,37.223,1743.4611],[34.6238,37.2086,1341.7963],[34.6371,37.1967,1185.4689],[34.6476,37.1902,1104.0186],[34.6692,37.1813,918.6631],[34.6926,37.1671,933.2526],[34.7716,37.1372,649.7468],[34.7904,37.1284,417.5245],[34.7969,37.1233,498.6508],[34.8037,37.1065,544.3248],[34.8131,37.0903,431.3696],[34.8135,37.0765,447.0218],[34.8113,37.0712,484.3449],[34.8054,37.0651,437.0961],[34.7814,37.0542,266.699],[34.7758,37.0465,247.912],[34.7775,37.0401,308.8703],[34.7956,37.0138,315.2847],[34.799,37.0064,313.0811],[34.799,36.9962,221.0732],[34.793,36.99,228.2277],[34.7806,36.9887,256.2039],[34.7721,36.9918,258.6552],[34.7504,37.0206,164.9193],[34.7233,37.0334,536.6328],[34.7056,37.0346,584.8309],[34.6955,37.0328,559.0422],[34.6786,37.0265,594.4406],[34.6719,37.0258,626.5391],[34.6616,37.0276,698.8899],[34.6452,37.0386,922.6088],[34.6388,37.0455,753.1956],[34.6299,37.0598,812.0403],[34.6254,37.0637,757.0217],[34.6138,37.069,984.9052],[34.59,37.07,948.9935],[34.5735,37.0672,1056.3956],[34.5744,37.0481,754.2559],[34.5788,37.0387,874.5085],[34.6106,37.019,984.0384],[34.6294,37.0019,444.7314],[34.6328,36.9941,327.8657],[34.637,36.9665,528.7034],[34.6507,36.947,371.4954],[34.6551,36.9437,246.4974],[34.677,36.9337,119.9453],[34.7225,36.917,112.3876],[34.7325,36.9104,145.6976],[34.7441,36.8944,120.0001],[34.7642,36.8739,46.7617],[34.7886,36.836,3.4116],[34.8136,36.8108,2.4836],[34.8215,36.7998,1.4485],[34.8206,36.7943,0.5685],[34.8276,36.791,0.2497],[34.834,36.7901,0.178],[34.8518,36.7813,0.4865],[34.8793,36.7632,0.9577],[34.8879,36.7551,0.446],[34.8907,36.7496,0.2766],[34.8965,36.7438,-0.1943],[34.8999,36.7379,0.0],[34.8993,36.7357,0.0],[34.901,36.734,0.0346],[34.9035,36.7343,-0.4453],[34.9018,36.7254,0.0],[34.9054,36.7249,0.0],[34.9113,36.7285,0.1197],[34.9076,36.7243,0.0],[34.9096,36.7238,0.0],[34.9152,36.7249,0.0],[34.9273,36.7389,0.0454],[34.9379,36.7472,0.051],[34.9498,36.754,0.4912],[34.9837,36.7657,1.1949],[35.0228,36.7675,2.1125],[35.0348,36.771,3.0542],[35.0425,36.7812,2.1564],[35.0474,36.7947,2.1363],[35.0598,36.8069,2.2404],[35.0672,36.8179,3.0458],[35.0698,36.8335,3.2488],[35.0696,36.8526,4.9685],[35.0678,36.8652,5.0688],[35.0578,36.8849,5.8165],[35.0548,36.8969,7.6296],[35.0546,36.9704,30.9384],[35.0414,36.9812,35.9273],[35.0271,37.001,45.5747],[35.007,37.0344,140.0624],[35.0008,37.0415,178.7362],[34.9815,37.055,112.9678],[34.9408,37.0716,114.1998],[34.9346,37.077,271.0678],[34.9252,37.0897,243.8912],[34.9208,37.0997,215.7592],[34.917,37.1246,224.1276],[34.9072,37.1438,395.4279],[34.9024,37.1713,586.0216],[34.8781,37.211,763.9355],[34.8713,37.2321,1060.2891],[34.862,37.2485,1156.1407],[34.8584,37.2617,1398.7499]]]]}}