{"type":"Feature","properties":{"GID_2":"TUR.68.10_1","GID_0":"TUR","country":"Turkey","GID_1":"TUR.68_1","province":"Sanliurfa","NL_NAME_1":"NA","county":"Suruç","VARNAME_2":"NA","NL_NAME_2":"NA","TYPE_2":"District","ENGTYPE_2":"District","CC_2":"NA","HASC_2":"TR.SU.SC","name":"Suruç.county"},
"geometry":{"type": "MultiPolygon","coordinates": [[[[38.5803,36.8234,467.6348],[38.5851,36.8659,516.8721],[38.5941,36.8869,502.8981],[38.5716,36.9015,488.143],[38.5579,36.9147,473.2696],[38.5545,36.9226,474.7128],[38.5513,36.9475,492.857],[38.5477,36.9548,493.0959],[38.5365,36.9695,498.8279],[38.5322,36.9729,496.085],[38.5134,36.983,493.1782],[38.4681,37.016,498.6517],[38.4197,37.0344,523.7375],[38.41,37.0411,533.3174],[38.4056,37.0482,534.2423],[38.4046,37.0535,541.2123],[38.4039,37.0788,552.6062],[38.402,37.0869,555.7488],[38.3988,37.0922,571.8633],[38.3903,37.0988,573.725],[38.3832,37.1014,577.1396],[38.3719,37.103,587.0503],[38.3333,37.1032,575.5264],[38.3216,37.0973,572.3035],[38.3136,37.0956,580.5051],[38.3065,37.0975,588.922],[38.2984,37.1026,594.0937],[38.2904,37.1,624.6708],[38.2841,37.0953,675.0592],[38.2726,37.0806,734.9059],[38.2647,37.0661,724.1971],[38.2555,37.0537,666.4491],[38.2469,37.0475,652.2056],[38.2348,37.048,685.7005],[38.1943,37.065,764.3043],[38.1852,37.0646,756.8364],[38.1802,37.0613,734.8525],[38.1779,37.0566,743.5533],[38.1749,37.0372,749.1177],[38.1647,37.0145,635.0947],[38.1604,36.9786,646.3898],[38.1513,36.962,655.2556],[38.1488,36.9534,567.8495],[38.1479,36.9229,524.347],[38.149,36.9137,505.7968],[38.1555,36.8895,546.4438],[38.1728,36.8946,587.8556],[38.1878,36.9046,561.061],[38.1943,36.9069,555.4047],[38.2005,36.908,567.7017],[38.2305,36.9059,583.8564],[38.2528,36.9135,584.625],[38.2652,36.9135,555.5367],[38.2956,36.907,534.8881],[38.3163,36.9054,523.7817],[38.3425,36.9004,510.0262],[38.3985,36.8972,485.3984],[38.4494,36.8818,470.0699],[38.493,36.8627,462.8027],[38.5634,36.8388,450.4488],[38.5681,36.836,478.761],[38.5803,36.8234,467.6348]]]]}}