{"type": "Feature","bbox": [30.8967,40.8804,31.0408,40.9615],"geometry": {"type": "MultiPolygon","coordinates": [[[[31.0087,40.9615,464.5619],[30.958,40.9228,302.3151],[30.9473,40.917,202.8597],[30.9322,40.9116,301.8547],[30.911,40.9003,333.821],[30.9039,40.8931,619.0103],[30.8967,40.8804,309.0289],[30.9169,40.883,301.6761],[30.9334,40.8917,364.6177],[30.9618,40.8919,121.5813],[30.9773,40.894,322.2845],[31.0104,40.9065,277.2543],[31.0408,40.9212,691.0282],[31.0285,40.937,627.7275],[31.0236,40.9498,585.2607],[31.0087,40.9615,464.5619]]]]}
,"properties": {"GID_2": "TUR.27.3_1","GID_0": "TUR","country": "Turkey","GID_1": "TUR.27_1","province": "Düzce","NL_NAME_1": "NA","county": "Cumayeri","VARNAME_2": "NA","NL_NAME_2": "NA","TYPE_2": "District","ENGTYPE_2": "District","CC_2": "NA","HASC_2": "TR.DU.CU","name": "Cumayeri.county","area_km2": 41.60805,"hist_schema_id": "Elevation0-9000","hist_area_km2": {"100": 0.30445,"125": 1.47432,"150": 1.31401,"175": 1.55431,"200": 1.69847,"225": 1.60232,"250": 1.76248,"275": 2.09902,"300": 2.27523,"325": 2.62769,"350": 2.75591,"375": 2.88382,"400": 2.46719,"425": 2.65932,"450": 2.65932,"475": 2.25886,"500": 2.45101,"525": 1.84238,"550": 1.02531,"575": 0.89707,"600": 0.65683,"625": 0.43251,"650": 0.43249,"675": 0.59268,"700": 0.30436,"725": 0.2563,"750": 0.11213,"775": 0.14417,"800": 0.06408}}}