{"type":"Feature","properties":{"GID_1":"TUR.35_1","GID_0":"TUR","country":"Turkey","province":"Gümüshane","VARNAME_1":"Gümüşhane","NL_NAME_1":"NA","TYPE_1":"Il","ENGTYPE_1":"Province","CC_1":"NA","HASC_1":"TR.GU","ISO_1":"NA","name":"Gümüshane.province"},
"geometry":{"type": "MultiPolygon","coordinates": [[[[39.7055,40.0366,2115.3967],[39.7208,40.0503,1945.5137],[39.7362,40.0719,1963.2606],[39.7458,40.0812,1863.186],[39.7687,40.0978,1881.7468],[39.7955,40.1102,1888.0819],[39.8049,40.1206,1896.7317],[39.8108,40.1387,1818.73],[39.8206,40.1582,1661.1284],[39.8222,40.1763,1743.1168],[39.8218,40.2287,1648.75],[39.8234,40.2498,1674.5369],[39.8336,40.2692,1833.923],[39.8372,40.2797,1861.8136],[39.8372,40.2913,1989.8817],[39.8404,40.302,1975.3696],[39.8564,40.328,2024.5975],[39.8713,40.3409,1831.1792],[39.8837,40.3472,1957.007],[39.9109,40.3524,1716.6423],[39.9322,40.3593,1922.9941],[39.9679,40.3628,1683.3424],[39.9884,40.369,1927.9426],[40.0013,40.3826,1986.1069],[40.0414,40.4156,1895.4805],[40.0747,40.4668,2041.8749],[40.0802,40.4854,2557.5828],[40.0917,40.507,2438.571],[40.0957,40.5319,2590.3757],[40.1062,40.5537,2305.0361],[40.1081,40.5705,2282.7578],[40.0954,40.5758,2427.9534],[40.07,40.6015,2200.0969],[40.0587,40.6184,2302.8711],[40.0403,40.6381,2342.1941],[40.0049,40.6585,2534.5569],[39.9815,40.6461,2796.6572],[39.9747,40.6369,2601.7627],[39.9742,40.6232,2202.9351],[39.98,40.6131,2013.655],[39.9959,40.5962,1928.4041],[39.9966,40.5914,1627.1206],[39.9952,40.587,1613.9832],[39.9868,40.5713,2148.7197],[39.9806,40.5654,2314.0957],[39.9687,40.5606,2440.605],[39.9582,40.561,2011.7078],[39.9522,40.5628,1846.9146],[39.9321,40.571,2434.4028],[39.9215,40.5773,2077.4839],[39.9157,40.5835,2081.3601],[39.9089,40.5954,2003.4788],[39.8979,40.61,1925.4392],[39.8909,40.615,2192.7412],[39.8773,40.6172,2208.8523],[39.8403,40.6169,2481.177],[39.8285,40.6206,2412.3779],[39.8258,40.6273,2407.5283],[39.8337,40.6418,2218.2246],[39.8365,40.6501,2139.397],[39.8402,40.6925,1815.2446],[39.8267,40.7057,1173.1605],[39.8059,40.7166,1891.2258],[39.7897,40.7057,2009.5245],[39.7835,40.6994,2220.3064],[39.7663,40.6745,1919.2173],[39.7605,40.656,2386.167],[39.7512,40.6396,2395.4556],[39.7457,40.621,2347.072],[39.7366,40.6045,2506.6177],[39.732,40.5888,2392.2107],[39.7297,40.5837,2416.2275],[39.7241,40.5774,2446.877],[39.7135,40.5712,2398.4231],[39.6832,40.5603,2889.2371],[39.6688,40.5589,2645.9656],[39.6506,40.5599,2667.3628],[39.6406,40.5624,2520.0796],[39.5693,40.5906,2470.6555],[39.5459,40.5936,2562.626],[39.4912,40.6151,2589.7432],[39.4672,40.6194,2537.1064],[39.4461,40.6267,2417.4011],[39.4188,40.6318,2375.9243],[39.3711,40.65,1883.8566],[39.3438,40.655,1560.7347],[39.3135,40.6662,1816.0557],[39.3018,40.6726,2138.7026],[39.286,40.6847,2117.0535],[39.2767,40.6937,2149.5688],[39.2684,40.7051,2113.7632],[39.2387,40.7131,1843.5394],[39.2301,40.7173,1419.4651],[39.2155,40.7286,1414.4294],[39.2005,40.7475,1685.9722],[39.1496,40.7755,1667.3336],[39.1219,40.7622,1388.5811],[39.108,40.7585,1307.6105],[39.0265,40.7576,1018.0074],[38.9893,40.7291,569.3578],[38.9654,40.7194,1523.3337],[38.9522,40.7113,1869.1882],[38.933,40.6957,1760.2668],[38.922,40.6832,1844.8497],[38.8497,40.5706,1862.7747],[38.8472,40.5619,2122.1233],[38.8462,40.5468,1772.3644],[38.8469,40.5283,1894.4353],[38.8495,40.5131,2013.7317],[38.8459,40.4888,2562.2131],[38.8471,40.4736,2441.1558],[38.8494,40.4679,2209.2935],[38.8599,40.458,2216.709],[38.8893,40.4463,1989.3505],[38.903,40.444,2074.1287],[38.9138,40.4441,1952.1616],[38.9316,40.4477,2034.6003],[38.9504,40.4417,1981.8431],[38.9834,40.4282,2444.6426],[39.0219,40.402,2875.4429],[39.0434,40.3935,2791.72],[39.0591,40.3833,2871.9526],[39.0672,40.3749,2997.5818],[39.0697,40.3698,2902.8062],[39.0715,40.3507,3023.6868],[39.043,40.3302,2615.5483],[38.9612,40.2985,1882.5171],[38.9222,40.2702,1713.5273],[38.909,40.2562,1772.3263],[38.906,40.2452,1859.8101],[38.9055,40.2338,2019.2156],[38.9073,40.1836,1693.047],[38.9057,40.1698,1511.113],[38.9063,40.1498,1517.8754],[38.909,40.1417,1641.3617],[38.9128,40.1365,1619.2443],[38.9442,40.1101,1315.163],[38.948,40.1049,1353.1865],[38.9504,40.0968,1295.7616],[38.9481,40.0831,1697.8108],[38.9431,40.0764,1832.6917],[38.9285,40.0627,1977.8196],[38.9644,40.0567,2283.7288],[39.0091,40.0395,2286.1399],[39.0393,40.0332,2282.1663],[39.0871,40.0151,2367.1365],[39.1158,40.0125,2420.4084],[39.1157,40.0008,2545.9297],[39.1294,39.9983,2498.199],[39.1596,39.987,2547.2759],[39.1889,39.9696,2416.3887],[39.2345,39.9519,2352.8806],[39.2701,39.9319,2214.4292],[39.3841,39.8877,2154.5503],[39.4143,39.8813,2102.3269],[39.432,39.8748,2046.4974],[39.4498,39.8724,2205.637],[39.4719,39.8725,2450.2429],[39.4862,39.8741,2273.5618],[39.5073,39.8815,2305.8496],[39.5176,39.8834,2343.5686],[39.5434,39.8843,2515.5847],[39.5727,39.8831,2433.1001],[39.6179,39.8853,2154.5854],[39.6463,39.8936,2409.5332],[39.681,39.8976,2395.3728],[39.7064,39.9052,2519.9382],[39.7413,39.9088,2435.5522],[39.751,39.9118,2572.1582],[39.776,39.9235,2395.9749],[39.7848,39.9311,2269.5786],[39.7443,39.9452,2179.2634],[39.7251,39.9539,1977.2708],[39.7164,39.9606,1964.1748],[39.7049,39.9754,1884.0009],[39.6906,39.9985,2001.6665],[39.6887,40.0062,2032.5073],[39.6906,40.0139,2028.6404],[39.7055,40.0366,2115.3967]]]]}}