{"type": "Feature","id": "3031","bbox": [38.83973,39.888,39.86912,40.78981],"geometry": {"type": "Polygon","coordinates": [[[39.63854,40.58189,2623.8699],[39.57891,40.58776,2453.6377],[39.34523,40.65964,1680.8068],[39.27856,40.71245,1815.136],[39.26347,40.77113,1139.2017],[39.22131,40.78981,1422.1238],[39.20477,40.77188,1569.111],[39.1842,40.75873,1758.1519],[39.16271,40.75963,2056.3628],[39.14441,40.77136,1888.5294],[39.02442,40.76054,1144.9658],[39.01656,40.74862,1082.3271],[39.01243,40.73436,522.9235],[38.9931,40.72625,647.3788],[38.96892,40.72103,1456.168],[38.93977,40.70212,1882.7065],[38.90773,40.68672,1825.7417],[38.89554,40.66088,1960.8484],[38.90856,40.63003,1995.6329],[38.88975,40.60372,1872.7321],[38.85936,40.57995,1824.9991],[38.84872,40.56845,1925.3635],[38.84655,40.56083,1984.3516],[38.83973,40.51603,2082.2617],[38.84231,40.48017,2221.5896],[38.8698,40.45422,2292.0012],[38.98794,40.43255,2372.5498],[39.01574,40.41469,2719.8328],[39.04302,40.39356,2791.72],[39.06545,40.38839,3227.7483],[39.05977,40.35188,2920.7668],[39.02959,40.33304,2822.3662],[38.92902,40.29046,1805.6836],[38.90711,40.26987,1738.9146],[38.90587,40.23687,1979.7324],[38.91021,40.20328,1678.7999],[38.90567,40.16703,1452.4504],[38.91466,40.13215,1552.2092],[38.94236,40.1051,1360.3705],[38.93326,40.07133,2126.1013],[38.96075,40.05851,2255.6528],[38.98897,40.04882,2297.6211],[39.01967,40.04546,2346.2234],[39.04964,40.03908,2107.918],[39.15826,39.99007,2580.0483],[39.19712,39.97834,2466.6238],[39.23309,39.96071,2371.8809],[39.2489,39.94371,2243.8879],[39.26647,39.93025,2290.5479],[39.32704,39.91632,2407.2363],[39.38543,39.89333,1965.5131],[39.44703,39.888,1895.1283],[39.50584,39.89258,2443.5212],[39.56475,39.88919,2346.6187],[39.62201,39.89377,2204.7566],[39.67637,39.91467,2044.4169],[39.78789,39.9348,2243.1899],[39.83171,39.97089,1953.7302],[39.86912,40.01482,1909.1542],[39.83285,40.07691,1948.1415],[39.81145,40.14396,1716.9208],[39.81631,40.17698,1810.4812],[39.82757,40.2092,1691.7017],[39.86003,40.26695,1838.0443],[39.86737,40.41358,2125.4922],[39.83398,40.56101,1919.6707],[39.78592,40.6222,1957.1357],[39.7173,40.65742,2194.6763],[39.68629,40.63948,2015.0742],[39.67472,40.59876,2381.0867],[39.65911,40.58652,2476.7563],[39.63854,40.58189,2623.8699]]]}
,"properties": {"ISO3166-1-Alpha-3": "TUR","country": "Turkey","fill": "#00F","name": "Gümüshane","area_km2": 6311.698,"hist_schema_id": "Elevation0-9000","hist_area_km2": {"450": 0.273,"475": 0.498,"500": 0.836,"525": 1.093,"550": 1.189,"575": 1.334,"600": 1.575,"625": 3.586,"650": 2.862,"675": 2.797,"700": 3.039,"725": 3.135,"750": 3.634,"775": 4.067,"800": 3.907,"825": 4.084,"850": 4.228,"875": 4.727,"900": 7.849,"925": 6.627,"950": 7.496,"975": 8.285,"1000": 9.3,"1025": 10.331,"1050": 10.992,"1075": 12.539,"1100": 13.779,"1125": 14.763,"1150": 17.428,"1175": 21.043,"1200": 23.209,"1225": 25.533,"1250": 32.146,"1275": 40.276,"1300": 46.956,"1325": 56.686,"1350": 65.946,"1375": 81.683,"1400": 99.35,"1425": 111.757,"1450": 127.855,"1475": 127.425,"1500": 134.526,"1525": 140.442,"1550": 140.496,"1575": 138.825,"1600": 142.844,"1625": 142.412,"1650": 165.268,"1675": 169.729,"1700": 171.0,"1725": 174.148,"1750": 185.364,"1775": 193.214,"1800": 199.84,"1825": 208.297,"1850": 203.708,"1875": 198.781,"1900": 190.225,"1925": 184.637,"1950": 172.748,"1975": 163.973,"2000": 152.424,"2025": 146.438,"2050": 135.487,"2075": 124.916,"2100": 113.779,"2125": 100.452,"2150": 90.139,"2175": 83.564,"2200": 79.958,"2225": 76.353,"2250": 73.171,"2275": 67.889,"2300": 67.503,"2325": 60.074,"2350": 57.224,"2375": 50.705,"2400": 45.82,"2425": 37.278,"2450": 30.621,"2475": 27.041,"2500": 25.924,"2525": 23.761,"2550": 21.048,"2575": 20.323,"2600": 17.66,"2625": 16.29,"2650": 14.001,"2675": 12.18,"2700": 11.841,"2725": 11.197,"2750": 9.745,"2775": 8.713,"2800": 7.164,"2825": 6.212,"2850": 5.502,"2875": 5.149,"2900": 4.342,"2925": 3.745,"2950": 3.358,"2975": 2.858,"3000": 2.697,"3025": 2.309,"3050": 1.744,"3075": 1.518,"3100": 1.405,"3125": 1.34,"3150": 0.678,"3175": 0.533,"3200": 0.388,"3225": 0.339,"3250": 0.194}}}