{"type":"Feature","properties":{"GID_2":"TUR.47.12_1","GID_0":"TUR","country":"Turkey","GID_1":"TUR.47_1","province":"Kayseri","NL_NAME_1":"NA","county":"Sarız","VARNAME_2":"NA","NL_NAME_2":"NA","TYPE_2":"District","ENGTYPE_2":"District","CC_2":"NA","HASC_2":"TR.KY.SR","name":"Sarız.county"},
"geometry":{"type": "MultiPolygon","coordinates": [[[[36.4914,38.3163,1962.7607],[36.5009,38.3187,2161.2012],[36.5091,38.3229,2227.0879],[36.5359,38.3439,2684.7568],[36.5507,38.3646,2199.7634],[36.585,38.3948,2175.4917],[36.6072,38.43,1965.7106],[36.6298,38.4531,1841.8992],[36.6413,38.4696,1586.829],[36.6753,38.4993,1927.1986],[36.6927,38.5277,1766.4858],[36.6965,38.5672,1837.5737],[36.6991,38.5722,1863.0332],[36.7097,38.5825,1851.686],[36.7227,38.5896,1841.6346],[36.7323,38.5911,1858.6925],[36.7433,38.6161,1884.0233],[36.7527,38.6327,1829.5842],[36.756,38.6657,2036.098],[36.7584,38.6744,2050.9346],[36.7957,38.7323,2138.0918],[36.8003,38.7452,2477.3237],[36.6813,38.745,2362.8389],[36.6665,38.7428,2286.7305],[36.6453,38.7358,2019.0819],[36.6133,38.7327,1953.55],[36.6033,38.7303,1901.3944],[36.5698,38.717,1806.2098],[36.5107,38.673,1948.9873],[36.5016,38.6678,1930.1458],[36.4828,38.6604,1942.478],[36.4713,38.6532,1957.958],[36.4593,38.6422,1882.3369],[36.4478,38.6252,1738.9226],[36.4206,38.5977,1807.8126],[36.4043,38.594,2036.4719],[36.3582,38.5943,1835.0874],[36.3393,38.5925,1788.1085],[36.3293,38.5888,1683.0631],[36.3066,38.5759,1637.1702],[36.2971,38.5737,1625.7542],[36.2861,38.5487,1640.5251],[36.2776,38.535,1687.4326],[36.2705,38.514,1856.9255],[36.2613,38.4973,1821.5342],[36.2589,38.4759,1878.7223],[36.2613,38.4483,2567.2378],[36.3054,38.4637,1955.6526],[36.3208,38.4661,2074.0234],[36.3776,38.4664,1924.3712],[36.3931,38.4639,2112.8989],[36.4027,38.4594,1943.8567],[36.4135,38.4515,1753.3252],[36.4221,38.4422,1675.9109],[36.4361,38.4185,1614.0011],[36.4407,38.391,1518.1617],[36.4437,38.3832,1503.9012],[36.4734,38.3366,1648.778],[36.4914,38.3163,1962.7607]]]]}}