{"type": "Feature","bbox": [39.826,40.5606,40.049,40.9608],"geometry": {"type": "MultiPolygon","coordinates": [[[[40.0049,40.6585,2534.5569],[40.0008,40.6717,2250.2319],[39.9895,40.694,2071.1533],[39.9878,40.7258,1765.3127],[39.9888,40.7353,1182.3781],[39.9927,40.7467,1044.3368],[40.0159,40.781,897.2123],[40.0313,40.8073,616.781],[40.0355,40.8432,383.1259],[40.0472,40.8683,384.7493],[40.049,40.8987,128.7719],[40.0455,40.956,5.1404],[40.0351,40.9596,0.0],[40.0074,40.9571,0.0],[39.999,40.9608,6.8134],[39.9934,40.9339,169.433],[39.9855,40.9093,296.965],[39.9769,40.8996,461.436],[39.9529,40.8799,560.7424],[39.9469,40.8723,641.9319],[39.9437,40.8608,350.735],[39.9422,40.8217,848.5573],[39.9391,40.8137,1225.4457],[39.9107,40.7696,1065.1238],[39.9053,40.7633,1385.261],[39.8676,40.7333,1640.5319],[39.8573,40.7234,1647.6392],[39.8402,40.6925,1815.2446],[39.8365,40.6501,2139.397],[39.8337,40.6418,2218.2246],[39.8271,40.6317,2328.4824],[39.826,40.625,2406.6265],[39.8285,40.6206,2412.3779],[39.834,40.6178,2523.7568],[39.8773,40.6172,2208.8523],[39.8909,40.615,2192.7412],[39.8979,40.61,1925.4392],[39.9089,40.5954,2003.4788],[39.9157,40.5835,2081.3601],[39.9264,40.5738,2199.2598],[39.9522,40.5628,1846.9146],[39.9582,40.561,2011.7078],[39.9687,40.5606,2440.605],[39.9752,40.5624,2395.5652],[39.985,40.5691,2236.8899],[39.9966,40.5914,1627.1206],[39.9959,40.5962,1928.4041],[39.9929,40.6007,2104.9685],[39.9763,40.6179,2060.1365],[39.9737,40.6259,2358.3884],[39.9747,40.6369,2601.7627],[39.9815,40.6461,2796.6572],[40.0049,40.6585,2534.5569]]]]}
,"properties": {"GID_2": "TUR.75.2_1","GID_0": "TUR","country": "Turkey","GID_1": "TUR.75_1","province": "Trabzon","NL_NAME_1": "NA","county": "Araklı","VARNAME_2": "NA","NL_NAME_2": "NA","TYPE_2": "District","ENGTYPE_2": "District","CC_2": "NA","HASC_2": "TR.TB.AR","name": "Araklı.county","area_km2": 380.6527,"hist_schema_id": "Elevation0-9000","hist_area_km2": {"0": 0.9769,"25": 3.6368,"50": 3.3327,"75": 3.4129,"100": 4.5666,"125": 4.9192,"150": 5.6245,"175": 5.9294,"200": 6.7633,"225": 6.3318,"250": 4.7454,"275": 4.8583,"300": 4.6669,"325": 4.5555,"350": 4.5718,"375": 4.6682,"400": 5.3101,"425": 4.637,"450": 4.942,"475": 5.0387,"500": 4.4934,"525": 4.8948,"550": 5.1042,"575": 5.0403,"600": 5.281,"625": 4.8158,"650": 5.2491,"675": 5.3465,"700": 5.0738,"725": 4.7682,"750": 5.4922,"775": 4.7053,"800": 4.0314,"825": 4.3845,"850": 4.0319,"875": 4.1447,"900": 4.2571,"925": 3.952,"950": 4.0646,"975": 4.1291,"1000": 3.6797,"1025": 4.049,"1050": 3.3742,"1075": 3.4549,"1100": 3.7764,"1125": 3.7926,"1150": 3.8892,"1175": 3.7446,"1200": 3.359,"1225": 3.5681,"1250": 3.6326,"1275": 3.3916,"1300": 3.3591,"1325": 3.4237,"1350": 3.5042,"1375": 3.9389,"1400": 4.0193,"1425": 3.7941,"1450": 3.8585,"1475": 3.8751,"1500": 3.5698,"1525": 3.377,"1550": 3.2165,"1575": 3.2007,"1600": 3.2492,"1625": 2.9116,"1650": 2.799,"1675": 2.96,"1700": 2.8475,"1725": 3.0728,"1750": 3.1371,"1775": 2.8154,"1800": 3.0407,"1825": 3.7648,"1850": 3.4269,"1875": 3.5881,"1900": 3.6684,"1925": 3.4915,"1950": 3.749,"1975": 4.3603,"2000": 3.7329,"2025": 3.4434,"2050": 3.6686,"2075": 3.3309,"2100": 3.4113,"2125": 3.2826,"2150": 3.4432,"2175": 3.1216,"2200": 3.0892,"2225": 2.4458,"2250": 2.5422,"2275": 2.4456,"2300": 1.9307,"2325": 1.8503,"2350": 1.4159,"2375": 1.3997,"2400": 1.0297,"2425": 1.1262,"2450": 0.7401,"2475": 0.917,"2500": 0.8526,"2525": 0.7239,"2550": 0.74,"2575": 0.6113,"2600": 0.563,"2625": 0.5148,"2650": 0.4504,"2675": 0.4182,"2700": 0.2895,"2725": 0.2252,"2750": 0.1609,"2775": 0.0965,"2800": 0.0965,"2825": 0.0322,"2850": 0.0322}}}