{"type":"Feature","properties":{"GID_2":"TUR.17.8_1","GID_0":"TUR","country":"Turkey","GID_1":"TUR.17_1","province":"Bingöl","NL_NAME_1":"NA","county":"Yedisu","VARNAME_2":"NA","NL_NAME_2":"NA","TYPE_2":"District","ENGTYPE_2":"District","CC_2":"NA","HASC_2":"TR.BG.YE","name":"Yedisu.county"},
"geometry":{"type": "MultiPolygon","coordinates": [[[[40.7927,39.3652,2127.7402],[40.7847,39.3831,1926.014],[40.7847,39.3935,1920.3204],[40.7989,39.4166,2315.2866],[40.8217,39.4392,2485.4155],[40.8384,39.465,2264.6184],[40.8441,39.4835,2366.8882],[40.8553,39.5052,2197.6362],[40.8568,39.5193,2054.4658],[40.8567,39.5455,1975.8713],[40.8718,39.5571,1885.5925],[40.8694,39.5624,1943.4739],[40.8652,39.565,2039.0074],[40.8565,39.5653,2198.2917],[40.8417,39.5572,2152.7441],[40.8281,39.5546,2101.6514],[40.8069,39.5474,2300.3213],[40.783,39.543,2443.083],[40.7352,39.5248,2472.1726],[40.7113,39.5202,2431.0833],[40.6835,39.5117,2174.9414],[40.6622,39.5129,2313.4644],[40.6446,39.5195,2617.9517],[40.6255,39.5242,2577.8223],[40.6203,39.5282,2406.9043],[40.5878,39.5366,2387.803],[40.573,39.5422,2213.344],[40.5432,39.5478,2447.1538],[40.5412,39.5315,2921.1802],[40.5385,39.5234,2628.9446],[40.5303,39.5138,2624.949],[40.5165,39.504,2237.9561],[40.4373,39.4737,1604.8892],[40.4048,39.455,1397.2273],[40.3398,39.4305,1662.274],[40.3353,39.4275,1770.2953],[40.3331,39.4228,1720.1692],[40.3352,39.4156,1988.5195],[40.3415,39.4103,2112.6711],[40.3504,39.407,1914.4563],[40.374,39.4031,1789.4218],[40.3909,39.3945,1793.8445],[40.4139,39.3971,2146.6089],[40.4188,39.4,2033.7185],[40.4298,39.4126,2432.8423],[40.4395,39.4208,2102.8982],[40.4479,39.4255,1996.4435],[40.4573,39.4268,1813.2964],[40.4648,39.4237,1900.6873],[40.4742,39.4143,1678.6195],[40.4815,39.4118,1864.6533],[40.5071,39.4169,1739.5227],[40.5177,39.4166,1643.7144],[40.5279,39.4141,1605.2556],[40.5691,39.3862,2173.4731],[40.6056,39.3725,2031.7275],[40.6236,39.3709,2053.7324],[40.709,39.3703,1853.8944],[40.72,39.3683,1982.7705],[40.7576,39.3542,2278.2683],[40.7661,39.3528,2249.9722],[40.7771,39.356,2205.1099],[40.7927,39.3652,2127.7402]]]]}}