{"type":"Feature","properties":{"GID_2":"TUR.8.2_1","GID_0":"TUR","country":"Turkey","GID_1":"TUR.8_1","province":"Antalya","NL_NAME_1":"NA","county":"Alanya","VARNAME_2":"NA","NL_NAME_2":"NA","TYPE_2":"District","ENGTYPE_2":"District","CC_2":"NA","HASC_2":"TR.AL.AL","name":"Alanya.county"},
"geometry":{"type": "MultiPolygon","coordinates": [[[[32.4987,36.5762,1463.5825],[32.489,36.5957,1322.3584],[32.4823,36.6168,1766.5405],[32.4741,36.6307,1958.6125],[32.4683,36.6491,1918.3977],[32.459,36.6655,1725.6941],[32.4565,36.6741,1536.6055],[32.4553,36.6952,1290.6667],[32.4567,36.7132,1254.6633],[32.4592,36.7217,1321.1144],[32.4682,36.7382,1577.3391],[32.4706,36.7511,1536.2753],[32.4373,36.8058,1384.3113],[32.4261,36.8207,1657.1387],[32.4174,36.8275,1460.9316],[32.395,36.8371,1518.7456],[32.3633,36.8411,1724.9553],[32.3437,36.8397,2223.3611],[32.3292,36.8405,2224.1873],[32.291,36.8509,2087.0012],[32.2908,36.8231,1997.5586],[32.2931,36.8082,1552.3162],[32.3178,36.7685,1803.1263],[32.3213,36.7507,1295.056],[32.3195,36.7296,1398.8571],[32.3076,36.7041,1619.1221],[32.3055,36.6642,2038.2445],[32.3008,36.6568,2046.6012],[32.2948,36.6539,2301.6919],[32.2764,36.6522,2292.0088],[32.1944,36.6541,1598.4762],[32.1837,36.6566,1978.3889],[32.1392,36.6739,1256.416],[32.1235,36.6762,1523.2708],[31.9979,36.6768,543.9059],[31.9653,36.6749,320.8903],[31.914,36.6556,683.4474],[31.8986,36.6533,621.6808],[31.8828,36.6536,430.3056],[31.8682,36.6565,112.9052],[31.7609,36.6993,365.4919],[31.7483,36.6965,372.7512],[31.7126,36.6821,32.99],[31.6956,36.6688,57.7893],[31.6816,36.6516,24.2033],[31.6832,36.6476,0.4288],[31.6868,36.649,9.0014],[31.6918,36.6463,0.0],[31.6946,36.6471,15.4249],[31.7026,36.6421,4.1507],[31.7121,36.6426,5.715],[31.7196,36.641,9.6637],[31.7218,36.6387,0.0],[31.7249,36.6401,0.9168],[31.7251,36.6379,0.0],[31.7332,36.641,9.2321],[31.7393,36.639,7.3012],[31.7399,36.6371,11.5673],[31.7432,36.6385,1.7104],[31.7471,36.6376,4.9601],[31.7515,36.6338,1.2108],[31.7512,36.6318,0.0],[31.7543,36.6312,9.9146],[31.7535,36.6274,3.5311],[31.7551,36.6254,0.0],[31.7579,36.6257,11.4349],[31.7582,36.6229,0.1736],[31.7624,36.6243,9.7325],[31.7621,36.6215,0.0],[31.7663,36.6204,0.0],[31.7685,36.6174,2.0657],[31.7749,36.6138,10.5227],[31.7754,36.6082,2.7489],[31.7712,36.6071,0.0],[31.7726,36.6049,0.0],[31.7746,36.604,0.0],[31.7779,36.6035,0.0],[31.7793,36.6051,0.0],[31.7865,36.6071,10.0375],[31.7976,36.6004,0.0],[31.8165,36.5932,0.0],[31.8296,36.5954,0.0],[31.8436,36.591,1.1365],[31.8549,36.5896,4.0982],[31.891,36.5751,0.0],[31.896,36.5713,0.0],[31.9043,36.5718,3.8313],[31.9065,36.5693,2.9293],[31.9118,36.5687,2.8483],[31.9182,36.5632,0.0],[31.9249,36.5638,18.1455],[31.939,36.5582,0.0],[31.9463,36.5582,1.035],[31.9496,36.5599,1.8951],[31.9549,36.5576,0.0],[31.9607,36.5585,0.0],[31.9688,36.556,6.8544],[31.9774,36.551,6.4436],[31.9879,36.5421,3.7461],[31.9885,36.5371,0.0],[31.9871,36.5346,7.0946],[31.989,36.5299,46.8745],[31.9857,36.5274,0.0],[31.9899,36.5296,46.8745],[31.9946,36.5288,53.0064],[32.0004,36.5304,0.0],[32.0007,36.5335,0.0],[31.999,36.5357,0.0],[32.0046,36.5387,0.0],[31.9996,36.5379,0.207],[31.9993,36.5399,0.0],[32.0057,36.5429,1.9145],[32.0163,36.5429,6.4453],[32.0254,36.5385,0.0],[32.0296,36.5382,3.6067],[32.0535,36.5232,3.5965],[32.0615,36.5137,0.0],[32.0743,36.5068,0.3914],[32.086,36.494,3.4058],[32.0885,36.4935,3.3469],[32.1029,36.479,2.1426],[32.1162,36.4687,0.8395],[32.1235,36.4571,6.2808],[32.1235,36.4499,0.5596],[32.1307,36.4443,33.5599],[32.1343,36.4374,0.7296],[32.1401,36.4365,6.1006],[32.1435,36.4329,0.6224],[32.1504,36.4307,6.7277],[32.166,36.4171,3.9506],[32.1738,36.4049,0.0],[32.1751,36.3996,0.0],[32.1785,36.3979,5.0822],[32.1943,36.3763,1.687],[32.1929,36.3701,1.1462],[32.1982,36.3654,0.0],[32.2085,36.3465,0.0],[32.2101,36.346,20.6887],[32.211,36.3418,4.5337],[32.2132,36.341,38.196],[32.2179,36.334,18.1671],[32.2207,36.3338,34.0183],[32.221,36.3304,0.0],[32.226,36.3288,46.9052],[32.2301,36.3221,9.8078],[32.2337,36.321,5.1294],[32.2335,36.3185,0.0],[32.2418,36.3179,12.4543],[32.2449,36.3154,3.2457],[32.2454,36.3107,0.0],[32.2487,36.3071,2.6031],[32.2524,36.309,26.0143],[32.2538,36.3082,0.0],[32.261,36.3237,317.6198],[32.2684,36.333,251.905],[32.3112,36.3678,362.0631],[32.3284,36.3908,452.4373],[32.3457,36.4035,381.2376],[32.3691,36.4135,572.2441],[32.3794,36.4234,1008.5969],[32.3913,36.4418,1379.8468],[32.3943,36.4496,1214.3629],[32.3954,36.5013,1499.191],[32.3972,36.5096,1573.7925],[32.4019,36.5173,1668.4374],[32.4165,36.5302,1741.234],[32.4627,36.5646,1660.4899],[32.4719,36.5691,1726.413],[32.4987,36.5762,1463.5825]]]]}}