{"type": "Feature","bbox": [38.6666,40.5131,38.922,40.8851],"geometry": {"type": "MultiPolygon","coordinates": [[[[38.8495,40.5131,2013.7317],[38.8469,40.5283,1894.4353],[38.8462,40.5468,1772.3644],[38.8472,40.5619,2122.1233],[38.8497,40.5706,1862.7747],[38.922,40.6832,1844.8497],[38.9094,40.7001,1763.1327],[38.8941,40.7266,1621.1533],[38.8906,40.7747,1067.8911],[38.8808,40.7938,1156.0364],[38.8772,40.8043,1185.2872],[38.8652,40.8169,934.7777],[38.8303,40.8732,206.9363],[38.8217,40.8809,226.8086],[38.8159,40.8835,206.9113],[38.8055,40.8851,198.6387],[38.7857,40.8833,213.2839],[38.7884,40.8112,750.2126],[38.7916,40.8029,580.8028],[38.8188,40.7594,696.0509],[38.8177,40.7259,1794.5183],[38.8157,40.715,1749.085],[38.8108,40.708,1537.1592],[38.8061,40.7043,1547.0674],[38.797,40.7007,1608.0093],[38.7502,40.6987,1192.678],[38.7398,40.696,1183.0211],[38.7253,40.687,1781.4709],[38.7182,40.6804,1740.4155],[38.7021,40.6586,1569.972],[38.6811,40.6407,1894.6727],[38.6702,40.6286,2285.4055],[38.6666,40.6182,2267.1328],[38.6668,40.5924,2021.5962],[38.6696,40.5844,1911.2958],[38.6776,40.5763,2116.7014],[38.7276,40.5561,2114.3008],[38.7366,40.549,2150.1433],[38.7461,40.5358,2462.5791],[38.7583,40.5276,2328.9578],[38.7848,40.5219,2158.4705],[38.8061,40.5149,2255.6016],[38.8495,40.5131,2013.7317]]]]}
,"properties": {"GID_2": "TUR.34.10_1","GID_0": "TUR","country": "Turkey","GID_1": "TUR.34_1","province": "Giresun","NL_NAME_1": "NA","county": "Güce","VARNAME_2": "NA","NL_NAME_2": "NA","TYPE_2": "District","ENGTYPE_2": "District","CC_2": "NA","HASC_2": "TR.GI.GU","name": "Güce.county","area_km2": 422.9699,"hist_schema_id": "Elevation0-9000","hist_area_km2": {"100": 0.2244,"125": 0.497,"150": 0.5611,"175": 0.5772,"200": 0.962,"225": 1.1385,"250": 1.0905,"275": 1.3953,"300": 1.5398,"325": 1.4276,"350": 1.7485,"375": 1.9089,"400": 2.2137,"425": 2.3261,"450": 2.1016,"475": 2.3423,"500": 2.2142,"525": 3.0165,"550": 2.6154,"575": 2.5192,"600": 2.776,"625": 2.7922,"650": 2.8563,"675": 2.7444,"700": 2.9049,"725": 2.5195,"750": 2.6322,"775": 2.6643,"800": 2.4558,"825": 2.215,"850": 2.4721,"875": 2.2633,"900": 2.4401,"925": 2.2637,"950": 2.3602,"975": 2.4404,"1000": 2.0231,"1025": 2.0713,"1050": 2.1517,"1075": 2.2321,"1100": 2.2804,"1125": 2.4252,"1150": 2.2808,"1175": 2.5539,"1200": 2.2811,"1225": 2.2329,"1250": 2.3617,"1275": 2.0243,"1300": 2.4422,"1325": 2.3781,"1350": 2.3462,"1375": 2.4909,"1400": 2.3305,"1425": 2.6681,"1450": 2.8129,"1475": 3.1667,"1500": 3.3115,"1525": 3.1025,"1550": 3.7136,"1575": 4.212,"1600": 5.5807,"1625": 5.0498,"1650": 5.7898,"1675": 5.7583,"1700": 6.6114,"1725": 7.3676,"1750": 8.1404,"1775": 8.7356,"1800": 9.6047,"1825": 11.0212,"1850": 11.826599999999999,"1875": 12.8563,"1900": 13.6455,"1925": 14.1936,"1950": 14.9831,"1975": 14.4367,"2000": 14.1152,"2025": 13.7467,"2050": 13.9882,"2075": 13.2156,"2100": 12.4112,"2125": 11.494,"2150": 9.3689,"2175": 8.2753,"2200": 5.7644,"2225": 4.7657,"2250": 4.1058,"2275": 3.4943,"2300": 2.9794,"2325": 2.0936,"2350": 2.1905,"2375": 1.7717,"2400": 1.4818,"2425": 0.9987,"2450": 0.9988,"2475": 1.0311,"2500": 0.7089,"2525": 0.5961,"2550": 0.58,"2575": 0.4512,"2600": 0.4834,"2625": 0.3545,"2650": 0.3545,"2675": 0.145,"2700": 0.0967,"2725": 0.0806,"2750": 0.0644,"2775": 0.0161,"2800": 0.0322}}}