{"type": "Feature","bbox": [28.561,40.2582,28.9713,40.3946],"geometry": {"type": "MultiPolygon","coordinates": [[[[28.6347,40.2582,130.1772],[28.6626,40.2729,32.8729],[28.6845,40.2766,79.4362],[28.731,40.2752,40.953],[28.7559,40.2671,92.5735],[28.7709,40.2647,46.394],[28.7944,40.2643,48.1088],[28.8133,40.2672,52.3733],[28.8463,40.2849,97.5934],[28.8884,40.2903,96.7817],[28.9251,40.3044,154.8786],[28.9362,40.3121,176.0211],[28.9455,40.3211,229.798],[28.9546,40.3356,103.2219],[28.9713,40.3568,5.3104],[28.9596,40.3593,0.0],[28.951,40.359,0.0],[28.9468,40.3563,14.152],[28.926,40.356,3.6309],[28.9126,40.3615,1.5435],[28.9015,40.369,0.0],[28.8946,40.3707,0.2893],[28.8799,40.3821,0.0],[28.874,40.3821,0.0],[28.8713,40.3849,0.0],[28.8596,40.3849,11.4818],[28.8515,40.381,11.254],[28.8426,40.3818,9.9254],[28.8351,40.3843,0.0],[28.831,40.3838,0.0],[28.829,40.386,0.0],[28.8107,40.3924,0.0],[28.8037,40.391,8.3984],[28.8021,40.3935,0.0],[28.7968,40.3943,0.0],[28.7807,40.3935,41.7132],[28.7704,40.3946,0.0],[28.7626,40.391,25.9165],[28.7529,40.3904,6.6785],[28.7385,40.386,2.0706],[28.7343,40.3821,0.0],[28.7265,40.3835,0.0],[28.7226,40.3785,4.3253],[28.716,40.3785,1.9875],[28.7118,40.3763,10.1071],[28.6993,40.3776,0.0],[28.691,40.3751,25.85],[28.6782,40.3757,0.0],[28.674,40.3729,24.2679],[28.6779,40.3693,2.5726],[28.6765,40.3643,2.6974],[28.6612,40.3599,9.7299],[28.6551,40.3613,0.7428],[28.651,40.3593,11.1088],[28.6521,40.3621,0.0],[28.6499,40.3629,0.0],[28.6462,40.3607,1.6934],[28.6365,40.3629,35.3156],[28.6343,40.3649,9.0463],[28.606,40.3674,0.6484],[28.5739,40.3757,0.0],[28.5724,40.3532,274.7756],[28.561,40.3312,103.0238],[28.5611,40.3199,140.5507],[28.5648,40.315,79.8992],[28.571,40.3122,37.8737],[28.6047,40.3105,27.6769],[28.6174,40.306,79.622],[28.6276,40.2942,83.7879],[28.6329,40.2845,116.1292],[28.6347,40.2582,130.1772]]]]}
,"properties": {"GID_2": "TUR.21.10_1","GID_0": "TUR","country": "Turkey","GID_1": "TUR.21_1","province": "Bursa","NL_NAME_1": "NA","county": "Mudanya","VARNAME_2": "NA","NL_NAME_2": "NA","TYPE_2": "District","ENGTYPE_2": "District","CC_2": "NA","HASC_2": "TR.BU.MD","name": "Mudanya.county","area_km2": 333.4795,"hist_schema_id": "Elevation0-9000","hist_area_km2": {"0": 6.4453,"25": 19.3145,"50": 31.557,"75": 34.2529,"100": 40.6531,"125": 42.5756,"150": 39.1482,"175": 31.325,"200": 21.1255,"225": 17.2618,"250": 12.2508,"275": 8.4363,"300": 5.5267,"325": 4.0881,"350": 3.6033,"375": 3.0054,"400": 2.4237,"425": 2.2459,"450": 2.2944,"475": 2.1005,"500": 2.0843,"525": 0.9371,"550": 0.3878,"575": 0.3716,"600": 0.0646}}}