{"type": "Feature","bbox": [33.8069,41.7779,34.09,41.9768],"geometry": {"type": "MultiPolygon","coordinates": [[[[33.9217,41.9732,14.1552],[33.9096,41.974,0.0],[33.9029,41.9721,0.0],[33.8937,41.9721,0.0],[33.8904,41.974,0.0],[33.8921,41.9751,0.0],[33.8913,41.9762,0.0],[33.8818,41.9735,19.4742],[33.8496,41.9749,4.0155],[33.8432,41.9732,28.8013],[33.8357,41.9743,0.0],[33.8332,41.9729,3.2349],[33.8207,41.9738,2.7246],[33.814,41.9751,18.4531],[33.8135,41.9768,8.0619],[33.8069,41.9757,0.0],[33.8306,41.9478,229.3698],[33.8373,41.9151,792.993],[33.8612,41.8782,1218.6379],[33.8737,41.8506,1362.7692],[33.9116,41.841,1037.01],[33.9285,41.8301,1297.642],[33.9355,41.8211,1598.9784],[33.9358,41.8162,1494.7107],[33.9333,41.812,1435.032],[33.9141,41.805,1223.8385],[33.9004,41.787,1310.2573],[33.9965,41.7855,908.4088],[34.0119,41.7827,1200.4768],[34.0219,41.7779,1531.1047],[34.0547,41.7865,943.1678],[34.0674,41.7923,1107.1002],[34.0757,41.7981,1369.4751],[34.083,41.8047,1322.9813],[34.0879,41.8125,1261.0967],[34.09,41.8265,1336.4014],[34.0892,41.835,1331.6252],[34.0846,41.8456,1153.2399],[34.0529,41.8728,377.2018],[34.046,41.8825,338.9932],[34.0437,41.9022,521.2855],[34.0469,41.9253,316.2859],[33.9761,41.9251,588.9546],[33.9558,41.928,480.6373],[33.9478,41.9321,271.3754],[33.9413,41.9382,539.9726],[33.9265,41.9616,358.8889],[33.9217,41.9732,14.1552]]]]}
,"properties": {"GID_2": "TUR.46.5_1","GID_0": "TUR","country": "Turkey","GID_1": "TUR.46_1","province": "Kastamonu","NL_NAME_1": "NA","county": "Bozkurt","VARNAME_2": "NA","NL_NAME_2": "NA","TYPE_2": "District","ENGTYPE_2": "District","CC_2": "NA","HASC_2": "TR.KS.BO","name": "Bozkurt.county","area_km2": 285.9727,"hist_schema_id": "Elevation0-9000","hist_area_km2": {"0": 0.8354,"25": 0.9773,"50": 1.1981,"75": 1.4661,"100": 1.7814,"125": 1.955,"150": 2.1286,"175": 2.3021,"200": 2.3495,"225": 2.1604,"250": 2.5863,"275": 2.776,"300": 2.8864,"325": 3.3439,"350": 3.644,"375": 4.1017,"400": 3.9282,"425": 4.0859,"450": 4.0707,"475": 4.2443,"500": 4.9386,"525": 5.1442,"550": 5.1128,"575": 5.4444,"600": 5.2078,"625": 5.9494,"650": 6.2658,"675": 7.0398,"700": 7.024,"725": 7.5453,"750": 7.23,"775": 6.9616,"800": 7.4829,"825": 6.9463,"850": 6.7257,"875": 6.4896,"900": 5.9845,"925": 5.9061,"950": 5.5274,"975": 6.1592,"1000": 5.9224,"1025": 5.9231,"1050": 6.3338,"1075": 5.6393,"1100": 5.5607,"1125": 4.8658,"1150": 4.929,"1175": 4.4547,"1200": 3.9653,"1225": 4.4392,"1250": 3.7283,"1275": 3.5069,"1300": 3.3016,"1325": 3.8862,"1350": 3.3017,"1375": 3.0331,"1400": 2.8593,"1425": 3.3332,"1450": 2.8435,"1475": 3.1751,"1500": 3.3015,"1525": 3.3805,"1550": 2.9224,"1575": 2.6381,"1600": 2.575,"1625": 2.1958,"1650": 1.9273,"1675": 1.5956,"1700": 1.2322,"1725": 0.6793,"1750": 0.3475,"1775": 0.1896,"1800": 0.079}}}