{"type":"Feature","properties":{"GID_2":"TUR.64.7_1","GID_0":"TUR","country":"Turkey","GID_1":"TUR.64_1","province":"Osmaniye","NL_NAME_1":"NA","county":"Toprakkale","VARNAME_2":"NA","NL_NAME_2":"NA","TYPE_2":"District","ENGTYPE_2":"District","CC_2":"NA","HASC_2":"TR.OS.TO","name":"Toprakkale.county"},
"geometry":{"type": "MultiPolygon","coordinates": [[[[36.0416,37.0256,216.2116],[36.0881,37.0227,212.2257],[36.0926,37.0378,167.1284],[36.0989,37.0434,103.8484],[36.1089,37.0459,147.1314],[36.1465,37.048,89.1871],[36.1674,37.0549,126.8303],[36.1946,37.0601,93.7515],[36.2244,37.0772,105.7011],[36.2725,37.0958,105.629],[36.2817,37.103,107.6703],[36.2909,37.1169,110.0175],[36.3018,37.1276,108.8634],[36.3677,37.1777,285.8799],[36.3338,37.185,328.662],[36.2563,37.1856,221.0174],[36.2398,37.1761,72.0],[36.2202,37.1703,98.9795],[36.1974,37.1762,150.2018],[36.1641,37.1893,134.9372],[36.1478,37.201,93.5991],[36.1348,37.2149,75.5494],[36.13,37.2174,78.5104],[36.1182,37.2172,120.4174],[36.1014,37.2114,180.671],[36.073,37.2085,44.5087],[36.0592,37.2052,33.5996],[36.0328,37.1897,37.2396],[36.0144,37.1822,35.8994],[36.001,37.1742,32.9344],[36.0146,37.1664,32.1829],[36.0323,37.1591,36.3595],[36.0396,37.1539,37.3581],[36.0452,37.1475,39.2558],[36.0594,37.1239,40.2293],[36.0614,37.1089,37.5806],[36.0603,37.0906,38.1332],[36.0576,37.082,37.9486],[36.0475,37.0625,33.4647],[36.0416,37.0256,216.2116]]]]}}