{"type":"Feature","properties":{"GID_2":"TUR.30.1_1","GID_0":"TUR","country":"Turkey","GID_1":"TUR.30_1","province":"Erzincan","NL_NAME_1":"NA","county":"Çayırlı","VARNAME_2":"NA","NL_NAME_2":"NA","TYPE_2":"District","ENGTYPE_2":"District","CC_2":"NA","HASC_2":"TR.EN.CA","name":"Çayırlı.county"},
"geometry":{"type": "MultiPolygon","coordinates": [[[[39.7848,39.9311,2269.5786],[39.7709,39.9203,2291.3613],[39.7413,39.9088,2435.5522],[39.7064,39.9052,2519.9382],[39.681,39.8976,2395.3728],[39.6463,39.8936,2409.5332],[39.6179,39.8853,2154.5854],[39.5727,39.8831,2433.1001],[39.5855,39.8692,2584.1753],[39.5891,39.8629,2605.6299],[39.5892,39.8585,2657.6958],[39.583,39.8459,2912.593],[39.5816,39.8389,2715.4653],[39.5836,39.8268,2284.7158],[39.5978,39.8118,2332.8682],[39.6184,39.7972,2780.0391],[39.6565,39.7825,2587.8062],[39.6834,39.7794,3176.6504],[39.7967,39.7793,2816.541],[39.8199,39.7768,2756.7717],[39.8501,39.7656,2723.7283],[39.8625,39.7585,2563.8611],[39.8866,39.7386,2372.168],[39.902,39.7179,2708.7373],[39.9093,39.7132,2734.8167],[39.9156,39.7115,2773.1162],[39.9256,39.7118,2767.01],[39.9461,39.7186,2625.2139],[39.9657,39.7208,2461.2112],[40.0145,39.7211,2382.0745],[40.0328,39.7173,2148.3926],[40.0446,39.7083,2149.1958],[40.056399999999996,39.6903,2243.373],[40.0592,39.683,2169.8799],[40.0578,39.675,1999.7163],[40.0544,39.6707,2133.6458],[40.0471,39.6658,2018.4784],[40.0214,39.6606,2076.6987],[40.0101,39.6555,1910.5332],[40.004,39.6496,1791.8324],[39.9958,39.6329,1743.4934],[40.0262,39.6258,1945.9653],[40.0504,39.6174,1877.3827],[40.0716,39.6172,1901.5116],[40.1083,39.6307,1674.1584],[40.1297,39.6468,1487.5073],[40.1538,39.6847,1477.7072],[40.1622,39.6925,1532.0441],[40.1947,39.7054,1604.2067],[40.2248,39.711,1419.6384],[40.2354,39.7172,1419.4087],[40.2405,39.7242,1482.2203],[40.2426,39.7324,1433.0693],[40.2425,39.7437,1414.3275],[40.2403,39.7519,1446.0402],[40.2372,39.7567,1406.5864],[40.2279,39.764,1386.3367],[40.2038,39.7742,1448.5928],[40.1904,39.7843,1451.5332],[40.1841,39.7914,1446.1362],[40.1641,39.8244,1402.2886],[40.158,39.8303,1404.5802],[40.1467,39.8357,1407.2899],[40.123,39.8398,1442.7527],[40.0921,39.8503,1477.2145],[40.0662,39.8626,1492.2793],[40.064,39.8698,1471.384],[40.0659,39.8748,1557.634],[40.0699,39.8792,1637.0048],[40.0843,39.8883,1591.0426],[40.0996,39.8939,1549.0925],[40.0891,39.9174,1728.0764],[40.078,39.9267,1892.8749],[40.0677,39.9298,1724.8658],[40.056,39.9308,1557.8623],[39.9702,39.9301,1718.1847],[39.9464,39.9318,1816.6783],[39.9127,39.9442,2313.6768],[39.8803,39.963,2075.3301],[39.8437,39.9745,2249.9648],[39.8382,39.9712,2064.6047],[39.8279,39.9594,1969.5706],[39.8102,39.9449,2068.5374],[39.7963,39.9358,2297.5815],[39.7848,39.9311,2269.5786]]]]}}