{"type":"Feature","properties":{"GID_2":"TUR.28.1_1","GID_0":"TUR","country":"Turkey","GID_1":"TUR.28_1","province":"Edirne","NL_NAME_1":"NA","county":"Enez","VARNAME_2":"NA","NL_NAME_2":"NA","TYPE_2":"District","ENGTYPE_2":"District","CC_2":"NA","HASC_2":"TR.ED.EN","name":"Enez.county"},
"geometry":{"type": "MultiPolygon","coordinates": [[[[26.0401,40.733,0.1336],[26.0315,40.7339,0.321],[26.0374,40.7307,0.3499],[26.0376,40.7287,0.0],[26.0418,40.726,0.4539],[26.0421,40.7221,0.0],[26.0443,40.7212,0.19],[26.0488,40.7137,0.0],[26.0521,40.7113,0.308],[26.0532,40.7082,0.0],[26.0515,40.7068,0.0],[26.0543,40.7024,0.0],[26.054,40.6965,0.3384],[26.0507,40.6957,0.0],[26.0499,40.6993,0.0],[26.0476,40.699,0.0],[26.0501,40.6943,0.0],[26.0565,40.6929,7.4106],[26.0596,40.6857,0.0],[26.0624,40.6832,5.2547],[26.0615,40.6815,0.0],[26.0651,40.671,0.5829],[26.0635,40.6626,0.187],[26.066,40.6501,0.5155],[26.064,40.6437,0.6682],[26.0604,40.639,0.8077],[26.0657,40.6321,0.7126],[26.066,40.6279,0.0],[26.0757,40.6171,1.9714],[26.0885,40.6082,0.0],[26.1071,40.5988,6.1904],[26.1224,40.5946,7.3657],[26.1218,40.5915,0.0],[26.1265,40.591,0.0],[26.1229,40.5926,0.0],[26.1238,40.5943,7.3657],[26.1507,40.5893,2.6395],[26.1588,40.5893,10.6186],[26.1735,40.5935,0.0],[26.1929,40.5951,0.0],[26.2054,40.5979,4.7754],[26.2343,40.5985,0.0],[26.2613,40.5946,0.0],[26.2665,40.5954,0.7656],[26.2793,40.5918,0.0],[26.304,40.5904,0.0],[26.3396,40.5962,0.0],[26.3511,40.604,18.7617],[26.3537,40.6629,104.3512],[26.3529,40.6718,108.1197],[26.3497,40.6797,129.9623],[26.3451,40.6834,122.0639],[26.3395,40.6855,79.7729],[26.2884,40.6973,100.7173],[26.2836,40.7001,111.9188],[26.2812,40.7046,164.8637],[26.2818,40.7093,173.117],[26.2853,40.7139,173.5572],[26.3049,40.7256,23.7307],[26.3161,40.7392,0.2372],[26.3214,40.7501,0.2886],[26.3233,40.7643,15.0131],[26.2943,40.7697,1.2108],[26.2497,40.7869,0.5432],[26.239,40.7894,0.2582],[26.1774,40.7904,0.2476],[26.1403,40.7885,1.1275],[26.1355,40.7816,0.4546],[26.1318,40.7678,0.36],[26.1328,40.7619,0.3618],[26.1251,40.7545,0.3473],[26.1004,40.7433,0.2967],[26.0641,40.7375,0.2199],[26.0443,40.7429,0.2633],[26.0412,40.7455,0.2142],[26.0383,40.7366,0.1241],[26.0401,40.733,0.1336]]],
[[[26.031,40.7524,0.0],[26.0301,40.7538,0.0],[26.0307,40.7499,0.0],[26.0318,40.7496,0.0568],[26.0318,40.7507,0.0],[26.031,40.7524,0.0]]],
[[[26.0115,40.7893,0.0],[26.0104,40.7885,0.0828],[26.0193,40.7782,0.0777],[26.0218,40.7774,0.102],[26.0229,40.7735,0.0],[26.0274,40.769,0.0116],[26.0268,40.7724,0.0355],[26.0232,40.7749,0.0],[26.0218,40.7793,0.0],[26.0187,40.7804,0.0788],[26.0115,40.7893,0.0]]]]}}