{"type": "Feature","bbox": [28.6614,38.9075,29.2039,39.5198],"geometry": {"type": "MultiPolygon","coordinates": [[[[28.6614,39.2337,1071.7856],[28.6622,39.1638,521.9212],[28.6795,39.1362,761.6932],[28.6881,39.1269,958.2302],[28.7079,39.114,1305.1633],[28.7382,39.1028,1233.8813],[28.7655,39.0977,1296.811],[28.7866,39.0905,1593.7133],[28.8418,39.0885,1329.6633],[28.8559,39.0865,1294.4927],[28.8861,39.0752,1530.9014],[28.9033,39.0649,1604.3799],[28.9256,39.0459,1232.9856],[28.937,39.0291,1363.2095],[28.9573,39.0087,1285.9646],[28.9746,38.9831,1180.1105],[28.9897,38.9569,1034.7059],[28.995,38.9266,973.4956],[29.0074,38.9075,929.1766],[29.0188,38.9265,942.8781],[29.0267,38.9502,980.4622],[29.0584,38.9784,1210.058],[29.0752,39.0012,989.0715],[29.0955,39.0151,1175.9845],[29.1122,39.0187,1213.8184],[29.1285,39.0286,1006.1028],[29.1469,39.0358,956.226],[29.1491,39.0459,990.0684],[29.161,39.0667,1147.8167],[29.1769,39.0898,1476.6638],[29.1923,39.1035,1288.7769],[29.2039,39.1116,1112.5281],[29.1838,39.1263,1356.9294],[29.1712,39.1325,1354.8755],[29.1563,39.1349,1431.9036],[29.106,39.1361,1279.655],[29.0925,39.1395,1109.9291],[29.0652,39.15,1302.2747],[29.046,39.1637,1192.8159],[29.0398,39.1708,1365.8861],[29.0254,39.1943,1372.4368],[29.0224,39.2087,1216.2828],[29.0231,39.3205,1098.7516],[29.0249,39.3293,1074.4296],[29.0341,39.346,1237.8243],[29.0425,39.3693,1220.5095],[29.0798,39.4272,1077.9996],[29.0821,39.4353,998.6326],[29.0831,39.4495,1102.6874],[29.0542,39.4517,1025.1494],[29.0244,39.4632,839.7344],[29.0146,39.4699,898.5383],[29.0034,39.4853,993.1623],[28.9968,39.4908,974.2998],[28.9764,39.5,775.5078],[28.9531,39.5142,713.2083],[28.9406,39.5198,638.8903],[28.9241,39.4999,518.0294],[28.92,39.4925,607.0374],[28.9181,39.4814,665.0995],[28.9164,39.4443,925.6757],[28.9054,39.4226,1002.7366],[28.9015,39.3977,1029.1305],[28.8985,39.39,1106.3436],[28.8833,39.3666,1337.1611],[28.8495,39.3368,1283.8896],[28.8358,39.3178,1258.6838],[28.8073,39.2939,1416.5367],[28.7844,39.2785,1537.0482],[28.7209,39.2544,1312.4506],[28.6906,39.2482,1118.7039],[28.6614,39.2337,1071.7856]]]]}
,"properties": {"GID_2": "TUR.54.12_1","GID_0": "TUR","country": "Turkey","GID_1": "TUR.54_1","province": "Kütahya","NL_NAME_1": "NA","county": "Simav","VARNAME_2": "NA","NL_NAME_2": "NA","TYPE_2": "District","ENGTYPE_2": "District","CC_2": "NA","HASC_2": "TR.KU.SI","name": "Simav.county","area_km2": 1264.8475,"hist_schema_id": "Elevation0-9000","hist_area_km2": {"475": 0.2454,"500": 0.5728,"525": 1.9843,"550": 4.6421,"575": 7.6149,"600": 13.2191,"625": 17.8871,"650": 17.5029,"675": 16.5789,"700": 16.9712,"725": 19.8252,"750": 24.0602,"775": 67.4618,"800": 87.5305,"825": 53.9191,"850": 49.774,"875": 44.7797,"900": 43.3845,"925": 45.4664,"950": 47.8259,"975": 47.9799,"1000": 49.7648,"1025": 49.1308,"1050": 47.2823,"1075": 47.2683,"1100": 45.3152,"1125": 41.3349,"1150": 37.2747,"1175": 33.2458,"1200": 30.7153,"1225": 26.3899,"1250": 23.5803,"1275": 21.3912,"1300": 20.0121,"1325": 18.3694,"1350": 16.2166,"1375": 16.252,"1400": 12.9184,"1425": 9.7301,"1450": 9.0078,"1475": 8.5153,"1500": 8.1859,"1525": 7.6591,"1550": 6.8706,"1575": 6.476,"1600": 6.1303,"1625": 5.8514,"1650": 5.5222,"1675": 4.4041,"1700": 3.6644,"1725": 2.4808,"1750": 2.2667,"1775": 2.0032,"1800": 1.6745,"1825": 1.6745,"1850": 1.0014,"1875": 0.9849,"1900": 0.9521,"1925": 0.8536,"1950": 0.6895,"1975": 0.6402,"2000": 0.9521,"2025": 0.7387,"2050": 0.1806,"2075": 0.0492}}}