{"type":"Feature","properties":{"GID_2":"TUR.42.10_1","GID_0":"TUR","country":"Turkey","GID_1":"TUR.42_1","province":"K.Maras","NL_NAME_1":"NA","county":"Türkoğlu","VARNAME_2":"NA","NL_NAME_2":"NA","TYPE_2":"District","ENGTYPE_2":"District","CC_2":"NA","HASC_2":"TR.KM.TU","name":"Türkoğlu.county"},
"geometry":{"type": "MultiPolygon","coordinates": [[[[36.9324,37.3364,554.9692],[36.949,37.34,527.9346],[36.9626,37.348,505.907],[36.9739,37.3581,507.7423],[36.985,37.3744,510.27],[36.9312,37.3867,490.3],[36.9199,37.3958,484.7623],[36.8961,37.4326,473.0135],[36.8862,37.4393,473.7092],[36.8711,37.4455,577.5129],[36.8448,37.461,761.3663],[36.8345,37.4639,709.1937],[36.82,37.465,687.89],[36.802,37.4633,557.1021],[36.751,37.444,837.9608],[36.7369,37.442,701.3979],[36.7085,37.4412,949.52],[36.6991,37.4392,1120.5457],[36.6941,37.4362,1293.9437],[36.6843,37.424,1049.7716],[36.6732,37.4051,1404.5256],[36.6582,37.3864,1664.882],[36.6237,37.3717,1837.8419],[36.6425,37.3496,1451.47],[36.651,37.33,1340.8696],[36.6693,37.3189,1326.4548],[36.7093,37.2886,1134.1483],[36.7286,37.2761,1266.6967],[36.7537,37.282,846.9302],[36.7806,37.2979,566.5253],[36.8016,37.3066,476.6714],[36.8379,37.3315,474.6528],[36.8644,37.3433,479.5524],[36.8964,37.3658,483.3694],[36.9056,37.3667,485.295],[36.9185,37.3601,490.8961],[36.9283,37.3497,542.5898],[36.9324,37.3364,554.9692]]]]}}