{"type": "Feature","bbox": [31.8865,40.5064,32.1352,40.7753],"geometry": {"type": "MultiPolygon","coordinates": [[[[32.0525,40.7753,1009.1794],[32.0284,40.7648,1076.1924],[31.9945,40.7528,1183.0642],[31.9792,40.7512,1245.9921],[31.9203,40.7502,1160.0996],[31.9327,40.7337,1371.9598],[31.9731,40.7019,1396.786],[31.9778,40.6929,1364.5439],[31.975,40.6864,1371.8679],[31.958,40.6686,1318.387],[31.9495,40.6452,1317.4862],[31.9122,40.5872,1925.5098],[31.9056,40.5661,2113.9238],[31.8865,40.5428,1964.2462],[31.9216,40.5219,2035.8497],[31.9585,40.5081,1826.3218],[31.9737,40.5065,1747.2323],[32.005,40.5064,1576.0276],[32.0276,40.5092,1748.2435],[32.0487,40.5165,1629.7871],[32.0664,40.5197,1613.7596],[32.0853,40.5428,1637.7009],[32.0905,40.5696,1388.0029],[32.0943,40.5779,1416.2489],[32.1059,40.5889,1475.8018],[32.1271,40.6013,1424.7434],[32.1311,40.6052,1451.071],[32.1335,40.6102,1429.1034],[32.1352,40.6217,1343.332],[32.1338,40.6397,1342.3127],[32.1318,40.6455,1328.7864],[32.1172,40.6648,1394.11],[32.0838,40.681399999999996,1214.209],[32.0773,40.6867,1222.5377],[32.0741,40.6976,1207.9365],[32.0743,40.735,1160.6322],[32.0723,40.7472,1177.4282],[32.0683,40.7549,1181.0753],[32.0525,40.7753,1009.1794]]]]}
,"properties": {"GID_2": "TUR.19.1_1","GID_0": "TUR","country": "Turkey","GID_1": "TUR.19_1","province": "Bolu","NL_NAME_1": "NA","county": "Dörtdivan","VARNAME_2": "NA","NL_NAME_2": "NA","TYPE_2": "District","ENGTYPE_2": "District","CC_2": "NA","HASC_2": "TR.BL.DO","name": "Dörtdivan.county","area_km2": 376.7952,"hist_schema_id": "Elevation0-9000","hist_area_km2": {"1000": 0.0321,"1025": 0.1285,"1050": 0.562,"1075": 0.8993,"1100": 0.9956,"1125": 0.8993,"1150": 6.9398,"1175": 32.2057,"1200": 17.1336,"1225": 14.5813,"1250": 12.9751,"1275": 12.7191,"1300": 12.2057,"1325": 19.7214,"1350": 20.8792,"1375": 16.4259,"1400": 14.6267,"1425": 13.8724,"1450": 13.4719,"1475": 12.7171,"1500": 13.4428,"1525": 11.8503,"1550": 11.9329,"1575": 11.6439,"1600": 11.3866,"1625": 10.5819,"1650": 9.7614,"1675": 8.634,"1700": 7.1362,"1725": 6.8945,"1750": 5.7511,"1775": 4.9134,"1800": 5.01,"1825": 4.124,"1850": 3.8824,"1875": 3.947,"1900": 3.2866,"1925": 2.8999,"1950": 2.7065,"1975": 2.61,"2000": 2.304,"2025": 1.9657,"2050": 1.6595,"2075": 1.1278,"2100": 0.8217,"2125": 0.8055,"2150": 0.725,"2175": 0.3705,"2200": 0.2578,"2225": 0.2417,"2250": 0.0967,"2275": 0.0322}}}