{"type": "Feature","bbox": [32.376,39.8092,32.5986,40.1052],"geometry": {"type": "MultiPolygon","coordinates": [[[[32.376,39.8488,823.062],[32.401,39.8345,742.6993],[32.4465,39.8172,831.757],[32.4611,39.8092,919.3007],[32.4836,39.8251,967.7544],[32.4993,39.8468,934.4599],[32.5176,39.861,1058.0605],[32.5346,39.8658,1047.239],[32.5747,39.8668,1212.9058],[32.5947,39.8903,1057.187],[32.597,39.8964,983.4356],[32.5986,39.9126,947.1259],[32.5983,39.9591,800.6227],[32.5909,39.9615,797.1024],[32.5867,39.9649,790.815],[32.5831,39.9754,790.3334],[32.5845,39.9903,822.8915],[32.5944,40.0114,980.2792],[32.5812,40.0198,897.0717],[32.5715,40.0301,805.8013],[32.5648,40.0511,815.8427],[32.5557,40.0675,831.1217],[32.5506,40.0864,840.9557],[32.5405,40.1052,872.4559],[32.5102,40.0906,892.2525],[32.4612,40.0723,1006.9918],[32.4443,40.0609,1322.833],[32.4339,40.0492,1402.4346],[32.4197,40.0256,1243.6191],[32.4179,40.0144,1224.8682],[32.4191,40.0004,1096.5193],[32.4305,39.9788,970.1084],[32.4364,39.9603,1021.2268],[32.4607,39.9236,838.0413],[32.463,39.9155,828.843],[32.4627,39.9073,777.6816],[32.457,39.8976,766.2253],[32.4463,39.8914,773.9897],[32.4114,39.8884,779.0374],[32.3963,39.8826,793.5731],[32.3884,39.8744,773.422],[32.3779,39.8563,760.1063],[32.376,39.8488,823.062]]]]}
,"properties": {"GID_2": "TUR.7.22_1","GID_0": "TUR","country": "Turkey","GID_1": "TUR.7_1","province": "Ankara","NL_NAME_1": "NA","county": "Sincan","VARNAME_2": "NA","NL_NAME_2": "NA","TYPE_2": "District","ENGTYPE_2": "District","CC_2": "NA","HASC_2": "TR.AN.SI","name": "Sincan.county","area_km2": 357.1547,"hist_schema_id": "Elevation0-9000","hist_area_km2": {"750": 23.6802,"775": 28.3036,"800": 44.0065,"825": 44.5815,"850": 42.8053,"875": 35.0309,"900": 28.5545,"925": 25.1131,"950": 20.5129,"975": 17.7019,"1000": 12.6795,"1025": 8.9898,"1050": 5.4121,"1075": 4.4855,"1100": 3.2661,"1125": 2.0466,"1150": 1.9489,"1175": 1.5102,"1200": 1.4451,"1225": 1.3313,"1250": 1.1038,"1275": 0.6493,"1300": 0.6655,"1325": 0.6006,"1350": 0.3571,"1375": 0.2435,"1400": 0.1136,"1425": 0.0162}}}