{"type":"Feature","properties":{"GID_2":"TUR.12.7_1","GID_0":"TUR","country":"Turkey","GID_1":"TUR.12_1","province":"Balikesir","NL_NAME_1":"NA","county":"Edremit","VARNAME_2":"NA","NL_NAME_2":"NA","TYPE_2":"District","ENGTYPE_2":"District","CC_2":"NA","HASC_2":"TR.BK.ED","name":"Edremit.county"},
"geometry":{"type": "MultiPolygon","coordinates": [[[[27.0347,39.5594,18.4268],[27.0513,39.5751,29.3014],[27.0863,39.6022,150.7173],[27.0966,39.6128,218.0476],[27.106,39.6385,367.0393],[27.1342,39.6828,597.9945],[27.1426,39.6918,763.8107],[27.17,39.7149,544.7454],[27.1892,39.7427,461.7987],[27.2037,39.7662,542.8823],[27.2107,39.7901,245.2053],[27.1637,39.8085,263.8391],[27.1391,39.8121,284.2085],[27.0996,39.8113,370.6236],[27.0849,39.8084,357.8935],[27.0664,39.8023,458.5986],[27.0317,39.7984,700.1635],[26.9803,39.7822,1069.4636],[26.9534,39.7687,1297.9122],[26.9044,39.7502,1091.8441],[26.8899,39.741,1346.8591],[26.8576,39.7158,1530.1682],[26.8453,39.7101,1634.7375],[26.8317,39.7099,1580.8734],[26.8077,39.7175,914.5476],[26.7887,39.7191,853.6138],[26.7496,39.7193,833.4994],[26.724,39.7158,639.6777],[26.698,39.705,501.6758],[26.6889,39.6979,714.2617],[26.6692,39.6598,855.7893],[26.6666,39.6507,820.4421],[26.6655,39.5816,182.5685],[26.6629,39.5585,4.6198],[26.679,39.5579,0.9123],[26.691,39.5551,0.0],[26.6979,39.5568,0.0],[26.7021,39.5607,3.2312],[26.719,39.5624,0.0],[26.7201,39.5643,1.8154],[26.7274,39.5674,2.6307],[26.7404,39.5671,7.1479],[26.7421,39.5654,0.0],[26.7476,39.566,4.8116],[26.7585,39.5635,0.0],[26.7712,39.571,3.0127],[26.7746,39.5713,3.0371],[26.7829,39.569,2.0411],[26.799,39.5687,0.0],[26.804,39.566,0.6069],[26.8185,39.5679,0.9558],[26.8282,39.5638,2.4432],[26.8354,39.5579,0.0],[26.8385,39.5579,0.0738],[26.8418,39.5624,1.1512],[26.8518,39.5665,0.153],[26.8665,39.5654,0.0],[26.8668,39.5693,1.9099],[26.8735,39.5824,1.8834],[26.8793,39.5851,0.0],[26.8846,39.5843,1.0365],[26.8876,39.5821,1.4391],[26.8924,39.5843,2.971],[26.906,39.5824,1.5025],[26.9226,39.5838,5.3619],[26.9421,39.5704,0.2274],[26.9479,39.5632,0.4347],[26.9499,39.5629,1.3117],[26.9532,39.5529,0.0],[26.9714,39.5551,2.0479],[27.0159,39.5566,10.5534],[27.0347,39.5594,18.4268]]]]}}