{"type": "Feature","bbox": [28.5951,40.9582,28.7012,41.022],"geometry": {"type": "MultiPolygon","coordinates": [[[[28.6965,41.0077,127.284],[28.6676,41.0123,63.7836],[28.6606,41.0174,115.0282],[28.6459,41.022,177.036],[28.6442,41.0167,188.5045],[28.6362,41.0057,161.3578],[28.6212,40.9941,160.785],[28.6165,40.9944,140.4279],[28.5976,41.0052,9.8622],[28.5954,40.9882,0.0],[28.5985,40.981,1.9431],[28.5971,40.979,0.0],[28.5979,40.9771,15.6071],[28.5951,40.9735,0.0],[28.5979,40.9715,8.6328],[28.5987,40.9685,0.3901],[28.6201,40.9604,0.0],[28.6568,40.9632,1.0755],[28.6607,40.9624,0.9716],[28.6626,40.9637,1.2178],[28.6674,40.9629,8.3276],[28.6668,40.9582,1.4671],[28.6682,40.9582,3.6552],[28.6699,40.9635,0.0],[28.6718,40.9637,0.4789],[28.6721,40.9615,0.0],[28.6737,40.9615,0.0],[28.6735,40.9632,0.4789],[28.6751,40.9635,0.8584],[28.6754,40.961,0.0],[28.6768,40.961,0.0],[28.6793,40.9629,0.0],[28.6796,40.9663,1.3386],[28.681,40.9663,2.2107],[28.681,40.9635,0.0],[28.6851,40.9635,0.0],[28.6868,40.9699,3.2697],[28.6993,40.9738,2.0821],[28.7004,40.9765,19.9231],[28.7012,40.9868,67.8534],[28.6979,40.9919,47.1497],[28.688,40.9995,42.4289],[28.6913,41.0047,104.3396],[28.6965,41.0077,127.284]]]]}
,"properties": {"GID_2": "TUR.40.12_1","GID_0": "TUR","country": "Turkey","GID_1": "TUR.40_1","province": "Istanbul","NL_NAME_1": "NA","county": "Beylikduzu","VARNAME_2": "NA","NL_NAME_2": "NA","TYPE_2": "District","ENGTYPE_2": "District","CC_2": "NA","HASC_2": "NA","name": "Beylikduzu.county","area_km2": 40.92446,"hist_schema_id": "Elevation0-9000","hist_area_km2": {"0": 3.82586,"25": 6.19433,"50": 5.57007,"75": 5.82613,"100": 5.76184,"125": 6.46572,"150": 5.29663,"175": 1.9839}}}