{"type":"Feature","properties":{"GID_2":"TUR.70.2_1","GID_0":"TUR","country":"Turkey","GID_1":"TUR.70_1","province":"Sinop","NL_NAME_1":"NA","county":"Boyabat","VARNAME_2":"NA","NL_NAME_2":"NA","TYPE_2":"District","ENGTYPE_2":"District","CC_2":"NA","HASC_2":"TR.SP.BO","name":"Boyabat.county"},
"geometry":{"type": "MultiPolygon","coordinates": [[[[34.6134,41.2615,1326.5664],[34.6185,41.2696,1205.4398],[34.6362,41.2821,1015.8903],[34.6478,41.2973,1038.2755],[34.6547,41.3027,1064.209],[34.6671,41.307,933.7362],[34.6954,41.3093,559.8492],[34.7083,41.3126,636.6323],[34.7296,41.3229,645.2127],[34.7383,41.3324,514.5888],[34.7475,41.3393,548.5133],[34.7769,41.3511,407.2369],[34.8074,41.3572,383.9055],[34.8252,41.3636,388.2233],[34.8524,41.368899999999996,472.2656],[34.8738,41.3761,405.789],[34.8974,41.3778,353.0661],[34.9299,41.3761,367.4479],[34.9295,41.4781,546.1122],[34.9329,41.493,454.4568],[34.9423,41.5096,382.3789],[34.9443,41.5248,512.6438],[34.9411,41.5398,741.1143],[34.9214,41.5704,788.3043],[34.9206,41.5748,869.5664],[34.9225,41.5793,996.0584],[34.9288,41.5844,1191.5083],[34.935,41.5865,1218.9938],[34.9806,41.589,907.2479],[35.0087,41.596,1082.2625],[35.0187,41.5956,1147.1102],[35.0434,41.5886,1245.752],[35.0797,41.5871,1185.0914],[35.0947,41.5988,1146.6034],[35.0847,41.6093,1016.9568],[35.0773,41.6213,1167.134],[35.0663,41.6327,1200.498],[35.0551,41.6403,1084.8293],[35.0414,41.6447,874.2067],[34.9719,41.6452,1233.3641],[34.9494,41.6469,1079.2958],[34.9156,41.6591,1086.1434],[34.8867,41.6737,1178.7148],[34.8733,41.6708,1115.4825],[34.8627,41.6706,1263.4347],[34.853,41.6728,1147.2554],[34.8406,41.6792,996.326],[34.7611,41.6798,1443.5083],[34.7476,41.6769,1391.3425],[34.7128,41.6638,1356.2379],[34.7014,41.6623,1296.15],[34.675,41.6704,1248.2256],[34.6537,41.6812,1433.0498],[34.6479,41.6862,1372.3623],[34.6437,41.6965,1245.7139],[34.6382,41.7017,1150.0872],[34.6266,41.7032,1359.2743],[34.6183,41.7002,1291.3456],[34.614,41.6941,1176.9819],[34.6099,41.6822,1335.0092],[34.5993,41.669,1066.308],[34.5989,41.6459,556.3934],[34.5962,41.6349,434.9203],[34.5804,41.6092,650.1165],[34.5671,41.5925,1006.9346],[34.5466,41.5805,1034.3484],[34.5109,41.5561,1241.8639],[34.4806,41.5444,1282.9045],[34.4651,41.5409,1199.6431],[34.4638,41.5121,1184.0248],[34.4646,41.4351,1189.27],[34.4687,41.4229,1122.1978],[34.4761,41.4087,1070.5183],[34.4786,41.3923,1010.5878],[34.4783,41.3306,1179.8458],[34.4756,41.3039,1396.4865],[34.4824,41.2956,1410.7362],[34.4919,41.2884,1489.2537],[34.5215,41.2765,1227.4989],[34.5635,41.2711,1402.5682],[34.5916,41.2629,1264.4589],[34.6134,41.2615,1326.5664]]]]}}