{"type": "Feature","bbox": [30.8052,36.8279,31.2257,37.3743],"geometry": {"type": "MultiPolygon","coordinates": [[[[31.1797,36.8294,1.3979],[31.1796,36.8296,1.3979],[31.1796,36.8293,1.3979],[31.1797,36.8293,1.3979],[31.1797,36.8294,1.3979]]],
[[[31.062,37.3512,1627.624],[31.0608,37.3641,1317.3248],[31.0471,37.3615,1419.702],[31.0032,37.3441,1259.8693],[30.9933,37.3426,1629.6799],[30.9864,37.3435,1818.5853],[30.9774,37.3476,1668.5486],[30.9486,37.368899999999996,1087.2405],[30.936,37.3738,1251.3926],[30.9291,37.3743,1007.0106],[30.9033,37.3691,394.9763],[30.8766,37.3594,301.4513],[30.8685,37.3513,338.5465],[30.8617,37.3305,472.3167],[30.8526,37.3141,763.8275],[30.8471,37.2955,926.4343],[30.8387,37.2817,657.7917],[30.8318,37.2607,290.7152],[30.8177,37.2373,310.2317],[30.8052,37.2246,84.9117],[30.806,37.1987,57.2179],[30.8094,37.1882,73.1454],[30.8162,37.1768,50.1634],[30.8232,37.1558,44.3058],[30.8291,37.1482,44.0283],[30.8538,37.1288,76.1899],[30.8851,37.1146,30.1244],[30.8989,37.1049,32.1456],[30.9077,37.0957,68.4706],[30.9232,37.0694,23.1055],[30.9252,37.0545,19.9102],[30.9252,37.0079,15.3097],[30.9229,36.9837,12.2826],[30.9067,36.9577,10.2026],[30.8841,36.9353,9.7947],[30.8813,36.9301,8.9637],[30.8798,36.9218,7.2418],[30.8823,36.9109,7.0173],[30.8883,36.9036,6.0676],[30.9214,36.8816,3.5701],[30.9244,36.869,1.4615],[30.9224,36.8537,0.4381],[30.9668,36.8576,2.067],[31.0065,36.8582,1.0655],[31.0171,36.8554,0.0],[31.0374,36.8543,3.1843],[31.0626,36.849,1.922],[31.0718,36.846,4.3057],[31.0779,36.8413,0.2815],[31.1004,36.8401,0.922],[31.1751,36.8279,0.0],[31.1796,36.8296,1.3979],[31.1788,36.8398,0.6096],[31.1771,36.848,5.5583],[31.1682,36.8645,5.2591],[31.1653,36.8762,5.4624],[31.1644,36.9104,12.7199],[31.1655,36.9352,14.648],[31.1693,36.9464,18.3086],[31.1829,36.9673,33.9974],[31.2073,36.9923,44.8522],[31.2233,37.0186,84.1385],[31.2257,37.0404,36.9462],[31.2245,37.1011,141.1901],[31.2214,37.1094,176.4431],[31.2089,37.1265,134.3797],[31.2018,37.1313,129.666],[31.1825,37.1397,208.9405],[31.1639,37.1427,498.9625],[31.0993,37.1431,1353.0037],[31.0861,37.1476,1454.1813],[31.0777,37.1557,1867.3635],[31.0749,37.1645,1230.8882],[31.075,37.1766,1404.2701],[31.0783,37.1884,1255.1619],[31.089,37.2081,845.5355],[31.0909,37.2238,1484.7998],[31.0906,37.243,1173.3336],[31.0883,37.2553,1389.6317],[31.0774,37.2775,1655.4075],[31.074,37.322,2147.6582],[31.0634,37.345,1529.8552],[31.062,37.3512,1627.624]]]]}
,"properties": {"GID_2": "TUR.8.15_1","GID_0": "TUR","country": "Turkey","GID_1": "TUR.8_1","province": "Antalya","NL_NAME_1": "NA","county": "Serik","VARNAME_2": "NA","NL_NAME_2": "NA","TYPE_2": "District","ENGTYPE_2": "District","CC_2": "NA","HASC_2": "TR.AL.SE","name": "Serik.county","area_km2": 1373.697,"hist_schema_id": "Elevation0-9000","hist_area_km2": {"0": 201.832,"25": 161.009,"50": 110.531,"75": 70.837,"100": 46.767,"125": 43.968,"150": 34.901,"175": 33.984,"200": 30.937,"225": 29.412,"250": 25.0,"275": 23.83,"300": 23.15,"325": 22.015,"350": 19.545,"375": 19.121,"400": 17.363,"425": 18.511,"450": 19.321,"475": 17.159,"500": 17.277,"525": 16.484,"550": 16.113,"575": 15.774,"600": 16.738,"625": 15.942,"650": 15.148,"675": 14.17,"700": 12.919,"725": 13.477,"750": 12.512,"775": 11.735,"800": 10.486,"825": 10.231,"850": 9.979,"875": 9.152,"900": 9.219,"925": 8.778,"950": 7.816,"975": 7.512,"1000": 6.634,"1025": 6.837,"1050": 6.77,"1075": 6.229,"1100": 5.368,"1125": 5.233,"1150": 5.638,"1175": 4.946,"1200": 4.996,"1225": 5.283,"1250": 5.097,"1275": 4.844,"1300": 4.034,"1325": 4.675,"1350": 3.796,"1375": 4.675,"1400": 4.202,"1425": 4.708,"1450": 3.459,"1475": 3.341,"1500": 3.053,"1525": 3.087,"1550": 2.952,"1575": 2.834,"1600": 2.901,"1625": 2.142,"1650": 2.462,"1675": 2.513,"1700": 3.086,"1725": 2.327,"1750": 2.26,"1775": 2.057,"1800": 1.855,"1825": 1.433,"1850": 1.501,"1875": 1.164,"1900": 1.13,"1925": 0.81,"1950": 0.961,"1975": 0.843,"2000": 0.742,"2025": 1.197,"2050": 0.675,"2075": 0.928,"2100": 0.978,"2125": 0.675,"2150": 0.928,"2175": 0.607,"2200": 0.658,"2225": 0.523,"2250": 0.439,"2275": 0.506,"2300": 0.422,"2325": 0.422,"2350": 0.253,"2375": 0.32,"2400": 0.337,"2425": 0.253,"2450": 0.051}}}