{"type": "Feature","bbox": [28.1201,38.0186,28.3639,38.1473],"geometry": {"type": "MultiPolygon","coordinates": [[[[28.202,38.0219,1595.4116],[28.2286,38.0186,1483.343],[28.257,38.0201,1115.0886],[28.3153,38.0386,906.6663],[28.3639,38.0479,522.4122],[28.3565,38.0645,517.2978],[28.3377,38.0909,924.7061],[28.3304,38.096,1016.7207],[28.3067,38.1069,871.7147],[28.2936,38.1169,530.3397],[28.2803,38.1313,475.306],[28.2621,38.1406,424.4844],[28.2495,38.1449,287.4015],[28.2379,38.1462,219.8879],[28.1521,38.1473,164.6255],[28.1469,38.115,217.7684],[28.1208,38.0731,937.3569],[28.1201,38.0593,803.6411],[28.1218,38.0539,1018.8234],[28.1423,38.0292,1352.76],[28.1812,38.029,1395.635],[28.1921,38.0267,1529.6453],[28.202,38.0219,1595.4116]]]]}
,"properties": {"GID_2": "TUR.41.5_1","GID_0": "TUR","country": "Turkey","GID_1": "TUR.41_1","province": "Izmir","NL_NAME_1": "NA","county": "Beydağ","VARNAME_2": "NA","NL_NAME_2": "NA","TYPE_2": "District","ENGTYPE_2": "District","CC_2": "NA","HASC_2": "TR.IZ.BG","name": "Beydağ.county","area_km2": 217.1609,"hist_schema_id": "Elevation0-9000","hist_area_km2": {"125": 0.0167,"150": 5.8715,"175": 6.4895,"200": 12.1271,"225": 8.4909,"250": 7.6239,"275": 6.423,"300": 6.8236,"325": 6.0897,"350": 5.6227,"375": 6.0733,"400": 5.5395,"425": 5.0055,"450": 5.0558,"475": 4.4385,"500": 4.6055,"525": 4.4222,"550": 3.9383,"575": 3.3043,"600": 3.2045,"625": 3.0877,"650": 3.2047,"675": 3.1046,"700": 3.0211,"725": 3.2382,"750": 3.3382,"775": 3.4885,"800": 3.7722,"825": 3.789,"850": 3.5553,"875": 3.5219,"900": 3.5387,"925": 3.2384,"950": 2.8879,"975": 2.7878,"1000": 2.5374,"1025": 2.6376,"1050": 2.454,"1075": 2.4208,"1100": 3.7731,"1125": 5.4094,"1150": 3.5563,"1175": 2.4211,"1200": 2.2375,"1225": 2.0873,"1250": 2.0873,"1275": 2.0707,"1300": 2.0373,"1325": 1.9872,"1350": 2.2544,"1375": 2.2878,"1400": 2.1041,"1425": 2.2878,"1450": 2.1209,"1475": 1.6366,"1500": 1.3527,"1525": 1.2525,"1550": 1.2859,"1575": 0.8184,"1600": 0.5177,"1625": 0.3674,"1650": 0.334,"1675": 0.0835}}}