{"type": "Feature","bbox": [31.7176,41.0184,32.1805,41.2983],"geometry": {"type": "MultiPolygon","coordinates": [[[[32.092,41.0184,915.55],[32.0898,41.0431,1005.5311],[32.0909,41.0675,1008.7827],[32.0934,41.0761,969.8949],[32.1025,41.0925,814.1094],[32.1066,41.1173,872.5591],[32.1096,41.1251,773.0078],[32.1227,41.1462,1065.7308],[32.1341,41.1575,1048.5225],[32.1483,41.1667,946.7133],[32.1669,41.174,1102.1476],[32.1805,41.1818,783.7463],[32.1468,41.1988,574.0176],[32.1404,41.2044,831.7405],[32.131,41.2176,607.8168],[32.1216,41.2245,584.554],[32.0888,41.2319,998.6511],[32.0564,41.2449,361.675],[32.047,41.2555,235.4024],[32.0402,41.2768,134.6348],[32.0168,41.2779,356.2485],[31.9693,41.2959,310.0807],[31.9539,41.2983,265.0042],[31.8971,41.2982,597.3154],[31.8819,41.2956,773.0937],[31.8715,41.2913,664.4166],[31.8629,41.2762,519.3925],[31.8503,41.2636,505.3828],[31.8494,41.2494,553.9481],[31.8472,41.2412,664.338],[31.8287,41.213,749.7972],[31.8109,41.1977,974.1486],[31.7858,41.1793,988.4105],[31.7737,41.1728,915.4188],[31.7579,41.167,1090.4407],[31.7435,41.1578,928.2522],[31.732,41.1465,987.5889],[31.7192,41.1258,896.8989],[31.7176,41.1208,924.0277],[31.7194,41.1106,1087.1024],[31.7279,41.0943,742.6655],[31.731,41.0573,930.073],[31.7363,41.0427,1318.2341],[31.7766,41.0416,718.8158],[31.8138,41.0321,696.7127],[31.8707,41.0293,235.3134],[31.8962,41.0218,339.5529],[31.9122,41.0195,374.2953],[32.092,41.0184,915.55]]]]}
,"properties": {"GID_2": "TUR.81.3_1","GID_0": "TUR","country": "Turkey","GID_1": "TUR.81_1","province": "Zinguldak","NL_NAME_1": "NA","county": "Devrek","VARNAME_2": "NA","NL_NAME_2": "NA","TYPE_2": "District","ENGTYPE_2": "District","CC_2": "NA","HASC_2": "TR.ZO.DE","name": "Devrek.county","area_km2": 804.8597,"hist_schema_id": "Elevation0-9000","hist_area_km2": {"50": 0.8447,"75": 5.6434,"100": 7.1757,"125": 8.5017,"150": 8.6143,"175": 10.4027,"200": 11.3765,"225": 15.1474,"250": 15.433,"275": 16.1666,"300": 17.9064,"325": 18.5767,"350": 18.8168,"375": 20.2849,"400": 20.5571,"425": 23.5908,"450": 23.2576,"475": 26.4827,"500": 27.2962,"525": 30.3322,"550": 30.9563,"575": 32.4906,"600": 31.822,"625": 32.3178,"650": 31.6334,"675": 29.8602,"700": 28.6484,"725": 26.9733,"750": 25.5383,"775": 24.5175,"800": 22.7131,"825": 22.0266,"850": 19.9502,"875": 17.5066,"900": 17.1235,"925": 15.7342,"950": 13.7215,"975": 12.4596,"1000": 10.9591,"1025": 9.2509,"1050": 6.7109,"1075": 5.2094,"1100": 3.2927,"1125": 2.1584,"1150": 1.4393,"1175": 1.0876,"1200": 0.8477,"1225": 0.4958,"1250": 0.4318,"1275": 0.2079,"1300": 0.0959,"1325": 0.0799,"1350": 0.0959,"1375": 0.0799,"1400": 0.016}}}