{"type": "Feature","bbox": [32.8627,39.1788,33.3563,39.8139],"geometry": {"type": "MultiPolygon","coordinates": [[[[33.1079,39.8139,1451.4233],[33.0801,39.7994,1318.8871],[33.0467,39.7922,1241.549],[32.9662,39.7624,1348.2668],[32.961,39.7537,1266.4073],[32.9478,39.7389,1280.6151],[32.9368,39.7225,1222.4307],[32.9021,39.6925,1284.2009],[32.8854,39.6652,1321.3213],[32.8871,39.6544,1381.9932],[32.9234,39.5992,1060.4795],[32.9272,39.5879,1022.6741],[32.9274,39.4281,1153.707],[32.9243,39.4126,1160.9374],[32.9166,39.3986,1201.0359],[32.9117,39.3831,1156.5613],[32.9072,39.3754,1109.6477],[32.9021,39.3708,1078.2454],[32.8927,39.366,1056.4207],[32.8627,39.3591,1056.4868],[32.8663,39.3418,1054.282],[32.8672,39.31,1051.6108],[32.8689,39.2988,1051.5911],[32.8884,39.2682,1051.551],[32.9507,39.2185,1174.7214],[32.9644,39.2089,1121.7255],[32.9885,39.1983,1099.1393],[33.0155,39.1826,1082.7517],[33.032,39.1788,1107.3149],[33.035,39.1895,1053.8645],[33.0475,39.2105,998.6098],[33.0578,39.2206,992.8895],[33.067,39.2241,977.9088],[33.0775,39.2249,994.7625],[33.0877,39.2238,997.9824],[33.104,39.219,1050.8027],[33.1152,39.2209,1048.4919],[33.1299,39.2304,1000.778],[33.1878,39.2768,994.9573],[33.247,39.2997,932.6828],[33.2649,39.3121,895.1471],[33.2867,39.3304,857.2029],[33.2401,39.3663,817.9303],[33.2349,39.3722,817.8574],[33.2335,39.379,835.5134],[33.2451,39.399,832.463],[33.268,39.4218,807.561],[33.2764,39.4452,811.9185],[33.2855,39.4619,807.6697],[33.2898,39.4978,900.8405],[33.3005,39.5202,863.9611],[33.3057,39.5471,945.4291],[33.3158,39.5664,894.0237],[33.3176,39.5746,920.8465],[33.3204,39.595,944.2676],[33.3181,39.6229,1022.3525],[33.3199,39.6488,1048.7355],[33.3315,39.6744,1103.6421],[33.336,39.7102,1249.5229],[33.3563,39.7511,1139.9335],[33.3361,39.7577,1303.5782],[33.3249,39.7589,1159.8579],[33.3163,39.7573,1160.2413],[33.2693,39.7387,1195.1948],[33.2493,39.7371,1022.6727],[33.2295,39.7394,981.5767],[33.1908,39.7556,924.1794],[33.1334,39.7994,1210.3844],[33.1079,39.8139,1451.4233]]]]}
,"properties": {"GID_2": "TUR.7.4_1","GID_0": "TUR","country": "Turkey","GID_1": "TUR.7_1","province": "Ankara","NL_NAME_1": "NA","county": "Bala","VARNAME_2": "NA","NL_NAME_2": "NA","TYPE_2": "District","ENGTYPE_2": "District","CC_2": "NA","HASC_2": "TR.AN.BA","name": "Bala.county","area_km2": 1956.378,"hist_schema_id": "Elevation0-9000","hist_area_km2": {"800": 1.85,"825": 25.332,"850": 45.721,"875": 63.909,"900": 69.455,"925": 94.716,"950": 110.749,"975": 120.59,"1000": 132.159,"1025": 141.56,"1050": 176.282,"1075": 130.646,"1100": 115.419,"1125": 105.863,"1150": 100.252,"1175": 94.228,"1200": 86.159,"1225": 71.811,"1250": 59.623,"1275": 50.656,"1300": 40.624,"1325": 28.629,"1350": 21.701,"1375": 19.548,"1400": 14.668,"1425": 12.986,"1450": 9.478,"1475": 7.08,"1500": 3.133,"1525": 1.419,"1550": 0.13}}}