{"type":"Feature","properties":{"GID_2":"TUR.68.6_1","GID_0":"TUR","country":"Turkey","GID_1":"TUR.68_1","province":"Sanliurfa","NL_NAME_1":"NA","county":"Harran","VARNAME_2":"NA","NL_NAME_2":"NA","TYPE_2":"District","ENGTYPE_2":"District","CC_2":"NA","HASC_2":"TR.SU.HR","name":"Harran.county"},
"geometry":{"type": "MultiPolygon","coordinates": [[[[39.5324,36.706,415.8881],[39.5289,36.7059,414.7387],[39.5282,36.7201,415.7457],[39.5261,36.7283,413.9675],[39.5117,36.7515,413.1126],[39.5031,36.7592,426.539],[39.4407,36.7838,442.551],[39.4073,36.7913,444.5498],[39.3714,36.8153,477.7487],[39.3438,36.8273,478.4214],[39.3276,36.8392,494.6228],[39.3205,36.8492,488.5214],[39.3185,36.8604,499.1269],[39.3196,36.8776,504.1494],[39.3254,36.8935,514.6067],[39.1923,36.8921,519.5049],[39.1631,36.8934,413.0003],[39.1515,36.8961,396.6971],[39.0808,36.9239,371.4614],[39.0622,36.9272,371.6862],[38.9345,36.9274,377.3478],[38.9185,36.9261,382.1034],[38.8989,36.9216,387.7585],[38.898,36.815,376.1138],[38.9001,36.8032,383.2526],[38.9049,36.7953,381.6124],[38.9173,36.7845,379.3764],[38.9293,36.7779,372.6682],[38.9598,36.7669,356.3599],[38.9871,36.762,352.694],[39.0267,36.7458,349.4773],[39.0733,36.7117,356.5318],[39.0751,36.7051,358.8338],[39.0739,36.6982,360.558],[39.0855,36.6971,362.3145],[39.1503,36.6834,397.9871],[39.2155,36.666,376.1811],[39.2273,36.665,382.2741],[39.2759,36.6737,381.7105],[39.3448,36.6896,402.7695],[39.398,36.6944,404.6183],[39.4392,36.6953,410.2491],[39.4526,36.6997,410.8567],[39.4671,36.6979,412.8849],[39.5324,36.706,415.8881]]]]}}