{"type": "Feature","bbox": [37.7154,38.4651,38.1975,39.0703],"geometry": {"type": "MultiPolygon","coordinates": [[[[37.9892,38.4992,1276.2129],[37.9862,38.5174,949.0163],[37.9858,38.5434,1404.4004],[37.9879,38.5545,1314.9171],[37.9928,38.5622,1458.1267],[38.0084,38.5746,1466.3911],[38.0298,38.5836,1440.0679],[38.0398,38.59,1421.7817],[38.0452,38.5965,1186.2219],[38.0659,38.6295,1504.8408],[38.0834,38.6445,1305.7412],[38.0925,38.6494,1098.2483],[38.1229,38.6603,1139.7814],[38.1459,38.6617,845.2103],[38.1551,38.6849,958.4818],[38.179,38.7102,991.3414],[38.1928,38.731,958.7369],[38.1966,38.7422,975.6569],[38.1975,38.7574,978.8565],[38.1957,38.7724,1139.7896],[38.1856,38.7918,1262.4946],[38.1831,38.8003,1250.5142],[38.1805,38.8423,1394.1281],[38.1699,38.8644,1586.6188],[38.1638,38.8945,1957.0043],[38.1395,38.9343,1976.3905],[38.135,38.9732,1655.377],[38.1261,38.9899,1765.9539],[38.1206,39.0085,1782.9336],[38.1064,39.0318,1878.7937],[38.1009,39.0383,2022.1588],[38.0937,39.0433,2113.9321],[38.0711,39.054,2342.9663],[38.0541,39.0703,2336.0332],[38.0113,39.069,2232.7969],[37.986,39.0614,2005.7517],[37.9742,39.0595,2322.9512],[37.9395,39.0591,2496.2427],[37.9286,39.056399999999996,2380.6438],[37.7909,39.003,1346.3818],[37.7657,39.0004,1340.8613],[37.7249,39.0021,1403.1508],[37.7434,38.9762,1716.0701],[37.7521,38.9527,1754.5129],[37.7723,38.9323,1449.5065],[37.7873,38.9092,1754.6129],[37.7889,38.9043,1616.4929],[37.788,38.8964,1782.5277],[37.7801,38.8832,1685.2942],[37.7771,38.8724,1516.8494],[37.7769,38.8611,1539.5457],[37.7784,38.8528,1627.4194],[37.8324,38.7692,1721.1165],[37.8366,38.7559,1762.4207],[37.8372,38.7473,1788.4686],[37.8356,38.7274,1794.5608],[37.8325,38.7196,1814.6733],[37.8166,38.6964,1798.0918],[37.8076,38.6876,1826.1064],[37.7527,38.6435,1856.8329],[37.7334,38.6157,1944.6472],[37.718,38.5895,1833.9309],[37.7154,38.5659,1592.1406],[37.7172,38.5299,1201.4883],[37.7274,38.5105,982.5009],[37.733,38.492,922.0349],[37.7425,38.4757,969.191],[37.7458,38.4651,1098.7407],[37.7859,38.4668,1215.3986],[37.8374,38.4856,1197.3109],[37.8758,38.4904,1432.989],[37.905,38.4988,1320.2794],[37.9333,38.5001,1361.8949],[37.9892,38.4992,1276.2129]]]]}
,"properties": {"GID_2": "TUR.55.8_1","GID_0": "TUR","country": "Turkey","GID_1": "TUR.55_1","province": "Malatya","NL_NAME_1": "NA","county": "Hekimhan","VARNAME_2": "NA","NL_NAME_2": "NA","TYPE_2": "District","ENGTYPE_2": "District","CC_2": "NA","HASC_2": "TR.ML.HE","name": "Hekimhan.county","area_km2": 1864.129,"hist_schema_id": "Elevation0-9000","hist_area_km2": {"775": 0.017,"800": 0.928,"825": 2.219,"850": 2.75,"875": 4.657,"900": 14.348,"925": 15.913,"950": 16.917,"975": 18.402,"1000": 20.417,"1025": 24.915,"1050": 29.362,"1075": 33.046,"1100": 37.44,"1125": 38.228,"1150": 39.679,"1175": 40.286,"1200": 38.0,"1225": 41.186,"1250": 39.064,"1275": 42.083,"1300": 46.01,"1325": 47.244,"1350": 49.028,"1375": 49.495,"1400": 51.446,"1425": 55.01,"1450": 58.169,"1475": 63.595,"1500": 65.069,"1525": 63.61,"1550": 57.235,"1575": 60.835,"1600": 62.456,"1625": 57.515,"1650": 54.387,"1675": 48.715,"1700": 49.68,"1725": 43.573,"1750": 39.347,"1775": 39.529,"1800": 41.948,"1825": 38.059,"1850": 33.159,"1875": 24.615,"1900": 24.016,"1925": 19.988,"1950": 15.362,"1975": 12.905,"2000": 12.806,"2025": 10.878,"2050": 9.492,"2075": 7.927,"2100": 7.201,"2125": 6.954,"2150": 6.031,"2175": 5.833,"2200": 4.844,"2225": 3.872,"2250": 3.262,"2275": 2.949,"2300": 2.388,"2325": 1.943,"2350": 1.548,"2375": 1.284,"2400": 1.202,"2425": 0.807,"2450": 0.56,"2475": 0.329,"2500": 0.115,"2525": 0.049}}}