{"type": "Feature","bbox": [39.1446,40.9442,39.2382,41.0746],"geometry": {"type": "MultiPolygon","coordinates": [[[[39.1446,41.008,728.6381],[39.1675,41.0012,301.8785],[39.1725,40.9983,473.6134],[39.1763,40.9934,610.9011],[39.1789,40.9755,726.9433],[39.1761,40.9442,480.7385],[39.2254,40.9459,1019.278],[39.2229,40.9657,820.476],[39.2235,40.9885,619.4278],[39.2266,41.0009,427.1328],[39.2364,41.0205,333.7052],[39.2382,41.0515,3.424],[39.2332,41.0546,0.6844],[39.2251,41.0557,4.0171],[39.2224,41.0576,3.9168],[39.2163,41.0651,0.9291],[39.2179,41.0679,0.0],[39.2054,41.0746,0.0],[39.1949,41.0732,13.7806],[39.1787,41.074,0.0],[39.1705,41.0687,198.7897],[39.1606,41.0496,59.5281],[39.1481,41.0369,269.7336],[39.1446,41.008,728.6381]]]]}
,"properties": {"GID_2": "TUR.75.4_1","GID_0": "TUR","country": "Turkey","GID_1": "TUR.75_1","province": "Trabzon","NL_NAME_1": "NA","county": "Beşikdüzü","VARNAME_2": "NA","NL_NAME_2": "NA","TYPE_2": "District","ENGTYPE_2": "District","CC_2": "NA","HASC_2": "TR.TB.BE","name": "Beşikdüzü.county","area_km2": 75.47893,"hist_schema_id": "Elevation0-9000","hist_area_km2": {"0": 1.29495,"25": 2.82979,"50": 1.75883,"75": 1.93483,"100": 2.23882,"125": 2.65465,"150": 2.51077,"175": 3.47035,"200": 4.01413,"225": 4.06208,"250": 4.59024,"275": 3.61485,"300": 3.63157,"325": 3.08796,"350": 3.00789,"375": 2.928,"400": 2.68822,"425": 2.36816,"450": 2.22425,"475": 2.16043,"500": 1.92058,"525": 1.72847,"550": 1.68058,"575": 1.87267,"600": 1.72864,"625": 1.28054,"650": 1.48872,"675": 0.97649,"700": 1.05658,"725": 0.88048,"750": 0.64038,"775": 0.68839,"800": 0.67242,"825": 0.5123,"850": 0.36821,"875": 0.14409,"900": 0.17614,"925": 0.09608,"950": 0.09607,"975": 0.11209,"1000": 0.19215,"1025": 0.04804,"1050": 0.04804}}}