{"type": "Feature","bbox": [27.1818,37.3218,27.4405,37.5214],"geometry": {"type": "MultiPolygon","coordinates": [[[[27.3299,37.331,0.0],[27.3265,37.3312,0.0],[27.3271,37.3285,0.0],[27.3254,37.3254,0.0],[27.3315,37.3218,0.0],[27.3335,37.3232,0.0],[27.3338,37.3301,0.1029],[27.3299,37.331,0.0]]],
[[[27.4118,37.4129,0.1009],[27.4085,37.4118,0.8961],[27.4079,37.409,0.0],[27.4107,37.409,0.9469],[27.4118,37.4129,0.1009]]],
[[[27.4402,37.4689,122.0647],[27.4405,37.4767,17.4644],[27.3987,37.5026,1.0],[27.3685,37.5096,0.8931],[27.3469,37.5166,2.4397],[27.3271,37.5183,1.8836],[27.2322,37.5188,0.7985],[27.1957,37.5214,0.0],[27.1965,37.5176,0.0],[27.201,37.5163,-0.0021],[27.201,37.5129,0.0],[27.1988,37.5093,0.0],[27.2018,37.5057,0.0],[27.2007,37.5029,0.0],[27.1985,37.5021,0.0],[27.1979,37.4963,0.0],[27.1996,37.4954,0.0],[27.2024,37.4982,-0.0868],[27.2026,37.4899,0.0287],[27.1818,37.474,0.0],[27.1901,37.4771,-0.063],[27.2035,37.4885,-0.0102],[27.2082,37.4865,0.0],[27.2082,37.484,0.0],[27.2038,37.4801,0.0],[27.2043,37.4787,0.0],[27.2062,37.4807,-0.2544],[27.209,37.4807,0.0],[27.2085,37.4824,0.0273],[27.2124,37.4854,-0.0347],[27.2185,37.4857,-0.3042],[27.2232,37.484,0.0],[27.2226,37.4871,5.6173],[27.2251,37.4879,0.0822],[27.2251,37.484,-0.0845],[27.221,37.4815,0.4717],[27.2204,37.4796,0.3716],[27.2224,37.4771,-0.1676],[27.2257,37.4763,0.0],[27.2276,37.4718,20.8798],[27.2226,37.4646,0.0],[27.2237,37.4624,0.3092],[27.2229,37.4554,4.936],[27.221,37.4546,4.936],[27.221,37.4526,11.0644],[27.2193,37.4549,0.0],[27.2179,37.4535,0.0],[27.221,37.4471,6.6266],[27.2204,37.4379,1.6562],[27.2187,37.4371,0.0],[27.2207,37.4326,2.3929],[27.2193,37.4313,5.7518],[27.2201,37.4251,2.4116],[27.2185,37.4235,0.0],[27.2185,37.4199,0.0],[27.2218,37.4165,1.102],[27.2193,37.4135,1.6511],[27.2201,37.4118,0.0],[27.2237,37.4107,1.811],[27.2243,37.4082,0.0],[27.2285,37.4079,1.4265],[27.2307,37.4057,0.2508],[27.2268,37.401,1.335],[27.224,37.4018,7.7232],[27.219,37.3996,2.8914],[27.2176,37.401,0.0],[27.2162,37.3993,5.8089],[27.2154,37.401,0.6988],[27.2138,37.399,1.6904],[27.2101,37.3999,0.0],[27.209,37.3988,0.0],[27.2096,37.3929,0.0],[27.2149,37.3957,12.6983],[27.2179,37.3924,0.0],[27.2146,37.3918,0.0],[27.2162,37.3887,3.3142],[27.2135,37.3893,0.0],[27.2113,37.3871,0.0],[27.2118,37.3846,1.319],[27.2085,37.381,0.0],[27.2101,37.3771,0.0],[27.2057,37.3749,0.0],[27.2029,37.3713,0.4661],[27.2065,37.3696,3.2323],[27.2076,37.3668,2.987],[27.2038,37.3671,0.0],[27.2054,37.3651,2.5473],[27.2018,37.3629,0.3752],[27.2029,37.3607,1.9048],[27.1929,37.3574,0.0],[27.1915,37.3537,0.0],[27.2032,37.3507,0.0759],[27.2046,37.3524,0.0],[27.2013,37.354,1.7158],[27.2049,37.354,0.5475],[27.2079,37.3565,1.7519],[27.2093,37.356,0.0],[27.2079,37.354,0.0],[27.2088,37.3524,0.7806],[27.221,37.3546,0.9838],[27.2201,37.3521,0.1035],[27.214,37.3496,0.0],[27.2124,37.3474,0.0],[27.2149,37.3454,0.0],[27.2199,37.3449,0.0],[27.2335,37.3499,1.0835],[27.2296,37.3426,0.6148],[27.2365,37.3418,0.6193],[27.2346,37.3401,0.0],[27.2351,37.3382,0.0],[27.2538,37.3357,0.0],[27.2582,37.3374,1.9577],[27.2618,37.3368,0.8451],[27.2632,37.3382,0.0],[27.2635,37.3435,0.0],[27.2676,37.3429,0.0],[27.2699,37.3465,6.3086],[27.2754,37.3485,0.0],[27.2765,37.3496,0.0],[27.2757,37.3532,0.953],[27.278199999999998,37.3551,1.3969],[27.2854,37.3563,1.6808],[27.2874,37.3563,1.4008],[27.2887,37.3532,0.0],[27.2957,37.3493,1.2836],[27.2999,37.3518,0.0],[27.3085,37.3526,4.2137],[27.3063,37.3515,2.4712],[27.3071,37.3496,0.819],[27.3054,37.3485,3.9319],[27.309,37.3457,1.463],[27.3071,37.344,0.0],[27.3107,37.3438,7.852],[27.3124,37.341,1.3613],[27.314,37.3415,0.0],[27.314,37.3454,2.6999],[27.3165,37.3451,4.0687],[27.316,37.3432,3.2114],[27.3174,37.3421,3.2114],[27.3199,37.3438,12.6239],[27.3232,37.3413,0.0],[27.3304,37.3426,0.782],[27.3335,37.3446,0.0],[27.3338,37.349,0.0],[27.3312,37.3504,3.3263],[27.3312,37.3526,0.0],[27.3293,37.3526,2.0786],[27.3304,37.3554,0.4559],[27.3249,37.3557,0.0],[27.3232,37.3593,1.9682],[27.3204,37.3604,7.2095],[27.3221,37.3707,2.2117],[27.3312,37.3718,0.0],[27.3315,37.3737,2.6603],[27.3285,37.3763,0.0],[27.3293,37.3785,4.9871],[27.3321,37.3785,12.7515],[27.3338,37.376,2.4601],[27.3382,37.3746,0.7602],[27.3376,37.3729,0.943],[27.3343,37.3732,0.0855],[27.3374,37.3707,0.5503],[27.3396,37.3704,0.0],[27.3396,37.3729,1.3352],[27.3415,37.3735,0.0],[27.3424,37.3715,5.3982],[27.341,37.3701,0.0],[27.3424,37.369,1.5462],[27.3471,37.3688,1.3498],[27.3513,37.3707,1.6401],[27.354,37.3701,0.0],[27.3568,37.3726,0.9143],[27.3599,37.3721,0.0],[27.3596,37.3754,0.0],[27.3615,37.3788,0.8588],[27.3654,37.3815,0.0],[27.3638,37.3893,0.425],[27.3688,37.3996,0.5793],[27.374,37.4015,0.4163],[27.374,37.4032,0.5317],[27.3776,37.406,1.351],[27.3818,37.4065,0.0],[27.3899,37.411,6.7746],[27.3957,37.409,1.0107],[27.4001,37.4129,0.7612],[27.4149,37.4157,2.9585],[27.4177,37.4268,233.2307],[27.4382,37.4609,268.4427],[27.4402,37.4689,122.0647]]]]}
,"properties": {"GID_2": "TUR.11.4_1","GID_0": "TUR","country": "Turkey","GID_1": "TUR.11_1","province": "Aydin","NL_NAME_1": "NA","county": "Didim","VARNAME_2": "NA","NL_NAME_2": "NA","TYPE_2": "District","ENGTYPE_2": "District","CC_2": "NA","HASC_2": "TR.AY.DI","name": "Didim.county","area_km2": 305.4982,"hist_schema_id": "Elevation0-9000","hist_area_km2": {"0": 55.8483,"25": 58.3594,"50": 35.0045,"75": 45.8068,"100": 50.2148,"125": 14.8263,"150": 11.9479,"175": 11.7967,"200": 7.1011,"225": 3.3658,"250": 2.0197,"275": 1.599,"300": 1.498,"325": 1.3802,"350": 1.3465,"375": 1.094,"400": 0.9425,"425": 0.6059,"450": 0.3366,"475": 0.2525,"500": 0.0673,"525": 0.0505,"550": 0.0168,"575": 0.0168}}}