{"type":"Feature","properties":{"GID_2":"TUR.72.5_1","GID_0":"TUR","country":"Turkey","GID_1":"TUR.72_1","province":"Sivas","NL_NAME_1":"NA","county":"Gemerek","VARNAME_2":"NA","NL_NAME_2":"NA","TYPE_2":"District","ENGTYPE_2":"District","CC_2":"NA","HASC_2":"TR.SV.GE","name":"Gemerek.county"},
"geometry":{"type": "MultiPolygon","coordinates": [[[[36.374,39.1534,1800.7605],[36.3629,39.1616,1734.6577],[36.3299,39.1763,1609.1213],[36.3235,39.181399999999996,1511.6301],[36.3206,39.1914,1667.153],[36.3204,39.2226,1639.3311],[36.3178,39.2336,1569.3971],[36.2881,39.2802,1340.7274],[36.2658,39.3032,1295.9209],[36.2544,39.3198,1569.3547],[36.2399,39.3326,1558.4432],[36.1869,39.3736,1274.9095],[36.1727,39.3823,1347.1978],[36.1486,39.3922,1442.6152],[36.1383,39.3994,1506.188],[36.1302,39.4079,1618.4996],[36.1261,39.4191,1696.075],[36.1266,39.4345,1706.9797],[36.1295,39.4432,1678.3292],[36.1401,39.4619,1872.7607],[36.1397,39.4755,1829.5139],[36.1351,39.4826,1894.6829],[36.1252,39.4894,2013.3689],[36.0951,39.5002,2019.5715],[36.0662,39.5025,2147.7285],[36.0362,39.4792,2122.9775],[36.0274,39.4711,1960.2844],[36.0166,39.4546,2050.7249],[36.0105,39.4483,1840.6125],[35.9786,39.4229,1542.1483],[35.9626,39.4129,1484.0632],[35.9386,39.403,1618.5138],[35.8805,39.3594,1717.4639],[35.8694,39.3535,1606.6306],[35.8538,39.348,1780.2534],[35.8381,39.3378,1708.4061],[35.8278,39.3272,1602.74],[35.8152,39.306399999999996,1702.0863],[35.8126,39.2994,1797.6558],[35.8418,39.2839,1611.2583],[35.8854,39.2763,1478.0345],[35.905,39.245,1553.3168],[35.9387,39.2152,1227.3945],[35.9482,39.2008,1132.7299],[35.961,39.1878,1150.2476],[36.0127,39.1481,1327.1852],[36.0514,39.1321,1388.0007],[36.0817,39.1297,1273.8269],[36.1143,39.131,1214.2369],[36.3074,39.1303,1581.2881],[36.3231,39.1334,1629.3635],[36.374,39.1534,1800.7605]]]]}}