{"type": "Feature","bbox": [29.999,39.6842,30.2861,39.8683],"geometry": {"type": "MultiPolygon","coordinates": [[[[30.0448,39.6932,986.723],[30.0809,39.6945,946.8815],[30.1096,39.703,927.3585],[30.146,39.7049,928.8153],[30.1605,39.7035,969.6345],[30.187,39.6967,982.0632],[30.2014,39.6875,1071.6987],[30.2094,39.6842,1032.7964],[30.2189,39.6842,1005.8081],[30.2243,39.6868,1031.0923],[30.2349,39.7007,970.7371],[30.2385,39.7083,970.7336],[30.2404,39.7385,1029.9436],[30.2436,39.7502,1072.0535],[30.2495,39.7577,1043.1848],[30.278199999999998,39.7821,970.9387],[30.2843,39.7928,944.2529],[30.2861,39.8168,812.2597],[30.2844,39.8379,833.1595],[30.2722,39.8624,894.8629],[30.2487,39.8549,878.6515],[30.2045,39.8574,895.9617],[30.1789,39.8651,963.4613],[30.1637,39.8675,900.4236],[30.136,39.8683,891.3514],[30.1133,39.8671,903.2289],[30.1032,39.8646,833.6547],[30.073,39.8528,934.3156],[30.0585,39.8436,861.0912],[30.0366,39.8268,872.3571],[30.0193,39.8113,1046.4943],[30.0027,39.7855,1172.1217],[29.9996,39.7717,1233.307],[29.999,39.7457,1128.4014],[30.0006,39.7346,1089.6962],[30.0029,39.7294,1131.0503],[30.0137,39.7199,1059.5222],[30.0355,39.7095,1070.1166],[30.0411,39.7034,1022.755],[30.0448,39.6932,986.723]]]]}
,"properties": {"GID_2": "TUR.32.6_1","GID_0": "TUR","country": "Turkey","GID_1": "TUR.32_1","province": "Eskisehir","NL_NAME_1": "NA","county": "İnönü","VARNAME_2": "NA","NL_NAME_2": "NA","TYPE_2": "District","ENGTYPE_2": "District","CC_2": "NA","HASC_2": "TR.ES.IN","name": "İnönü.county","area_km2": 379.2751,"hist_schema_id": "Elevation0-9000","hist_area_km2": {"800": 0.1791,"825": 40.9828,"850": 33.3924,"875": 17.6314,"900": 12.7969,"925": 15.9333,"950": 31.0088,"975": 31.092,"1000": 28.286,"1025": 24.9907,"1050": 23.3579,"1075": 25.7339,"1100": 21.0878,"1125": 20.7112,"1150": 17.158,"1175": 12.6765,"1200": 8.8148,"1225": 5.9144,"1250": 2.7372,"1275": 1.89,"1300": 1.4175,"1325": 0.9776,"1350": 0.3911,"1375": 0.1141}}}