{"type":"Feature","properties":{"GID_2":"TUR.57.9_1","GID_0":"TUR","country":"Turkey","GID_1":"TUR.57_1","province":"Mardin","NL_NAME_1":"NA","county":"Savur","VARNAME_2":"NA","NL_NAME_2":"NA","TYPE_2":"District","ENGTYPE_2":"District","CC_2":"NA","HASC_2":"TR.MR.SA","name":"Savur.county"},
"geometry":{"type": "MultiPolygon","coordinates": [[[[41.0518,37.7396,636.5194],[41.0245,37.7409,605.0636],[41.0005,37.7401,617.3277],[40.9639,37.7306,648.4514],[40.8955,37.7285,677.5294],[40.8842,37.7266,653.8364],[40.8663,37.7204,624.386],[40.851,37.7181,646.6911],[40.7902,37.7181,685.5496],[40.775,37.7212,679.0406],[40.7459,37.7335,655.3643],[40.738,37.74,632.9078],[40.7277,37.7539,649.9597],[40.7158,37.7616,664.5018],[40.7006,37.7643,631.7352],[40.6638,37.7646,624.0739],[40.6476,37.7663,627.4901],[40.6344,37.771,653.0054],[40.602,37.7877,604.2901],[40.577,37.7718,625.9252],[40.5612,37.7591,640.9461],[40.5549,37.7521,652.8082],[40.543,37.7334,678.8817],[40.5381,37.7201,693.6073],[40.5371,37.6869,727.9219],[40.5351,37.6752,743.4993],[40.531,37.6677,752.7234],[40.5161,37.6504,775.7277],[40.5372,37.6363,801.3539],[40.5877,37.5977,948.5009],[40.5983,37.592,963.2122],[40.6162,37.5855,883.1379],[40.6344,37.572,938.1779],[40.6398,37.5657,959.3063],[40.654,37.5423,949.0237],[40.6594,37.5236,948.1072],[40.6687,37.5072,945.4021],[40.672,37.4967,989.5735],[40.8237,37.4958,1035.3857],[40.8611,37.4863,1035.4963],[40.8972,37.4849,1067.728],[40.9074,37.483,1091.7714],[40.9272,37.4732,1095.9922],[40.9661,37.4837,1095.4554],[41.0424,37.4863,1099.7692],[41.0764,37.4983,1052.702],[41.1111,37.5139,1087.6672],[41.1393,37.5229,1046.6012],[41.189,37.5568,1091.7344],[41.1704,37.5787,1341.5753],[41.1334,37.6375,1025.5656],[41.0865,37.6768,845.0894],[41.0729,37.6954,843.6921],[41.0543,37.7139,763.6501],[41.0497,37.7239,721.0628],[41.0518,37.7396,636.5194]]]]}}