{"type": "Feature","bbox": [38.0183,40.7522,38.2007,40.9551],"geometry": {"type": "MultiPolygon","coordinates": [[[[38.188,40.939,1.9834],[38.1854,40.9418,0.6524],[38.1815,40.9426,0.0],[38.1876,40.9443,0.0],[38.1826,40.9449,0.0],[38.1801,40.9432,3.1326],[38.1662,40.9463,1.6886],[38.1635,40.9471,4.9388],[38.1618,40.9499,10.6199],[38.1565,40.9496,7.6925],[38.1557,40.9512,0.0],[38.1524,40.9504,25.7084],[38.1507,40.9538,0.0],[38.1329,40.9526,2.2799],[38.124,40.9538,0.7854],[38.1232,40.9551,0.7854],[38.1186,40.9415,181.6526],[38.1089,40.9222,348.7878],[38.0983,40.9068,470.5129],[38.09,40.8865,574.3828],[38.0713,40.8643,575.1614],[38.0618,40.8385,1077.8848],[38.0243,40.7807,1264.0537],[38.0183,40.7522,1007.2914],[38.0379,40.7615,1396.9392],[38.0643,40.7778,1290.6775],[38.1133,40.797,701.4357],[38.1516,40.8224,396.3416],[38.1651,40.8265,533.6833],[38.1912,40.829,381.0444],[38.1986,40.8336,266.8221],[38.2007,40.8382,547.6504],[38.2007,40.8457,654.1619],[38.1894,40.8667,487.8403],[38.1867,40.8812,238.2794],[38.188,40.939,1.9834]]]]}
,"properties": {"GID_2": "TUR.34.13_1","GID_0": "TUR","country": "Turkey","GID_1": "TUR.34_1","province": "Giresun","NL_NAME_1": "NA","county": "Piraziz","VARNAME_2": "NA","NL_NAME_2": "NA","TYPE_2": "District","ENGTYPE_2": "District","CC_2": "NA","HASC_2": "TR.GI.PI","name": "Piraziz.county","area_km2": 158.2076,"hist_schema_id": "Elevation0-9000","hist_area_km2": {"0": 3.2193,"25": 2.9633,"50": 2.7073,"75": 2.9319,"100": 3.7491,"125": 3.8937,"150": 4.6634,"175": 4.6477,"200": 4.3593,"225": 5.1134,"250": 4.2799,"275": 4.9539,"300": 4.6331,"325": 4.6654,"350": 5.2429,"375": 5.7721,"400": 5.2108,"425": 5.0988,"450": 5.0186,"475": 4.5697,"500": 4.3136,"525": 3.3997,"550": 3.3195,"575": 3.127,"600": 2.6941,"625": 2.2132,"650": 2.1651,"675": 1.9248,"700": 1.3954,"725": 1.3795,"750": 0.9785,"775": 1.3315,"800": 1.1551,"825": 1.1551,"850": 1.2354,"875": 1.3637,"900": 1.5241,"925": 1.1552,"950": 1.5723,"975": 1.3638,"1000": 1.4601,"1025": 1.3639,"1050": 1.2676,"1075": 1.2356,"1100": 1.2036,"1125": 1.5084,"1150": 1.2518,"1175": 1.2518,"1200": 0.979,"1225": 1.2358,"1250": 1.8618,"1275": 2.1187,"1300": 2.6002,"1325": 2.8892,"1350": 2.6326,"1375": 2.2957,"1400": 1.3806,"1425": 1.2522,"1450": 0.6583,"1475": 0.4977,"1500": 0.4174,"1525": 0.2087,"1550": 0.1285,"1575": 0.0482}}}