{"type":"Feature","properties":{"GID_2":"TUR.11.10_1","GID_0":"TUR","country":"Turkey","GID_1":"TUR.11_1","province":"Aydin","NL_NAME_1":"NA","county":"Köşk","VARNAME_2":"NA","NL_NAME_2":"NA","TYPE_2":"District","ENGTYPE_2":"District","CC_2":"NA","HASC_2":"TR.AY.KK","name":"Köşk.county"},
"geometry":{"type": "MultiPolygon","coordinates": [[[[28.126,37.8378,41.8351],[28.1335,37.8552,43.3553],[28.1233,37.8655,52.6293],[28.1189,37.8759,74.5125],[28.1177,37.8959,183.325],[28.1202,37.9099,486.4165],[28.1293,37.9217,564.8241],[28.1655,37.9499,414.99],[28.1763,37.9608,761.1259],[28.1909,37.9842,911.4803],[28.202,38.0219,1595.4116],[28.1921,38.0267,1529.6453],[28.1812,38.029,1395.635],[28.0971,38.0301,1380.502],[28.0719,38.0294,1580.2478],[28.0369,38.022,1584.8177],[28.0542,37.9964,1074.3307],[28.0581,37.985,836.6121],[28.0589,37.8957,222.8471],[28.0581,37.8799,201.5974],[28.0561,37.8707,134.4006],[28.0362,37.8392,53.591],[28.0345,37.8351,49.0373],[28.035,37.8304,45.936],[28.04,37.8245,42.5713],[28.0488,37.8206,38.5508],[28.0717,37.8197,38.86],[28.0872,37.8223,38.9858],[28.126,37.8378,41.8351]]]]}}