{"type": "Feature","bbox": [39.1761,40.7051,39.3668,40.9459],"geometry": {"type": "MultiPolygon","coordinates": [[[[39.2684,40.7051,2113.7632],[39.2676,40.7339,1809.89],[39.2694,40.7422,1780.5197],[39.2742,40.7501,1841.3846],[39.2866,40.7613,1487.5605],[39.3037,40.7734,1551.0691],[39.3295,40.784,1636.1118],[39.3427,40.7921,1650.7928],[39.3591,40.8059,1919.9359],[39.3668,40.8163,1726.8943],[39.3529,40.8403,1035.5897],[39.3313,40.8633,1576.9257],[39.3285,40.8713,1505.9303],[39.3254,40.8909,1426.3981],[39.3106,40.9193,962.8188],[39.3019,40.927,695.3484],[39.2963,40.9297,569.0505],[39.2696,40.9351,850.516],[39.2483,40.9422,865.8862],[39.2254,40.9459,1019.278],[39.1761,40.9442,480.7385],[39.1786,40.8607,1288.5516],[39.1833,40.8492,1313.814],[39.1971,40.834,1277.0587],[39.2002,40.8272,1053.1692],[39.1945,40.809,1187.436],[39.1929,40.7972,1527.4902],[39.1927,40.7725,1551.012],[39.195,40.7512,1644.2429],[39.204,40.744,1644.5625],[39.2155,40.7286,1414.4294],[39.2301,40.7173,1419.4651],[39.2387,40.7131,1843.5394],[39.2684,40.7051,2113.7632]]]]}
,"properties": {"GID_2": "TUR.75.16_1","GID_0": "TUR","country": "Turkey","GID_1": "TUR.75_1","province": "Trabzon","NL_NAME_1": "NA","county": "Tonya","VARNAME_2": "NA","NL_NAME_2": "NA","TYPE_2": "District","ENGTYPE_2": "District","CC_2": "NA","HASC_2": "TR.TB.TO","name": "Tonya.county","area_km2": 272.063,"hist_schema_id": "Elevation0-9000","hist_area_km2": {"300": 0.0641,"325": 0.1441,"350": 0.2563,"375": 0.3043,"400": 0.4004,"425": 0.5446,"450": 0.5766,"475": 0.3844,"500": 0.5927,"525": 0.7048,"550": 0.833,"575": 0.9291,"600": 1.2656,"625": 1.1534,"650": 1.4258,"675": 1.6022,"700": 2.3712,"725": 2.5637,"750": 3.0605,"775": 3.5573,"800": 3.2049,"825": 3.8619,"850": 3.7658,"875": 4.3431,"900": 4.9521,"925": 4.5035,"950": 5.4655,"975": 5.7707,"1000": 5.675,"1025": 6.573,"1050": 6.9902,"1075": 7.4883,"1100": 8.0657,"1125": 7.6332,"1150": 7.971,"1175": 7.8591,"1200": 8.4371,"1225": 7.6348,"1250": 8.534,"1275": 8.5343,"1300": 8.4706,"1325": 8.3589,"1350": 8.1344,"1375": 7.6856,"1400": 7.5258,"1425": 7.1244,"1450": 6.8198,"1475": 6.8206,"1500": 5.8258,"1525": 5.5056,"1550": 4.7679,"1575": 4.3348,"1600": 4.576,"1625": 4.2388,"1650": 4.5604,"1675": 4.3677,"1700": 4.0629,"1725": 4.0628,"1750": 3.2277,"1775": 3.1315,"1800": 2.473,"1825": 1.8307,"1850": 1.5577,"1875": 0.8672,"1900": 0.5141,"1925": 0.3856,"1950": 0.3053,"1975": 0.1446,"2000": 0.1446,"2025": 0.0964,"2050": 0.0643,"2075": 0.0482,"2100": 0.0321}}}