{"type":"Feature","properties":{"GID_2":"TUR.23.6_1","GID_0":"TUR","country":"Turkey","GID_1":"TUR.23_1","province":"Çankiri","NL_NAME_1":"NA","county":"Kızılırmak","VARNAME_2":"NA","NL_NAME_2":"NA","TYPE_2":"District","ENGTYPE_2":"District","CC_2":"NA","HASC_2":"TR.CI.KI","name":"Kızılırmak.county"},
"geometry":{"type": "MultiPolygon","coordinates": [[[[33.7691,40.2848,669.9984],[33.8062,40.2829,705.5824],[33.8355,40.2746,703.8435],[33.8816,40.271,725.4644],[33.9179,40.2616,762.2877],[33.9655,40.2608,795.5469],[33.9818,40.2701,702.2629],[34.0275,40.2877,672.7039],[34.0538,40.3035,745.8075],[34.1022,40.3222,590.3356],[34.1133,40.3315,555.4915],[34.1284,40.3545,557.8259],[34.1569,40.3988,543.6732],[34.161,40.4121,541.669],[34.1593,40.4317,568.9087],[34.1497,40.4481,606.6837],[34.144,40.4666,536.6505],[34.1345,40.4829,555.4518],[34.1312,40.4935,632.7583],[34.1162,40.4935,610.7028],[34.101,40.4875,597.2499],[34.0748,40.4926,612.9609],[34.0573,40.4913,616.9831],[34.024,40.4784,669.3547],[33.9947,40.461,555.5377],[33.9519,40.4452,710.1219],[33.9427,40.4404,664.6622],[33.9319,40.4324,689.5116],[33.9254,40.4253,631.2595],[33.916,40.3992,582.4826],[33.9019,40.3756,618.462],[33.8868,40.3569,554.8752],[33.8624,40.3456,556.8276],[33.8319,40.3399,560.0205],[33.8013,40.329,562.4828],[33.7921,40.3243,563.7357],[33.7813,40.3162,595.9636],[33.7732,40.3065,636.9626],[33.7706,40.2984,632.3604],[33.7691,40.2848,669.9984]]]]}}