{"type":"Feature","properties":{"GID_2":"TUR.17.5_1","GID_0":"TUR","country":"Turkey","GID_1":"TUR.17_1","province":"Bingöl","NL_NAME_1":"NA","county":"Merkez","VARNAME_2":"Bingöl","NL_NAME_2":"NA","TYPE_2":"District","ENGTYPE_2":"District","CC_2":"NA","HASC_2":"TR.BG.BG","name":"Merkez.county"},
"geometry":{"type": "MultiPolygon","coordinates": [[[[40.4204,39.1616,1831.0571],[40.3978,39.1558,1788.1434],[40.3873,39.1469,1838.9225],[40.3634,39.1182,1911.2627],[40.2965,39.0659,1754.4315],[40.2881,39.056,1638.2225],[40.2846,39.0415,1720.9167],[40.2844,38.965,1619.7854],[40.2868,38.9443,1648.0515],[40.3114,38.9046,1743.1948],[40.3203,38.8698,1854.4922],[40.3398,38.868899999999996,1601.894],[40.3535,38.8621,1617.2927],[40.3727,38.8351,2010.8613],[40.386,38.8118,2219.7812],[40.386,38.8013,1989.7822],[40.3784,38.7879,1826.5481],[40.3725,38.7695,1584.2151],[40.3617,38.7483,1175.3806],[40.4058,38.7334,1133.5824],[40.4329,38.728,1052.7622],[40.4505,38.7214,985.8105],[40.4644,38.7197,1021.2026],[40.4785,38.7214,1040.0468],[40.6016,38.7692,1031.7554],[40.6378,38.7939,1001.9224],[40.6645,38.8059,1080.907],[40.6942,38.8269,1011.8102],[40.7064,38.8329,1116.5088],[40.7168,38.8349,1111.5492],[40.7497,38.836,1316.0862],[40.7638,38.838,1452.0164],[40.7816,38.8443,1249.0728],[40.8088,38.8495,1245.373],[40.8566,38.8677,1140.0256],[40.8805,38.8721,1046.8346],[40.9017,38.8793,1139.7946],[40.9153,38.8819,1274.7341],[40.9158,38.9525,1386.0039],[40.9135,38.9711,1497.0034],[40.8981,38.9975,1767.4586],[40.8696,39.0384,1971.1788],[40.8589,39.0575,2414.1357],[40.8514,39.0813,2352.5347],[40.839,39.0984,1700.2531],[40.8321,39.1032,1636.6265],[40.806,39.1135,1421.6028],[40.7829,39.1152,1690.6954],[40.7277,39.1125,1958.6272],[40.721,39.1073,2005.5383],[40.7122,39.1041,2037.277],[40.6981,39.1028,2321.7603],[40.6837,39.1039,1984.1941],[40.6736,39.1069,1892.9833],[40.6505,39.121,1879.0825],[40.6405,39.1247,1833.7286],[40.5944,39.128,1831.8661],[40.5617,39.1368,2039.5201],[40.5154,39.1402,1833.5908],[40.4906,39.148,1825.5127],[40.4669,39.1527,1950.5253],[40.449,39.1589,1923.2585],[40.4204,39.1616,1831.0571]]]]}}