{"type":"Feature","properties":{"GID_2":"TUR.72.7_1","GID_0":"TUR","country":"Turkey","GID_1":"TUR.72_1","province":"Sivas","NL_NAME_1":"NA","county":"Gürün","VARNAME_2":"NA","NL_NAME_2":"NA","TYPE_2":"District","ENGTYPE_2":"District","CC_2":"NA","HASC_2":"TR.SV.GU","name":"Gürün.county"},
"geometry":{"type": "MultiPolygon","coordinates": [[[[37.0599,38.5782,1979.3922],[37.095,38.584,2033.941],[37.1167,38.591,2021.459],[37.1332,38.5933,2044.4587],[37.2517,38.5936,1993.9332],[37.2884,38.5959,2070.3567],[37.2978,38.6022,2088.3315],[37.3212,38.6067,1882.2488],[37.3328,38.6115,1778.6895],[37.3936,38.6568,1354.9373],[37.4203,38.6683,1339.5347],[37.4566,38.6932,1530.7141],[37.4778,38.7015,1595.7007],[37.5013,38.7173,1621.6222],[37.5129,38.7274,1623.7355],[37.5274,38.7483,1580.2484],[37.541,38.7605,1490.0276],[37.5614,38.7741,1786.1665],[37.5739,38.7764,1658.3713],[37.5849,38.8017,1773.573],[37.5946,38.8183,1594.7722],[37.5963,38.8366,1841.4166],[37.5935,38.8485,1873.3667],[37.5854,38.8623,1646.353],[37.5782,38.8833,1553.0037],[37.556,38.9178,1429.4414],[37.5527,38.9259,1384.2549],[37.5511,38.941,1319.5454],[37.5519,38.9594,1489.599],[37.5536,38.9684,1479.2079],[37.5588,38.9811,1479.5303],[37.5357,38.987,1601.8014],[37.5115,38.9911,1553.978],[37.4831,38.9996,1652.3418],[37.4328,39.001,1536.269],[37.418,39.0035,1428.1992],[37.4052,39.01,1446.0164],[37.3826,39.0266,1472.6588],[37.3704,39.0336,1638.2352],[37.3135,39.056,1603.9113],[37.2953,39.0595,1524.8518],[37.2685,39.0596,1619.6719],[37.2554,39.0559,1654.0356],[37.2407,39.0374,1672.4401],[37.2345,39.0164,1676.2102],[37.2278,39.0063,1704.1603],[37.2177,38.9979,1731.3226],[37.2086,38.9928,1759.7913],[37.1902,38.9892,1831.7413],[37.099,38.9893,1756.5634],[37.076,38.9911,1762.8613],[37.0546,38.9983,1734.7009],[37.0275,39.0037,1725.078],[36.9528,39.0326,1700.9602],[36.9361,39.0362,1715.1815],[36.9328,39.0256,1732.376],[36.9234,39.0092,1726.021],[36.9177,38.9907,1715.6638],[36.8942,38.9536,1889.734],[36.8885,38.9351,1818.262],[36.8792,38.9187,1890.6317],[36.8735,38.9002,1849.9692],[36.8642,38.8838,1856.574],[36.8574,38.8627,1898.4537],[36.8339,38.8256,2068.4585],[36.8271,38.8045,2256.9404],[36.8188,38.7907,2445.8591],[36.8132,38.7721,2514.3469],[36.8037,38.7558,2605.6299],[36.7957,38.7323,2138.0918],[36.7584,38.6744,2050.9346],[36.756,38.6657,2036.098],[36.7527,38.6327,1829.5842],[36.7433,38.6161,1884.0233],[36.7323,38.5911,1858.6925],[36.7653,38.5956,1896.6219],[36.7865,38.6029,1857.7651],[36.8136,38.6082,1954.2552],[36.835,38.6154,1930.7216],[36.8814,38.6185,1664.5963],[36.9099,38.6271,1946.4717],[36.9314,38.6287,1951.8469],[36.9457,38.6272,1990.2588],[36.9668,38.62,1822.3821],[36.994,38.6147,1782.3688],[37.0242,38.6033,1837.9321],[37.0391,38.5945,1972.8098],[37.0599,38.5782,1979.3922]]]]}}