{"type": "Feature","bbox": [29.0074,38.8513,29.1469,39.0358],"geometry": {"type": "MultiPolygon","coordinates": [[[[29.1469,39.0358,956.226],[29.1285,39.0286,1006.1028],[29.1122,39.0187,1213.8184],[29.0955,39.0151,1175.9845],[29.0821,39.0071,1017.4],[29.0713,38.9969,983.6501],[29.0584,38.9784,1210.058],[29.0267,38.9502,980.4622],[29.0188,38.9265,942.8781],[29.0074,38.9075,929.1766],[29.0078,38.8914,839.3008],[29.0107,38.8733,827.9318],[29.016,38.8739,878.5127],[29.0216,38.8707,926.2783],[29.0328,38.8513,1204.3667],[29.0621,38.8571,1098.8679],[29.072,38.8609,1067.676],[29.1031,38.8827,1112.7819],[29.1187,38.8977,1085.369],[29.1203,38.9047,1057.6941],[29.1146,38.9178,881.8557],[29.1123,38.932,1032.7078],[29.1116,38.9622,896.0233],[29.1134,38.9889,927.341],[29.1189,38.9989,944.4917],[29.1395,39.0198,1076.8464],[29.1469,39.0358,956.226]]]]}
,"properties": {"GID_2": "TUR.54.10_1","GID_0": "TUR","country": "Turkey","GID_1": "TUR.54_1","province": "Kütahya","NL_NAME_1": "NA","county": "Pazarlar","VARNAME_2": "NA","NL_NAME_2": "NA","TYPE_2": "District","ENGTYPE_2": "District","CC_2": "NA","HASC_2": "TR.KU.PA","name": "Pazarlar.county","area_km2": 120.45076,"hist_schema_id": "Elevation0-9000","hist_area_km2": {"750": 0.49508,"775": 1.63351,"800": 2.59035,"825": 3.46463,"850": 4.68518,"875": 6.0374,"900": 8.32907,"925": 10.17535,"950": 10.52054,"975": 10.02545,"1000": 10.60281,"1025": 7.569,"1050": 6.84371,"1075": 7.14064,"1100": 6.86103,"1125": 6.16821,"1150": 4.09076,"1175": 3.46461,"1200": 2.55725,"1225": 2.26099,"1250": 1.93115,"1275": 1.5846,"1300": 0.79227,"1325": 0.24757,"1350": 0.16504,"1375": 0.08252,"1400": 0.04951,"1425": 0.06602,"1450": 0.0165}}}