{"type":"Feature","properties":{"GID_2":"TUR.48.2_1","GID_0":"TUR","country":"Turkey","GID_1":"TUR.48_1","province":"Kilis","NL_NAME_1":"NA","county":"Merkez","VARNAME_2":"Kilis","NL_NAME_2":"NA","TYPE_2":"District","ENGTYPE_2":"District","CC_2":"NA","HASC_2":"TR.KI.KI","name":"Merkez.county"},
"geometry":{"type": "MultiPolygon","coordinates": [[[[37.3326,36.6556,497.1356],[37.3396,36.6715,517.6383],[37.3481,36.6853,509.0286],[37.3551,36.7063,533.6462],[37.3641,36.723,556.0776],[37.3684,36.7589,547.0107],[37.379,36.7811,590.3553],[37.3808,36.7893,598.0398],[37.3817,36.8122,640.7996],[37.3681,36.8148,652.7257],[37.3378,36.8259,698.53],[37.3033,36.8415,739.0106],[37.2905,36.8158,609.3539],[37.2805,36.8056,652.6732],[37.257,36.795,650.4502],[37.2305,36.7795,643.9443],[37.2034,36.7691,766.5777],[37.1891,36.7662,795.7093],[37.1694,36.7655,996.3124],[37.1093,36.7656,792.0272],[37.0824,36.7682,791.5651],[37.0491,36.7803,481.7186],[37.0279,36.7908,443.107],[37.0224,36.7967,451.9254],[37.0136,36.8151,552.9993],[36.9815,36.8104,416.4161],[36.9634,36.8048,427.7779],[36.9538,36.8035,470.8881],[36.9184,36.8116,499.3376],[36.8561,36.8126,805.1425],[36.8058,36.8526,705.7878],[36.7879,36.8394,729.9602],[36.7826,36.8295,714.8141],[36.7821,36.8182,724.7855],[36.784,36.8065,848.1672],[36.8042,36.7986,1152.5178],[36.8796,36.7814,605.7],[36.9027,36.7777,527.6586],[36.9444,36.7812,455.5566],[36.9888,36.762,386.0444],[36.9989,36.7553,369.4809],[37.0095,36.7431,447.8935],[37.0199,36.737,464.2555],[37.0518,36.7268,631.4276],[37.056,36.7243,672.4379],[37.0581,36.7207,731.1604],[37.0566,36.7127,782.9006],[37.0332,36.6784,641.9061],[37.0279,36.6655,701.8313],[37.028,36.6606,723.9575],[37.0314,36.6577,686.7491],[37.0485,36.6532,658.2103],[37.0646,36.6423,630.2632],[37.0799,36.6294,575.4739],[37.091,36.6236,558.9235],[37.0963,36.6235,548.9158],[37.1036,36.627,552.951],[37.1126,36.6463,560.6403],[37.1219,36.6594,569.1252],[37.1268,36.6617,558.2288],[37.1511,36.6635,548.5027],[37.1744,36.6546,513.169],[37.185,36.6536,508.9913],[37.1962,36.6543,508.7976],[37.2256,36.6633,511.461],[37.2664,36.6649,490.9843],[37.3031,36.6616,505.611],[37.3326,36.6556,497.1356]]]]}}