{"type": "Feature","id": "3026","bbox": [34.05253,39.0133,36.21301,40.23403],"geometry": {"type": "Polygon","coordinates": [[[35.40831,40.19716,697.2237],[35.36314,40.20065,851.7215],[35.34444,40.21088,764.1722],[35.33627,40.23106,660.9456],[35.32728,40.23403,1017.2502],[35.28708,40.22276,905.8446],[35.19137,40.21736,1298.2593],[35.18114,40.17223,893.0397],[35.19406,40.16096,1023.9744],[35.19013,40.14388,879.9244],[35.18011,40.12215,977.8199],[35.17794,40.10254,1142.3318],[35.15096,40.07544,1316.4524],[35.07262,40.039,1302.0759],[35.02663,40.03484,1115.4387],[34.94146,40.05389,980.5343],[34.7916,39.99771,1366.5457],[34.71078,39.99438,1373.321],[34.67109,39.99766,1394.9001],[34.61167,39.97994,1420.4539],[34.4585,40.00071,1406.6875],[34.36134,39.97624,1320.2235],[34.26585,39.94273,1138.8512],[34.10896,39.9286,1026.4155],[34.05253,39.90762,659.1495],[34.06172,39.88782,665.8437],[34.06638,39.86687,652.4957],[34.06317,39.84571,656.6783],[34.0733,39.82573,660.6226],[34.09283,39.80961,664.937],[34.1135,39.79556,669.8356],[34.16776,39.79494,679.7849],[34.21954,39.75763,694.0199],[34.2705,39.71355,707.4756],[34.31628,39.7014,717.5154],[34.39504,39.70073,748.9482],[34.41395,39.6799,744.6199],[34.42294,39.65691,804.9522],[34.43566,39.63611,803.6271],[34.57373,39.50516,1096.3809],[34.61735,39.4825,1163.4006],[34.6681,39.47609,1117.99],[34.7113,39.44684,1027.4749],[34.73714,39.40026,1011.0307],[34.75357,39.39705,981.2386],[34.78333,39.38711,937.949],[34.79036,39.37444,939.7533],[34.79408,39.353,943.0564],[34.80349,39.33385,947.6866],[34.82933,39.30972,953.7003],[34.86085,39.29683,998.8234],[34.88059,39.26634,1037.5265],[34.8931,39.22668,1105.0144],[34.9735,39.18779,1049.9094],[34.99614,39.15761,1045.1006],[34.98725,39.1341,1090.0619],[34.99097,39.11131,1108.3308],[34.99986,39.09017,1117.0887],[35.01505,39.06609,1108.4104],[35.02776,39.04113,1115.016],[35.25483,39.0133,1274.0206],[35.36686,39.06909,1241.4281],[35.41151,39.08082,1246.2383],[35.73573,39.24391,2123.1606],[35.81986,39.33445,1641.255],[35.85758,39.36935,1880.2118],[35.90327,39.39522,1838.0603],[35.93458,39.42754,1569.3667],[35.95897,39.46586,1722.7828],[35.98967,39.50242,1876.4807],[36.02429,39.53505,2033.7],[36.11039,39.58673,1779.0488],[36.18346,39.64259,1578.6024],[36.21301,39.7244,1561.2461],[36.21053,39.74822,1394.0685],[36.2003,39.76961,1305.5198],[36.16527,39.78432,1245.3911],[36.11669,39.85046,1341.7521],[36.08868,39.92371,1322.0652],[36.07783,39.94544,1189.571],[36.05892,39.95911,1062.8384],[36.03938,39.98769,1054.5394],[36.04062,40.02658,1098.4435],[36.04775,40.08272,1398.8109],[36.00641,40.11466,1259.582],[35.96476,40.10497,1553.2456],[35.9228,40.09104,1846.0325],[35.87598,40.08365,1559.053],[35.82896,40.0805,1398.2688],[35.7503,40.09272,1245.2643],[35.65739,40.08675,1205.9832],[35.57832,40.12923,1017.5331],[35.5098,40.18863,802.825],[35.4604,40.20029,719.1757],[35.40831,40.19716,697.2237]]]}
,"properties": {"ISO3166-1-Alpha-3": "TUR","country": "Turkey","fill": "#0F0","name": "Yozgat","area_km2": 13752.11,"hist_schema_id": "Elevation0-9000","hist_area_km2": {"650": 8.04,"675": 27.43,"700": 51.49,"725": 60.65,"750": 91.03,"775": 110.21,"800": 114.83,"825": 126.84,"850": 126.5,"875": 145.62,"900": 167.79,"925": 220.32,"950": 263.29,"975": 306.1,"1000": 407.17,"1025": 521.49,"1050": 621.56,"1075": 715.3,"1100": 759.41,"1125": 777.32,"1150": 768.61,"1175": 770.63,"1200": 784.9,"1225": 698.92,"1250": 615.01,"1275": 547.52,"1300": 477.9,"1325": 438.27,"1350": 385.62,"1375": 337.29,"1400": 292.87,"1425": 246.08,"1450": 196.94,"1475": 162.95,"1500": 138.64,"1525": 122.69,"1550": 110.89,"1575": 103.05,"1600": 100.23,"1625": 94.13,"1650": 87.34,"1675": 82.57,"1700": 80.59,"1725": 77.59,"1750": 71.96,"1775": 64.1,"1800": 54.27,"1825": 47.11,"1850": 40.56,"1875": 32.92,"1900": 26.93,"1925": 19.64,"1950": 14.11,"1975": 11.29,"2000": 8.38,"2025": 6.53,"2050": 3.99,"2075": 2.28,"2100": 1.47,"2125": 0.75,"2150": 0.79,"2175": 0.54,"2200": 0.38,"2225": 0.44}}}