{"type":"Feature","properties":{"GID_1":"TUR.80_1","GID_0":"TUR","country":"Turkey","province":"Yozgat","VARNAME_1":"NA","NL_NAME_1":"NA","TYPE_1":"Il","ENGTYPE_1":"Province","CC_1":"NA","HASC_1":"TR.YZ","ISO_1":"TR-66","name":"Yozgat.province"},
"geometry":{"type": "MultiPolygon","coordinates": [[[[35.4718,39.1868,1307.3718],[35.4811,39.1889,1298.7834],[35.495,39.1891,1291.3822],[35.5182,39.1874,1350.0134],[35.551,39.203,1426.838],[35.5788,39.2004,1481.2947],[35.6642,39.2006,1617.777],[35.6771,39.2032,1669.4958],[35.7071,39.215,2100.1064],[35.7156,39.22,2183.4753],[35.8017,39.2875,1875.4995],[35.8126,39.2994,1797.6558],[35.8152,39.306399999999996,1702.0863],[35.8278,39.3272,1602.74],[35.8381,39.3378,1708.4061],[35.8538,39.348,1780.2534],[35.8694,39.3535,1606.6306],[35.8805,39.3594,1717.4639],[35.9386,39.403,1618.5138],[35.9708,39.4175,1500.5308],[36.0105,39.4483,1840.6125],[36.0166,39.4546,2050.7249],[36.0274,39.4711,1960.2844],[36.0662,39.5025,2147.7285],[36.0665,39.5256,1752.1582],[36.0692,39.5365,1811.8235],[36.0841,39.5598,1917.5693],[36.1068,39.5824,1853.0536],[36.122,39.6059,1524.9457],[36.1251,39.6141,1589.5917],[36.129,39.6382,1893.2439],[36.1382,39.6549,1670.4707],[36.1416,39.6654,1761.2784],[36.1567,39.6771,1853.2301],[36.1403,39.6869,1599.7844],[36.1224,39.6931,1706.8296],[36.1258,39.7039,1534.8978],[36.1274,39.7222,1416.0649],[36.1267,39.7373,1431.0756],[36.1239,39.746,1387.3986],[36.118,39.7534,1287.5803],[36.1103,39.7597,1327.9238],[36.0987,39.7666,1372.4058],[36.0807,39.7738,1391.2755],[36.07,39.7832,1339.2764],[36.063,39.8039,1331.8645],[36.0544,39.8206,1388.4583],[36.0514,39.8425,1267.3702],[36.0471,39.8527,1355.6621],[36.0383,39.8602,1333.9534],[36.0203,39.8675,1359.4647],[35.9966,39.8812,1347.7979],[35.9784,39.8888,1389.29],[35.9689,39.8956,1229.5516],[35.9655,39.8999,1134.3524],[35.962,39.91,1040.7648],[35.9742,39.9226,1080.5194],[35.9858,39.9459,986.9803],[35.9665,39.9784,1100.2063],[35.9633,39.9865,1046.1318],[35.962,40.0107,1067.2352],[35.9647,40.0318,1258.339],[35.9618,40.0434,1429.9025],[35.9453,40.0721,1498.1278],[35.9365,40.0797,1473.8724],[35.9198,40.0848,1726.848],[35.8964,40.0852,1678.9175],[35.8736,40.0821,1482.3669],[35.8522,40.0748,1534.0225],[35.8327,40.0733,1447.4535],[35.8172,40.0748,1333.4316],[35.7958,40.082,1337.9541],[35.7848,40.084,1312.0929],[35.651,40.0847,1113.222],[35.6332,40.0872,881.17],[35.6131,40.0991,771.1456],[35.5555,40.1446,1017.5934],[35.5466,40.1534,951.2339],[35.5335,40.172,969.1624],[35.5121,40.1898,790.2576],[35.4056,40.1894,830.0621],[35.3819,40.1913,800.5108],[35.3714,40.1952,771.9722],[35.3593,40.2029,798.5092],[35.3432,40.2167,749.848],[35.3323,40.2289,754.8431],[35.3043,40.2171,812.2884],[35.2886,40.2137,790.0515],[35.1678,40.2132,1007.0481],[35.1664,40.189,901.3383],[35.1672,40.1677,925.0724],[35.1701,40.1562,1010.3301],[35.1782,40.1423,888.59],[35.1821,40.1239,954.6605],[35.1822,40.1019,1074.3423],[35.1787,40.0908,1341.1628],[35.1721,40.0852,1398.3308],[35.1351,40.0698,1340.9504],[35.108,40.0539,1325.7952],[35.0896,40.0468,1243.6553],[35.0687,40.034,1331.1151],[35.057,40.0298,1317.0792],[35.0438,40.0307,1238.8883],[34.9777,40.0494,1014.2938],[34.9197,40.0508,1022.2107],[34.8972,40.0483,1033.2673],[34.8638,40.0354,1074.6807],[34.8175,40.0015,1237.4657],[34.808,39.9962,1277.9374],[34.7894,39.9924,1454.97],[34.4603,39.9919,1449.6677],[34.4193,39.9932,1345.835],[34.3947,39.9918,1520.9344],[34.3805,39.9865,1349.2233],[34.3514,39.9608,1362.4652],[34.3207,39.9477,1479.3318],[34.2969,39.9432,1413.0066],[34.2789,39.9371,1339.7517],[34.2671,39.9352,1296.8273],[34.154,39.9335,1256.3066],[34.1247,39.9252,1099.1282],[34.0863,39.9204,845.6732],[34.0543,39.9049,661.8475],[34.0575,39.892,672.9464],[34.0663,39.8755,652.8384],[34.0688,39.8665,656.7064],[34.07,39.8444,656.5284],[34.0689,39.8084,706.7439],[34.0914,39.8058,671.5035],[34.1013,39.803,666.1297],[34.1281,39.787,701.7131],[34.1763,39.7681,736.7148],[34.2002,39.7534,726.3632],[34.2212,39.7448,713.523],[34.2346,39.7367,699.9399],[34.2715,39.7379,743.4262],[34.296,39.7457,769.6053],[34.3069,39.7476,809.0455],[34.3574,39.7485,801.5353],[34.3838,39.7459,874.9933],[34.4257,39.7331,1026.1378],[34.441,39.7148,889.9799],[34.4623,39.6792,748.1879],[34.4685,39.6721,750.9956],[34.4847,39.6602,756.2869],[34.5068,39.6513,884.647],[34.5192,39.6441,1023.1758],[34.5361,39.6316,909.7424],[34.545,39.6221,980.884],[34.5471,39.6167,922.5521],[34.5465,39.6088,816.1175],[34.5238,39.5755,1068.9595],[34.5219,39.5705,1019.356],[34.5218,39.5651,957.2054],[34.5255,39.5578,975.7649],[34.5365,39.5479,1008.9272],[34.5503,39.5396,1025.1917],[34.5677,39.5325,1014.8517],[34.5703,39.5257,1036.9471],[34.576,39.5203,1063.5916],[34.5986,39.5099,1117.1941],[34.6256,39.4941,1143.3298],[34.6566,39.4866,1071.0435],[34.6857,39.4707,1047.7859],[34.7912,39.4306,965.0197],[34.798,39.4253,972.7169],[34.8017,39.4183,960.3981],[34.8009,39.4107,972.1948],[34.7935,39.3988,960.6817],[34.7935,39.392,941.9219],[34.7966,39.3881,962.1978],[34.8172,39.3781,948.5314],[34.8996,39.348,1055.3888],[34.9202,39.3376,1023.4487],[34.9237,39.3306,1026.2875],[34.9236,39.3229,1063.6423],[34.9114,39.2991,1082.2014],[34.9075,39.2653,981.4053],[34.8954,39.2412,983.6016],[34.8959,39.2275,1110.0079],[34.9049,39.2153,1090.8823],[34.9582,39.1739,1080.3767],[34.9776,39.1533,1063.1614],[34.9853,39.15,1050.9526],[34.9961,39.1408,1070.2148],[35.0019,39.1294,1113.4401],[34.9997,39.1105,1109.105],[35.0022,39.0967,1112.8646],[35.0101,39.0829,1098.2461],[35.0173,39.062,1106.0741],[35.0374,39.0381,1125.9531],[35.0801,39.0377,1102.3982],[35.0992,39.0359,1114.2059],[35.1505,39.0169,1190.2673],[35.1889,39.0119,1234.4872],[35.2102,39.0049,1288.1868],[35.2206,39.0033,1308.5465],[35.2412,39.0057,1289.1021],[35.2711,39.0173,1251.3069],[35.2915,39.0283,1231.4767],[35.3282,39.0395,1280.3464],[35.483,39.0996,1256.7219],[35.4878,39.1053,1287.9465],[35.4884,39.1099,1301.8276],[35.4774,39.1295,1298.4077],[35.4677,39.1429,1284.6936],[35.464,39.1567,1339.597],[35.464,39.176,1366.6445],[35.467,39.1831,1340.5702],[35.4718,39.1868,1307.3718]]]]}}