{"type":"Feature","properties":{"GID_2":"TUR.14.4_1","GID_0":"TUR","country":"Turkey","GID_1":"TUR.14_1","province":"Batman","NL_NAME_1":"NA","county":"Kozluk","VARNAME_2":"NA","NL_NAME_2":"NA","TYPE_2":"District","ENGTYPE_2":"District","CC_2":"NA","HASC_2":"TR.BM.KO","name":"Kozluk.county"},
"geometry":{"type": "MultiPolygon","coordinates": [[[[41.4813,38.0212,599.6221],[41.5233,38.0196,680.1438],[41.5506,38.0209,700.7964],[41.6067,38.0385,931.4594],[41.6221,38.0655,1019.4398],[41.6461,38.1024,1150.0],[41.6521,38.1325,828.7628],[41.662,38.1516,917.6825],[41.6668,38.1792,1008.4264],[41.6749,38.1952,915.0513],[41.6782,38.2068,974.0597],[41.6797,38.2235,1267.4033],[41.68,38.3487,2168.6296],[41.6776,38.3649,1788.6166],[41.6668,38.3878,1790.7042],[41.6624,38.4211,1884.1699],[41.6367,38.4076,1971.269],[41.618,38.4004,1825.0709],[41.6058,38.3931,1768.073],[41.5842,38.3755,2098.0688],[41.5702,38.356,1837.2307],[41.5583,38.345,1775.5155],[41.5467,38.3379,1486.5823],[41.5279,38.3305,1875.6575],[41.5164,38.3233,1724.4275],[41.5066,38.3147,1589.3267],[41.4968,38.3005,1500.2007],[41.4885,38.2928,1540.1083],[41.4537,38.2779,1584.58],[41.4232,38.2669,1375.5964],[41.3993,38.2625,1242.2528],[41.3783,38.2553,1045.0651],[41.3673,38.2534,1170.6741],[41.2141,38.253,771.2855],[41.2152,38.2162,730.5475],[41.2178,38.2075,716.803],[41.2278,38.188,657.9355],[41.2292,38.1639,693.1149],[41.2259,38.1492,640.91],[41.2167,38.1325,601.5215],[41.2115,38.1056,585.6398],[41.2024,38.0889,581.4866],[41.1989,38.0784,578.5732],[41.2124,38.0756,594.5676],[41.2339,38.0685,710.4015],[41.2802,38.0653,767.3801],[41.3166,38.0557,670.7435],[41.4144,38.0553,678.2699],[41.434,38.0535,695.0099],[41.4446,38.0496,675.1157],[41.4537,38.0439,682.7035],[41.4813,38.0212,599.6221]]]]}}