{"type": "Feature","bbox": [39.5942,39.5187,40.0592,39.7825],"geometry": {"type": "MultiPolygon","coordinates": [[[[39.6565,39.7825,2587.8062],[39.6556,39.7562,2151.1541],[39.6528,39.7452,1674.1178],[39.636,39.7194,1166.5295],[39.6069,39.695,1146.6663],[39.5968,39.6826,1147.2188],[39.5942,39.6691,1147.7344],[39.5953,39.6613,1149.0453],[39.5999,39.6546,1149.4911],[39.606,39.6518,1149.1372],[39.6165,39.6504,1149.5503],[39.7172,39.6516,1157.274],[39.7445,39.6487,1160.4288],[39.7574,39.6423,1161.3306],[39.774,39.6294,1167.5792],[39.7858,39.6176,1173.3423],[39.7952,39.6036,1389.9976],[39.8017,39.598,1454.6548],[39.8552,39.5764,1457.4595],[39.8729,39.5636,1542.5299],[39.8859,39.5499,1716.0938],[39.9093,39.5438,1612.2693],[39.957,39.5253,2314.0891],[39.9864,39.5187,2414.1252],[39.9862,39.604,1527.4601],[39.9885,39.6154,1723.8201],[39.9958,39.6329,1743.4934],[40.004,39.6496,1791.8324],[40.0101,39.6555,1910.5332],[40.0214,39.6606,2076.6987],[40.0471,39.6658,2018.4784],[40.0544,39.6707,2133.6458],[40.0588,39.6776,2129.6899],[40.0592,39.683,2169.8799],[40.056399999999996,39.6903,2243.373],[40.0446,39.7083,2149.1958],[40.0382,39.7142,2084.1487],[40.0261,39.7196,2199.8647],[39.9943,39.7215,2375.4314],[39.9537,39.7198,2580.4641],[39.9256,39.7118,2767.01],[39.9156,39.7115,2773.1162],[39.9093,39.7132,2734.8167],[39.902,39.7179,2708.7373],[39.8866,39.7386,2372.168],[39.8625,39.7585,2563.8611],[39.8501,39.7656,2723.7283],[39.8199,39.7768,2756.7717],[39.7967,39.7793,2816.541],[39.6834,39.7794,3176.6504],[39.6565,39.7825,2587.8062]]]]}
,"properties": {"GID_2": "TUR.30.9_1","GID_0": "TUR","country": "Turkey","GID_1": "TUR.30_1","province": "Erzincan","NL_NAME_1": "NA","county": "Üzümlü","VARNAME_2": "NA","NL_NAME_2": "NA","TYPE_2": "District","ENGTYPE_2": "District","CC_2": "NA","HASC_2": "TR.EN.UZ","name": "Üzümlü.county","area_km2": 594.9138,"hist_schema_id": "Elevation0-9000","hist_area_km2": {"1150": 40.2442,"1175": 15.9473,"1200": 10.3657,"1225": 8.1465,"1250": 8.4737,"1275": 9.1753,"1300": 8.2938,"1325": 9.2578,"1350": 9.5196,"1375": 9.5692,"1400": 8.4099,"1425": 9.4227,"1450": 10.583,"1475": 10.5171,"1500": 9.9783,"1525": 10.4835,"1550": 9.9936,"1575": 8.9648,"1600": 8.1811,"1625": 7.2828,"1650": 7.1516,"1675": 7.1514,"1700": 7.0045,"1725": 6.6125,"1750": 6.7595,"1775": 6.8248,"1800": 6.8081,"1825": 6.7751,"1850": 6.5953,"1875": 6.2195,"1900": 6.0399,"1925": 6.9865,"1950": 6.5782,"1975": 6.3979,"2000": 7.4099,"2025": 6.8542,"2050": 7.4413,"2075": 6.9026,"2100": 7.7835,"2125": 7.1461,"2150": 7.4727,"2175": 7.799,"2200": 8.4182,"2225": 8.3692,"2250": 9.1037,"2275": 8.7278,"2300": 8.6793,"2325": 8.7933,"2350": 9.1679,"2375": 9.0704,"2400": 8.0585,"2425": 9.2982,"2450": 8.0091,"2475": 8.1066,"2500": 7.6175,"2525": 6.9481,"2550": 6.5075,"2575": 6.5404,"2600": 5.8712,"2625": 6.2628,"2650": 6.279,"2675": 6.0015,"2700": 6.2299,"2725": 6.1808,"2750": 5.5773,"2775": 5.4629,"2800": 5.5118,"2825": 5.316,"2850": 4.4353,"2875": 3.5874,"2900": 3.5056,"2925": 3.4075,"2950": 2.8207,"2975": 2.4291,"3000": 1.7444,"3025": 1.5324,"3050": 1.3204,"3075": 0.9292,"3100": 0.7171,"3125": 0.7497,"3150": 0.5378,"3175": 0.3748,"3200": 0.2607,"3225": 0.2118,"3250": 0.1955,"3275": 0.1141,"3300": 0.0978,"3325": 0.0489,"3350": 0.1304,"3375": 0.0652,"3400": 0.0163,"3425": 0.0163,"3450": 0.0326}}}