{"type":"Feature","properties":{"GID_2":"TUR.7.14_1","GID_0":"TUR","country":"Turkey","GID_1":"TUR.7_1","province":"Ankara","NL_NAME_1":"NA","county":"Haymana","VARNAME_2":"NA","NL_NAME_2":"NA","TYPE_2":"District","ENGTYPE_2":"District","CC_2":"NA","HASC_2":"TR.AN.HA","name":"Haymana.county"},
"geometry":{"type": "MultiPolygon","coordinates": [[[[32.8627,39.3591,1056.4868],[32.8561,39.3667,1058.2458],[32.8532,39.3748,1060.0022],[32.8527,39.4197,1076.963],[32.8505,39.4311,1103.3369],[32.8476,39.4361,1127.1748],[32.8411,39.4418,1209.5186],[32.8205,39.4504,1110.7202],[32.8089,39.4573,1122.2407],[32.8012,39.4636,1136.7937],[32.7954,39.4709,1168.5913],[32.7923,39.4824,1204.3311],[32.7926,39.5215,1100.1951],[32.7905,39.5362,1054.854],[32.7599,39.5856,1007.3433],[32.7433,39.6017,1001.2373],[32.6826,39.6483,1125.7959],[32.6715,39.6543,1128.5508],[32.6289,39.6699,1220.6099],[32.6211,39.6746,1223.1658],[32.6151,39.6806,1188.1658],[32.6002,39.7039,1239.8521],[32.557,39.6728,1236.275],[32.5056,39.6533,1118.6704],[32.4856,39.6389,1030.4041],[32.4709,39.6182,991.5249],[32.4429,39.5943,991.2642],[32.435,39.5858,1000.0768],[32.339,39.4364,1179.7202],[32.3305,39.4274,1062.9661],[32.3076,39.4089,955.0289],[32.2996,39.3996,913.2291],[32.2966,39.3886,938.4973],[32.2969,39.3773,889.3527],[32.2999,39.3666,872.341],[32.3078,39.3534,961.152],[32.3082,39.3456,975.8184],[32.3042,39.3381,952.3582],[32.2868,39.3209,1002.4934],[32.2845,39.3158,973.6141],[32.2842,39.3105,1008.061],[32.2858,39.3055,933.9752],[32.2986,39.2848,945.2858],[32.3355,39.2299,999.0725],[32.3386,39.22,1009.8047],[32.3367,39.2125,998.9744],[32.3282,39.1962,953.8868],[32.3238,39.1597,885.4911],[32.3128,39.138,834.5828],[32.3087,39.1015,848.5594],[32.2983,39.0825,935.7247],[32.2945,39.0681,1018.2089],[32.3274,39.0539,1082.2832],[32.3607,39.0466,976.752],[32.3818,39.0363,1082.3271],[32.3904,39.0267,1126.1865],[32.4024,39.0186,1022.2083],[32.4325,39.011,998.5615],[32.4586,38.9964,1141.1807],[32.4721,38.9947,1152.3063],[32.4786,38.996,1124.3596],[32.5075,39.0077,1113.304],[32.5165,39.0152,1113.0861],[32.5298,39.034,1098.6813],[32.5428,39.0443,1081.5674],[32.5559,39.0498,1038.5167],[32.5787,39.0516,1012.5502],[32.6329,39.0501,1023.0485],[32.6839,39.0326,1075.4058],[32.7027,39.0328,1057.7451],[32.7422,39.0821,1068.2805],[32.8184,39.142,1168.2947],[32.8379,39.1535,1292.9563],[32.8581,39.1562,1400.2743],[32.8925,39.1543,1217.8461],[32.9257,39.1416,1108.5389],[32.9484,39.1277,1081.5737],[32.9568,39.1255,1070.1611],[32.9678,39.1289,1063.1436],[32.9855,39.1398,1051.1405],[33.0038,39.1469,1053.6882],[33.0145,39.1535,1066.2948],[33.0275,39.1658,1111.0342],[33.032,39.1788,1107.3149],[33.0155,39.1826,1082.7517],[32.9885,39.1983,1099.1393],[32.9644,39.2089,1121.7255],[32.9056,39.2534,1079.1211],[32.8845,39.2728,1051.2852],[32.8689,39.2988,1051.5911],[32.8672,39.31,1051.6108],[32.8663,39.3418,1054.282],[32.8627,39.3591,1056.4868]]]]}}