{"type": "Feature","bbox": [28.7475,40.9928,28.8142,41.0601],"geometry": {"type": "MultiPolygon","coordinates": [[[[28.7674,40.9928,2.1522],[28.7932,40.9977,71.5163],[28.7975,41.0072,87.7206],[28.8056,41.0138,19.3074],[28.8059,41.0222,19.5473],[28.8132,41.0375,30.3214],[28.8142,41.0601,41.999],[28.7782,41.0598,39.8495],[28.7507,41.0573,40.4076],[28.7519,41.043,14.147],[28.7475,41.0262,0.5],[28.7508,41.0214,0.5],[28.7523,40.9999,0.5],[28.7574,40.9952,0.5],[28.7665,40.9948,7.5158],[28.7674,40.9928,2.1522]]]]}
,"properties": {"GID_2": "TUR.40.26_1","GID_0": "TUR","country": "Turkey","GID_1": "TUR.40_1","province": "Istanbul","NL_NAME_1": "NA","county": "Küçükçekmece","VARNAME_2": "NA","NL_NAME_2": "NA","TYPE_2": "District","ENGTYPE_2": "District","CC_2": "NA","HASC_2": "TR.IB.KU","name": "Küçükçekmece.county","area_km2": 33.25218,"hist_schema_id": "Elevation0-9000","hist_area_km2": {"0": 5.51935,"25": 7.32491,"50": 8.44431,"75": 7.86904,"100": 3.5668,"125": 0.52775}}}