{"type":"Feature","properties":{"GID_1":"TUR.50_1","GID_0":"TUR","country":"Turkey","province":"Kirklareli","VARNAME_1":"Kırklareli","NL_NAME_1":"NA","TYPE_1":"Il","ENGTYPE_1":"Province","CC_1":"NA","HASC_1":"TR.KL","ISO_1":"TR-39","name":"Kirklareli.province"},
"geometry":{"type": "MultiPolygon","coordinates": [[[[27.5421,41.907,470.7841],[27.5354,41.9131,442.0815],[27.5216,41.9367,383.2425],[27.509,41.9507,410.6175],[27.5053,41.9532,440.482],[27.4899,41.9511,479.8355],[27.4807,41.9524,561.8984],[27.4709,41.9592,518.3641],[27.4635,41.9683,645.0026],[27.4605,41.9696,662.7186],[27.4528,41.9685,623.1022],[27.4414,41.9699,642.7007],[27.4361,41.9748,649.803],[27.4319,41.9869,536.739],[27.4282,41.9899,529.2583],[27.4197,41.9889,466.506],[27.4159,41.9901,457.8781],[27.4108,41.9998,556.0904],[27.3943,42.0133,586.7633],[27.387,42.0248,492.7798],[27.3842,42.0344,463.4441],[27.3769,42.0495,429.1862],[27.3716,42.0544,390.7486],[27.3647,42.0581,416.3073],[27.3548,42.0607,384.3267],[27.3396,42.0622,317.7744],[27.3381,42.064,279.4742],[27.3396,42.0657,300.0822],[27.3387,42.0716,322.9269],[27.3356,42.0781,279.2834],[27.3294,42.0841,365.6661],[27.3095,42.0904,425.9865],[27.2987,42.0964,425.8811],[27.2857,42.099,457.4528],[27.2757,42.1051,471.369],[27.2719,42.1063,488.4347],[27.2628,42.1035,492.9933],[27.2481,42.1067,472.6456],[27.2298,42.1011,523.0021],[27.2217,42.0897,482.7263],[27.208,42.084,560.8093],[27.2074,42.0811,536.1302],[27.2093,42.0742,569.6313],[27.2126,42.0696,566.7762],[27.2095,42.0649,616.7483],[27.2033,42.065,634.9246],[27.1864,42.0742,558.0526],[27.1824,42.0742,579.2501],[27.1716,42.0701,618.0739],[27.1485,42.0723,555.0513],[27.1397,42.0751,507.2653],[27.1239,42.0869,485.6405],[27.1142,42.0902,534.1741],[27.1029,42.09,540.5151],[27.0777,42.0943,539.479],[27.0697,42.0923,617.6433],[27.0605,42.087,535.8636],[27.0509,42.0839,501.163],[27.0385,42.0838,500.1762],[27.0281,42.0812,540.6984],[27.0304,42.065,500.5773],[27.0258,42.0576,476.887],[27.0145,42.0462,435.7673],[27.0026,42.0406,417.6764],[26.9878,42.0374,439.4796],[26.9831,42.0332,470.9839],[26.9831,42.0172,426.9065],[26.9728,42.0058,452.1251],[26.9783,42.0044,409.3651],[26.9731,41.9916,462.1237],[26.972,41.9777,417.4905],[26.9754,41.9675,373.7508],[26.9836,41.9602,401.6107],[26.9889,41.9179,294.89],[26.9837,41.8883,357.1749],[26.9745,41.8715,278.5665],[26.9721,41.8627,268.5202],[26.9699,41.8126,240.8326],[26.9674,41.8038,230.9809],[26.9576,41.784,179.121],[26.9554,41.746,141.6969],[26.9513,41.7314,140.3127],[26.9384,41.7103,126.3747],[26.9235,41.6906,146.3783],[26.9096,41.6798,140.0318],[26.9138,41.6645,130.5224],[26.9217,41.6563,102.667],[26.93,41.652,104.1414],[26.9725,41.6366,133.4833],[26.9913,41.6276,127.2695],[26.9974,41.6227,125.7248],[27.0005,41.6164,114.1728],[26.9999,41.556,65.5399],[26.9955,41.545,59.3982],[26.9755,41.5246,54.4114],[26.9614,41.5058,88.5499],[26.9193,41.4699,41.5444],[26.9034,41.4311,60.9767],[26.8829,41.406,37.5618],[26.8801,41.3973,49.9114],[26.8796,41.373,35.2064],[26.8817,41.3642,23.8706],[26.886,41.3567,24.11],[26.8983,41.343,19.5953],[26.9145,41.3331,56.3363],[26.9298,41.3268,104.8764],[26.9415,41.3254,87.9596],[26.9649,41.3269,82.7645],[26.9863,41.3342,56.8896],[27.0012,41.3365,59.94],[27.0683,41.336,28.499],[27.0884,41.3397,29.8446],[27.1063,41.346,44.7572],[27.1205,41.3481,42.2809],[27.2439,41.3485,46.905],[27.2691,41.346,38.374],[27.2868,41.3396,43.7163],[27.314,41.3343,47.2753],[27.3711,41.3127,90.8807],[27.3833,41.3067,98.0621],[27.3987,41.2941,102.4715],[27.4103,41.2771,108.3345],[27.4361,41.2501,120.8559],[27.4783,41.2236,111.1819],[27.4919,41.2202,62.0943],[27.5209,41.2211,84.9756],[27.5467,41.2318,74.8801],[27.5536,41.2366,99.8045],[27.579,41.2632,115.0657],[27.59,41.2796,103.0555],[27.608,41.2987,124.5265],[27.6431,41.349,101.7136],[27.6575,41.3725,110.2341],[27.6643,41.3936,114.9951],[27.6736,41.4099,124.5565],[27.6821,41.4412,132.8768],[27.6746,41.4578,141.7019],[27.6962,41.4696,149.559],[27.7308,41.4944,169.9005],[27.7639,41.5076,194.0478],[27.7703,41.5088,185.2588],[27.7771,41.5087,185.468],[27.8011,41.5014,163.2733],[27.8161,41.4995,140.8656],[27.8474,41.499,123.1049],[27.8665,41.5008,128.3437],[27.9778,41.5433,252.1705],[28.0051,41.5486,187.6351],[28.0263,41.5556,202.1257],[28.0653,41.5601,126.8725],[28.0831,41.5664,149.8441],[28.1104,41.5716,115.5302],[28.1317,41.5786,60.1216],[28.1496,41.5805,0.1604],[28.1462,41.584,2.1606],[28.1429,41.5846,3.8911],[28.1418,41.5904,1.296],[28.1465,41.5918,10.8866],[28.1432,41.5951,6.6114],[28.1435,41.5979,0.0],[28.1385,41.599,55.5904],[28.1379,41.6015,9.1999],[28.1349,41.6032,6.8682],[28.129,41.6037,47.2353],[28.129,41.6068,11.8346],[28.1268,41.6071,5.028],[28.126,41.6104,33.8933],[28.1213,41.611,11.3472],[28.1185,41.6162,0.0],[28.1143,41.6168,31.5916],[28.1096,41.6229,23.1703],[28.1018,41.6276,2.6543],[28.1001,41.6271,13.538],[28.0987,41.631,0.8081],[28.0965,41.631,0.2694],[28.0968,41.6324,14.88],[28.0999,41.6329,0.6768],[28.0985,41.6374,0.0],[28.0912,41.6385,6.7714],[28.0932,41.6421,8.1252],[28.0899,41.6457,1.2138],[28.0874,41.6554,0.0],[28.0901,41.6629,12.1213],[28.0968,41.6632,0.0],[28.0987,41.6654,0.0],[28.104,41.6665,0.0],[28.1057,41.6693,0.0],[28.1018,41.6707,0.0],[28.1018,41.6729,0.0],[28.1001,41.6732,23.5992],[28.0996,41.6799,0.0],[28.0935,41.6818,10.7239],[28.0915,41.6874,0.0],[28.0896,41.6874,0.0],[28.0876,41.6899,0.0],[28.0804,41.6907,3.8916],[28.0713,41.6963,4.2447],[28.0713,41.6987,0.0],[28.0679,41.6996,43.2609],[28.0643,41.7032,26.7018],[28.0626,41.7065,0.0],[28.0629,41.7124,0.0],[28.0549,41.7188,0.0],[28.049,41.7212,4.4148],[28.0454,41.726,0.7131],[28.0454,41.7304,10.9919],[28.041,41.7313,11.9287],[28.0399,41.7382,0.0],[28.0449,41.7401,0.0],[28.0426,41.7432,0.0],[28.0435,41.7457,0.0],[28.0404,41.7479,4.3099],[28.0424,41.7487,0.0],[28.0421,41.7526,0.0],[28.0382,41.754,3.3085],[28.0385,41.756,0.0],[28.0338,41.7621,0.0],[28.0301,41.761,2.7813],[28.0312,41.7629,0.0],[28.028199999999998,41.7654,2.4253],[28.0251,41.7651,16.9569],[28.0176,41.771,0.0489],[28.0107,41.7807,0.3948],[28.0043,41.7863,16.007],[28.0043,41.7887,2.8824],[27.9957,41.7974,3.0526],[27.9846,41.8176,0.5262],[27.9788,41.8351,15.3808],[27.9768,41.846,3.0221],[27.9787,41.8657,0.6889],[27.9732,41.8651,0.24],[27.9732,41.8615,0.2679],[27.9704,41.8624,0.1163],[27.971,41.8654,0.2679],[27.9746,41.8682,0.0469],[27.9796,41.8682,0.4171],[27.9813,41.8707,9.6529],[27.9849,41.8704,0.0],[27.9893,41.8779,3.3361],[27.9893,41.8807,1.5801],[27.9957,41.8876,0.608],[28.0104,41.894,6.5361],[28.0163,41.8943,3.178],[28.021,41.8926,3.5725],[28.0249,41.889,0.3624],[28.0287,41.8885,0.7004],[28.0418,41.8804,0.0],[28.0549,41.881,0.0],[28.0579,41.8832,0.0],[28.054,41.8937,7.8639],[28.054,41.8982,0.0],[28.0504,41.9018,9.7587],[28.049,41.9063,0.0],[28.046,41.9076,11.6588],[28.0474,41.9099,0.0],[28.044,41.9137,0.0],[28.0462,41.9165,0.0],[28.0479,41.924,2.3533],[28.0429,41.934,0.0],[28.0449,41.9382,0.0],[28.049,41.9401,0.0],[28.0501,41.9451,6.9527],[28.0476,41.9479,7.4162],[28.046,41.9538,0.0],[28.0407,41.956,6.5267],[28.0407,41.9588,2.8466],[28.0435,41.9599,0.0733],[28.0432,41.9626,0.0],[28.0365,41.9671,0.0],[28.0326,41.9657,0.5866],[28.0324,41.9688,0.8377],[28.0301,41.9696,7.5678],[28.0263,41.9751,4.5924],[28.0279,41.9821,2.3287],[28.0347,41.9824,0.1826],[28.0313,41.987,35.5137],[28.0171,41.986,9.2795],[28.0193,41.981,5.4502],[28.0154,41.9787,25.9067],[27.9941,41.9763,85.7416],[27.976,41.9769,127.4696],[27.9653,41.9845,124.8153],[27.9606,41.9835,108.9981],[27.9574,41.9789,35.9319],[27.9399,41.9724,171.815],[27.9379,41.9778,52.2504],[27.9314,41.9748,57.0381],[27.9192,41.9776,18.7963],[27.916,41.9698,61.7884],[27.9095,41.9724,81.2727],[27.9028,41.9686,161.943],[27.8967,41.9689,92.9525],[27.8894,41.9738,190.4278],[27.8885,41.9761,188.1643],[27.8906,41.9819,102.1585],[27.8888,41.9842,171.4589],[27.8762,41.9851,228.4169],[27.8563,41.9961,59.3411],[27.8519,41.9966,26.6394],[27.8493,41.9949,29.8586],[27.8499,41.986,143.609],[27.8464,41.9837,172.0163],[27.8432,41.9834,178.5003],[27.8422,41.9916,30.844],[27.8378,41.9914,61.4663],[27.8364,41.9834,181.9456],[27.829,41.9837,145.8986],[27.821,41.9867,58.8517],[27.813,41.9798,163.1378],[27.8107,41.9706,159.8864],[27.8129,41.9658,228.4158],[27.8155,41.9646,186.1788],[27.8162,41.9589,181.8053],[27.8144,41.954,83.3281],[27.8165,41.9511,168.0382],[27.8192,41.9506,149.6031],[27.8243,41.9533,167.7766],[27.8269,41.9514,150.677],[27.8274,41.9454,106.8139],[27.8244,41.9423,130.3428],[27.8202,41.941,193.8822],[27.8164,41.9414,158.3703],[27.8144,41.9448,124.4731],[27.8065,41.9438,176.4449],[27.8053,41.9372,251.7363],[27.8025,41.9357,267.4392],[27.7994,41.9367,274.4468],[27.7986,41.9417,250.4305],[27.7947,41.9439,130.3119],[27.7831,41.9411,237.882],[27.7776,41.946,210.9905],[27.7736,41.9452,258.5219],[27.7725,41.9464,227.0728],[27.7787,41.9542,79.5907],[27.7701,41.9582,196.2799],[27.7636,41.9546,293.5634],[27.7541,41.9598,266.3051],[27.7375,41.9603,331.1081],[27.7349,41.9625,278.9685],[27.7404,41.9677,179.8896],[27.7291,41.9727,117.0552],[27.7251,41.9679,219.6147],[27.7223,41.967,295.3565],[27.7152,41.9707,270.0712],[27.6926,41.973,142.1183],[27.692,41.9709,176.4038],[27.6961,41.9665,264.4599],[27.6936,41.9649,212.6604],[27.6813,41.9669,215.5849],[27.6761,41.9649,219.7153],[27.6738,41.9584,273.3322],[27.6704,41.9575,204.8472],[27.6685,41.9526,231.4479],[27.6654,41.9522,246.8938],[27.6632,41.9577,213.59],[27.6536,41.9516,314.0409],[27.6512,41.9521,311.2702],[27.6496,41.9566,296.7138],[27.6429,41.9554,232.7925],[27.634,41.9504,355.3605],[27.6323,41.9544,241.0527],[27.625,41.9518,244.0422],[27.6166,41.9543,316.9927],[27.6141,41.9532,298.7325],[27.6147,41.9509,271.866],[27.6226,41.9452,258.543],[27.6081,41.9376,265.5758],[27.6026,41.9361,321.1748],[27.6023,41.9424,286.7051],[27.5969,41.9442,288.2597],[27.5807,41.9309,353.7045],[27.5774,41.9315,347.8775],[27.5716,41.9366,293.1957],[27.5686,41.9366,351.1584],[27.5687,41.9315,281.9676],[27.5608,41.922,332.2417],[27.5686,41.9204,288.5482],[27.569,41.9178,292.458],[27.5574,41.9136,380.7786],[27.5574,41.9122,380.7786],[27.5654,41.9103,336.38],[27.5674,41.9063,310.901],[27.5639,41.9014,337.4434],[27.5514,41.8996,330.7037],[27.5421,41.907,470.7841]]]]}}