{"type": "Feature","id": "2241","bbox": [26.78021,41.26456,28.20302,42.09792],"geometry": {"type": "Polygon","coordinates": [[[27.54641,41.90116,364.5184],[27.53318,41.90806,353.2744],[27.50946,41.93318,459.7331],[27.49432,41.94284,492.5651],[27.42084,41.97372,642.2216],[27.39686,41.98932,590.3691],[27.37485,42.0087,484.832],[27.33247,42.05743,314.0165],[27.30529,42.07759,336.523],[27.27335,42.09175,445.4906],[27.23821,42.09792,512.2094],[27.21641,42.09562,531.5775],[27.2038,42.08813,487.8992],[27.18158,42.06588,653.5456],[27.17899,42.06188,646.3378],[27.17816,42.05836,631.9752],[27.17382,42.05707,606.393],[27.14959,42.06183,628.152],[27.12721,42.06258,547.9171],[27.11605,42.06183,545.0084],[27.10065,42.0711,566.1622],[27.0837,42.07841,486.1864],[27.06551,42.0827,532.2662],[27.0479,42.08292,495.3255],[27.04655,42.08294,495.3255],[27.02262,42.07389,543.1082],[27.0004,42.04281,405.5967],[26.98107,42.03286,455.4342],[26.96717,42.0285,384.1921],[26.95823,42.01824,436.7584],[26.95007,42.00617,453.3391],[26.9389,41.99622,426.9425],[26.93022,41.99452,412.2564],[26.91146,41.99679,420.2663],[26.90108,41.99348,439.654],[26.89033,41.98542,454.7766],[26.88113,41.98553,437.5006],[26.87172,41.98814,459.1682],[26.86077,41.9879,491.4429],[26.85002,41.98286,493.9224],[26.8379,41.97522,500.2244],[26.83819,41.97429,495.8551],[26.8632,41.85918,281.3208],[26.89482,41.76355,184.7686],[26.90619,41.66694,134.3781],[26.88439,41.57054,133.2286],[26.84356,41.52434,131.3266],[26.82837,41.4523,53.0139],[26.78021,41.37556,114.1389],[26.80976,41.33027,17.1599],[26.96035,41.35531,24.6052],[27.12344,41.36476,30.379],[27.23982,41.36476,35.9418],[27.29552,41.33693,42.9421],[27.34027,41.29242,74.024],[27.39598,41.26456,106.9158],[27.45965,41.27815,58.4845],[27.51794,41.31112,85.6833],[27.55411,41.36678,108.0954],[27.60145,41.41969,135.29],[27.69891,41.44194,133.4079],[27.80743,41.46145,113.4344],[27.98044,41.47814,205.3331],[28.15573,41.4922,261.5252],[28.15749,41.49209,232.4041],[28.20296,41.5401,71.493],[28.20302,41.54017,71.493],[28.17774,41.55817,122.2999],[28.1565,41.58438,0.0],[28.14186,41.59894,0.0],[28.11329,41.61156,61.3176],[28.09718,41.6267,1.2391],[28.08334,41.64492,46.0347],[28.07594,41.66055,60.5062],[28.07667,41.66682,72.7726],[28.08155,41.66739,118.2902],[28.08709,41.66706,98.0329],[28.08961,41.6708,54.9107],[28.08839,41.67691,49.497],[28.08579,41.67975,56.364],[28.08326,41.68155,64.6103],[28.07846,41.69196,45.9268],[28.07008,41.69941,1.3834],[28.05177,41.71206,73.4739],[28.04021,41.72541,45.1592],[28.02125,41.77041,0.1113],[28.00489,41.78856,0.0],[27.98683,41.80402,13.2346],[27.97202,41.82225,17.8048],[27.96608,41.84894,39.045],[27.96909,41.87377,17.5262],[27.97755,41.88736,22.8597],[27.99057,41.89277,0.8757],[28.00701,41.8933,0.0],[28.02565,41.88736,0.0],[28.03582,41.88589,39.5513],[28.04493,41.8902,64.9442],[28.04656,41.89712,36.6988],[28.04233,41.90485,39.422],[28.0359,41.9112,39.6213],[28.03094,41.91376,40.7703],[28.03061,41.92455,45.129],[28.01678,41.97253,45.4932],[27.98101,41.97852,103.5514],[27.96592,41.98214,76.6543],[27.91703,41.9779,31.0374],[27.90339,41.98106,63.6399],[27.87693,41.99072,82.6071],[27.85223,41.99545,26.6394],[27.84303,41.99576,160.9237],[27.82402,41.99348,34.1709],[27.81993,41.9947,114.7559],[27.81596,41.99514,155.5136],[27.81192,41.9947,190.0786],[27.808,41.99348,203.6154],[27.80495,41.98343,197.2567],[27.8049,41.96989,235.0659],[27.80273,41.96005,225.4255],[27.81828,41.95287,84.771],[27.81534,41.94679,135.8702],[27.80283,41.94307,213.3808],[27.78981,41.94269,170.866],[27.77616,41.94612,224.5538],[27.72397,41.96759,257.7545],[27.68707,41.9686,243.3952],[27.6093,41.95349,313.6702],[27.60687,41.94351,255.4062],[27.60336,41.93863,342.4078],[27.59809,41.9386,297.1873],[27.59054,41.94289,283.2386],[27.58238,41.93488,311.7161],[27.5722,41.92984,316.8706],[27.55075,41.92421,424.5597],[27.5521,41.92184,438.905],[27.55489,41.92034,423.6964],[27.55794,41.91907,403.9877],[27.56067,41.91768,316.7202],[27.55747,41.9155,425.3019],[27.55127,41.9131,307.6606],[27.54889,41.91088,352.2067],[27.56274,41.90644,316.3887],[27.54641,41.90116,364.5184]]]}
,"properties": {"ISO3166-1-Alpha-3": "TUR","country": "Turkey","fill": "#00F","name": "Kirklareli","area_km2": 6879.267,"hist_schema_id": "Elevation0-9000","hist_area_km2": {"0": 11.813,"25": 117.268,"50": 359.748,"75": 552.644,"100": 487.214,"125": 537.167,"150": 604.785,"175": 458.839,"200": 385.126,"225": 326.064,"250": 276.906,"275": 256.252,"300": 251.697,"325": 261.886,"350": 269.361,"375": 246.629,"400": 220.649,"425": 188.491,"450": 163.139,"475": 142.387,"500": 127.082,"525": 113.997,"550": 108.252,"575": 92.012,"600": 83.818,"625": 74.213,"650": 57.77,"675": 40.911,"700": 22.061,"725": 12.089,"750": 7.335,"775": 5.866,"800": 4.332,"825": 3.874,"850": 3.036,"875": 1.755,"900": 1.028,"925": 0.822,"950": 0.506,"975": 0.3,"1000": 0.111}}}