{"type":"Feature","properties":{"GID_2":"TUR.28.7_1","GID_0":"TUR","country":"Turkey","GID_1":"TUR.28_1","province":"Edirne","NL_NAME_1":"NA","county":"Merkez","VARNAME_2":"Edirne","NL_NAME_2":"NA","TYPE_2":"District","ENGTYPE_2":"District","CC_2":"NA","HASC_2":"TR.ED.ED","name":"Merkez.county"},
"geometry":{"type": "MultiPolygon","coordinates": [[[[26.3688,41.7142,47.274],[26.385,41.7024,40.9294],[26.4126,41.6924,39.0676],[26.4264,41.6925,38.6834],[26.4355,41.6949,42.619],[26.4439,41.6949,47.6675],[26.4523,41.6916,45.7499],[26.4624,41.6831,37.3039],[26.497,41.6691,36.5154],[26.4994,41.6616,40.2],[26.5188,41.6389,41.0616],[26.5365,41.627,31.7018],[26.551,41.6226,31.9308],[26.5862,41.6194,32.531],[26.5961,41.6155,33.4969],[26.6008,41.6063,32.7492],[26.6025,41.5972,47.5847],[26.5941,41.5837,33.5989],[26.6053,41.5526,29.2356],[26.6012,41.5448,32.9175],[26.601,41.5405,29.7835],[26.5979,41.5383,29.2142],[26.5994,41.531,27.6418],[26.6062,41.5228,29.432],[26.609,41.5146,49.3467],[26.6099,41.5048,45.2009],[26.6049,41.491,25.7334],[26.6159,41.4803,25.0605],[26.6199,41.4721,25.0633],[26.6175,41.449,33.2202],[26.6651,41.4404,101.1829],[26.6862,41.4331,77.7387],[26.6998,41.4304,60.4054],[26.6972,41.4499,67.8162],[26.6881,41.4663,84.8682],[26.6855,41.475,93.4207],[26.6844,41.4901,93.8363],[26.6859,41.5052,107.8324],[26.6893,41.5133,107.6065],[26.7117,41.5479,74.5454],[26.7186,41.5689,102.916],[26.7269,41.5827,106.7965],[26.7338,41.6038,125.8627],[26.7431,41.6203,118.9463],[26.7452,41.6349,117.263],[26.7456,41.6741,122.1447],[26.7484,41.6855,135.9025],[26.765,41.7113,146.6729],[26.785,41.728,137.879],[26.7898,41.7416,149.0663],[26.7909,41.7509,161.6984],[26.7893,41.7595,138.5378],[26.7857,41.7643,137.3867],[26.7775,41.768,151.3529],[26.7413,41.774,153.3688],[26.7168,41.7817,172.2049],[26.6837,41.7947,143.867],[26.6699,41.8035,170.9529],[26.6387,41.8276,153.0027],[26.6273,41.8342,151.2625],[26.597,41.8406,103.1923],[26.5663,41.8508,88.7974],[26.5659,41.867,50.5428],[26.5572,41.858,66.9185],[26.5509,41.8451,183.9017],[26.538,41.8373,137.3913],[26.3839,41.8362,263.7794],[26.3774,41.8327,253.1011],[26.3484,41.7832,126.4843],[26.3396,41.7589,109.8229],[26.3414,41.7481,88.7909],[26.3688,41.7142,47.274]]]]}}