{"type": "Feature","bbox": [35.962,39.5763,37.0252,40.2238],"geometry": {"type": "MultiPolygon","coordinates": [[[[36.9679,40.1822,2040.6702],[36.9372,40.1976,1934.3389],[36.8989,40.2026,1541.1848],[36.8737,40.2103,1762.05],[36.862,40.2117,1705.2206],[36.7886,40.2121,1580.4122],[36.7736,40.2238,1495.1084],[36.761,40.2111,1649.895],[36.7525,40.1959,1567.6854],[36.7197,40.1694,1441.1252],[36.7036,40.1462,1499.7952],[36.7,40.1389,1430.0233],[36.6997,40.1252,1561.1244],[36.7118,40.1012,1453.6663],[36.712,40.0903,1513.8649],[36.7091,40.0825,1476.0476],[36.6792,40.036,1758.406],[36.6678,40.0211,1588.3015],[36.6592,40.0144,1621.9379],[36.64,40.0056,1685.7117],[36.6066,39.9935,1633.6521],[36.5826,39.9893,1578.6281],[36.5614,39.982,1630.2887],[36.5374,39.9777,1632.4955],[36.5163,39.9704,1511.1573],[36.489,39.9652,1505.1543],[36.4716,39.958,1528.4663],[36.4425,39.9496,1726.1427],[36.421,39.9563,1529.2695],[36.3059,39.957,1222.2391],[36.2938,39.959,1259.145],[36.2724,39.9658,1329.5787],[36.247,39.9704,1136.7523],[36.2271,39.9776,1270.803],[36.1858,39.9592,1217.3643],[36.1475,39.9542,1399.3374],[36.118,39.946,1371.225],[36.0846,39.9446,1178.9351],[35.9858,39.9459,986.9803],[35.9742,39.9226,1080.5194],[35.962,39.91,1040.7648],[35.9633,39.9049,1038.3698],[35.9655,39.8999,1134.3524],[35.9733,39.8919,1319.8987],[35.9966,39.8812,1347.7979],[36.0203,39.8675,1359.4647],[36.0383,39.8602,1333.9534],[36.0471,39.8527,1355.6621],[36.0514,39.8425,1267.3702],[36.0544,39.8206,1388.4583],[36.063,39.8039,1331.8645],[36.07,39.7832,1339.2764],[36.0807,39.7738,1391.2755],[36.0987,39.7666,1372.4058],[36.1103,39.7597,1327.9238],[36.118,39.7534,1287.5803],[36.1239,39.746,1387.3986],[36.1267,39.7373,1431.0756],[36.1274,39.7222,1416.0649],[36.1258,39.7039,1534.8978],[36.1224,39.6931,1706.8296],[36.1403,39.6869,1599.7844],[36.1567,39.6771,1853.2301],[36.2221,39.6772,1821.9938],[36.2456,39.6747,1825.9648],[36.2789,39.6617,1896.5981],[36.3104,39.6395,1816.5618],[36.3232,39.633,1650.4999],[36.3419,39.6304,1579.6891],[36.3807,39.6305,1437.0522],[36.3953,39.628,1432.4396],[36.4033,39.6235,1429.5773],[36.4089,39.6171,1360.4564],[36.4113,39.6093,1392.7356],[36.4127,39.5936,1335.8533],[36.4161,39.5867,1295.4125],[36.4332,39.5779,1203.5748],[36.4417,39.5763,1204.8822],[36.4476,39.5771,1217.6066],[36.4707,39.5855,1210.4934],[36.5002,39.6035,1208.5796],[36.5302,39.6151,1210.6914],[36.5536,39.6183,1238.4165],[36.5855,39.632,1224.4965],[36.6057,39.6499,1286.3619],[36.6353,39.6617,1311.1511],[36.6453,39.664,1286.5273],[36.6774,39.667,1277.7865],[36.7021,39.6747,1272.1399],[36.7413,39.6787,1326.1873],[36.7681,39.6912,1267.3627],[36.7724,39.7007,1241.4821],[36.7728,39.7316,1244.428],[36.7745,39.7428,1282.2103],[36.7901,39.7689,1348.8076],[36.8043,39.7827,1393.6205],[36.8491,39.8167,1417.7258],[36.8592,39.8286,1448.8809],[36.8593,39.8391,1407.6158],[36.8515,39.8523,1451.7489],[36.8489,39.8602,1410.3524],[36.8477,39.8801,1365.6417],[36.85,39.8941,1360.9729],[36.8612,39.9158,1396.4601],[36.8639,39.9468,1407.574],[36.8673,39.9574,1326.1221],[36.8805,39.9785,1405.0587],[36.8919,39.9898,1389.9111],[36.9063,39.9989,1366.6825],[36.9282,40.0077,1470.7067],[36.9445,40.0195,1559.5533],[36.9508,40.0266,1621.1332],[36.9732,40.0621,1460.6365],[36.9935,40.0826,1656.5206],[37.0051,40.0987,1811.3228],[37.0252,40.1131,1657.6063],[37.0234,40.1206,1700.6772],[37.0093,40.1435,2000.8417],[36.9775,40.1712,1793.9283],[36.9679,40.1822,2040.6702]]]]}
,"properties": {"GID_2": "TUR.72.16_1","GID_0": "TUR","country": "Turkey","GID_1": "TUR.72_1","province": "Sivas","NL_NAME_1": "NA","county": "Yıldızeli","VARNAME_2": "NA","NL_NAME_2": "NA","TYPE_2": "District","ENGTYPE_2": "District","CC_2": "NA","HASC_2": "TR.SV.YI","name": "Yıldızeli.county","area_km2": 2914.891,"hist_schema_id": "Elevation0-9000","hist_area_km2": {"975": 0.699,"1000": 1.854,"1025": 4.326,"1050": 7.628,"1075": 9.206,"1100": 10.102,"1125": 13.602,"1150": 20.26,"1175": 25.549,"1200": 32.431,"1225": 76.225,"1250": 92.983,"1275": 98.957,"1300": 117.012,"1325": 140.881,"1350": 185.669,"1375": 203.931,"1400": 191.505,"1425": 188.808,"1450": 182.003,"1475": 168.536,"1500": 146.668,"1525": 137.888,"1550": 122.643,"1575": 108.182,"1600": 96.433,"1625": 92.586,"1650": 81.34,"1675": 69.313,"1700": 59.373,"1725": 48.862,"1750": 41.331,"1775": 33.554,"1800": 28.006,"1825": 22.557,"1850": 17.559,"1875": 11.666,"1900": 7.284,"1925": 3.619,"1950": 2.172,"1975": 1.961,"2000": 1.28,"2025": 1.199,"2050": 1.005,"2075": 1.021,"2100": 0.956,"2125": 0.47,"2150": 0.438,"2175": 0.389,"2200": 0.373,"2225": 0.405,"2250": 0.276,"2275": 0.308,"2300": 0.259,"2325": 0.276,"2350": 0.243,"2375": 0.178,"2400": 0.146,"2425": 0.195,"2450": 0.113,"2475": 0.049,"2500": 0.081,"2525": 0.065}}}