{"type": "Feature","bbox": [40.0098,38.4743,41.2767,39.5656],"geometry": {"type": "MultiPolygon","coordinates": [[[[41.1089,38.6626,2079.4351],[41.2019,38.699,1637.3871],[41.2315,38.7164,1798.9398],[41.2663,38.7256,1769.5795],[41.2576,38.7526,1772.7855],[41.2429,38.776,1657.2795],[41.2344,38.785,1546.97],[41.207,38.8081,1282.3483],[41.1879,38.8359,1422.9667],[41.1736,38.8594,1647.7034],[41.1669,38.8805,1491.2594],[41.1582,38.894,1718.514],[41.1559,38.9049,1595.5221],[41.1573,38.9131,1550.3901],[41.1619,38.9207,1806.175],[41.194,38.9479,1756.5166],[41.2076,38.9668,1704.7612],[41.2392,38.9944,1776.7239],[41.2544,39.015,2036.9546],[41.2745,39.0296,2408.3259],[41.276,39.0512,2464.1877],[41.2767,39.0923,2113.9297],[41.2741,39.1106,2065.7568],[41.2674,39.1209,1964.7422],[41.2376,39.1541,1602.4801],[41.2262,39.1596,1646.9144],[41.2044,39.1636,1814.0583],[41.1997,39.2008,1870.1299],[41.1889,39.2232,2026.5771],[41.1846,39.2591,2024.3936],[41.1735,39.2811,1841.8647],[41.1717,39.2893,1812.813],[41.1731,39.3089,2068.1021],[41.1874,39.3325,2358.9761],[41.1957,39.3419,2268.4424],[41.2039,39.3479,2494.9941],[41.2187,39.3553,2483.908],[41.1936,39.3784,2447.5315],[41.1817,39.3953,2411.1084],[41.1616,39.4158,2335.2666],[41.1396,39.4511,1989.4922],[41.131,39.4588,2082.3838],[41.1219,39.4625,2141.4172],[41.1109,39.464,2072.8965],[41.0528,39.4637,2135.6255],[41.0295,39.466,2411.3569],[41.0049,39.4785,2295.1477],[40.981,39.4937,2174.4316],[40.9599,39.5022,2143.146],[40.9493,39.5088,2197.0],[40.9362,39.5209,2087.8481],[40.9237,39.5395,2091.2075],[40.9094,39.5509,1963.8345],[40.8936,39.5564,2017.6641],[40.8718,39.5571,1885.5925],[40.8694,39.5624,1943.4739],[40.8624,39.5656,2106.8674],[40.8512,39.5633,2298.8379],[40.8417,39.5572,2152.7441],[40.8281,39.5546,2101.6514],[40.8069,39.5474,2300.3213],[40.783,39.543,2443.083],[40.7352,39.5248,2472.1726],[40.7113,39.5202,2431.0833],[40.6835,39.5117,2174.9414],[40.6622,39.5129,2313.4644],[40.6446,39.5195,2617.9517],[40.6255,39.5242,2577.8223],[40.6203,39.5282,2406.9043],[40.5878,39.5366,2387.803],[40.573,39.5422,2213.344],[40.5432,39.5478,2447.1538],[40.5412,39.5315,2921.1802],[40.5385,39.5234,2628.9446],[40.5303,39.5138,2624.949],[40.5165,39.504,2237.9561],[40.4373,39.4737,1604.8892],[40.4048,39.455,1397.2273],[40.3585,39.4384,1776.2043],[40.3353,39.4275,1770.2953],[40.3331,39.4203,1809.7358],[40.337,39.4136,2209.6851],[40.3471,39.4079,2065.4546],[40.374,39.4031,1789.4218],[40.3909,39.3945,1793.8445],[40.3908,39.3829,2187.1177],[40.3711,39.3775,1835.9629],[40.3325,39.3515,2015.2656],[40.284,39.3327,2014.4829],[40.257,39.3171,2060.8936],[40.2241,39.3094,1832.942],[40.214,39.3027,1849.3127],[40.2021,39.2889,1585.0442],[40.1667,39.2924,1720.6686],[40.1488,39.2987,1402.355],[40.1217,39.3042,1477.6233],[40.0987,39.3143,1538.5106],[40.0795,39.2914,1727.3832],[40.0647,39.268,1817.986],[40.0567,39.2445,2022.203],[40.0342,39.21,1889.823],[40.0305,39.1995,1763.1556],[40.0308,39.1826,1538.1034],[40.0333,39.1746,1636.9136],[40.0416,39.161,1353.2377],[40.0433,39.1557,1325.6425],[40.0434,39.1448,1268.1945],[40.0419,39.1395,1157.0139],[40.0336,39.1258,1273.2192],[40.0298,39.1154,1314.2057],[40.0173,39.1027,1067.8191],[40.0098,39.0899,1042.0814],[40.0283,39.0945,1042.0015],[40.0448,39.1037,1100.7502],[40.0616,39.1071,1395.74],[40.0835,39.117,1458.0049],[40.1012,39.1334,1241.8417],[40.136,39.1483,1297.953],[40.1935,39.1699,1131.0],[40.2239,39.176,1248.2378],[40.2546,39.1869,1414.4446],[40.2771,39.1978,1356.8356],[40.28,39.2032,1143.4202],[40.3141,39.211,1145.1669],[40.354,39.2261,1408.3154],[40.3627,39.2262,1306.8823],[40.3702,39.2225,1215.9023],[40.374,39.2188,1177.7372],[40.3875,39.1958,1627.1174],[40.3923,39.1681,1787.8979],[40.3978,39.1558,1788.1434],[40.3825,39.1423,1831.7949],[40.3704,39.1252,1903.5593],[40.3634,39.1182,1911.2627],[40.2965,39.0659,1754.4315],[40.2881,39.056,1638.2225],[40.2846,39.0415,1720.9167],[40.2844,38.965,1619.7854],[40.2868,38.9443,1648.0515],[40.3114,38.9046,1743.1948],[40.3203,38.8698,1854.4922],[40.3398,38.868899999999996,1601.894],[40.3535,38.8621,1617.2927],[40.3727,38.8351,2010.8613],[40.3838,38.8165,2119.9849],[40.3869,38.8066,2132.0542],[40.386,38.8013,1989.7822],[40.3764,38.7828,1692.1477],[40.3725,38.7695,1584.2151],[40.3617,38.7483,1175.3806],[40.3604,38.7346,1061.9492],[40.3568,38.725,991.0996],[40.3486,38.7201,1088.0282],[40.3379,38.7189,1148.9648],[40.3229,38.7202,984.4522],[40.2967,38.7282,1070.2709],[40.2879,38.7267,1158.2406],[40.2837,38.7236,1419.5065],[40.2726,38.7095,1337.9415],[40.2586,38.6859,1790.4033],[40.2503,38.6624,1644.4219],[40.2413,38.6459,1431.8289],[40.2391,38.632,1222.1285],[40.2395,38.6081,1097.4749],[40.2507,38.5969,1063.531],[40.2701,38.5877,1126.45],[40.2773,38.5826,1142.827],[40.2829,38.5763,1034.7893],[40.296,38.5555,959.5822],[40.2979,38.5496,922.696],[40.299,38.5026,847.9298],[40.297,38.4871,861.8966],[40.2921,38.4748,878.1604],[40.4131,38.4743,1050.6171],[40.4301,38.475,1210.3862],[40.4448,38.4785,987.8372],[40.466,38.4927,865.5328],[40.4757,38.5107,874.432],[40.4827,38.5317,948.9034],[40.4916,38.5484,1005.9435],[40.4945,38.5814,1088.0264],[40.4987,38.5928,1104.6161],[40.5101,38.6041,1155.0974],[40.5188,38.6095,1167.1331],[40.5293,38.6132,1199.2339],[40.5535,38.6149,1360.0215],[40.673,38.6139,2004.2224],[40.6882,38.6117,1735.373],[40.706,38.6054,1894.8408],[40.7625,38.5916,1734.1897],[40.903,38.5914,1568.7347],[40.9166,38.5942,1641.2922],[40.9612,38.6115,1794.7729],[40.9885,38.6166,1771.016],[41.1089,38.6626,2079.4351]]]]}
,"properties": {"GID_1": "TUR.17_1","GID_0": "TUR","country": "Turkey","province": "Bingöl","VARNAME_1": "Çapakçur","NL_NAME_1": "NA","TYPE_1": "Il","ENGTYPE_1": "Province","CC_1": "NA","HASC_1": "TR.BG","ISO_1": "NA","name": "Bingöl.province","area_km2": 8127.013,"hist_schema_id": "Elevation0-9000","hist_area_km2": {"800": 1.046,"825": 6.704,"850": 15.134,"875": 16.759,"900": 14.6,"925": 12.176,"950": 11.659,"975": 30.33,"1000": 65.982,"1025": 72.89,"1050": 80.906,"1075": 80.151,"1100": 67.585,"1125": 99.244,"1150": 96.384,"1175": 93.165,"1200": 95.974,"1225": 100.693,"1250": 108.551,"1275": 116.619,"1300": 123.295,"1325": 127.631,"1350": 128.252,"1375": 129.502,"1400": 129.454,"1425": 132.804,"1450": 128.28,"1475": 123.613,"1500": 128.319,"1525": 126.006,"1550": 141.424,"1575": 163.08,"1600": 161.457,"1625": 152.582,"1650": 150.326,"1675": 147.606,"1700": 146.398,"1725": 154.11,"1750": 157.549,"1775": 174.86,"1800": 196.844,"1825": 198.293,"1850": 198.842,"1875": 201.794,"1900": 197.567,"1925": 196.317,"1950": 197.032,"1975": 199.045,"2000": 197.006,"2025": 196.399,"2050": 166.222,"2075": 147.341,"2100": 133.102,"2125": 145.234,"2150": 134.555,"2175": 122.829,"2200": 106.73,"2225": 107.221,"2250": 107.73,"2275": 100.632,"2300": 93.142,"2325": 80.771,"2350": 76.791,"2375": 76.542,"2400": 73.919,"2425": 70.666,"2450": 64.689,"2475": 62.326,"2500": 53.258,"2525": 41.881,"2550": 36.869,"2575": 33.176,"2600": 27.164,"2625": 21.561,"2650": 15.077,"2675": 10.531,"2700": 7.262,"2725": 5.127,"2750": 4.025,"2775": 2.694,"2800": 1.711,"2825": 1.48,"2850": 1.019,"2875": 0.642,"2900": 0.361,"2925": 0.213,"2950": 0.147,"2975": 0.098}}}