{"type": "Feature","bbox": [34.1257,37.9676,34.5436,38.1947],"geometry": {"type": "MultiPolygon","coordinates": [[[[34.3663,38.1533,1876.3184],[34.3527,38.1454,1826.6079],[34.3348,38.1383,1782.0167],[34.3256,38.1311,1974.3749],[34.3015,38.0938,1659.2137],[34.283,38.0749,1457.75],[34.2743,38.0613,1334.1428],[34.2684,38.056,1348.8418],[34.2603,38.0533,1461.9028],[34.2546,38.054,1512.642],[34.2116,38.0705,1758.2823],[34.1973,38.0715,1565.9972],[34.1868,38.0701,1467.1995],[34.1569,38.0586,1391.3168],[34.1469,38.052,1363.0291],[34.13,38.0268,1301.1542],[34.1257,38.0138,1273.0651],[34.1392,38.0112,1292.3376],[34.1479,38.0072,1284.4011],[34.1811,37.9833,1246.3125],[34.1997,37.9723,1195.0344],[34.2259,37.9857,1236.7932],[34.2355,37.9889,1306.7152],[34.2544,37.9907,1296.6892],[34.2934,37.9908,1176.2966],[34.3195,37.9876,1180.2197],[34.352,37.9695,1114.7676],[34.3695,37.9676,1115.7286],[34.3799,37.9691,1139.6206],[34.3975,37.9756,1203.5876],[34.4247,37.9809,1319.9631],[34.458,37.9936,1715.459],[34.4722,38.0027,1750.7351],[34.5206,38.0399,2228.7024],[34.5436,38.0546,2667.425],[34.5412,38.0617,2808.0554],[34.5289,38.0825,2745.3362],[34.512,38.1079,2365.9741],[34.4819,38.1339,1779.0417],[34.4741,38.1425,1616.0759],[34.4613,38.1702,1541.9934],[34.4275,38.1786,1568.4968],[34.3951,38.1947,1536.7001],[34.3962,38.1769,1617.5867],[34.3931,38.1662,1863.9956],[34.3821,38.157,1951.2654],[34.3663,38.1533,1876.3184]]]]}
,"properties": {"GID_2": "TUR.62.1_1","GID_0": "TUR","country": "Turkey","GID_1": "TUR.62_1","province": "Nigde","NL_NAME_1": "NA","county": "Altunhisar","VARNAME_2": "NA","NL_NAME_2": "NA","TYPE_2": "District","ENGTYPE_2": "District","CC_2": "NA","HASC_2": "TR.NG.AL","name": "Altunhisar.county","area_km2": 468.3708,"hist_schema_id": "Elevation0-9000","hist_area_km2": {"1100": 0.0167,"1125": 3.7604,"1150": 4.0608,"1175": 9.6243,"1200": 18.1599,"1225": 16.5384,"1250": 14.8346,"1275": 17.5404,"1300": 19.4434,"1325": 18.523,"1350": 14.797,"1375": 12.3079,"1400": 10.5207,"1425": 10.2533,"1450": 8.717,"1475": 8.4997,"1500": 6.2122,"1525": 5.9449,"1550": 8.6785,"1575": 8.0279,"1600": 8.1284,"1625": 8.0607,"1650": 7.6769,"1675": 7.4596,"1700": 6.9264,"1725": 6.2586,"1750": 6.8259,"1775": 6.4748,"1800": 6.4414,"1825": 6.5247,"1850": 6.8249,"1875": 7.0419,"1900": 7.9596,"1925": 7.2754,"1950": 7.5256,"1975": 7.1253,"2000": 7.6591,"2025": 6.7578,"2050": 6.5907,"2075": 6.0069,"2100": 6.007,"2125": 6.8913,"2150": 5.8899,"2175": 6.2571,"2200": 5.5063,"2225": 5.89,"2250": 5.5064,"2275": 5.2392,"2300": 5.3729,"2325": 5.1559,"2350": 5.2728,"2375": 4.3217,"2400": 4.8557,"2425": 3.8546,"2450": 4.3886,"2475": 3.3206,"2500": 3.1372,"2525": 2.7535,"2550": 2.3364,"2575": 2.2862,"2600": 2.1695,"2625": 1.9358,"2650": 1.8358,"2675": 1.502,"2700": 1.3351,"2725": 1.1348,"2750": 1.1015,"2775": 0.9846,"2800": 0.8512,"2825": 0.7511,"2850": 0.8179,"2875": 0.8179,"2900": 0.5676,"2925": 0.2337,"2950": 0.0835}}}