{"type":"Feature","properties":{"GID_2":"TUR.35.6_1","GID_0":"TUR","country":"Turkey","GID_1":"TUR.35_1","province":"Gümüshane","NL_NAME_1":"NA","county":"Torul","VARNAME_2":"NA","NL_NAME_2":"NA","TYPE_2":"District","ENGTYPE_2":"District","CC_2":"NA","HASC_2":"TR.GU.TO","name":"Torul.county"},
"geometry":{"type": "MultiPolygon","coordinates": [[[[39.0715,40.3507,3023.6868],[39.1318,40.3032,1990.7334],[39.1476,40.2938,2116.5295],[39.2073,40.2704,2153.2349],[39.2249,40.2687,2444.2683],[39.2414,40.273,2434.572],[39.2539,40.2816,2091.562],[39.2696,40.2966,2146.9534],[39.2543,40.3158,1893.385],[39.2525,40.3263,1852.3004],[39.2565,40.3354,1888.4137],[39.2693,40.3432,1996.8094],[39.2736,40.3484,2000.5554],[39.2742,40.3524,1811.3875],[39.2698,40.3646,2246.116],[39.2721,40.3747,2053.9282],[39.2802,40.3835,1817.0764],[39.3029,40.402,1872.6409],[39.3099,40.4119,1727.1464],[39.3123,40.4264,1443.4124],[39.3118,40.4774,1822.4243],[39.3136,40.486,1827.0083],[39.3184,40.4939,1662.6107],[39.3282,40.5025,1850.1404],[39.3401,40.5093,1410.4467],[39.3673,40.5148,1298.8196],[39.3768,40.5184,1308.8538],[39.4157,40.5438,1176.9252],[39.449,40.552,1531.5575],[39.479,40.5682,1843.5435],[39.5092,40.5745,1974.1821],[39.535,40.5854,2381.0122],[39.5459,40.5936,2562.626],[39.4912,40.6151,2589.7432],[39.4672,40.6194,2537.1064],[39.4461,40.6267,2417.4011],[39.4188,40.6318,2375.9243],[39.3711,40.65,1883.8566],[39.3438,40.655,1560.7347],[39.3135,40.6662,1816.0557],[39.3018,40.6726,2138.7026],[39.286,40.6847,2117.0535],[39.2767,40.6937,2149.5688],[39.2684,40.7051,2113.7632],[39.2586,40.6936,1667.9155],[39.2469,40.684,2242.8115],[39.2389,40.6794,2269.2996],[39.2178,40.6712,1860.2316],[39.2004,40.6584,1237.1381],[39.1948,40.6519,987.6],[39.1746,40.618899999999996,1651.8506],[39.1662,40.6111,1974.7609],[39.1429,40.601,1980.9813],[39.1188,40.5864,1417.8259],[39.0429,40.5578,1944.1276],[39.0269,40.5481,1460.7153],[39.0161,40.5378,1602.4674],[39.0053,40.5214,2135.6392],[38.9752,40.4954,2370.4966],[38.9602,40.4748,2635.4504],[38.9316,40.4477,2034.6003],[38.9504,40.4417,1981.8431],[38.9834,40.4282,2444.6426],[39.0219,40.402,2875.4429],[39.0434,40.3935,2791.72],[39.0542,40.3871,2991.4839],[39.0635,40.3793,2963.0547],[39.0686,40.3725,2941.1277],[39.071,40.3643,3020.1909],[39.0715,40.3507,3023.6868]]]]}}