{"type":"Feature","properties":{"GID_2":"TUR.2.9_1","GID_0":"TUR","country":"Turkey","GID_1":"TUR.2_1","province":"Adiyaman","NL_NAME_1":"NA","county":"Tut","VARNAME_2":"NA","NL_NAME_2":"NA","TYPE_2":"District","ENGTYPE_2":"District","CC_2":"NA","HASC_2":"TR.AD.TU","name":"Tut.county"},
"geometry":{"type": "MultiPolygon","coordinates": [[[[38.0219,37.6702,609.6709],[38.0328,37.6954,665.5656],[38.0421,37.7121,522.001],[38.0454,37.745,691.3512],[38.0478,37.7537,695.1309],[38.0627,37.777,696.2922],[38.083,37.7972,726.5038],[38.0883,37.8075,864.4668],[38.0877,37.8211,759.5692],[38.0786,37.8373,964.4915],[38.0755,37.8487,971.3918],[38.0749,37.8944,1098.2456],[38.0582,37.8909,1374.2993],[37.9868,37.8627,1521.4908],[37.9733,37.8602,1585.751],[37.9557,37.8618,1830.5599],[37.9382,37.8683,2307.6465],[37.9145,37.8731,2309.0554],[37.8862,37.882,1753.6775],[37.8512,37.8834,1263.1379],[37.8244,37.8815,907.5436],[37.803,37.8743,857.7426],[37.7792,37.87,846.1498],[37.7695,37.8663,795.4299],[37.7506,37.8531,974.4644],[37.7405,37.8416,1108.5997],[37.7373,37.8341,1090.9415],[37.7376,37.8251,1050.3403],[37.7316,37.8103,1052.8138],[37.7318,37.8052,1071.6111],[37.7342,37.8003,1100.1438],[37.7381,37.7964,1070.8359],[37.7461,37.7921,990.1977],[37.7793,37.7883,1198.2646],[37.7893,37.7828,1268.7915],[37.7991,37.7705,1115.1862],[37.8029,37.7629,951.1771],[37.8046,37.7508,779.7999],[37.8041,37.7265,1023.8157],[37.858,37.7093,926.8054],[37.9187,37.7082,632.4661],[37.9382,37.7059,634.9703],[37.9713,37.6929,561.9764],[37.9976,37.6772,566.2823],[38.0219,37.6702,609.6709]]]]}}