{"type":"Feature","properties":{"GID_2":"TUR.57.4_1","GID_0":"TUR","country":"Turkey","GID_1":"TUR.57_1","province":"Mardin","NL_NAME_1":"NA","county":"Mazıdağı","VARNAME_2":"NA","NL_NAME_2":"NA","TYPE_2":"District","ENGTYPE_2":"District","CC_2":"NA","HASC_2":"TR.MR.MA","name":"Mazıdağı.county"},
"geometry":{"type": "MultiPolygon","coordinates": [[[[40.2066,37.5669,892.101],[40.1916,37.5552,856.4233],[40.187,37.5423,883.3727],[40.1755,37.5273,929.9215],[40.1717,37.5237,943.377],[40.1552,37.5143,905.574],[40.15,37.5062,946.0703],[40.1519,37.4996,955.5811],[40.1646,37.4915,1044.8323],[40.172,37.4838,1010.3528],[40.1781,37.4582,924.9346],[40.1809,37.4538,896.1866],[40.2012,37.4429,1064.7159],[40.2146,37.4394,1075.0258],[40.2804,37.4388,1049.3762],[40.2986,37.4352,1099.9841],[40.3105,37.4282,1067.036],[40.3223,37.4171,1040.7168],[40.3379,37.391,1078.2681],[40.343,37.3764,1066.3884],[40.3482,37.3705,1050.3793],[40.3692,37.36,1104.2761],[40.3996,37.3491,1075.9342],[40.433,37.3418,1049.8391],[40.4611,37.3273,1077.6097],[40.4929,37.3429,1042.8894],[40.5199,37.3484,1041.1797],[40.5414,37.3554,1094.2031],[40.565,37.3572,1076.3572],[40.5988,37.3563,1031.9526],[40.5955,37.3739,1139.5837],[40.5917,37.3817,1102.172],[40.583,37.3906,1086.2986],[40.5601,37.4089,1085.0509],[40.5543,37.416,1075.2876],[40.5515,37.4269,1095.4862],[40.5539,37.438,1086.2709],[40.5647,37.4497,1114.302],[40.583,37.4597,1076.4519],[40.5973,37.4616,1068.988],[40.6299,37.4621,1045.3252],[40.6433,37.4653,1094.9805],[40.6529,37.4723,1012.8054],[40.662,37.4861,1053.032],[40.672,37.4967,989.5735],[40.6687,37.5072,945.4021],[40.6594,37.5236,948.1072],[40.654,37.5423,949.0237],[40.6398,37.5657,959.3063],[40.6344,37.572,938.1779],[40.6162,37.5855,883.1379],[40.5983,37.592,963.2122],[40.5877,37.5977,948.5009],[40.5372,37.6363,801.3539],[40.5161,37.6504,775.7277],[40.4912,37.6483,778.51],[40.4367,37.6482,748.5999],[40.4182,37.6459,767.4761],[40.3849,37.633,862.4998],[40.3587,37.6173,812.2527],[40.337,37.608,830.8574],[40.2957,37.5774,944.066],[40.2804,37.5692,913.076],[40.2617,37.5666,918.7297],[40.2066,37.5669,892.101]]]]}}