{"type": "Feature","bbox": [27.8196,38.3676,28.0005,38.6634],"geometry": {"type": "MultiPolygon","coordinates": [[[[27.9846,38.3909,1090.6771],[27.9747,38.4013,958.9237],[27.9702,38.4123,864.0432],[27.9689,38.4307,817.5299],[27.9696,38.4577,508.4606],[27.9729,38.4714,397.5581],[27.998,38.511,100.9763],[28.0003,38.5229,72.5407],[28.0005,38.5351,71.535],[27.9995,38.5442,71.0858],[27.9965,38.5528,77.7248],[27.977,38.5732,147.414],[27.9714,38.5835,149.4496],[27.9704,38.5976,98.0232],[27.9747,38.6152,76.5],[27.941,38.6257,76.5],[27.9085,38.6388,323.1021],[27.8993,38.6459,542.173],[27.886,38.6634,546.2973],[27.8545,38.6401,268.183],[27.822,38.6302,424.0705],[27.8196,38.6027,526.8055],[27.8205,38.5752,131.7501],[27.8243,38.5642,71.7047],[27.8475,38.5268,62.5186],[27.8497,38.5115,76.544],[27.8499,38.4737,211.7141],[27.8526,38.4617,276.2488],[27.8706,38.4339,743.8351],[27.9051,38.4039,937.712],[27.9287,38.3676,1011.3839],[27.9683,38.3814,964.9246],[27.9846,38.3909,1090.6771]]]]}
,"properties": {"GID_2": "TUR.56.1_1","GID_0": "TUR","country": "Turkey","GID_1": "TUR.56_1","province": "Manisa","NL_NAME_1": "NA","county": "Ahmetli","VARNAME_2": "NA","NL_NAME_2": "NA","TYPE_2": "District","ENGTYPE_2": "District","CC_2": "NA","HASC_2": "TR.MN.AH","name": "Ahmetli.county","area_km2": 322.6409,"hist_schema_id": "Elevation0-9000","hist_area_km2": {"50": 20.4615,"75": 62.2175,"100": 37.8324,"125": 27.0555,"150": 18.0697,"175": 10.9917,"200": 10.3287,"225": 9.6157,"250": 8.4555,"275": 6.7814,"300": 5.6718,"325": 4.8431,"350": 4.5448,"375": 4.296,"400": 3.6488,"425": 3.0685,"450": 3.2677,"475": 3.3012,"500": 2.6043,"525": 2.4055,"550": 2.2392,"575": 2.3728,"600": 2.0745,"625": 1.8593,"650": 1.8263,"675": 2.2915,"700": 2.4742,"725": 2.8229,"750": 3.4208,"775": 4.9328,"800": 5.2154,"825": 5.4982,"850": 4.4189,"875": 4.7346,"900": 5.9807,"925": 5.3827,"950": 3.7882,"975": 3.1069,"1000": 2.8578,"1025": 2.3593,"1050": 1.4621,"1075": 1.0965,"1100": 0.6645,"1125": 0.216,"1150": 0.0831}}}