{"type": "Feature","id": "2238","bbox": [26.60922,39.05017,28.96715,40.66348],"geometry": {"type": "MultiPolygon","coordinates": [[[[27.6351,40.46678,26.0543],[27.63673,40.47834,4.738],[27.6421,40.48725,91.9998],[27.64047,40.49413,22.7624],[27.60727,40.50544,15.9185],[27.59913,40.49653,0.0],[27.59083,40.48387,0.0],[27.57993,40.47655,0.0],[27.58204,40.46552,40.924],[27.59636,40.45799,0.0],[27.61492,40.45673,0.0],[27.63152,40.45376,0.0],[27.64568,40.44782,0.0],[27.65659,40.44945,7.8827],[27.65699,40.45751,0.0],[27.65309,40.46039,0.0],[27.64519,40.45987,0.0],[27.6351,40.46678,26.0543]]],
[[[27.76002,40.53705,0.0],[27.75017,40.52473,41.2805],[27.74195,40.52631,0.0],[27.73316,40.53059,0.0],[27.72242,40.52627,0.0],[27.70607,40.51191,114.5064],[27.6963,40.50642,19.4042],[27.68426,40.50235,10.7698],[27.68426,40.49616,39.479],[27.69321,40.48627,99.6149],[27.72584,40.46137,246.856],[27.73373,40.45905,78.7415],[27.74269,40.45905,115.5709],[27.75017,40.45759,17.516],[27.75318,40.45083,1.6083],[27.75408,40.4383,79.9673],[27.75636,40.4326,169.247],[27.76075,40.42841,90.1957],[27.76743,40.4204,37.9261],[27.77345,40.41649,4.6666],[27.78012,40.41572,6.4696],[27.78582,40.41291,7.8782],[27.78785,40.40302,0.0],[27.79176,40.39289,0.0],[27.80055,40.39301,22.2304],[27.81528,40.39989,36.5134],[27.86524,40.38679,1.9113],[27.88356,40.3863,3.3288],[27.86736,40.36888,0.0],[27.81324,40.34711,0.0],[27.78981,40.32046,32.4989],[27.76271,40.31538,0.0],[27.7326,40.31729,0.0],[27.71225,40.3242,0.0],[27.688,40.31379,0.0],[27.66505,40.31745,0.0],[27.64088,40.32612,0.0],[27.61297,40.331,0.0],[27.59702,40.32831,0.0],[27.57218,40.31567,0.0],[27.5722,40.31563,0.0],[27.57664,40.30653,0.4289],[27.56486,40.26276,195.8492],[27.5169,40.24049,239.2313],[27.44724,40.18473,470.3431],[27.43195,40.18029,536.6387],[27.42079,40.173,399.8038],[27.4396,40.14274,560.0651],[27.47887,40.12993,346.6736],[27.49654,40.12781,300.5023],[27.50089,40.1213,321.7932],[27.49499,40.10195,412.3116],[27.48166,40.06965,725.5005],[27.47722,40.04316,761.5571],[27.46606,40.01993,457.1482],[27.45892,40.01267,481.5114],[27.44869,39.99593,282.7454],[27.46616,39.97436,408.7283],[27.4828,39.96348,570.7062],[27.47815,39.92307,457.9839],[27.46027,39.88206,399.5209],[27.43877,39.84447,416.1953],[27.39939,39.82157,257.0464],[27.35691,39.80765,231.4965],[27.31712,39.78605,299.2665],[27.27423,39.77266,236.2329],[27.20075,39.79178,257.2504],[27.12716,39.80134,297.8338],[27.09946,39.78972,510.4714],[27.06846,39.79274,499.5307],[27.02205,39.79292,752.2767],[26.97968,39.76605,1313.2638],[26.90733,39.74334,1334.4766],[26.87002,39.71882,1379.2805],[26.82744,39.70781,1625.5275],[26.7368,39.71659,642.1993],[26.6967,39.71019,432.2852],[26.66445,39.63143,639.1851],[26.66724,39.55085,0.0],[26.66725,39.55085,0.0],[26.80787,39.57071,36.3075],[26.83286,39.55683,0.0],[26.85206,39.56338,0.0],[26.87045,39.57685,2.087],[26.8934,39.58438,2.971],[26.92221,39.58218,0.0],[26.93767,39.57477,2.7058],[26.94386,39.56098,0.0],[26.94508,39.53962,1.1231],[26.93141,39.50178,3.9658],[26.9297,39.49144,0.0789],[26.92986,39.48774,0.0],[26.92595,39.48583,0.0],[26.86793,39.4715,22.376],[26.85206,39.46182,0.0],[26.86305,39.44717,36.9808],[26.85084,39.43976,0.0],[26.83741,39.43561,0.0],[26.80104,39.43354,24.3279],[26.80274,39.42512,8.9553],[26.80258,39.41918,0.0],[26.80104,39.41242,0.0],[26.80104,39.4062,0.0],[26.80543,39.4051,4.8647],[26.81471,39.39936,0.5133],[26.70875,39.3369,30.3122],[26.69117,39.31623,0.0],[26.68116,39.31061,13.6415],[26.67026,39.30598,20.7325],[26.66481,39.29808,29.7095],[26.67066,39.28266,0.0],[26.66391,39.28901,0.0],[26.65602,39.29426,18.2605],[26.64674,39.29731,0.0],[26.63592,39.29694,0.0],[26.63592,39.30317,0.0],[26.65382,39.30646,6.3964],[26.6548,39.31322,10.4455],[26.64552,39.31757,5.6721],[26.63258,39.31342,5.7769],[26.62517,39.30329,0.9556],[26.61931,39.28315,15.8103],[26.60922,39.27521,3.0096],[26.62908,39.26838,0.0],[26.65333,39.26691,0.0],[26.70143,39.26899,0.7292],[26.71876,39.26288,0.0],[26.72657,39.2475,0.0],[26.73097,39.22761,0.0],[26.73902,39.20759,1.5766],[26.7378,39.19721,0.0],[26.75164,39.18464,0.0],[26.77117,39.17308,2.3622],[26.77871,39.17004,0.7999],[26.99363,39.29081,566.0161],[27.01327,39.30708,815.5426],[27.03011,39.33026,897.4744],[27.04996,39.35124,921.8542],[27.07807,39.36437,904.3456],[27.10969,39.37398,997.7588],[27.29098,39.46449,576.6691],[27.34751,39.45578,553.3602],[27.39071,39.42473,347.9305],[27.42006,39.38028,536.4918],[27.49665,39.41134,688.5754],[27.54305,39.39475,489.0279],[27.58605,39.36698,198.0313],[27.65591,39.35173,293.7654],[27.7264,39.35928,472.6037],[27.76795,39.35662,684.6643],[27.80722,39.3415,598.5641],[27.82304,39.33959,645.8151],[27.85487,39.34427,388.6407],[27.8712,39.34478,623.1954],[27.89621,39.31336,523.0349],[27.86593,39.27161,554.2809],[27.85425,39.23642,307.0955],[27.89332,39.2219,410.9162],[27.96804,39.24329,705.6452],[27.98458,39.23642,598.4845],[27.9914,39.22215,783.3596],[28.07367,39.1527,898.7285],[28.12503,39.06304,741.7279],[28.17103,39.05017,1024.0825],[28.21278,39.06397,888.1884],[28.25619,39.0711,1177.5884],[28.2936,39.08831,1054.1628],[28.32078,39.11632,1084.4109],[28.3613,39.12239,1134.8157],[28.40471,39.11937,1147.4438],[28.44274,39.12278,1133.9678],[28.47995,39.13061,1147.2584],[28.57214,39.16748,521.4329],[28.65947,39.15663,616.0143],[28.66609,39.16717,524.4294],[28.6634,39.19229,701.1301],[28.65782,39.20402,770.7383],[28.66671,39.23804,1082.7638],[28.70588,39.25295,1246.3992],[28.77874,39.27223,1624.0042],[28.8114,39.29057,1416.407],[28.84158,39.33378,1172.9447],[28.84974,39.34786,1465.9835],[28.873,39.37008,1537.2495],[28.89605,39.39971,1052.9719],[28.90876,39.47072,871.196],[28.9224,39.49963,521.05],[28.93387,39.50849,570.7563],[28.9408,39.52105,608.6136],[28.94173,39.54014,529.9202],[28.947,39.55986,464.6852],[28.96715,39.58906,563.8662],[28.94276,39.60916,573.943],[28.91217,39.61993,391.4449],[28.86597,39.6212,431.5775],[28.81977,39.61448,331.7911],[28.78029,39.61885,553.7964],[28.75559,39.64825,476.4772],[28.74143,39.65598,455.205],[28.72221,39.65668,297.8356],[28.71156,39.66306,326.9809],[28.70577,39.67468,631.7467],[28.68645,39.69946,522.9825],[28.68407,39.72706,922.7859],[28.68913,39.74729,860.6276],[28.67384,39.76408,708.3679],[28.64707,39.75483,973.9858],[28.62578,39.73763,802.6221],[28.54589,39.74522,852.1985],[28.28141,39.89576,688.5338],[28.26373,39.92697,616.6912],[28.24596,39.99642,110.2521],[28.22704,40.02169,74.9516],[28.17309,40.05089,22.18],[28.13578,40.09631,16.1104],[28.11832,40.1338,31.7337],[28.11284,40.15326,62.4132],[28.12534,40.19124,117.1418],[28.1393,40.20744,59.2502],[28.14901,40.22584,56.8988],[28.12937,40.25806,42.3812],[28.10643,40.26299,51.7724],[28.09888,40.29715,69.4387],[28.12586,40.3179,119.1978],[28.15583,40.33635,158.8355],[28.20358,40.39237,275.0733],[28.20803,40.39924,0.0],[28.20807,40.39931,0.0],[28.11199,40.39606,0.0],[28.02752,40.37202,5.4256],[27.94467,40.36603,0.0],[27.90846,40.37421,79.3865],[27.90398,40.39989,30.2435],[27.92994,40.41694,52.3573],[28.01677,40.45108,76.83],[28.03443,40.47443,0.0],[28.01417,40.49116,0.0],[27.9699,40.503,0.0],[27.8047,40.52277,0.0],[27.79518,40.5209,0.0],[27.79225,40.51704,1.8664],[27.7894,40.51423,0.0],[27.78045,40.51533,0.0],[27.77906,40.51826,0.0],[27.76002,40.53705,0.0]]],
[[[27.63136,40.66348,57.3663],[27.60524,40.66328,0.0],[27.57944,40.65648,0.0],[27.55454,40.64692,0.0],[27.55152,40.6577,0.0],[27.54591,40.66035,0.0],[27.53883,40.65693,0.0],[27.53102,40.65009,0.0],[27.52638,40.63911,0.0],[27.53207,40.63068,152.8372],[27.53891,40.62336,176.8347],[27.53598,40.602,121.2539],[27.55177,40.59105,35.7717],[27.57154,40.58466,97.5675],[27.58253,40.5843,164.1803],[27.60475,40.57681,0.0],[27.62452,40.58308,27.0426],[27.65756,40.60541,16.9501],[27.67644,40.61017,81.0505],[27.7142,40.61469,12.8791],[27.73268,40.62519,7.489],[27.72779,40.64265,0.0],[27.7024,40.65302,0.0],[27.67335,40.65644,5.3299],[27.65756,40.65314,7.6051],[27.63136,40.66348,57.3663]]]]}
,"properties": {"ISO3166-1-Alpha-3": "TUR","country": "Turkey","fill": "#F0F","name": "Balikesir","area_km2": 14528.15,"hist_schema_id": "Elevation0-9000","hist_area_km2": {"0": 290.76,"25": 776.73,"50": 459.63,"75": 401.7,"100": 537.6,"125": 478.51,"150": 431.9,"175": 393.35,"200": 413.98,"225": 427.22,"250": 451.03,"275": 490.97,"300": 515.46,"325": 531.76,"350": 507.53,"375": 494.82,"400": 478.12,"425": 443.52,"450": 402.02,"475": 373.34,"500": 336.12,"525": 324.09,"550": 313.5,"575": 295.79,"600": 277.9,"625": 256.92,"650": 238.25,"675": 227.14,"700": 216.05,"725": 203.53,"750": 190.45,"775": 177.72,"800": 171.3,"825": 167.1,"850": 152.83,"875": 147.21,"900": 136.76,"925": 125.85,"950": 111.88,"975": 101.46,"1000": 93.16,"1025": 86.94,"1050": 79.73,"1075": 71.17,"1100": 63.89,"1125": 64.59,"1150": 62.46,"1175": 59.56,"1200": 57.6,"1225": 50.59,"1250": 47.33,"1275": 42.15,"1300": 37.28,"1325": 32.81,"1350": 29.86,"1375": 27.41,"1400": 26.49,"1425": 24.42,"1450": 20.93,"1475": 18.11,"1500": 16.55,"1525": 13.72,"1550": 9.72,"1575": 6.27,"1600": 3.9,"1625": 2.47,"1650": 2.19,"1675": 1.65,"1700": 1.39,"1725": 1.18,"1750": 0.83}}}