{"type":"Feature","properties":{"GID_2":"TUR.59.3_1","GID_0":"TUR","country":"Turkey","GID_1":"TUR.59_1","province":"Mugla","NL_NAME_1":"NA","county":"Datça","VARNAME_2":"NA","NL_NAME_2":"NA","TYPE_2":"District","ENGTYPE_2":"District","CC_2":"NA","HASC_2":"TR.MG.DT","name":"Datça.county"},
"geometry":{"type": "MultiPolygon","coordinates": [[[[27.511,36.6624,0.0],[27.5099,36.6629,4.523],[27.5076,36.6593,0.0],[27.5093,36.6576,12.6322],[27.5093,36.6546,0.0],[27.5115,36.6571,0.0],[27.5121,36.6618,2.6159],[27.511,36.6624,0.0]]],
[[[28.1025,36.8042,13.7618],[28.056,36.8168,0.0],[28.0554,36.8121,3.6885],[28.059,36.8107,7.2563],[28.0576,36.8096,0.0],[28.061,36.8043,10.5142],[28.0604,36.801,0.0],[28.0549,36.7996,9.6998],[28.0524,36.8013,0.0],[28.0499,36.7996,10.6482],[28.0421,36.8004,22.2716],[28.0432,36.7968,0.0],[28.0449,36.7974,12.1128],[28.0451,36.7957,10.379],[28.0432,36.7949,18.0008],[28.0368,36.7971,0.0],[28.0357,36.7951,23.0162],[28.0326,36.7949,5.8094],[28.0318,36.7932,3.2762],[28.0349,36.7893,7.0622],[28.0318,36.7876,0.0],[28.026,36.7926,0.0],[28.0251,36.7904,6.8944],[28.0226,36.7918,0.0],[28.0232,36.789,3.575],[28.0213,36.7893,14.7097],[28.0204,36.7926,3.0786],[28.0176,36.7918,32.4271],[28.0174,36.7938,0.0],[28.0143,36.789,4.6713],[28.0124,36.7899,5.2242],[28.014,36.7918,4.2619],[28.0124,36.7957,1.0151],[28.0074,36.7932,14.2104],[28.006,36.7976,1.7995],[28.0004,36.7951,11.7927],[28.0004,36.7974,0.0],[27.9907,36.7979,1.356],[27.9924,36.7999,1.5106],[27.9915,36.801,0.0],[27.9826,36.7993,7.1483],[27.9815,36.7971,2.0545],[27.9693,36.7949,13.3593],[27.9638,36.7988,0.0],[27.9585,36.7996,0.0],[27.9551,36.7971,5.9223],[27.9435,36.7976,4.2215],[27.9401,36.8007,1.9061],[27.9382,36.7982,14.7215],[27.931,36.7993,9.1459],[27.9196,36.7971,5.2878],[27.9118,36.8065,18.7208],[27.904,36.8099,13.6156],[27.9026,36.8074,18.6462],[27.8954,36.8079,1.5054],[27.894,36.8065,7.5445],[27.894,36.8104,0.0],[27.8929,36.8104,0.0],[27.8893,36.8068,4.6363],[27.886,36.8065,5.2291],[27.8846,36.8085,0.0],[27.8835,36.8063,4.9705],[27.8749,36.804,2.5157],[27.8571,36.8037,17.8562],[27.8424,36.8082,3.9004],[27.8401,36.8104,45.7841],[27.8368,36.8099,47.4215],[27.834,36.8118,22.7871],[27.829,36.811,58.4385],[27.8274,36.8135,11.6431],[27.8154,36.8129,0.0],[27.8085,36.8093,18.9319],[27.806,36.8096,16.0591],[27.804,36.8074,5.4387],[27.7901,36.801,29.8261],[27.784,36.8035,5.0563],[27.7801,36.7943,0.0],[27.774,36.789,6.331],[27.7582,36.7896,8.9757],[27.7426,36.7849,12.4498],[27.7335,36.7857,0.0],[27.7293,36.7846,29.8042],[27.7251,36.786,2.1416],[27.7196,36.784,0.8101],[27.714,36.7868,36.1454],[27.6974,36.7851,31.5702],[27.6926,36.786,5.8465],[27.6846,36.7901,2.2949],[27.6815,36.7943,11.259],[27.6813,36.7996,9.2107],[27.6757,36.8021,0.0],[27.664,36.8018,15.7431],[27.6562,36.806,8.9952],[27.6474,36.8068,28.948],[27.6443,36.8107,3.1666],[27.6404,36.811,3.1622],[27.6432,36.8051,6.3567],[27.6415,36.8007,8.3229],[27.6276,36.801,0.0],[27.6235,36.7976,5.8908],[27.6221,36.794,0.0],[27.6274,36.7915,0.8485],[27.6246,36.7865,15.0078],[27.629,36.7837,0.0],[27.6288,36.7821,0.0],[27.6182,36.7693,12.894],[27.6099,36.764,1.2155],[27.6013,36.7629,33.6591],[27.591,36.7674,0.0],[27.5868,36.7665,58.7368],[27.5793,36.7682,4.4045],[27.5782,36.766,0.0],[27.5746,36.7646,3.1768],[27.5599,36.7637,0.0],[27.5582,36.7613,7.6862],[27.5546,36.7613,5.4613],[27.5515,36.7588,4.3161],[27.5479,36.759,0.0],[27.5424,36.7568,38.3012],[27.5399,36.7579,1.9586],[27.5357,36.7557,10.9654],[27.536,36.7537,88.9015],[27.5213,36.7529,12.8638],[27.521,36.7513,40.894],[27.514,36.7521,0.0],[27.5126,36.7504,49.2365],[27.4996,36.7501,73.0811],[27.4974,36.7529,5.0385],[27.4926,36.7526,8.9102],[27.4879,36.7546,0.0],[27.4868,36.7526,20.9361],[27.4796,36.7499,3.7094],[27.4743,36.7521,0.0],[27.4757,36.7557,0.0],[27.4737,36.7571,15.8959],[27.4754,36.7588,0.0],[27.4643,36.7624,2.3401],[27.4638,36.7599,61.2353],[27.4551,36.7574,0.0],[27.4524,36.754,0.0],[27.4543,36.7482,6.9668],[27.4479,36.7449,4.8332],[27.444,36.7451,6.243],[27.4387,36.7496,7.1528],[27.436,36.7476,38.6485],[27.4315,36.749,0.0],[27.4307,36.7474,3.9929],[27.4282,36.7485,2.1062],[27.4263,36.7468,0.0],[27.4268,36.7438,13.5316],[27.4246,36.7443,7.9039],[27.4229,36.7404,29.5476],[27.4238,36.7376,10.1019],[27.4199,36.7401,0.0],[27.4185,36.7329,29.795],[27.4165,36.7326,9.8009],[27.4165,36.7307,17.0872],[27.4196,36.7279,0.0],[27.4232,36.7274,26.8529],[27.4243,36.7246,1.0404],[27.421,36.7224,6.9387],[27.4238,36.7201,3.4658],[27.4212,36.7163,10.8447],[27.4221,36.7149,11.6938],[27.4196,36.7124,0.0],[27.4104,36.7088,0.0],[27.4071,36.704,3.2583],[27.3963,36.7004,19.9648],[27.3929,36.7049,22.8767],[27.3901,36.7049,22.7343],[27.3885,36.7071,0.0],[27.3865,36.7038,22.8826],[27.3835,36.7054,15.8014],[27.3824,36.7032,21.3215],[27.381,36.704,16.6368],[27.3813,36.7062,1.4695],[27.3721,36.7046,25.9833],[27.3718,36.7082,1.096],[27.3688,36.7071,5.1311],[27.3651,36.7101,9.2324],[27.3624,36.7096,2.6449],[27.3632,36.7049,48.4599],[27.3615,36.7038,12.1511],[27.3715,36.6971,44.8505],[27.3726,36.6935,6.7047],[27.3701,36.6913,0.0],[27.3732,36.6896,29.2966],[27.3713,36.6876,5.9727],[27.3724,36.6854,22.1948],[27.3638,36.6882,11.0771],[27.3621,36.6865,0.0],[27.3629,36.6846,9.0426],[27.3696,36.6832,55.5089],[27.374,36.6804,0.0],[27.3762,36.6813,18.247],[27.3729,36.6846,22.1948],[27.3749,36.6857,6.9751],[27.386,36.6846,38.8907],[27.386,36.681,12.1123],[27.3874,36.6804,0.0],[27.3893,36.6815,7.4942],[27.3907,36.6804,0.0],[27.391,36.6818,0.0],[27.3929,36.6796,0.0],[27.4024,36.6804,17.5929],[27.4051,36.6765,7.7192],[27.4015,36.6688,0.0],[27.406,36.6685,0.0],[27.4037,36.6651,0.0],[27.4049,36.6624,7.9795],[27.4096,36.6632,0.0],[27.4115,36.6651,21.6278],[27.4143,36.664,0.0],[27.4179,36.669,35.3912],[27.4243,36.6704,0.0],[27.4324,36.666,8.8794],[27.4321,36.6637,0.0],[27.4357,36.6643,10.1043],[27.4399,36.6618,0.0],[27.4476,36.6626,19.5018],[27.4513,36.6599,0.0],[27.4579,36.6615,15.3138],[27.4585,36.6585,0.0],[27.4613,36.6613,15.727],[27.4685,36.6615,14.2374],[27.4696,36.6593,0.0],[27.4679,36.6571,1.2498],[27.4696,36.6568,0.0],[27.4699,36.6543,26.1274],[27.4682,36.6526,2.09],[27.4707,36.6521,13.7884],[27.4729,36.6543,14.9273],[27.4768,36.6546,47.3325],[27.4771,36.6471,8.8775],[27.4799,36.6482,17.9619],[27.4801,36.6526,123.7356],[27.4843,36.6543,0.0],[27.484,36.6568,21.0456],[27.486,36.6582,19.8069],[27.4918,36.6582,0.0],[27.4907,36.6615,5.8462],[27.499,36.6629,0.0],[27.499,36.6649,0.0],[27.504,36.6707,2.3034],[27.514,36.6774,4.5958],[27.5235,36.6776,6.2221],[27.5274,36.6746,3.1899],[27.5279,36.6724,4.9675],[27.5326,36.6707,8.5006],[27.5338,36.6754,0.0],[27.5374,36.676,7.2774],[27.5379,36.6735,0.0],[27.5432,36.674,33.1637],[27.5532,36.6821,7.2616],[27.5613,36.6799,24.0239],[27.5596,36.6743,0.0],[27.5613,36.6724,0.0],[27.5626,36.6754,0.0],[27.5676,36.6768,0.0],[27.5735,36.6826,0.0],[27.5735,36.6849,0.0],[27.5785,36.6838,8.9888],[27.5776,36.6821,0.0],[27.5824,36.679,6.4891],[27.5849,36.679,27.9142],[27.5871,36.6813,63.9383],[27.5957,36.6821,15.5479],[27.5974,36.6815,3.0104],[27.5982,36.6782,0.0],[27.599,36.6801,3.353],[27.6071,36.6829,0.8073],[27.6076,36.681,2.7768],[27.6162,36.6793,11.688],[27.6149,36.6771,5.7314],[27.6179,36.6738,0.0],[27.6221,36.6746,3.1569],[27.6268,36.6712,0.0],[27.6288,36.6724,17.5403],[27.6338,36.6715,0.0],[27.636,36.6754,2.6767],[27.6382,36.6754,0.0],[27.6421,36.6707,7.5462],[27.6479,36.6688,24.7384],[27.6476,36.6657,0.0],[27.6499,36.6657,55.3337],[27.6515,36.6635,0.0],[27.6565,36.6626,8.9641],[27.6582,36.664,33.4442],[27.6668,36.661,33.5205],[27.669,36.6587,0.0],[27.6787,36.6576,0.0],[27.6721,36.6601,1.8462],[27.6749,36.664,0.0],[27.674,36.6701,0.0],[27.6721,36.6704,25.5663],[27.6738,36.6787,0.0],[27.6726,36.6835,12.3919],[27.6774,36.6885,0.0],[27.6757,36.689,0.0],[27.6757,36.6935,0.0],[27.6799,36.6971,0.0],[27.6785,36.6985,8.2897],[27.6763,36.6979,3.2478],[27.676,36.7004,0.0],[27.6807,36.7043,9.0923],[27.686,36.7015,0.0],[27.6913,36.7024,13.4853],[27.6932,36.709,6.9829],[27.6963,36.711,0.0],[27.6963,36.7185,0.0],[27.6929,36.7174,2.972],[27.6907,36.7193,0.0],[27.6879,36.7193,2.4262],[27.6874,36.721,2.6104],[27.6915,36.7229,2.8926],[27.6865,36.7254,0.0],[27.6882,36.7257,0.0],[27.691,36.7304,0.641],[27.6968,36.7315,0.0],[27.7004,36.734,0.0],[27.7013,36.7401,0.0],[27.7151,36.7554,0.0],[27.721,36.7596,0.8099],[27.7307,36.7632,2.0919],[27.7429,36.7654,3.8178],[27.7474,36.764,4.3965],[27.7501,36.7654,4.8081],[27.7515,36.764,4.8081],[27.7535,36.7649,4.0963],[27.7785,36.759,2.0453],[27.7801,36.7554,0.0],[27.7918,36.7604,0.0],[27.7929,36.7565,0.0],[27.796,36.7551,0.0],[27.8004,36.7582,2.1628],[27.8049,36.7643,4.6796],[27.8076,36.7643,22.4143],[27.809,36.7624,4.44],[27.8163,36.7632,1.7011],[27.8285,36.7593,7.6018],[27.836,36.7551,0.5209],[27.8368,36.7524,1.5241],[27.8343,36.751,1.7163],[27.8368,36.7476,33.2411],[27.8368,36.7449,1.507],[27.8487,36.7479,10.5206],[27.8554,36.7463,19.1007],[27.8565,36.7421,0.0],[27.8585,36.7412,0.0],[27.861,36.7421,0.0],[27.8599,36.7446,0.6314],[27.8649,36.7454,0.0],[27.8668,36.7432,0.0],[27.8712,36.7443,0.0],[27.869,36.7479,10.8759],[27.8715,36.7493,0.0],[27.8738,36.756,22.5657],[27.8776,36.7579,1.4981],[27.884,36.7579,3.0223],[27.8893,36.7554,0.0],[27.8896,36.7521,0.0],[27.8851,36.7501,0.0],[27.8913,36.7438,15.2443],[27.8907,36.741,0.0],[27.8935,36.7421,17.802],[27.8976,36.741,9.2402],[27.899,36.7424,2.8],[27.8987,36.7474,0.0],[27.8951,36.7476,4.9815],[27.891,36.7532,5.721],[27.8946,36.7568,0.4438],[27.9018,36.7549,0.0],[27.911,36.7554,0.0],[27.914,36.754,20.3038],[27.9149,36.7515,0.0],[27.9199,36.7546,5.7051],[27.9193,36.7496,0.0],[27.9251,36.7446,12.56],[27.9204,36.744,0.0],[27.9204,36.7424,0.0],[27.9257,36.7421,25.0308],[27.9276,36.7435,1.8707],[27.9304,36.7421,12.1353],[27.9338,36.7449,8.4723],[27.9374,36.7454,0.0],[27.9376,36.7474,0.0],[27.936,36.7482,76.0658],[27.9401,36.7493,0.0],[27.939,36.7521,21.8576],[27.9438,36.7504,0.0],[27.9435,36.7535,2.4211],[27.9474,36.7529,0.0],[27.9512,36.7599,21.4281],[27.9546,36.7593,2.8406],[27.956,36.761,5.2733],[27.9579,36.7607,12.5249],[27.9585,36.7588,1.962],[27.9674,36.7601,1.984],[27.9649,36.7565,9.2642],[27.9671,36.7521,21.1013],[27.9729,36.7562,0.0],[27.976,36.7621,28.801],[27.9779,36.7615,0.0],[27.9793,36.7576,0.0],[27.9849,36.7565,0.0],[27.9849,36.7579,0.0],[27.9885,36.7593,10.3232],[27.9932,36.7585,0.0],[27.9993,36.7599,0.0],[28.0051,36.7646,13.9843],[28.0082,36.7651,2.2905],[28.0113,36.7637,14.1436],[28.011,36.7593,0.0],[28.0143,36.7585,0.0],[28.0163,36.7596,9.3936],[28.0165,36.7618,45.2994],[28.0215,36.7632,0.0],[28.0226,36.7671,31.6867],[28.0315,36.7657,5.8292],[28.0324,36.7699,5.1595],[28.0385,36.7743,3.8857],[28.0413,36.7829,16.101],[28.0462,36.7849,0.0],[28.0493,36.784,0.0],[28.0457,36.7837,9.5052],[28.0443,36.7821,9.5052],[28.0454,36.7793,7.1214],[28.0404,36.7774,0.0],[28.0415,36.7732,2.0379],[28.0404,36.7718,0.0],[28.0421,36.7682,8.0735],[28.0446,36.7679,18.139],[28.0462,36.7657,24.9315],[28.0435,36.7649,5.2135],[28.0462,36.7643,25.3091],[28.0513,36.7596,6.6621],[28.0524,36.7613,0.0],[28.0501,36.7649,27.9208],[28.0524,36.766,17.3008],[28.0624,36.764,5.6449],[28.0646,36.766,0.0],[28.0646,36.7687,0.0],[28.0621,36.7693,11.5254],[28.0649,36.7718,0.0],[28.0646,36.7743,4.05],[28.0713,36.7751,3.004],[28.074,36.7726,5.6579],[28.0788,36.7751,4.7446],[28.0782,36.7779,48.4564],[28.0807,36.7801,0.0],[28.0818,36.7849,0.0],[28.0799,36.7865,0.0],[28.074,36.7868,37.176],[28.0735,36.7882,1.6663],[28.0765,36.7912,22.4666],[28.0796,36.7907,0.0],[28.0821,36.7921,3.4157],[28.0832,36.7935,0.0],[28.081,36.794,0.0],[28.0821,36.7962,4.4322],[28.0912,36.794,16.368],[28.0993,36.8015,2.9273],[28.1048,36.8029,0.8496],[28.1025,36.8042,13.7618]]],
[[[27.4065,36.7424,0.0],[27.4043,36.7429,1.2461],[27.404,36.7415,1.4558],[27.414,36.7376,1.1426],[27.4071,36.7412,1.2928],[27.4065,36.7424,0.0]]],
[[[27.764,36.7526,2.811],[27.7615,36.7532,3.1],[27.759,36.7513,0.0],[27.7624,36.7515,0.0],[27.764,36.7526,2.811]]],
[[[27.9632,36.7524,0.0],[27.9618,36.7529,0.0],[27.9626,36.7504,0.0],[27.965699999999998,36.7496,0.0],[27.9662,36.7521,21.1013],[27.9632,36.7524,0.0]]],
[[[27.7918,36.7524,0.0],[27.791,36.7532,0.0],[27.7901,36.7515,0.0],[27.791,36.7513,0.0],[27.7918,36.7524,0.0]]],
[[[27.776,36.7551,9.9663],[27.7754,36.7568,7.0711],[27.7732,36.7549,3.1763],[27.7738,36.7521,6.9298],[27.7757,36.7529,6.9475],[27.776,36.7551,9.9663]]],
[[[27.8082,36.7596,0.0],[27.8054,36.7604,9.1088],[27.8046,36.7576,0.0],[27.8071,36.7582,0.0],[27.8082,36.7596,0.0]]],
[[[28.0599,36.7613,12.2662],[28.0571,36.7618,2.9155],[28.056,36.7596,0.0],[28.0585,36.7593,4.6272],[28.0599,36.7613,12.2662]]],
[[[28.0346,36.7613,3.5002],[28.0332,36.7621,0.0],[28.0335,36.7601,0.0],[28.0374,36.7599,0.0],[28.0374,36.761,0.0],[28.0346,36.7613,3.5002]]],
[[[27.4685,36.7699,2.8491],[27.4674,36.7704,0.0],[27.4701,36.7682,0.0],[27.4699,36.7696,0.0],[27.4685,36.7699,2.8491]]],
[[[27.4613,36.7746,21.1999],[27.4593,36.7751,3.1863],[27.4585,36.7738,3.1863],[27.4643,36.7707,0.0],[27.4646,36.7724,0.0],[27.4613,36.7746,21.1999]]]]}}