{"type":"Feature","properties":{"GID_2":"TUR.7.19_1","GID_0":"TUR","country":"Turkey","GID_1":"TUR.7_1","province":"Ankara","NL_NAME_1":"NA","county":"Mamak","VARNAME_2":"NA","NL_NAME_2":"NA","TYPE_2":"District","ENGTYPE_2":"District","CC_2":"NA","HASC_2":"TR.AN.MA","name":"Mamak.county"},
"geometry":{"type": "MultiPolygon","coordinates": [[[[32.8839,39.9407,885.4731],[32.8902,39.9327,930.8677],[32.8999,39.9261,964.5265],[32.9267,39.9157,981.9554],[32.9435,39.9123,959.9059],[32.9491,39.9071,972.3645],[32.9521,39.9008,985.6781],[32.9495,39.8943,1005.1991],[32.92,39.8692,979.3255],[32.909,39.8528,1143.1938],[32.9031,39.8467,1149.5342],[32.8583,39.812,1088.1658],[32.8873,39.7929,1167.4915],[32.9035,39.786,1314.144],[32.9411,39.7839,1539.3904],[32.9511,39.7818,1669.65],[32.9578,39.7766,1632.8458],[32.9662,39.7624,1348.2668],[33.0467,39.7922,1241.549],[33.0801,39.7994,1318.8871],[33.1079,39.8139,1451.4233],[33.1112,39.8268,1470.4467],[33.1202,39.8433,1525.7288],[33.1227,39.8523,1585.8674],[33.1239,39.868,1525.2039],[33.1234,39.9224,1296.9536],[33.1216,39.9315,1241.0402],[33.1064,39.9602,1117.4331],[33.1005,39.964,1065.5753],[33.0892,39.9689,1148.1332],[33.0786,39.9705,1184.059],[33.0676,39.9707,1153.9351],[33.0498,39.9685,1129.3042],[33.0169,39.9554,1219.604],[32.993,39.9406,1059.2291],[32.972,39.9319,1178.2687],[32.9586,39.9239,1005.4154],[32.9487,39.9346,1098.2615],[32.9401,39.9485,1065.4338],[32.9277,39.9564,1012.0218],[32.9209,39.9574,983.0148],[32.9109,39.9557,956.1693],[32.8839,39.9407,885.4731]]]]}}