{"type": "Feature","bbox": [36.0881,36.9525,36.5029,37.1777],"geometry": {"type": "MultiPolygon","coordinates": [[[[36.5029,37.0541,975.0256],[36.4677,37.059,1189.2262],[36.4574,37.0652,1191.7994],[36.4532,37.0725,1174.8964],[36.4542,37.0806,1045.7473],[36.4599,37.0877,995.8434],[36.4733,37.097,900.2124],[36.4897,37.105,670.7056],[36.4937,37.1087,629.9238],[36.4965,37.1186,610.5795],[36.4926,37.1287,601.5605],[36.4829,37.1356,529.5],[36.4765,37.1376,599.6948],[36.4451,37.1398,751.4583],[36.4326,37.144,576.7562],[36.4259,37.1497,512.9152],[36.4229,37.1543,449.6363],[36.4186,37.1728,276.716],[36.3856,37.1747,348.4788],[36.3677,37.1777,285.8799],[36.3018,37.1276,108.8634],[36.2909,37.1169,110.0175],[36.2817,37.103,107.6703],[36.2725,37.0958,105.629],[36.2244,37.0772,105.7011],[36.1946,37.0601,93.7515],[36.1674,37.0549,126.8303],[36.1465,37.048,89.1871],[36.1089,37.0459,147.1314],[36.0989,37.0434,103.8484],[36.0926,37.0378,167.1284],[36.0881,37.0227,212.2257],[36.1645,37.0223,132.5987],[36.1795,37.02,241.2864],[36.2046,37.0124,276.1534],[36.2547,37.0087,746.3824],[36.2899,36.9944,1275.6716],[36.2983,36.9866,1058.1287],[36.3117,36.9685,1056.2484],[36.3472,36.9553,1514.1312],[36.3716,36.9525,1702.2653],[36.4426,36.9533,1324.959],[36.4628,36.977,1428.0287],[36.4686,36.9955,1860.3544],[36.4776,37.0119,1702.1375],[36.4845,37.033,1357.1099],[36.5029,37.0541,975.0256]]]]}
,"properties": {"GID_2": "TUR.64.5_1","GID_0": "TUR","country": "Turkey","GID_1": "TUR.64_1","province": "Osmaniye","NL_NAME_1": "NA","county": "Merkez","VARNAME_2": "Osmaniye","NL_NAME_2": "NA","TYPE_2": "District","ENGTYPE_2": "District","CC_2": "NA","HASC_2": "TR.OS.OS","name": "Merkez.county","area_km2": 456.4464,"hist_schema_id": "Elevation0-9000","hist_area_km2": {"50": 0.4231,"75": 4.7727,"100": 10.8616,"125": 35.079,"150": 22.9025,"175": 14.4455,"200": 10.0807,"225": 9.0994,"250": 8.0169,"275": 6.9516,"300": 4.82,"325": 4.0587,"350": 3.9069,"375": 3.5857,"400": 3.9751,"425": 3.028,"450": 3.2822,"475": 3.1298,"500": 2.9269,"525": 3.0112,"550": 3.2478,"575": 4.2797,"600": 4.9224,"625": 5.3961,"650": 5.6498,"675": 5.9032,"700": 5.8864,"725": 6.2929,"750": 6.2753,"775": 6.1568,"800": 5.7511,"825": 4.8715,"850": 5.3794,"875": 5.2778,"900": 4.8554,"925": 5.9893,"950": 5.9556,"975": 6.7342,"1000": 7.0046,"1025": 6.8695,"1050": 7.3435,"1075": 7.344,"1100": 7.6316,"1125": 8.0549,"1150": 8.5288,"1175": 8.0891,"1200": 8.0719,"1225": 7.8355,"1250": 7.5477,"1275": 6.3466,"1300": 7.0067,"1325": 6.4146,"1350": 7.0751,"1375": 6.5165,"1400": 7.0758,"1425": 5.874,"1450": 5.9081,"1475": 5.7726,"1500": 4.5543,"1525": 4.4187,"1550": 4.0128,"1575": 4.5381,"1600": 3.6067,"1625": 3.7423,"1650": 3.37,"1675": 3.2854,"1700": 3.3027,"1725": 2.727,"1750": 1.8632,"1775": 1.5244,"1800": 1.5413,"1825": 1.4737,"1850": 1.2874,"1875": 1.1519,"1900": 1.3891,"1925": 1.2535,"1950": 1.1688,"1975": 1.389,"2000": 1.4399,"2025": 1.3383,"2050": 1.1519,"2075": 0.8639,"2100": 0.3557,"2125": 0.1186,"2150": 0.0847}}}