{"type":"Feature","properties":{"GID_2":"TUR.19.8_1","GID_0":"TUR","country":"Turkey","GID_1":"TUR.19_1","province":"Bolu","NL_NAME_1":"NA","county":"Seben","VARNAME_2":"NA","NL_NAME_2":"NA","TYPE_2":"District","ENGTYPE_2":"District","CC_2":"NA","HASC_2":"TR.BL.SE","name":"Seben.county"},
"geometry":{"type": "MultiPolygon","coordinates": [[[[31.7556,40.3378,1115.101],[31.7584,40.3643,1012.2915],[31.7562,40.3869,914.1069],[31.747,40.4033,1126.8447],[31.7389,40.4268,1170.5345],[31.7253,40.4477,1315.7395],[31.7053,40.468,1408.8209],[31.7006,40.4758,1389.6995],[31.6985,40.4875,1565.4502],[31.6983,40.5177,1454.4888],[31.6953,40.5292,1436.9412],[31.6869,40.5391,1481.5721],[31.6576,40.5635,1396.5088],[31.6452,40.5777,1386.936],[31.5806,40.5764,1459.0035],[31.5649,40.5741,1307.0093],[31.547,40.568,1408.0341],[31.5357,40.5661,1315.3318],[31.4861,40.5656,1640.8357],[31.4758,40.553,1500.9141],[31.4614,40.5294,1239.6418],[31.4595,40.5238,1381.6871],[31.4579,40.4877,1090.7908],[31.4559,40.476,1101.5485],[31.4322,40.4388,1082.8527],[31.4297,40.4335,1251.1348],[31.4279,40.4214,1313.2305],[31.4298,40.4062,1498.6615],[31.4402,40.3867,1186.8136],[31.4454,40.3598,1127.7812],[31.456,40.3377,995.0687],[31.4578,40.3208,911.5671],[31.4939,40.3196,901.3046],[31.5192,40.3118,838.9296],[31.5345,40.3095,801.1681],[31.5912,40.3092,869.3616],[31.6099,40.3132,922.7393],[31.6396,40.3293,625.9376],[31.671,40.3345,684.0494],[31.6862,40.3384,821.1124],[31.6947,40.3426,656.21],[31.7293,40.3438,968.7134],[31.7454,40.3413,1012.924],[31.7556,40.3378,1115.101]]]]}}