{"type":"Feature","properties":{"GID_2":"TUR.16.1_1","GID_0":"TUR","country":"Turkey","GID_1":"TUR.16_1","province":"Bilecik","NL_NAME_1":"NA","county":"Bozüyük","VARNAME_2":"NA","NL_NAME_2":"NA","TYPE_2":"District","ENGTYPE_2":"District","CC_2":"NA","HASC_2":"TR.BC.BO","name":"Bozüyük.county"},
"geometry":{"type": "MultiPolygon","coordinates": [[[[30.007,40.035,773.5614],[29.9974,40.0085,708.4902],[29.9833,39.9849,690.7333],[29.9683,39.9664,965.1319],[29.9598,39.9623,1046.0959],[29.9306,39.9587,1102.9745],[29.909,39.952,1168.1199],[29.8975,39.9501,1163.298],[29.8448,39.9491,1043.1318],[29.8213,39.952,1156.1016],[29.7893,39.9677,1121.0708],[29.7903,39.9427,1102.7642],[29.7886,39.9301,986.6835],[29.7824,39.9189,749.8153],[29.7709,39.9065,1024.9575],[29.7609,39.9033,1148.5552],[29.7457,39.9023,1221.8337],[29.7045,39.9031,1138.1975],[29.677,39.9055,1115.7595],[29.6907,39.8862,1377.8441],[29.6929,39.8797,1531.218],[29.6853,39.8555,1477.7513],[29.6847,39.8373,1545.2394],[29.6867,39.8254,1335.7959],[29.697,39.8059,1209.995],[29.7029,39.7761,1144.1765],[29.7229,39.741,1149.5873],[29.7431,39.7375,1261.0671],[29.7977,39.7184,1388.9244],[29.8182,39.7142,1404.4706],[29.8393,39.7068,1367.1121],[29.8631,39.7023,1381.0712],[29.881,39.6961,1305.0681],[29.9194,39.6912,1282.061],[29.9409,39.6841,1178.5564],[29.9521,39.6822,1164.722],[29.9872,39.6822,1080.3934],[29.9984,39.6841,1016.2448],[30.0196,39.6912,1023.2755],[30.0448,39.6932,986.723],[30.0411,39.7034,1022.755],[30.0355,39.7095,1070.1166],[30.0137,39.7199,1059.5222],[30.0046,39.7271,1118.3273],[30.0006,39.7346,1089.6962],[29.999,39.7457,1128.4014],[29.9996,39.7717,1233.307],[30.0027,39.7855,1172.1217],[30.0193,39.8113,1046.4943],[30.0366,39.8268,872.3571],[30.073,39.8528,934.3156],[30.1032,39.8646,833.6547],[30.1133,39.8671,903.2289],[30.136,39.8683,891.3514],[30.1637,39.8675,900.4236],[30.1789,39.8651,963.4613],[30.2045,39.8574,895.9617],[30.2487,39.8549,878.6515],[30.2297,39.878,1026.7889],[30.2079,39.9133,1066.5101],[30.1995,39.9211,1124.6619],[30.1517,39.9397,1123.0887],[30.1406,39.9458,1133.1343],[30.1008,39.9754,999.8058],[30.0793,39.9874,945.1911],[30.0666,40.0038,719.6105],[30.0626,40.0129,732.045],[30.0322,40.0273,747.843],[30.007,40.035,773.5614]]]]}}