{"type":"Feature","properties":{"GID_2":"TUR.5.5_1","GID_0":"TUR","country":"Turkey","GID_1":"TUR.5_1","province":"Aksaray","NL_NAME_1":"NA","county":"Merkez","VARNAME_2":"Aksaray","NL_NAME_2":"NA","TYPE_2":"District","ENGTYPE_2":"District","CC_2":"NA","HASC_2":"TR.AK.AK","name":"Merkez.county"},
"geometry":{"type": "MultiPolygon","coordinates": [[[[33.5485,38.6682,905.4644],[33.5282,38.6579,905.0394],[33.4981,38.6463,904.728],[33.465,38.6365,902.5],[33.4572,38.6254,902.5],[33.4281,38.5999,902.5],[33.4144,38.5818,904.9802],[33.4073,38.5767,905.1873],[33.3874,38.5678,902.5],[33.3757,38.556399999999996,902.5],[33.3974,38.5434,905.3193],[33.4145,38.521,907.566],[33.4597,38.4834,907.5271],[33.4706,38.4671,907.8544],[33.4915,38.4463,906.973],[33.5136,38.411,906.6389],[33.5221,38.4016,907.0804],[33.5576,38.3743,908.9092],[33.5695,38.3675,909.7387],[33.5868,38.3607,910.3029],[33.594,38.3536,911.46],[33.5941,38.3468,912.4417],[33.5837,38.3292,914.4573],[33.5473,38.2973,926.1127],[33.5279,38.2696,940.9981],[33.5134,38.2462,966.7604],[33.5109,38.238,961.8315],[33.5099,38.2266,964.2693],[33.5123,38.2041,969.5876],[33.5218,38.1877,991.1497],[33.5288,38.1667,1005.738],[33.538,38.1503,973.3341],[33.5425,38.111,1025.374],[33.5668,38.0713,1058.0447],[33.5728,38.0412,1075.0061],[33.5837,38.0193,1071.7787],[33.5853,38.0048,1061.7064],[33.5852,37.9747,1072.3999],[33.5842,37.9598,1071.6919],[33.5813,37.9458,1069.7672],[33.6387,37.9444,1044.0713],[33.6548,37.9461,1050.8112],[33.6765,37.9531,1040.1118],[33.6879,37.9551,1060.5929],[33.7862,37.957,1082.1345],[33.8153,37.9654,1069.6373],[33.8615,37.9688,1080.8131],[33.8944,37.9777,1074.8571],[33.9514,37.9802,1114.3525],[33.9807,37.9884,1111.2192],[34.0154,37.9924,1142.5286],[34.0632,38.01,1193.9764],[34.0742,38.0127,1213.5033],[34.1257,38.0138,1273.0651],[34.13,38.0268,1301.1542],[34.1469,38.052,1363.0291],[34.1569,38.0586,1391.3168],[34.1868,38.0701,1467.1995],[34.1973,38.0715,1565.9972],[34.2116,38.0705,1758.2823],[34.2546,38.054,1512.642],[34.2603,38.0533,1461.9028],[34.2684,38.056,1348.8418],[34.2743,38.0613,1334.1428],[34.283,38.0749,1457.75],[34.3015,38.0938,1659.2137],[34.3256,38.1311,1974.3749],[34.3348,38.1383,1782.0167],[34.3527,38.1454,1826.6079],[34.3663,38.1533,1876.3184],[34.3632,38.1596,1757.7354],[34.3595,38.1632,1685.8553],[34.3234,38.1847,1479.3655],[34.225,38.2227,1322.7087],[34.2202,38.2258,1309.1198],[34.2164,38.2328,1286.623],[34.2165,38.2406,1287.1731],[34.2186,38.2458,1290.5885],[34.2245,38.2519,1292.6855],[34.2539,38.2654,1335.0885],[34.2765,38.2814,1244.4238],[34.2715,38.2895,1237.7065],[34.2513,38.3008,1200.3163],[34.2376,38.3121,1165.6223],[34.2339,38.3195,1141.1376],[34.234,38.3249,1133.2688],[34.2378,38.3321,1137.3817],[34.2577,38.3525,1161.0271],[34.2603,38.3605,1171.5573],[34.2628,38.3797,1174.8215],[34.2683,38.3893,1121.8105],[34.2754,38.3945,1137.2926],[34.2934,38.4016,1168.3622],[34.305,38.4082,1157.0758],[34.3211,38.4201,1218.59],[34.3338,38.4338,1250.022],[34.34,38.4551,1260.2018],[34.348,38.4734,1277.3446],[34.3463,38.4813,1259.041],[34.333,38.5085,1184.5619],[34.3285,38.51,1182.6174],[34.2984,38.5037,1284.3641],[34.2557,38.5012,1171.6156],[34.2269,38.4929,1207.774],[34.1995,38.4908,1238.2251],[34.1393,38.4918,1337.6227],[34.1281,38.4938,1285.8407],[34.1067,38.5009,1236.5588],[34.0909,38.5026,1226.5944],[33.9796,38.5025,1081.2802],[33.9515,38.5043,1017.3829],[33.9145,38.518,1084.5211],[33.9,38.5274,1072.0808],[33.8809,38.5427,1151.2058],[33.8703,38.5469,1125.7664],[33.8563,38.5492,1149.1562],[33.7595,38.5504,910.0083],[33.7495,38.5528,909.3771],[33.7225,38.5632,907.23],[33.6811,38.5909,906.1271],[33.6512,38.6048,905.4236],[33.609,38.636,905.8742],[33.5822,38.6478,905.6916],[33.5485,38.6682,905.4644]]]]}}