{"type": "Feature","bbox": [37.4342,40.1309,37.6445,40.2764],"geometry": {"type": "MultiPolygon","coordinates": [[[[37.643,40.1481,1400.4528],[37.6343,40.1626,1453.1117],[37.6333,40.167,1488.1658],[37.6359,40.1732,1488.7622],[37.6445,40.1766,1451.822],[37.6435,40.1907,1320.854],[37.6413,40.1987,1156.2855],[37.6284,40.2205,1360.1622],[37.6196,40.2306,1425.6124],[37.6106,40.2382,1384.4557],[37.56,40.2764,1442.264],[37.5227,40.2664,1075.2671],[37.4988,40.2515,1526.4442],[37.4811,40.2441,1535.0358],[37.4717,40.2382,1712.0792],[37.4528,40.2105,1922.8918],[37.4468,40.1807,1720.8026],[37.4376,40.1639,1816.4019],[37.4342,40.1534,2250.0857],[37.4593,40.1513,2325.9792],[37.4883,40.143,1874.3269],[37.5453,40.1403,1708.897],[37.5705,40.1325,1468.2058],[37.5843,40.1309,1532.9917],[37.6013,40.1333,1419.6958],[37.643,40.1481,1400.4528]]]]}
,"properties": {"GID_2": "TUR.72.4_1","GID_0": "TUR","country": "Turkey","GID_1": "TUR.72_1","province": "Sivas","NL_NAME_1": "NA","county": "Doğanşar","VARNAME_2": "NA","NL_NAME_2": "NA","TYPE_2": "District","ENGTYPE_2": "District","CC_2": "NA","HASC_2": "TR.SV.DO","name": "Doğanşar.county","area_km2": 198.0499,"hist_schema_id": "Elevation0-9000","hist_area_km2": {"1025": 0.4368,"1050": 1.9579,"1075": 1.7315,"1100": 2.1038,"1125": 2.6705,"1150": 3.3505,"1175": 3.2048,"1200": 3.6256,"1225": 4.1761,"1250": 4.1924,"1275": 5.4229,"1300": 6.6371,"1325": 7.0744,"1350": 6.2976,"1375": 6.5085,"1400": 7.6756,"1425": 8.5677,"1450": 9.4595,"1475": 9.4922,"1500": 9.7517,"1525": 9.1365,"1550": 6.7872,"1575": 4.7299,"1600": 4.4707,"1625": 4.4383,"1650": 3.904,"1675": 3.5315,"1700": 3.742,"1725": 3.5476,"1750": 4.2768,"1775": 4.698,"1800": 4.8276,"1825": 4.3904,"1850": 3.7583,"1875": 3.7094,"1900": 3.0616,"1925": 2.8348,"1950": 2.8348,"1975": 1.96,"2000": 2.0734,"2025": 2.0084,"2050": 1.7817,"2075": 1.4902,"2100": 1.3445,"2125": 0.8424,"2150": 0.567,"2175": 0.4698,"2200": 0.405,"2225": 0.3403,"2250": 0.2269,"2275": 0.2593,"2300": 0.3079,"2325": 0.2755,"2350": 0.1459,"2375": 0.1296,"2400": 0.1296,"2425": 0.0972,"2450": 0.0972,"2475": 0.0162,"2500": 0.0486,"2550": 0.0162}}}