{"type": "Feature","bbox": [33.5296,36.1335,34.1649,37.0479],"geometry": {"type": "MultiPolygon","coordinates": [[[[33.6954,36.161,2.4546],[33.6918,36.1607,1.8568],[33.6943,36.159,6.5319],[33.6982,36.1593,7.8866],[33.6954,36.161,2.4546]]],
[[[33.7799,36.2007,0.0],[33.7746,36.2004,1.4751],[33.7718,36.1963,9.8602],[33.7663,36.1935,0.8465],[33.7576,36.186,0.0],[33.7568,36.1824,2.9683],[33.7621,36.1796,0.0],[33.7668,36.1821,84.2721],[33.7738,36.1821,7.2012],[33.7735,36.1838,27.6898],[33.7771,36.1843,3.1323],[33.7796,36.1913,0.0],[33.7843,36.1968,2.792],[33.7799,36.2007,0.0]]],
[[[33.8285,36.2687,2.1687],[33.8262,36.2685,0.0],[33.8262,36.2646,0.0],[33.8288,36.2665,0.0],[33.8285,36.2687,2.1687]]],
[[[33.6428,37.0477,1751.9595],[33.6211,37.046,1723.4829],[33.5696,37.0165,1643.9495],[33.5296,37.003,1605.5768],[33.5501,36.9772,1588.4097],[33.5795,36.9305,1827.8202],[33.5861,36.9093,1735.2783],[33.5953,36.8929,1692.8073],[33.6007,36.8626,1773.432],[33.6152,36.8392,1772.1943],[33.6396,36.8141,1449.9324],[33.7052,36.7111,1161.1993],[33.7277,36.6881,1419.7111],[33.7393,36.672,1143.1222],[33.7559,36.6559,1334.9652],[33.7598,36.646,1413.8457],[33.758,36.6384,1479.3101],[33.7501,36.6249,1553.0435],[33.7441,36.6064,1457.8351],[33.7065,36.5485,1266.5327],[33.6975,36.5226,1025.5685],[33.6824,36.4993,772.2103],[33.6636,36.4806,451.9219],[33.6524,36.4646,372.3595],[33.6457,36.459,323.3256],[33.6074,36.4434,263.3795],[33.5773,36.4365,461.1338],[33.5701,36.4209,722.309],[33.567,36.4102,589.4289],[33.5658,36.3843,846.129],[33.568,36.3645,997.7146],[33.5718,36.3571,1016.4291],[33.5831,36.3424,1042.0178],[33.5875,36.3391,1039.7318],[33.6094,36.3291,1084.5946],[33.6607,36.3099,1028.4119],[33.6688,36.3018,901.7656],[33.6713,36.2937,978.1473],[33.6691,36.2801,956.5088],[33.6538,36.257,873.082],[33.6158,36.2227,497.2216],[33.5981,36.1971,350.2955],[33.591,36.1845,237.07],[33.5925,36.176,35.3242],[33.6096,36.1851,3.1102],[33.6138,36.1835,0.0],[33.6232,36.1871,3.4532],[33.6399,36.1899,0.0],[33.6468,36.1937,0.0],[33.6529,36.1926,1.85],[33.6613,36.1868,0.1916],[33.6579,36.1785,7.4964],[33.6582,36.1699,9.8785],[33.6613,36.1638,0.0],[33.6593,36.1601,0.0],[33.664,36.1587,0.0],[33.6743,36.1599,7.6411],[33.6763,36.1563,0.8666],[33.6815,36.1579,4.2663],[33.684,36.1571,2.0097],[33.6771,36.154,0.0],[33.6721,36.1463,0.0],[33.6768,36.1401,9.491],[33.6774,36.1354,0.0],[33.6843,36.1374,23.8269],[33.6824,36.134,18.3153],[33.6846,36.1335,0.0],[33.6896,36.1346,0.0],[33.699,36.1401,0.0],[33.6996,36.151,0.0],[33.6982,36.1532,32.6021],[33.6935,36.1546,5.2723],[33.696,36.1574,2.7153],[33.691,36.1585,12.2701],[33.6885,36.1574,0.0],[33.6874,36.1593,1.9763],[33.6951,36.1674,0.7202],[33.6985,36.1738,91.513],[33.7121,36.1846,5.533],[33.7224,36.1901,0.0],[33.7263,36.1963,0.0],[33.7357,36.1985,0.0],[33.7371,36.2026,4.8938],[33.7412,36.2057,13.9309],[33.7474,36.206,2.8933],[33.7526,36.2124,6.2745],[33.7726,36.2218,4.2143],[33.7782,36.2238,47.8432],[33.7826,36.2232,0.0],[33.7882,36.226,0.0],[33.7904,36.2287,0.0],[33.796,36.2304,0.0],[33.7982,36.234,13.0943],[33.8021,36.2354,0.0],[33.8037,36.2388,17.0043],[33.809,36.2401,0.0],[33.8093,36.2415,3.5362],[33.806,36.2418,10.8717],[33.8093,36.246,2.0346],[33.809,36.2482,0.0],[33.8112,36.2496,2.9353],[33.811,36.2518,11.6841],[33.8088,36.2518,52.1572],[33.8085,36.2535,0.0],[33.8104,36.2535,0.0],[33.8112,36.2557,48.5982],[33.8162,36.2551,0.0],[33.8187,36.2565,0.0],[33.8229,36.2635,0.0],[33.8218,36.2668,17.0682],[33.8157,36.2676,0.7654],[33.8149,36.2738,16.1243],[33.8185,36.274,1.5346],[33.8215,36.2762,9.748],[33.8321,36.276,4.3146],[33.836,36.2735,0.0],[33.841,36.2751,0.0],[33.8429,36.2782,0.0],[33.8374,36.2765,1.1086],[33.8382,36.2799,8.1997],[33.8332,36.2813,0.0],[33.8324,36.2851,0.0],[33.8393,36.2915,0.0],[33.8479,36.2929,3.0432],[33.8479,36.2968,5.8696],[33.8526,36.299,2.5044],[33.8546,36.3049,12.1559],[33.8604,36.3082,0.0],[33.8679,36.3157,4.5735],[33.8821,36.3179,2.4547],[33.8818,36.3168,0.4626],[33.8863,36.3171,3.7462],[33.8943,36.314,5.3958],[33.9021,36.3143,3.4695],[33.9018,36.311,0.948],[33.9035,36.3096,0.1862],[33.9068,36.3093,1.7929],[33.9179,36.3021,0.8162],[33.9215,36.3013,1.5566],[33.9221,36.2993,0.6737],[33.9243,36.299,0.9617],[33.9351,36.2896,0.1795],[33.9376,36.2896,1.3809],[33.9451,36.2768,0.0],[33.9493,36.2654,0.0],[33.9504,36.2546,0.3994],[33.9474,36.2474,0.0],[33.9496,36.239,0.0],[33.9518,36.2346,0.0],[33.9568,36.2321,0.0],[33.9632,36.2321,0.0],[33.9688,36.2482,0.0846],[33.9768,36.2649,0.1307],[33.999,36.2846,0.0],[33.9979,36.2857,0.1861],[33.9765,36.276,0.0],[33.9774,36.281,0.2539],[33.9801,36.2854,0.2539],[33.9863,36.2874,0.0567],[33.9879,36.2951,0.3415],[33.9971,36.304,0.0552],[34.0088,36.3085,0.0],[34.0132,36.3074,0.037],[34.0179,36.3026,-0.348],[34.0143,36.3099,-0.3989],[34.0196,36.3063,-0.5],[34.0185,36.3026,-0.348],[34.0196,36.301,-0.5],[34.0313,36.3015,0.3995],[34.0382,36.2982,0.2267],[34.0407,36.2951,0.0],[34.0435,36.2949,0.0],[34.0465,36.2971,0.0511],[34.0454,36.3043,0.0529],[34.0504,36.2982,0.0926],[34.0563,36.3051,0.1312],[34.0671,36.3118,0.0],[34.0768,36.324,0.0],[34.0799,36.3363,0.0],[34.079,36.3596,0.2657],[34.0774,36.3599,0.2657],[34.0768,36.364,1.1264],[34.0782,36.374,0.0],[34.0774,36.399,0.0745],[34.079,36.4096,6.8427],[34.0821,36.4151,2.0952],[34.0857,36.4182,7.0816],[34.0896,36.4149,0.0],[34.0913,36.4154,0.0],[34.0929,36.4182,5.1523],[34.0907,36.4193,11.1947],[34.0985,36.4204,0.0],[34.0993,36.4257,12.6021],[34.1037,36.4218,0.0],[34.106,36.4224,1.5937],[34.1079,36.4263,7.4755],[34.1104,36.4254,0.0],[34.1104,36.4276,4.1483],[34.1157,36.4318,1.0358],[34.114,36.4335,14.9136],[34.1115,36.4329,21.7533],[34.1121,36.4374,24.4921],[34.1193,36.4376,1.9846],[34.1201,36.4404,6.516],[34.1201,36.4421,2.123],[34.114,36.4435,12.5992],[34.1174,36.446,4.471],[34.1204,36.4454,0.0],[34.1212,36.4507,8.9275],[34.1271,36.4463,0.0],[34.1276,36.4488,11.9333],[34.1293,36.449,0.0],[34.129,36.4543,2.7279],[34.1351,36.4532,0.0],[34.1324,36.4543,5.3214],[34.1335,36.4579,0.0],[34.1321,36.4588,3.7313],[34.1349,36.4596,10.7677],[34.1363,36.4576,0.0],[34.1435,36.4568,0.0],[34.1437,36.4599,2.8457],[34.1479,36.4632,1.0894],[34.1518,36.4626,0.0],[34.1543,36.4643,3.6309],[34.1557,36.4629,0.0],[34.1582,36.4654,0.0],[34.1629,36.4649,0.0],[34.1649,36.4668,0.0],[34.1457,36.4737,77.4333],[34.1206,36.4854,286.9192],[34.1023,36.4896,353.6631],[34.0952,36.4943,389.0655],[34.0916,36.5071,497.3649],[34.0927,36.549,677.1329],[34.0914,36.5637,815.2055],[34.0883,36.5717,809.6626],[34.0749,36.5927,886.973],[34.0392,36.6248,1017.0057],[34.0128,36.6648,1217.0992],[33.9926,36.6853,1376.3037],[33.9809,36.702,1391.9634],[33.9494,36.7296,1489.5007],[33.9377,36.7463,1390.2527],[33.9175,36.7668,1351.1309],[33.8931,36.8047,1702.9872],[33.8443,36.8458,1780.0721],[33.827,36.8716,1794.08],[33.8239,36.8796,1790.6042],[33.8226,36.8945,1781.4017],[33.8232,37.0477,1892.196],[33.8096,37.0451,1909.7739],[33.7884,37.0377,1905.2703],[33.7647,37.0331,2002.7288],[33.7504,37.028,2150.4351],[33.7406,37.0267,2123.6077],[33.7308,37.0282,2055.8379],[33.6832,37.0462,1798.0898],[33.668,37.0479,1787.7026],[33.6428,37.0477,1751.9595]]]]}
,"properties": {"GID_2": "TUR.58.9_1","GID_0": "TUR","country": "Turkey","GID_1": "TUR.58_1","province": "Mersin","NL_NAME_1": "NA","county": "Silifke","VARNAME_2": "NA","NL_NAME_2": "NA","TYPE_2": "District","ENGTYPE_2": "District","CC_2": "NA","HASC_2": "TR.IC.SI","name": "Silifke.county","area_km2": 2669.156,"hist_schema_id": "Elevation0-9000","hist_area_km2": {"0": 169.528,"25": 38.754,"50": 32.026,"75": 30.436,"100": 29.702,"125": 27.565,"150": 26.162,"175": 26.86,"200": 26.995,"225": 26.428,"250": 26.188,"275": 25.606,"300": 24.393,"325": 25.434,"350": 25.638,"375": 28.986,"400": 29.447,"425": 28.524,"450": 26.612,"475": 24.151,"500": 27.066,"525": 26.946,"550": 25.237,"575": 24.896,"600": 23.869,"625": 23.491,"650": 22.279,"675": 22.773,"700": 23.333,"725": 26.554,"750": 25.379,"775": 23.707,"800": 23.841,"825": 25.766,"850": 29.564,"875": 26.291,"900": 26.927,"925": 27.766,"950": 31.145,"975": 34.676,"1000": 33.329,"1025": 28.054,"1050": 28.135,"1075": 33.193,"1100": 29.877,"1125": 26.785,"1150": 26.216,"1175": 23.775,"1200": 19.752,"1225": 18.37,"1250": 19.271,"1275": 19.303,"1300": 21.359,"1325": 23.023,"1350": 31.032,"1375": 47.625,"1400": 63.111,"1425": 62.871,"1450": 52.459,"1475": 35.533,"1500": 30.414,"1525": 31.129,"1550": 35.119,"1575": 36.298,"1600": 29.859,"1625": 26.626,"1650": 26.157,"1675": 23.306,"1700": 27.896,"1725": 38.158,"1750": 58.568,"1775": 89.53,"1800": 66.438,"1825": 63.376,"1850": 53.15,"1875": 43.045,"1900": 36.217,"1925": 20.643,"1950": 12.717,"1975": 9.789,"2000": 9.434,"2025": 8.248,"2050": 13.651,"2075": 8.621,"2100": 2.963,"2125": 1.659,"2150": 1.016,"2175": 0.389,"2200": 0.271,"2225": 0.135,"2250": 0.119,"2275": 0.068,"2300": 0.068,"2325": 0.051}}}