{"type": "Feature","bbox": [37.5731,37.4069,38.179,37.7265],"geometry": {"type": "MultiPolygon","coordinates": [[[[37.5731,37.5505,888.3605],[37.623,37.5121,826.5522],[37.6386,37.5108,984.2653],[37.6684,37.5107,915.2913],[37.6791,37.512,848.9244],[37.7538,37.5411,796.6638],[37.7668,37.5447,823.2537],[37.7886,37.5454,677.3345],[37.8027,37.5432,665.5605],[37.8502,37.5247,651.0092],[37.8891,37.5201,688.9412],[37.9103,37.513,671.1419],[37.9342,37.5087,612.7181],[37.9554,37.5015,620.7352],[37.9858,37.4949,598.0789],[38.0006,37.4861,666.5685],[38.0303,37.4627,534.7362],[38.042,37.4512,492.9709],[38.0515,37.4376,380.5],[38.0561,37.4339,380.5],[38.0898,37.4201,523.1105],[38.1289,37.4149,480.4944],[38.1567,37.4069,461.1855],[38.169,37.4073,385.9516],[38.1772,37.4106,381.0],[38.179,37.4315,465.95],[38.1777,37.4457,475.9011],[38.1667,37.4674,493.4277],[38.1611,37.4859,456.0582],[38.1446,37.5116,468.9788],[38.1107,37.5413,517.0682],[38.0935,37.567,566.8286],[38.0901,37.5775,524.7991],[38.0873,37.6114,459.1526],[38.072,37.6376,598.4891],[38.0632,37.6468,579.8084],[38.0436,37.6597,600.4112],[38.0219,37.6702,609.6709],[37.9976,37.6772,566.2823],[37.9713,37.6929,561.9764],[37.9382,37.7059,634.9703],[37.9187,37.7082,632.4661],[37.858,37.7093,926.8054],[37.8041,37.7265,1023.8157],[37.7757,37.712,1215.7784],[37.757,37.7048,1172.3496],[37.7456,37.6975,1156.5759],[37.7343,37.6863,968.6091],[37.7271,37.6699,887.2706],[37.7237,37.6661,889.5524],[37.7125,37.6625,917.7582],[37.6893,37.6602,1116.4457],[37.6756,37.6532,1169.9153],[37.6705,37.6464,1121.7778],[37.6649,37.6282,1034.2478],[37.6573,37.6141,940.7854],[37.6518,37.588,848.9337],[37.6468,37.5819,977.7739],[37.6106,37.5604,907.3599],[37.5731,37.5505,888.3605]]]]}
,"properties": {"GID_2": "TUR.2.1_1","GID_0": "TUR","country": "Turkey","GID_1": "TUR.2_1","province": "Adiyaman","NL_NAME_1": "NA","county": "Besni","VARNAME_2": "NA","NL_NAME_2": "NA","TYPE_2": "District","ENGTYPE_2": "District","CC_2": "NA","HASC_2": "TR.AD.BE","name": "Besni.county","area_km2": 889.0398,"hist_schema_id": "Elevation0-9000","hist_area_km2": {"375": 5.3538,"400": 4.0066,"425": 6.6156,"450": 12.8939,"475": 30.0226,"500": 30.7653,"525": 60.4511,"550": 54.8031,"575": 72.2219,"600": 68.3803,"625": 53.9892,"650": 39.5666,"675": 35.291,"700": 31.1878,"725": 26.0974,"750": 23.8814,"775": 28.3337,"800": 39.1838,"825": 42.2898,"850": 41.4321,"875": 33.586,"900": 27.3392,"925": 20.0532,"950": 16.3105,"975": 15.5734,"1000": 12.9506,"1025": 11.317,"1050": 10.2223,"1075": 9.096,"1100": 7.6519,"1125": 7.3167,"1150": 6.1251,"1175": 2.9865,"1200": 1.1406,"1225": 0.4529,"1250": 0.1342,"1275": 0.0168}}}