{"type": "Feature","bbox": [26.8526,39.3304,27.1768,39.5594],"geometry": {"type": "MultiPolygon","coordinates": [[[[27.0502,39.3304,1106.4011],[27.1186,39.383,790.1417],[27.1292,39.3893,705.4305],[27.1475,39.396,779.6042],[27.1579,39.4024,824.5402],[27.167,39.4102,647.8621],[27.1768,39.4215,1031.8707],[27.1439,39.4307,703.2938],[27.1172,39.4411,411.7361],[27.1076,39.4479,556.3434],[27.1018,39.458,575.3235],[27.0981,39.4818,595.6794],[27.0886,39.5015,327.0735],[27.0832,39.5315,183.474],[27.0711,39.5487,27.8048],[27.0669,39.5523,25.879],[27.055,39.5562,21.5839],[27.0347,39.5594,18.4268],[27.0159,39.5566,10.5534],[26.9714,39.5551,2.0479],[26.9532,39.5529,0.0],[26.9518,39.5474,0.8468],[26.9449,39.5438,0.0],[26.9387,39.5365,0.0],[26.9415,39.5274,0.8484],[26.9343,39.5121,0.0],[26.934,39.506,0.2625],[26.9318,39.5037,2.5939],[26.9335,39.4974,4.0208],[26.9296,39.4924,0.4801],[26.9318,39.4888,2.0601],[26.9312,39.4854,3.0618],[26.9274,39.4851,0.0],[26.9165,39.4801,2.0366],[26.8843,39.4746,0.8551],[26.8715,39.4746,0.8702],[26.8654,39.4779,0.0],[26.8585,39.4774,0.0],[26.8576,39.4707,0.0],[26.8532,39.4665,5.3053],[26.8526,39.4574,15.8507],[26.8598,39.4599,78.5332],[26.8776,39.4575,32.2193],[26.907,39.4419,125.5138],[26.9343,39.4368,108.6554],[26.9554,39.4297,98.9395],[26.976,39.4264,159.6176],[26.9859,39.4227,98.3247],[26.9945,39.4172,97.5598],[27.0083,39.4037,149.769],[27.0379,39.357,726.545],[27.0502,39.3304,1106.4011]]]]}
,"properties": {"GID_2": "TUR.12.5_1","GID_0": "TUR","country": "Turkey","GID_1": "TUR.12_1","province": "Balikesir","NL_NAME_1": "NA","county": "Burhaniye","VARNAME_2": "NA","NL_NAME_2": "NA","TYPE_2": "District","ENGTYPE_2": "District","CC_2": "NA","HASC_2": "TR.BK.BU","name": "Burhaniye.county","area_km2": 303.6588,"hist_schema_id": "Elevation0-9000","hist_area_km2": {"0": 44.2566,"25": 43.2976,"50": 13.0263,"75": 11.9647,"100": 18.6615,"125": 17.0249,"150": 11.3611,"175": 7.154,"200": 6.1723,"225": 6.0907,"250": 5.8288,"275": 6.1076,"300": 5.7474,"325": 5.0926,"350": 5.9765,"375": 5.5675,"400": 5.3875,"425": 5.1748,"450": 5.4367,"475": 5.175,"500": 5.1262,"525": 5.0281,"550": 4.6184,"575": 4.6023,"600": 4.2091,"625": 3.6362,"650": 3.1942,"675": 3.0637,"700": 3.4078,"725": 3.5554,"750": 3.572,"775": 3.0804,"800": 2.7691,"825": 2.7695,"850": 3.081,"875": 3.1958,"900": 2.573,"925": 1.8358,"950": 1.836,"975": 1.1639,"1000": 0.9672,"1025": 0.6722,"1050": 0.5575,"1075": 0.3608,"1100": 0.2788}}}