{"type":"Feature","properties":{"GID_2":"TUR.46.20_1","GID_0":"TUR","country":"Turkey","GID_1":"TUR.46_1","province":"Kastamonu","NL_NAME_1":"NA","county":"Tosya","VARNAME_2":"NA","NL_NAME_2":"NA","TYPE_2":"District","ENGTYPE_2":"District","CC_2":"NA","HASC_2":"TR.KS.TO","name":"Tosya.county"},
"geometry":{"type": "MultiPolygon","coordinates": [[[[33.9257,40.8829,1277.7738],[33.9532,40.8688,1650.9948],[33.9803,40.8633,1776.0905],[34.0015,40.8563,1537.5898],[34.0359,40.851,1542.2826],[34.0672,40.8561,1544.7094],[34.0884,40.8633,1587.5945],[34.1156,40.8686,1716.1952],[34.1635,40.8866,1493.5443],[34.1907,40.892,1390.62],[34.2142,40.9029,1532.4795],[34.2544,40.9153,1568.2878],[34.2778,40.9272,1600.7148],[34.2819,40.9346,1624.7029],[34.2832,40.9459,1650.613],[34.2821,40.964,1496.2118],[34.2791,40.9763,1496.9762],[34.2451,40.9985,1303.4235],[34.2261,41.0086,1037.395],[34.2128,41.0248,517.7815],[34.2096,41.0347,470.0905],[34.213,41.0447,534.412],[34.2651,41.1229,1243.6102],[34.2798,41.1463,1652.098],[34.291,41.1674,1893.0941],[34.2728,41.1758,1569.9915],[34.2637,41.178,1526.0773],[34.2536,41.1773,1406.6289],[34.2339,41.171,1723.6119],[34.2238,41.1715,1645.3123],[34.2151,41.1751,1432.4633],[34.1945,41.1888,1593.9238],[34.1761,41.1984,1324.9504],[34.1783,41.1768,1578.4601],[34.1779,41.1588,1751.1199],[34.1751,41.1507,1741.9492],[34.166,41.1439,1723.4061],[34.1465,41.1359,1646.1448],[34.1078,41.1317,1680.9379],[34.0788,41.1233,1708.1576],[34.0028,41.1225,2085.9238],[33.9836,41.1199,1964.8002],[33.9677,41.1115,1935.3337],[33.9462,41.0939,1806.4039],[33.94,41.0864,1694.6141],[33.92,41.0535,1303.8394],[33.9114,41.0458,1634.5975],[33.9023,41.0421,1871.9797],[33.8881,41.0407,1814.3286],[33.8735,41.0418,1891.3173],[33.8577,41.0451,2024.8672],[33.8259,41.0248,2032.549],[33.8023,41.0068,1635.7056],[33.7912,40.9959,1488.7318],[33.7864,40.9825,1661.2515],[33.7868,40.9568,1640.4869],[33.7895,40.9486,1424.9476],[33.7998,40.9371,1127.5814],[33.8297,40.9161,783.5107],[33.8929,40.8916,1013.3163],[33.9257,40.8829,1277.7738]]]]}}