{"type": "Feature","bbox": [41.4832,41.2567,42.0644,41.5253],"geometry": {"type": "MultiPolygon","coordinates": [[[[41.6257,41.4966,1245.4893],[41.6222,41.4879,1197.2986],[41.5867,41.4321,707.384],[41.5802,41.4152,1002.1367],[41.577,41.411,946.2387],[41.5532,41.3995,648.4604],[41.5176,41.395,428.1561],[41.5094,41.3902,307.2469],[41.5059,41.3796,220.3036],[41.5064,41.3455,1132.1151],[41.5043,41.3302,1647.6633],[41.5002,41.3225,1636.9397],[41.4832,41.3011,1304.4141],[41.5266,41.3033,719.0976],[41.5577,41.3019,558.9531],[41.5714,41.2974,409.2378],[41.598,41.2826,692.5436],[41.6399,41.2767,970.5231],[41.6765,41.2646,1392.1094],[41.7077,41.2678,1117.8408],[41.8075,41.2679,583.5433],[41.8315,41.2658,946.9199],[41.8528,41.2585,1828.1423],[41.8667,41.2567,1862.8595],[41.8838,41.2591,1389.3762],[41.9078,41.2707,2379.1277],[41.924,41.2878,2216.1812],[41.952,41.3102,2483.1567],[41.9666,41.3246,2559.5491],[41.9694,41.3301,2489.9758],[41.9725,41.3473,2819.7817],[41.9755,41.355,2930.3367],[41.9821,41.36,2995.9756],[41.9963,41.3656,2889.7112],[42.0137,41.3852,2337.4265],[42.0207,41.4062,2370.3972],[42.0299,41.4226,2285.1309],[42.0356,41.4412,2104.7107],[42.0591,41.4782,1494.8662],[42.0644,41.5014,2308.0249],[42.0536,41.4955,2124.2754],[42.0481,41.4945,2080.5852],[42.0185,41.5055,1862.3274],[41.9926,41.5067,2024.6447],[41.9895,41.5108,2004.9163],[41.9891,41.5162,2050.8564],[41.9771,41.5253,1905.4379],[41.9552,41.5246,1937.9012],[41.9474,41.5166,1788.8],[41.9229,41.5038,1592.7598],[41.9075,41.5004,1497.2294],[41.9034,41.4917,1177.03],[41.8964,41.487,696.147],[41.896,41.4793,433.8329],[41.8855,41.4701,969.4765],[41.8786,41.461,1184.0269],[41.852,41.4546,1459.2837],[41.8499,41.4493,1865.4512],[41.8413,41.4401,1783.2045],[41.8277,41.4344,2038.0171],[41.8231,41.4346,2031.296],[41.811,41.4487,1424.4591],[41.7902,41.4544,1325.1488],[41.7877,41.4615,1413.5151],[41.7623,41.4713,1048.2098],[41.754,41.4737,728.1141],[41.7285,41.473,303.6183],[41.7157,41.4751,170.1918],[41.7135,41.4783,65.8461],[41.7158,41.4832,56.8264],[41.7206,41.486,87.2018],[41.7215,41.4898,100.0302],[41.7186,41.4944,140.835],[41.7088,41.4977,126.1874],[41.6759,41.4868,1025.5804],[41.655,41.4836,885.0632],[41.6257,41.4966,1245.4893]]]]}
,"properties": {"GID_2": "TUR.10.3_1","GID_0": "TUR","country": "Turkey","GID_1": "TUR.10_1","province": "Artvin","NL_NAME_1": "NA","county": "Borçka","VARNAME_2": "NA","NL_NAME_2": "NA","TYPE_2": "District","ENGTYPE_2": "District","CC_2": "NA","HASC_2": "TR.AV.BO","name": "Borçka.county","area_km2": 888.9481,"hist_schema_id": "Elevation0-9000","hist_area_km2": {"50": 1.0324,"75": 0.8419,"100": 5.5328,"125": 2.9893,"150": 2.8938,"175": 9.9167,"200": 5.6156,"225": 6.4588,"250": 7.3338,"275": 8.2572,"300": 9.4498,"325": 9.6876,"350": 10.4836,"375": 10.977,"400": 11.3423,"425": 12.17,"450": 12.9656,"475": 12.6793,"500": 13.7453,"525": 13.2997,"550": 14.3186,"575": 14.525,"600": 13.6668,"625": 14.7489,"650": 15.1143,"675": 14.1119,"700": 14.1917,"725": 14.0006,"750": 14.0643,"775": 14.9075,"800": 14.048,"825": 14.5577,"850": 14.0011,"875": 13.9368,"900": 13.6818,"925": 13.5552,"950": 13.3798,"975": 13.4433,"1000": 13.6502,"1025": 11.5178,"1050": 11.8199,"1075": 12.4247,"1100": 12.1376,"1125": 10.9292,"1150": 10.9758,"1175": 11.7082,"1200": 11.4215,"1225": 11.4049,"1250": 10.3874,"1275": 10.2118,"1300": 10.7534,"1325": 10.6569,"1350": 10.2281,"1375": 10.3716,"1400": 9.8461,"1425": 10.514,"1450": 9.4168,"1475": 10.1813,"1500": 10.3868,"1525": 9.9418,"1550": 9.7199,"1575": 9.3529,"1600": 8.7014,"1625": 8.8282,"1650": 8.8125,"1675": 8.7171,"1700": 8.7809,"1725": 8.749,"1750": 8.2878,"1775": 8.4155,"1800": 7.2375,"1825": 7.5081,"1850": 6.9829,"1875": 7.1582,"1900": 6.5695,"1925": 6.1244,"1950": 6.2674,"1975": 5.9819,"2000": 5.8379,"2025": 5.9816,"2050": 6.0455,"2075": 4.9167,"2100": 4.9809,"2125": 4.5835,"2150": 4.3132,"2175": 4.2809,"2200": 3.4696,"2225": 3.5332,"2250": 3.4217,"2275": 3.1511,"2300": 2.8012,"2325": 2.9761,"2350": 2.4033,"2375": 2.2123,"2400": 2.1485,"2425": 1.7666,"2450": 1.5278,"2475": 1.8144,"2500": 1.5279,"2525": 0.8912,"2550": 1.0662,"2575": 0.9547,"2600": 0.6683,"2625": 0.6524,"2650": 0.7478,"2675": 0.7638,"2700": 0.5887,"2725": 0.6365,"2750": 0.6683,"2775": 0.4137,"2800": 0.5092,"2825": 0.3819,"2850": 0.2705,"2875": 0.3182,"2900": 0.191,"2925": 0.2069,"2950": 0.1273,"2975": 0.0477,"3000": 0.0318,"3025": 0.0159,"3050": 0.0636,"3075": 0.0318}}}