{"type": "Feature","bbox": [36.1799,39.9563,36.421,40.0655],"geometry": {"type": "MultiPolygon","coordinates": [[[[36.421,39.9563,1529.2695],[36.4,39.9803,1523.962],[36.3866,40.0012,1454.2584],[36.3838,40.009,1373.4113],[36.3846,40.0227,1308.0128],[36.3953,40.0415,1155.3885],[36.404,40.0655,1106.6367],[36.3726,40.0592,1112.2323],[36.3514,40.0521,1094.9061],[36.3353,40.0498,1087.7017],[36.1799,40.0492,1322.158],[36.1909,40.0274,1101.3413],[36.2123,40.0043,1082.6284],[36.2271,39.9776,1270.803],[36.2402,39.9724,1120.7905],[36.3059,39.957,1222.2391],[36.421,39.9563,1529.2695]]]]}
,"properties": {"GID_2": "TUR.74.11_1","GID_0": "TUR","country": "Turkey","GID_1": "TUR.74_1","province": "Tokat","NL_NAME_1": "NA","county": "Yeşilyurt","VARNAME_2": "NA","NL_NAME_2": "NA","TYPE_2": "District","ENGTYPE_2": "District","CC_2": "NA","HASC_2": "TR.TT.YE","name": "Yeşilyurt.county","area_km2": 161.7177,"hist_schema_id": "Elevation0-9000","hist_area_km2": {"1050": 3.686,"1075": 18.9789,"1100": 25.1134,"1125": 15.8453,"1150": 8.784,"1175": 7.2745,"1200": 6.9828,"1225": 7.6169,"1250": 6.903,"1275": 7.3745,"1300": 7.3749,"1325": 8.7725,"1350": 8.3344,"1375": 8.4647,"1400": 6.1579,"1425": 4.7606,"1450": 4.7281,"1475": 2.0796,"1500": 1.3647,"1525": 0.8448,"1550": 0.2599,"1575": 0.0162}}}