{"type":"Feature","properties":{"GID_2":"TUR.4.7_1","GID_0":"TUR","country":"Turkey","GID_1":"TUR.4_1","province":"Agri","NL_NAME_1":"NA","county":"Taşlıçay","VARNAME_2":"NA","NL_NAME_2":"NA","TYPE_2":"District","ENGTYPE_2":"District","CC_2":"NA","HASC_2":"TR.AG.TA","name":"Taşlıçay.county"},
"geometry":{"type": "MultiPolygon","coordinates": [[[[43.5972,39.6855,2597.8574],[43.5881,39.6923,2649.5935],[43.5435,39.71,2542.48],[43.5193,39.7245,2751.7495],[43.4962,39.7347,2502.5842],[43.488,39.7427,2430.4761],[43.4783,39.7667,2487.4138],[43.4633,39.7664,2414.1138],[43.4533,39.7683,2482.5486],[43.4233,39.7796,2590.991],[43.3942,39.7946,2813.0764],[43.3821,39.7729,2494.6685],[43.38,39.7418,2363.0146],[43.3769,39.7311,2325.2834],[43.3662,39.7215,2335.1294],[43.3393,39.7094,2071.6082],[43.3243,39.6966,1997.2578],[43.2623,39.6011,1941.6426],[43.2529,39.5795,2106.2136],[43.2327,39.5544,2452.9189],[43.2289,39.5353,2614.4141],[43.2288,39.5122,2754.9819],[43.2302,39.4959,2651.6235],[43.2328,39.4866,2576.2698],[43.2418,39.4699,2459.3374],[43.244,39.4575,2498.1401],[43.2444,39.3742,2646.1389],[43.2838,39.399,2909.3845],[43.3008,39.404,3010.533],[43.319,39.4043,2969.8462],[43.3331,39.4018,3434.1782],[43.3588,39.3873,2794.1606],[43.3662,39.412,3282.7092],[43.3707,39.4191,3114.3345],[43.3895,39.4377,2899.0415],[43.4031,39.4563,2531.8186],[43.4484,39.4932,2533.9504],[43.4653,39.5185,2598.0244],[43.4668,39.5287,2704.2146],[43.4567,39.5471,2326.4187],[43.4544,39.5581,2274.9307],[43.4551,39.5722,2041.7823],[43.4604,39.5824,1939.1672],[43.4719,39.5923,1807.8838],[43.483,39.5984,1818.9496],[43.5136,39.6042,2075.167],[43.541,39.6164,1848.9872],[43.5541,39.6307,2028.0042],[43.5856,39.6584,2489.9006],[43.5942,39.6754,2591.9719],[43.5972,39.6855,2597.8574]]]]}}