{"type": "Feature","bbox": [30.4681,40.9147,30.6172,41.0665],"geometry": {"type": "MultiPolygon","coordinates": [[[[30.6149,40.9562,234.2232],[30.6046,40.9655,230.6259],[30.5902,40.9888,40.9801],[30.5868,41.0396,5.6967],[30.5821,41.0475,4.7446],[30.5698,41.0583,2.8401],[30.5572,41.0644,44.4682],[30.5502,41.0659,42.012],[30.5218,41.0665,96.0498],[30.4813,41.0521,96.6886],[30.4704,41.0427,101.4742],[30.4681,41.0349,93.5966],[30.4687,41.0298,96.5209],[30.473,41.0233,127.6656],[30.5018,41.0151,70.1763],[30.5066,41.0117,125.4649],[30.5116,41.0049,10.6588],[30.513,40.9995,12.1084],[30.5109,40.9859,10.5923],[30.4941,40.9604,71.5822],[30.4775,40.9408,23.3148],[30.5017,40.924,42.6607],[30.5143,40.9177,54.7191],[30.533,40.9149,68.3706],[30.5642,40.9147,89.1045],[30.5832,40.9167,44.8654],[30.5957,40.9214,16.3695],[30.6172,40.9338,322.6475],[30.6149,40.9562,234.2232]]]]}
,"properties": {"GID_2": "TUR.66.2_1","GID_0": "TUR","country": "Turkey","GID_1": "TUR.66_1","province": "Sakarya","NL_NAME_1": "NA","county": "Ferizli","VARNAME_2": "NA","NL_NAME_2": "NA","TYPE_2": "District","ENGTYPE_2": "District","CC_2": "NA","HASC_2": "TR.SK.FE","name": "Ferizli.county","area_km2": 141.0489,"hist_schema_id": "Elevation0-9000","hist_area_km2": {"0": 32.556,"25": 26.6176,"50": 18.8384,"75": 15.9238,"100": 15.7496,"125": 12.0059,"150": 8.1491,"175": 4.6429,"200": 2.8343,"225": 1.4893,"250": 1.0409,"275": 0.7046,"300": 0.3843,"325": 0.1121}}}