{"type":"Feature","properties":{"GID_2":"TUR.23.4_1","GID_0":"TUR","country":"Turkey","GID_1":"TUR.23_1","province":"Çankiri","NL_NAME_1":"NA","county":"Eldivan","VARNAME_2":"NA","NL_NAME_2":"NA","TYPE_2":"District","ENGTYPE_2":"District","CC_2":"NA","HASC_2":"TR.CI.EL","name":"Eldivan.county"},
"geometry":{"type": "MultiPolygon","coordinates": [[[[33.4769,40.3675,841.9762],[33.496,40.3841,839.3576],[33.517,40.3928,831.1641],[33.531,40.4015,861.8235],[33.6048,40.4583,870.8108],[33.6181,40.4714,752.5745],[33.6317,40.4923,716.9607],[33.6353,40.5024,653.1327],[33.6365,40.5212,844.7784],[33.6355,40.5318,886.9304],[33.6329,40.5395,859.3978],[33.6253,40.5483,811.5604],[33.5974,40.572,860.1917],[33.5931,40.5788,942.6418],[33.5874,40.5975,1040.1057],[33.5825,40.6042,942.8064],[33.5609,40.6236,1028.8976],[33.5412,40.6321,1100.889],[33.4971,40.6343,996.8743],[33.4754,40.6324,1104.8585],[33.46,40.6254,1058.052],[33.4264,40.5993,1249.3523],[33.4125,40.5906,1285.7727],[33.3742,40.5799,1439.5752],[33.3957,40.5637,1533.1648],[33.4063,40.5535,1410.5269],[33.4234,40.5282,1271.7212],[33.4341,40.5056,1403.5571],[33.4273,40.4877,1552.8551],[33.4252,40.4594,1308.6296],[33.4221,40.4485,1299.908],[33.4142,40.4392,1124.0287],[33.3849,40.4139,954.9099],[33.3737,40.3909,883.0799],[33.4205,40.3875,948.8956],[33.4769,40.3675,841.9762]]]]}}