{"type":"Feature","properties":{"GID_2":"TUR.53.22_1","GID_0":"TUR","country":"Turkey","GID_1":"TUR.53_1","province":"Konya","NL_NAME_1":"NA","county":"Karatay","VARNAME_2":"NA","NL_NAME_2":"NA","TYPE_2":"District","ENGTYPE_2":"District","CC_2":"NA","HASC_2":"TR.KO.KK","name":"Karatay.county"},
"geometry":{"type": "MultiPolygon","coordinates": [[[[33.2402,38.2473,967.3856],[33.2042,38.2475,971.7527],[33.1849,38.2459,973.3414],[33.1509,38.234,993.741],[33.1386,38.227,999.7603],[33.1282,38.2182,1001.6675],[33.123,38.2114,1003.894],[33.1161,38.1904,1002.7941],[33.1082,38.1765,1003.1676],[33.1057,38.1648,1005.2485],[33.1045,38.1407,1006.9808],[33.1002,38.1299,1007.3798],[33.0884,38.121,1007.4814],[33.035,38.1011,1219.8868],[33.0275,38.0764,1242.8861],[33.0174,38.0572,1120.4778],[33.0139,38.0365,1144.4955],[33.0115,38.032,1219.8275],[33.007,38.0286,1367.9553],[32.9679,38.0223,1245.6743],[32.9562,38.0158,1355.3104],[32.9262,37.9949,1062.3552],[32.8931,37.982,997.1111],[32.8746,37.9797,997.0184],[32.7974,37.9788,998.5817],[32.7725,37.9712,998.9401],[32.7421,37.9645,999.0737],[32.7217,37.9516,999.2724],[32.6928,37.9278,998.5645],[32.6788,37.9086,998.6095],[32.6588,37.8881,998.8661],[32.6493,37.8736,998.8384],[32.6317,37.8587,1000.3442],[32.6226,37.8538,999.6042],[32.5622,37.8311,1006.3209],[32.5382,37.8269,1009.9282],[32.5171,37.8196,1014.7864],[32.5034,37.8171,1016.9911],[32.5061,37.7976,1014.4109],[32.5167,37.7751,1008.664],[32.52,37.7309,1013.5826],[32.53,37.7112,1012.5281],[32.5328,37.6994,1013.1857],[32.5311,37.6812,1017.3947],[32.5207,37.6616,1032.0706],[32.5152,37.636,1056.6445],[32.5396,37.6128,1061.5675],[32.5522,37.5939,1059.9415],[32.5586,37.5869,1056.2419],[32.5718,37.5771,1047.1713],[32.5817,37.5738,1034.1191],[32.5953,37.5757,1025.0582],[32.6044,37.5829,1021.4693],[32.608,37.5903,1020.1373],[32.6121,37.606,1016.8599],[32.6203,37.6199,1014.1586],[32.6235,37.6395,1011.3345],[32.6216,37.6593,1010.3506],[32.6109,37.6803,1010.114],[32.613,37.6908,1008.6683],[32.6261,37.7039,1006.2472],[32.6453,37.7174,1004.2805],[32.6785,37.7312,1000.8005],[32.6915,37.7348,1000.0708],[32.7135,37.736,999.32],[32.739,37.7341,1000.8284],[32.7725,37.7218,1000.0663],[32.787,37.7133,1000.8224],[32.8296,37.6799,1002.8232],[32.8466,37.6689,1003.1098],[32.9431,37.632,1001.8741],[32.9836,37.63,1000.4677],[33.024,37.6319,998.7779],[33.0748,37.6515,1001.8118],[33.1102,37.6611,1002.331],[33.1192,37.6836,1002.26],[33.1249,37.6921,1002.4672],[33.164,37.7233,1004.0347],[33.1745,37.7338,1010.8403],[33.1834,37.7598,1020.9534],[33.1965,37.7807,1031.7197],[33.2026,37.7867,1030.5229],[33.2104,37.7913,1031.0361],[33.2284,37.7984,1035.9694],[33.2526,37.813,1049.696],[33.2709,37.82,1039.6085],[33.2977,37.8362,1062.7175],[33.3161,37.8433,1064.4829],[33.3428,37.8594,1078.7626],[33.3667,37.8694,1068.6228],[33.4544,37.9359,1031.1202],[33.4243,37.9453,1036.6697],[33.4134,37.9512,1022.455],[33.4074,37.9572,1020.6848],[33.3978,37.9712,1017.631],[33.3626,38.0036,1051.4193],[33.2895,38.1179,1018.4083],[33.2805,38.1438,1009.5328],[33.2431,38.2016,995.658],[33.2401,38.2154,981.8849],[33.2402,38.2473,967.3856]]]]}}