{"type":"Feature","properties":{"GID_2":"TUR.75.14_1","GID_0":"TUR","country":"Turkey","GID_1":"TUR.75_1","province":"Trabzon","NL_NAME_1":"NA","county":"Şalpazarı","VARNAME_2":"NA","NL_NAME_2":"NA","TYPE_2":"District","ENGTYPE_2":"District","CC_2":"NA","HASC_2":"TR.TB.SA","name":"Şalpazarı.county"},
"geometry":{"type": "MultiPolygon","coordinates": [[[[39.1496,40.7755,1667.3336],[39.1756,40.7603,1891.2928],[39.195,40.7512,1644.2429],[39.1927,40.7725,1551.012],[39.1929,40.7972,1527.4902],[39.1945,40.809,1187.436],[39.2002,40.8272,1053.1692],[39.1971,40.834,1277.0587],[39.1833,40.8492,1313.814],[39.1786,40.8607,1288.5516],[39.1761,40.9442,480.7385],[39.1789,40.9755,726.9433],[39.1763,40.9934,610.9011],[39.1725,40.9983,473.6134],[39.1675,41.0012,301.8785],[39.1446,41.008,728.6381],[39.1357,40.9972,543.1887],[39.1291,40.98,654.1057],[39.1192,40.9603,346.1497],[39.1175,40.9382,466.6998],[39.1185,40.8907,1731.9393],[39.1165,40.871,1653.9021],[39.1193,40.8454,738.5233],[39.1298,40.8233,962.7506],[39.1349,40.7965,1411.4893],[39.1496,40.7755,1667.3336]]]]}}