{"type":"Feature","properties":{"featurecla":"Geoarea","name":"ANATOLIA","namealt":null,"region":"Europe","subregion":null,"min_label":3.5,"max_label":7.0,"scalerank":2},
"geometry":{"type": "MultiPolygon","coordinates": [[[[37.033104434727505,41.213464271291713,0.0],[37.031748894146205,41.243963934369049,0.0],[37.015147331646205,41.275763250775327,0.0],[36.984751823833761,41.295721746869106,0.0],[36.836436394146205,41.351935125775327,0.0],[36.757945183208705,41.367499090619077,0.0],[36.671641472271205,41.367499090619077,1.2251],[36.649912956646261,41.370428778119049,0.906],[36.633433464458761,41.375311590619077,0.0],[36.619761589458705,41.376288153119106,0.0],[36.606577995708705,41.367499090619077,0.0],[36.608531120708761,41.366095282025356,0.0],[36.601817253521205,41.344977117962827,0.0],[36.599742058208705,41.342718817181606,0.0],[36.596446159771261,41.336493231244077,0.0],[36.582286003521205,41.318243719525384,0.0],[36.579234245708705,41.308539129681549,2.4374],[36.570689323833761,41.2990786804628,0.0],[36.519431444066612,41.265005182046252,0.0],[36.517710808208705,41.263861395306606,0.0],[36.475840691021205,41.246161199994049,1.6557],[36.450938347271205,41.241644598431606,9.7386],[36.432383659771261,41.247381903119134,0.0],[36.423716667583761,41.252875067181577,0.0],[36.404917839458761,41.254828192181549,0.0],[36.394908073833761,41.257635809369077,0.0],[36.390025261333705,41.261542059369077,0.0],[36.380015495708705,41.273382879681606,0.0],[36.374400261333761,41.278143621869077,0.0],[36.363169792583761,41.282294012494049,0.0],[36.352061394146205,41.284796453900327,0.0],[36.343638542583705,41.289862371869077,0.4359],[36.340843008389669,41.299905587307023,0.0],[36.340342644146205,41.301703192181577,0.0],[36.339610222271261,41.312079168744077,2.5587],[36.337046745708761,41.319708563275327,0.0],[36.331675651958761,41.324347235150384,0.0],[36.303233269146205,41.329657293744106,0.0],[36.253184441021261,41.350043035931577,0.0],[36.236582878521205,41.360052801556577,0.5454],[36.204600456646205,41.4077212585878,0.0],[36.178599480083705,41.421210028119106,0.0],[36.134165886333761,41.463080145306606,0.0],[36.123667839458705,41.480292059369049,0.0],[36.119883659771261,41.495489813275327,1.0367],[36.120616081646205,41.528265692181549,1.5429],[36.122202995708705,41.533026434369049,0.32],[36.130747917583761,41.549383856244106,0.5738],[36.134165886333761,41.559332586712884,0.0],[36.134165886333761,41.600287176556577,0.0],[36.120371941021261,41.628851629681634,0.0],[36.044810417583761,41.702704168744077,0.0],[36.037974480083761,41.702704168744077,0.0],[36.037974480083761,41.689032293744134,-0.5585],[35.977793816021261,41.730841375775327,0.0],[35.972788933208705,41.729742742962856,0.0],[35.962168816021205,41.723211981244077,0.7154],[35.947764519146205,41.711188055462827,0.4437],[35.934092644146261,41.693304754681606,2.2441],[35.924693230083705,41.6713931335878,6.0544],[35.922495964458705,41.647406317181577,8.2885],[35.915049675396261,41.647406317181577,6.2521],[35.911509636333761,41.663885809369077,6.9327],[35.930430534771205,41.695013739056606,3.8384],[35.928721550396205,41.710150457806577,2.5349],[35.938853386333761,41.713324285931606,1.3609],[35.946665886333705,41.718451239056577,0.5188],[35.952403191021261,41.724493719525356,0.9188],[35.956675651958705,41.730658270306577,0.0723],[35.956675651958705,41.737433172650327,0.0],[35.934702995708705,41.733648992962856,0.0],[35.893687370708761,41.708685614056549,3.3891],[35.870005730083761,41.702704168744077,0.6912],[35.846079948833761,41.699957586712827,0.0],[35.740489128521261,41.666144110150384,0.0],[35.678599480083761,41.658148504681549,0.0],[35.640635612896205,41.640448309369077,0.0],[35.619639519146205,41.633795477337856,7.3843],[35.596783307343657,41.63227388816685,2.0593],[35.576548698833705,41.630926824994106,1.6728],[35.530039909771261,41.635504461712856,0.0],[35.485606316021261,41.646246649212827,0.0],[35.448985222271261,41.661749578900384,0.0],[35.417246941021205,41.684576727337827,0.0],[35.400767448833705,41.692694403119077,0.0],[35.357554558208705,41.6980044617128,0.0],[35.298106316021261,41.7163150085878,0.0],[35.282481316021205,41.725409246869077,0.0],[35.253428581646205,41.751837469525327,0.0],[35.224619987896205,41.763006903119106,0.0],[35.211680534771261,41.776556707806606,0.0],[35.201914909771205,41.7926089539003,0.0],[35.195689323833761,41.805731512494106,36.2696],[35.209239128521205,41.805731512494106,0.0],[35.209239128521205,41.812567449994077,0.0],[35.155650261333705,41.846869207806549,0.0],[35.13318106413513,41.869064390405214,0.0],[35.126719597271261,41.872259832806577,0.7564],[35.058238151958761,41.893500067181634,133.1059],[34.788218620708705,41.919867254681577,265.0019],[34.534922722271205,41.880499578900356,273.1811],[34.309214714458761,41.766852117962884,1301.1411],[34.121836784771261,41.570440985150327,795.0474],[34.051280144146261,41.377630926556606,1082.0972],[34.111949089458705,41.236151434369049,1443.3533],[34.262705925396261,41.144659735150356,1766.7075],[34.462412956646261,41.101752020306634,604.9233],[35.056651237896205,41.020575262494106,851.5873],[35.592906120708705,40.896490789837856,726.688],[37.307871941021261,40.344549871869049,1281.4062],[38.135874870708705,40.199774481244134,1092.7263],[39.087412956646261,40.143255926556577,1380.1499],[40.118174675396261,40.212530828900356,1757.3245],[41.001963737896205,40.448675848431634,2177.7249],[41.578501823833761,40.800543524212827,1231.6978],[41.901988151958761,41.166815496869049,782.9215],[41.989771071626336,41.363511080077188,2969.9263],[41.503020120826278,41.331496170797209,1619.9434],[41.369273308208761,41.322699285931606,262.4934],[41.121226433208761,41.286749578900356,0.0],[41.100718620708761,41.275336004681549,0.0],[41.061289909771205,41.243963934369049,0.0],[41.042491081646205,41.233648992962884,0.0],[41.020152214458761,41.224920965619077,0.0],[40.996958855083761,41.218939520306606,0.0],[40.975840691021205,41.216742254681606,0.0],[40.959605339458761,41.211859442181577,0.0],[40.921885612896205,41.191778875775384,0.0],[40.896739128521261,41.188788153119077,0.0],[40.853892448833705,41.200506903119077,0.0],[40.838755730083761,41.202460028119134,0.0],[40.827403191021261,41.199164129681577,0.0],[40.757456901958705,41.159491278119077,0.0],[40.698008659771261,41.099432684369106,0.0],[40.685801628521261,41.093207098431577,0.0],[40.670420769146261,41.089178778119049,0.0],[40.639414909771205,41.086310125775384,0.0],[40.625987175396261,41.083319403119106,0.0],[40.588145378521261,41.058417059369077,0.0],[40.557139519146261,41.043707586712827,0.0],[40.529063347271205,41.037420965619077,0.0],[40.499522331646261,41.039984442181549,7.6034],[40.464732292583761,41.051581121869106,0.0],[40.32722825042336,40.982829100788962,49.4852],[40.300913933208705,40.969671942181634,0.0],[40.254405144146205,40.959906317181577,0.0],[40.231333855083705,40.948004461712856,0.0],[40.195445183208705,40.937506414837856,0.0],[40.172373894146205,40.933417059369106,0.0],[40.142588737896261,40.924017645306549,0.0],[40.125743034771205,40.921820379681549,0.0],[40.085581901958705,40.927679754681606,0.0],[40.056651237896261,40.9425112976503,0.0],[39.999156120708761,40.983343817181577,0.0],[39.974864128521205,40.981512762494049,0.0],[39.911753776958705,40.964911199994049,0.0],[39.895518425396205,40.956000067181606,0.0],[39.876353386333705,40.959051824994106,0.0],[39.858653191021261,40.965399481244049,0.0],[39.799082878521205,41.001532293744049,0.0],[39.790049675396205,41.003790594525356,0.0],[39.768199089458705,41.002630926556577,0.0],[39.756968620708705,41.003485418744077,0.0],[39.729869011333705,41.018377996869106,0.0],[39.709971550396261,41.016180731244106,0.0],[39.689707878521205,41.008673407025384,0.0],[39.669566276958761,41.003790594525356,0.0],[39.629771355083761,41.009711004681606,0.0],[39.591929558208761,41.0262515320253,0.0],[39.544828316357751,41.057636240404491,0.0],[39.532481316021205,41.065863348431606,0.0],[39.507090691021205,41.091253973431606,0.0],[39.492808464458705,41.102240301556549,0.0],[39.430064323833761,41.113653875775356,0.0],[39.417979362896261,41.111151434369077,0.0],[39.412364128521261,41.107672430462884,0.0],[39.408702019146261,41.103644110150356,5.7452],[39.402720573833761,41.099432684369106,13.1443],[39.349009636333761,41.075140692181606,0.0],[39.337168816021205,41.072088934369106,0.0],[39.317149284771261,41.069281317181577,0.0],[39.289927605083705,41.055975653119134,0.0],[39.279888412058909,41.053356733199621,0.0],[39.273081901958705,41.051581121869106,0.0],[39.264493541954863,41.052607991,0.0],[39.250620964458761,41.054266668744134,0.0],[39.219859245708705,41.074103094525384,0.0],[39.200938347271205,41.078924871869077,0.0],[39.168223503521261,41.080877996869049,0.0],[39.156382683208761,41.078924871869077,0.0],[39.131114128521261,41.062689520306577,0.0],[39.122080925396205,41.058417059369077,0.0],[39.041636589458761,41.0445620789003,0.0],[38.927256706646205,41.043768621869134,0.0],[38.908213737896261,41.038885809369106,0.0],[38.892222526958761,41.028265692181577,0.0],[38.875743034771205,41.0201480164003,0.0],[38.805796745708761,41.008978582806549,0.0],[38.783579948833761,41.002997137494077,0.0],[38.778941276958705,41.000372625775356,0.0],[38.775157097271205,40.994574285931549,0.0],[38.755015495708705,40.976507879681606,0.0],[38.743174675396205,40.973700262494049,0.0],[38.732920769146205,40.967352606244106,0.0],[38.732659761388135,40.967140071355374,0.0],[38.724375847271261,40.960394598431606,0.0],[38.717539909771205,40.956000067181606,0.0],[38.706919792583761,40.954107977337856,0.0],[38.687632683208761,40.9538638367128,0.0],[38.677744987896261,40.949774481244077,0.0],[38.670664909771261,40.955694891400327,0.0],[38.655284050396205,40.972296453900327,0.0],[38.653515570321048,40.973516705152207,0.0],[38.649180534771205,40.976507879681606,0.0],[38.636851433208705,40.977240301556577,0.0],[38.629281554577318,40.975469235612621,0.0],[38.604502800396261,40.969671942181634,0.0],[38.591441276958761,40.963690496869049,0.0],[38.554576042583705,40.936163641400356,0.0],[38.539317253521205,40.928045965619077,0.0],[38.463633659771261,40.924933172650356,0.0],[38.452159050396205,40.917914129681549,0.0],[38.426646355083761,40.919867254681606,0.0],[38.389170769146205,40.928045965619077,0.0],[38.351084831646261,40.919073797650327,0.0],[38.330821159771205,40.919073797650327,0.0],[38.287242058208705,40.948431707806549,0.0],[38.268077019146205,40.951605535931577,0.0],[38.224009636333705,40.942328192181549,0.0],[38.201304558208705,40.942572332806606,0.0],[38.161021355083761,40.953253485150356,0.0],[38.102061394146205,40.960882879681606,27.7216],[38.052500229569631,40.973461473122768,0.0],[37.981577995708705,40.991461492962827,0.0],[37.934458855083705,40.996283270306634,0.0],[37.898343449114151,40.984244801650021,1.0593],[37.895640495708761,40.983343817181577,5.3227],[37.894241884566242,40.985221672701641,1.344],[37.878184441021261,41.006781317181549,0.0],[37.867686394146261,41.016730047650327,0.0],[37.854136589458761,41.0249087585878,0.0],[37.802622917583761,41.044134832806606,0.0],[37.785044792583705,41.061163641400327,0.0],[37.783579948833761,41.123785711712884,0.0],[37.757823112896261,41.120489813275327,0.0],[37.751109245708705,41.1273257507753,0.0],[37.734141472271205,41.115851141400356,0.0],[37.714854362896205,41.115912176556577,0.0],[37.698374870708705,41.125311590619134,0.0],[37.689707878521261,41.141546942181549,0.0],[37.671885612896261,41.132391668744049,0.0],[37.654917839458761,41.118841864056549,0.0],[37.639903191021205,41.102728582806549,0.0],[37.628184441021205,41.086310125775384,0.0],[37.617552187391283,41.06484872492976,38.9652],[37.615000847271205,41.059698797650384,28.3205],[37.607676628521205,41.051581121869106,0.0],[37.600352409771261,41.047552801556606,0.0],[37.586314323833705,41.043402410931549,0.0],[37.580454948833705,41.037909246869077,0.0],[37.564585808208761,41.041693426556549,0.0],[37.524668816021205,41.038397528119106,0.0],[37.504649284771205,41.044134832806606,0.0],[37.481211784771205,41.063421942181634,0.0],[37.477427605083761,41.0689761414003,0.0],[37.436289909771205,41.078924871869077,0.0],[37.422067986723533,41.087212467314117,0.0],[37.419322136333705,41.088812567181549,0.0],[37.395274284771205,41.109686590619049,0.0],[37.377696159771261,41.113653875775356,0.0],[37.354380730083705,41.115484930462884,0.0],[37.333262566021205,41.120489813275327,0.0],[37.322276237896261,41.125250555462827,0.0],[37.299204948833761,41.141546942181549,0.0],[37.263194206646205,41.148993231244077,0.0],[37.186622257098435,41.1482618850211,0.0],[37.135386589458705,41.147772528119077,3.3585],[37.115489128521205,41.154303289837884,0.7033],[37.077403191021205,41.172064520306549,0.0],[37.056162956646205,41.175726629681606,0.0],[37.039439323833705,41.182684637494077,6.0643],[37.033702019146261,41.200018621869077,0.0],[37.033104434727505,41.213464271291713,0.0]]],
[[[41.989771071626336,41.363511080077188,2969.9263],[42.026698904567894,41.3659399222183,2704.7283],[41.999990735898479,41.386410327810239,2618.2966],[41.989771071626336,41.363511080077188,2969.9263]]],
[[[42.026698904567894,41.3659399222183,2704.7283],[42.076426628521261,41.327826239056577,1684.5447],[42.145762566021261,41.315191961712884,1880.4666],[42.232920769146261,41.3170230164003,778.3768],[42.394786003521261,41.329169012494077,1686.6523],[42.610606316021261,41.293036199994106,2547.8047],[42.71591307266047,41.25389577463028,2140.4155],[42.689829948833761,41.274969793744049,2258.5049],[42.597422722271261,41.341498114056606,2512.9966],[42.496104362896205,41.388128973431606,2777.7805],[42.385996941021261,41.402655340619049,1407.373],[42.265879753521205,41.395331121869077,1673.3074],[42.038340691021205,41.3667056335878,3025.22],[42.026698904567894,41.3659399222183,2704.7283]]],
[[[39.429937112314889,36.774261422613591,434.8809],[39.713608435293992,36.787277112356918,436.4262],[39.458994987896375,36.778815008587856,450.1257],[39.429937112314889,36.774261422613591,434.8809]]],
[[[39.713608435293992,36.787277112356918,436.4262],[39.831797722271375,36.791205145306492,406.746],[40.000987175396375,36.8068911804628,362.6527],[40.088849575411956,36.824858472469089,351.6595],[39.852427605083705,36.793646551556549,395.149],[39.713608435293992,36.787277112356918,436.4262]]],
[[[40.088849575411956,36.824858472469089,351.6595],[40.372080925396205,36.862250067181577,378.2255],[41.237681511333761,36.923224188275356,394.1693],[41.533946159771205,36.971380926556606,385.0795],[42.005812854614163,37.107752212301335,626.187],[41.922984245708761,37.110113836712742,514.0737],[40.761607292583761,37.000006414837969,429.2657],[40.531993034771375,36.9594790710878,451.5682],[40.161265495708818,36.839667059369106,351.3194],[40.088849575411956,36.824858472469089,351.6595]]],
[[[34.301473647340657,36.605661406243286,12.359],[34.307383659771205,36.609747625775356,16.2135],[34.310124530014974,36.611132044929093,13.8682],[34.534556511333705,36.753058172650327,15.8542],[34.834361198833705,37.026007391400356,188.6828],[34.990244987896261,37.263006903119106,572.3416],[35.045298698833761,37.482855535931634,1246.5392],[35.055308464458761,37.691900946087884,2116.2622],[35.003672722271205,37.821478582806606,1474.8655],[34.874522331646205,37.802801824994134,2031.387],[34.766368034771205,37.774359442181606,1719.4839],[34.238291862896261,37.706427313275327,1039.9503],[33.797007683208761,37.594122625775356,1008.2646],[33.566172722271205,37.549627996869049,1000.7899],[33.274424675396205,37.513617254681606,1023.9555],[32.844248894146205,37.508490301556606,1028.2825],[32.479258659771205,37.559393621869106,1102.0665],[31.944346550396205,37.706427313275327,1487.2504],[31.753062370708705,37.705511785931606,1207.0793],[31.585215691021205,37.612433172650356,1152.8403],[31.442759636333761,37.465155340619077,1225.7529],[31.327403191021205,37.301581121869049,1107.2389],[31.271861198833761,37.160345770306577,1184.5259],[31.288828972271205,37.053351141400327,274.9778],[31.349009636333761,36.978949285931549,268.7695],[31.423716667583761,36.935309149212856,333.5964],[31.494883659771205,36.901800848431549,198.0587],[31.688731316021261,36.797919012494134,118.2965],[31.976817253521261,36.618109442181577,392.6083],[32.329844597271205,36.356940008587884,598.1024],[32.650401237896261,36.149603582806606,1101.9746],[32.918101433208761,36.102972723431634,554.0292],[33.219370964458761,36.168829657025327,505.3397],[33.640757683208705,36.2990786804628,997.0057],[34.125132683208705,36.494147039837856,228.7032],[34.301473647340657,36.605661406243286,12.359]]],
[[[29.076304437748831,41.149894259769979,1.023],[29.083140495708847,41.168219305462856,48.3945],[29.085733917549902,41.173715516725167,0.0],[29.085419844550103,41.173348555784941,0.0],[29.074700508338282,41.150778243592839,0.0],[29.076304437748831,41.149894259769979,1.023]]],
[[[29.013207429092148,41.02112450335045,44.1631],[29.026648606095023,41.04024647969041,0.0],[29.025767448833733,41.039496160931549,0.0],[29.020853465290827,41.0373995279532,0.0],[29.013162839921563,41.021206378293016,44.1631],[29.013207429092148,41.02112450335045,44.1631]]],
[[[26.675031822961046,40.354968475759051,0.0],[26.682261589458903,40.361273504681606,0.0],[26.680597113697729,40.360178400154609,0.0],[26.675031822961046,40.354968475759051,0.0]]],
[[[26.615620458727363,39.274160955911668,20.7167],[26.612407180689672,39.279003395945153,0.5851],[26.609141472271233,39.276434637494049,1.3244],[26.615620458727363,39.274160955911668,20.7167]]]]}}