{"type": "Feature","bbox": [38.1914,39.9213,38.5085,40.1644],"geometry": {"type": "MultiPolygon","coordinates": [[[[38.4474,39.9694,1980.4705],[38.4658,39.9882,2095.2375],[38.4807,40.0115,1959.5109],[38.4842,40.0221,1859.3763],[38.4855,40.0448,1618.2849],[38.4878,40.0558,1347.6354],[38.4926,40.0633,1260.7794],[38.5069,40.078,1227.5255],[38.5085,40.0828,1183.15],[38.5062,40.0894,1185.116],[38.4922,40.1042,1235.8777],[38.4695,40.097,1087.2118],[38.4594,40.0965,1054.8789],[38.4262,40.1078,1077.6729],[38.3964,40.12,1097.7754],[38.3668,40.1375,965.5779],[38.3214,40.155,845.0],[38.3052,40.1644,914.5064],[38.2362,40.1099,1216.6545],[38.218,40.0819,1283.0066],[38.2112,40.0648,1147.8667],[38.1961,40.0557,1112.1001],[38.1914,40.0503,1197.2129],[38.1921,40.0434,1288.299],[38.202,40.0341,1548.4387],[38.2127,40.028,1521.9429],[38.231,40.0213,1598.4818],[38.2405,40.0143,1784.4729],[38.2555,39.9913,2007.9907],[38.2597,39.9782,2325.6707],[38.2676,39.9731,2328.4546],[38.3658,39.9336,2536.6606],[38.403,39.9213,2256.7205],[38.4113,39.9403,2073.156],[38.4159,39.9468,1963.0906],[38.4298,39.9586,1990.5017],[38.4474,39.9694,1980.4705]]]]}
,"properties": {"GID_2": "TUR.72.1_1","GID_0": "TUR","country": "Turkey","GID_1": "TUR.72_1","province": "Sivas","NL_NAME_1": "NA","county": "Akıncılar","VARNAME_2": "NA","NL_NAME_2": "NA","TYPE_2": "District","ENGTYPE_2": "District","CC_2": "NA","HASC_2": "TR.SV.AK","name": "Akıncılar.county","area_km2": 421.5081,"hist_schema_id": "Elevation0-9000","hist_area_km2": {"850": 18.1393,"875": 11.057,"900": 10.5399,"925": 8.4489,"950": 8.1412,"975": 8.3843,"1000": 8.7407,"1025": 8.125,"1050": 7.3474,"1075": 6.7316,"1100": 6.7154,"1125": 5.256,"1150": 5.1427,"1175": 5.2889,"1200": 5.9055,"1225": 4.7862,"1250": 4.4619,"1275": 4.1212,"1300": 4.7541,"1325": 5.3543,"1350": 5.9222,"1375": 5.9063,"1400": 5.9228,"1425": 6.1663,"1450": 5.9393,"1475": 6.329,"1500": 6.3293,"1525": 6.9298,"1550": 7.1898,"1575": 7.3363,"1600": 7.0445,"1625": 7.2557,"1650": 6.7206,"1675": 7.3541,"1700": 7.8898,"1725": 8.8642,"1750": 8.5722,"1775": 8.475,"1800": 8.8,"1825": 7.7773,"1850": 7.1442,"1875": 6.7875,"1900": 6.7716,"1925": 6.5609,"1950": 6.7725,"1975": 7.1955,"2000": 8.4302,"2025": 9.7957,"2050": 10.9173,"2075": 8.8867,"2100": 7.7009,"2125": 6.6939,"2150": 6.3367,"2175": 6.3859,"2200": 4.5336,"2225": 3.7539,"2250": 2.6166,"2275": 2.5028,"2300": 2.3078,"2325": 2.1778,"2350": 1.7878,"2375": 1.2677,"2400": 1.1377,"2425": 0.9752,"2450": 0.4876,"2475": 0.5527,"2500": 0.4876,"2525": 0.1138,"2550": 0.1138,"2575": 0.1138,"2625": 0.0163,"2650": 0.0163}}}