{"type":"Feature","properties":{"GID_1":"TUR.78_1","GID_0":"TUR","country":"Turkey","province":"Van","VARNAME_1":"NA","NL_NAME_1":"NA","TYPE_1":"Il","ENGTYPE_1":"Province","CC_1":"NA","HASC_1":"TR.VA","ISO_1":"TR-65","name":"Van.province"},
"geometry":{"type": "MultiPolygon","coordinates": [[[[43.5341,37.7195,2834.6465],[43.5383,37.7221,2844.8735],[43.5408,37.7274,2922.9504],[43.5825,37.7275,2724.2354],[43.6144,37.7246,2617.5308],[43.6391,37.717,2985.647],[43.6551,37.7157,3240.5232],[43.7176,37.7154,3422.5405],[43.738,37.7165,3073.6399],[43.7495,37.7185,3037.6072],[43.7706,37.7254,2459.9021],[43.7846,37.7262,2009.105],[43.7986,37.7236,1811.759],[43.8459,37.7057,1780.4431],[43.8927,37.7004,1725.9944],[43.9148,37.7058,1903.6292],[43.9697,37.7268,2299.9275],[43.9864,37.725,2050.3618],[44.0075,37.7178,1931.1934],[44.0179,37.7158,1700.5642],[44.04,37.7149,1705.3882],[44.0652,37.7176,1946.5135],[44.1724,37.7603,2087.4351],[44.1928,37.7674,2347.8459],[44.2047,37.7685,2247.2896],[44.2135,37.7647,2107.0],[44.2211,37.7589,2378.8801],[44.229,37.7494,2531.8745],[44.2345,37.7307,2831.7417],[44.2456,37.709,2445.6289],[44.2467,37.6977,2278.0886],[44.2447,37.6837,2487.1106],[44.2203,37.6478,2339.8108],[44.2188,37.6407,2477.7432],[44.2229,37.6342,2338.3594],[44.2377,37.6278,2295.0144],[44.2462,37.6262,2202.7625],[44.2754,37.6354,2753.8855],[44.3195,37.6538,2550.3772],[44.3295,37.6562,2499.5632],[44.3584,37.656,2160.3401],[44.3828,37.6476,2026.082],[44.3967,37.6453,2158.2385],[44.4149,37.6454,2273.655],[44.4287,37.6488,2223.9893],[44.455,37.6644,2647.4126],[44.4796,37.6754,2592.4143],[44.5102,37.6979,1967.6489],[44.5251,37.7111,1908.9376],[44.5368,37.728,2295.938],[44.558,37.7483,2192.4861],[44.5746,37.7671,2715.3223],[44.5637,37.7744,2786.7568],[44.5519,37.774,2851.2773],[44.5413,37.7767,2864.2554],[44.5327,37.7766,2842.3086],[44.5193,37.771,2912.6768],[44.4985,37.7671,2864.855],[44.4767,37.7655,3167.6829],[44.463,37.7684,3179.8472],[44.4597,37.7706,3083.822],[44.4593,37.774,2937.4666],[44.4698,37.792,2760.8464],[44.4702,37.7979,2815.229],[44.4681,37.8003,2888.8904],[44.4638,37.8012,2772.9155],[44.4517,37.7985,3054.4163],[44.4431,37.7984,3117.2354],[44.4386,37.8004,2954.7031],[44.4342,37.8093,2668.2432],[44.4301,37.8129,2585.6128],[44.4137,37.8216,2656.3511],[44.4121,37.8244,2709.269],[44.4133,37.8285,2612.6819],[44.4219,37.8403,2595.4463],[44.422,37.8463,2637.4177],[44.4164,37.8541,2817.8926],[44.3771,37.8626,2799.2183],[44.339,37.8741,2541.5178],[44.3341,37.8731,2614.8931],[44.3143,37.8636,2438.5415],[44.2975,37.868,2488.6541],[44.2763,37.8663,2503.5518],[44.2596,37.8805,2684.199],[44.2389,37.8871,3025.2764],[44.2405,37.9036,2741.4551],[44.2455,37.913,2608.4932],[44.266,37.9385,2764.3828],[44.2654,37.9427,2846.2742],[44.2564,37.9554,2641.0],[44.2569,37.9595,2579.6472],[44.2681,37.9751,2614.7937],[44.2796,37.9871,2719.4482],[44.2799,38.0001,2835.3225],[44.2815,38.0033,2833.3252],[44.3135,38.0299,2739.2373],[44.3168,38.036,2763.6721],[44.3167,38.0475,2739.344],[44.3256,38.0549,2742.6577],[44.3211,38.0661,2753.4236],[44.3225,38.0697,2770.8628],[44.3311,38.0765,2739.4558],[44.3383,38.0766,2723.0242],[44.3431,38.0867,2778.0786],[44.3526,38.0992,2912.4272],[44.3583,38.1008,2845.104],[44.3792,38.0976,2668.8091],[44.3774,38.1053,2678.9673],[44.3641,38.1271,2784.6104],[44.3663,38.1303,2757.719],[44.3778,38.1319,2693.2749],[44.3932,38.1367,2673.1182],[44.4013,38.141,2625.5852],[44.4048,38.1449,2486.0034],[44.4068,38.1494,2483.4915],[44.406,38.1548,2458.6492],[44.4171,38.2103,2772.1938],[44.4156,38.2222,2942.4004],[44.4077,38.2391,3169.6311],[44.4082,38.2512,3285.8682],[44.4161,38.261,3291.1846],[44.4222,38.2736,2913.4548],[44.4269,38.2782,2728.8582],[44.4616,38.2877,2496.6887],[44.5054,38.3184,2622.092],[44.5082,38.3218,2601.2095],[44.5095,38.3279,2726.4722],[44.5054,38.3487,2888.1846],[44.5011,38.3537,2881.7256],[44.4799,38.358,2840.2832],[44.4769,38.3655,2956.4011],[44.4667,38.379,2625.4802],[44.457,38.3851,2690.4944],[44.4512,38.3865,2744.7148],[44.4468,38.3856,2726.9312],[44.4385,38.38,2647.4883],[44.4186,38.3739,2625.0771],[44.3993,38.3649,2651.2935],[44.3867,38.3635,2696.5376],[44.3828,38.3653,2595.2],[44.3795,38.3737,2656.0542],[44.3765,38.3768,2577.8379],[44.3705,38.3775,2604.876],[44.3548,38.3738,2833.6208],[44.3457,38.3774,2552.1445],[44.323,38.3825,2588.8535],[44.3177,38.3854,2429.5518],[44.3167,38.3921,2256.907],[44.3217,38.4073,2369.6311],[44.322,38.4153,2356.4351],[44.3167,38.4359,2476.7759],[44.3173,38.4416,2400.6997],[44.3263,38.4582,2353.0732],[44.3395,38.5028,2239.0015],[44.3308,38.5247,2154.053],[44.3269,38.5501,2520.0308],[44.3275,38.5586,2666.2495],[44.3347,38.5835,2855.8843],[44.3368,38.6228,2638.6104],[44.3325,38.629,2596.9612],[44.316,38.6361,2652.1123],[44.2882,38.6443,2542.7563],[44.2855,38.6474,2516.3555],[44.2851,38.6508,2503.9612],[44.2997,38.6674,2469.4417],[44.3012,38.6717,2448.751],[44.2984,38.679,2547.2695],[44.2866,38.6943,2479.2844],[44.2837,38.7041,2559.1584],[44.2772,38.716,2559.9531],[44.2955,38.7444,2459.2439],[44.298,38.7519,2459.6809],[44.2972,38.7698,2435.5376],[44.3,38.7813,2510.4785],[44.3134,38.7929,2602.4924],[44.3186,38.8003,2673.6191],[44.3161,38.8339,2592.9482],[44.313,38.8397,2724.5278],[44.3025,38.8493,2667.2168],[44.2903,38.8553,2520.1265],[44.262,38.8528,2453.855],[44.256,38.8551,2358.0996],[44.2457,38.8768,2239.1084],[44.2296,38.8857,2246.5596],[44.2241,38.8919,2250.6226],[44.222,38.8959,2384.6218],[44.223,38.9025,2379.9421],[44.2189,38.9155,2661.4534],[44.2069,38.9242,2372.6584],[44.2026,38.931,2350.4438],[44.2034,38.9383,2361.573],[44.2091,38.9498,2427.7905],[44.2085,38.9539,2474.2937],[44.2057,38.9561,2462.6084],[44.1935,38.9579,2412.3662],[44.1913,38.9599,2446.7192],[44.1903,38.967,2579.0823],[44.1978,38.9782,2515.5876],[44.1971,38.9805,2476.0249],[44.1846,38.9881,2409.7756],[44.1815,38.9942,2466.2483],[44.1816,39.0045,2563.6501],[44.1874,39.0125,2607.1787],[44.211,39.0141,2739.7549],[44.2191,39.0213,2800.7178],[44.2188,39.0288,2742.7144],[44.2005,39.069,2671.1379],[44.1947,39.0738,2658.3232],[44.1836,39.0793,2586.2329],[44.1545,39.0882,2411.3872],[44.1521,39.092,2347.7812],[44.1542,39.0981,2367.9736],[44.1724,39.1111,2386.9141],[44.1869,39.1163,2610.0505],[44.196,39.1168,2667.8945],[44.2082,39.1136,2791.3127],[44.2275,39.0993,2895.8833],[44.2323,39.1003,2729.6047],[44.2323,39.1094,2791.9644],[44.2184,39.1386,2885.8188],[44.2015,39.1505,2893.3179],[44.1927,39.1548,2956.8213],[44.1764,39.1724,2781.8394],[44.1266,39.1894,2552.1958],[44.1133,39.2021,2449.0488],[44.1073,39.2145,2436.8027],[44.1089,39.2247,2505.3926],[44.1149,39.2355,2662.6836],[44.1151,39.2387,2670.8535],[44.1013,39.2486,2692.6936],[44.0981,39.2542,2639.7954],[44.0981,39.2583,2612.7202],[44.1023,39.2694,2512.7354],[44.1089,39.2751,2557.4551],[44.1117,39.2864,2554.0396],[44.109,39.2898,2520.3877],[44.0962,39.2923,2565.5659],[44.0879,39.2974,2611.4312],[44.087,39.3011,2603.9834],[44.091,39.3216,2600.5691],[44.0885,39.3295,2528.4038],[44.0796,39.3374,2608.4785],[44.0614,39.3475,2492.8716],[44.0514,39.3567,2554.5671],[44.0497,39.3608,2573.1658],[44.0328,39.372,2658.478],[43.9899,39.3586,2598.1655],[43.9621,39.3565,2764.5596],[43.9175,39.3577,3105.8145],[43.9062,39.3597,3177.4231],[43.8883,39.3658,3236.7954],[43.8652,39.3686,3302.3479],[43.7576,39.3687,2825.8015],[43.7164,39.3702,2738.2673],[43.6962,39.3585,2715.3489],[43.6731,39.3399,2898.7737],[43.6455,39.3024,3067.2109],[43.6208,39.2963,3122.1128],[43.5998,39.2887,3242.457],[43.5857,39.2879,3304.7041],[43.5752,39.2894,3310.7856],[43.5422,39.3025,2921.1743],[43.516,39.3184,2778.9795],[43.5004,39.3244,2734.2603],[43.4887,39.3309,2944.4001],[43.463,39.3514,3131.657],[43.4499,39.3706,3146.5632],[43.4433,39.3775,3148.8682],[43.4266,39.3889,3072.082],[43.4127,39.3922,2989.116],[43.3943,39.3927,2595.4773],[43.3758,39.3912,2873.3452],[43.3588,39.3873,2794.1606],[43.3331,39.4018,3434.1782],[43.3081,39.4045,3122.8132],[43.2938,39.4028,2793.2686],[43.2838,39.399,2909.3845],[43.2444,39.3742,2646.1389],[43.2101,39.3372,3088.9658],[43.1917,39.3281,2720.8635],[43.1828,39.3247,2662.0249],[43.1714,39.3228,2743.6626],[43.1127,39.3234,2891.5994],[43.102,39.3225,2889.489],[43.0893,39.3182,2456.875],[43.0823,39.3125,2556.6262],[43.0781,39.3021,2781.5188],[43.0788,39.2939,2984.1699],[43.0847,39.2842,2841.6956],[43.0947,39.2776,2599.2761],[43.1132,39.2704,2480.5308],[43.1371,39.2569,2396.0945],[43.155,39.2496,2473.2805],[43.1656,39.2399,2484.6006],[43.1692,39.2259,2498.386],[43.1676,39.166,2225.9963],[43.1615,39.1535,2138.8359],[43.1518,39.141,2064.7417],[43.1447,39.1363,1991.9712],[43.1222,39.1269,1946.645],[43.0982,39.1228,2004.7159],[43.0769,39.1159,1956.6486],[43.0497,39.1105,1939.4944],[43.0225,39.0955,1851.0492],[43.0165,39.0613,2072.8604],[43.0062,39.0423,2145.7422],[43.0033,39.0314,2173.1016],[43.0022,38.9998,2159.8604],[43.0035,38.9915,1968.2072],[43.0073,38.9839,1954.8727],[43.0192,38.9751,1857.6829],[43.1278,38.9334,1647.5],[43.1979,38.8802,1647.5],[43.1982,38.8423,1647.5],[43.1951,38.8228,1647.5],[43.182,38.802,1647.5],[43.1742,38.7937,1647.5],[43.1453,38.78,1647.5],[43.1122,38.7574,1647.5],[43.0847,38.7455,1647.5],[43.0561,38.7233,1647.5],[43.0406,38.702,1647.5],[43.0089,38.6744,1647.5],[42.9975,38.6579,1647.5],[42.9761,38.6372,1647.5],[42.9645,38.6213,1647.5],[42.9645,38.6179,1647.5],[42.9597,38.6148,1647.5],[42.9462,38.6143,1647.5],[42.9389,38.5903,1647.5],[42.9243,38.5668,1647.5],[42.9028,38.5373,1647.5],[42.8892,38.5249,1647.5],[42.8656,38.5098,1647.5],[42.7296,38.4582,1647.5],[42.7187,38.4518,1647.5],[42.6962,38.4345,1647.5],[42.6878,38.423,1840.7283],[42.6857,38.409,1884.7183],[42.6879,38.3951,2009.0171],[42.7129,38.3556,1861.6577],[42.7185,38.337,2263.9458],[42.7297,38.3154,2482.8765],[42.7329,38.2932,2193.6768],[42.7392,38.2773,2090.9285],[42.7392,38.2729,2229.9595],[42.7286,38.244,2811.3357],[42.7176,38.2253,2798.6904],[42.7164,38.2143,2738.0708],[42.7201,38.2035,2942.6729],[42.7311,38.1923,3033.2231],[42.7557,38.1753,3102.6658],[42.769,38.171,2838.0483],[42.799,38.1684,2128.73],[42.7783,38.1463,2328.7107],[42.7761,38.1382,2042.2241],[42.7773,38.1272,1783.4412],[42.7817,38.1199,2262.7427],[42.8007,38.1016,1928.7061],[42.812,38.0853,1754.9517],[42.8357,38.0655,2169.3257],[42.8609,38.0635,2672.3726],[42.8821,38.0565,2947.3945],[42.8931,38.0547,2638.8372],[42.9473,38.0531,3167.5657],[42.958,38.0503,2911.2505],[42.975,38.0391,3059.6655],[42.9836,38.0298,2842.219],[42.9976,38.0062,2449.8196],[43.0053,37.9826,1646.7034],[43.0199,37.9592,1740.9889],[43.0391,37.9368,2784.0198],[43.0204,37.9152,2155.2722],[43.0119,37.8919,1475.8408],[42.9886,37.8549,2067.9116],[42.9867,37.8492,2160.2007],[42.9853,37.8093,2503.145],[42.9891,37.7993,2344.2178],[42.9932,37.7942,2309.6182],[42.9987,37.7899,2432.3044],[43.0466,37.7653,2080.5735],[43.0702,37.7624,2319.4326],[43.1364,37.7628,2464.7493],[43.1565,37.7616,2745.1152],[43.1678,37.7588,3007.2368],[43.2155,37.741,2783.7246],[43.2764,37.7379,2635.6653],[43.3019,37.7303,2455.2466],[43.3177,37.7279,2515.2783],[43.5107,37.7274,3082.4756],[43.5254,37.7193,3025.1724],[43.5341,37.7195,2834.6465]]]]}}