{"type":"Feature","properties":{"GID_2":"TUR.8.1_1","GID_0":"TUR","country":"Turkey","GID_1":"TUR.8_1","province":"Antalya","NL_NAME_1":"NA","county":"Akseki","VARNAME_2":"NA","NL_NAME_2":"NA","TYPE_2":"District","ENGTYPE_2":"District","CC_2":"NA","HASC_2":"TR.AL.AK","name":"Akseki.county"},
"geometry":{"type": "MultiPolygon","coordinates": [[[[32.0927,37.0948,1721.4296],[32.0678,37.1357,1893.7671],[32.0544,37.1412,1774.9225],[32.0255,37.1607,1684.3831],[31.9969,37.1733,1751.151],[31.8661,37.2747,1952.7883],[31.8467,37.2883,1897.8453],[31.8249,37.2977,1752.9192],[31.795,37.3142,1828.3955],[31.7564,37.3192,1786.6414],[31.7278,37.3276,1603.7535],[31.6838,37.329,1406.323],[31.6769,37.3092,1790.3126],[31.6764,37.2834,1190.0405],[31.6792,37.2716,1184.5575],[31.6875,37.2576,1149.4963],[31.6944,37.2366,1147.7806],[31.7072,37.2229,1072.3245],[31.7502,37.1903,1120.1016],[31.7592,37.1795,1154.9163],[31.7595,37.1748,1314.8807],[31.7537,37.1618,1206.9357],[31.7514,37.1478,1339.9065],[31.751,37.0614,1204.6124],[31.7491,37.0529,1159.5376],[31.7443,37.0452,1041.2092],[31.6974,37.0066,925.3409],[31.6708,36.9664,734.5942],[31.6482,36.9437,1189.0721],[31.6336,36.9203,658.262],[31.6311,36.902,624.411],[31.6742,36.8844,855.4709],[31.6819,36.8797,1040.4962],[31.6879,36.8737,1189.1504],[31.708,36.8407,765.8383],[31.7138,36.8338,907.4715],[31.739,36.8134,739.8052],[31.7645,36.7954,496.6364],[31.7877,36.7929,564.7474],[31.809,36.7952,649.1539],[31.8214,36.8036,654.9982],[31.8343,36.8222,612.9131],[31.8572,36.8409,568.0788],[31.8686,36.8478,537.4282],[31.89,36.8563,1056.2925],[31.9141,36.8708,1196.2482],[31.9382,36.8811,1051.3231],[31.9932,36.9223,1906.4563],[32.0192,36.9374,2527.9961],[32.0323,36.9542,2419.1511],[32.0355,36.9647,2515.8403],[32.0342,36.9757,2495.9102],[32.0243,36.9918,2313.7986],[32.0212,37.0027,2021.1799],[32.0205,37.0227,2004.2123],[32.0239,37.0365,1952.0632],[32.034,37.0477,2151.3247],[32.0753,37.0794,1909.5704],[32.0927,37.0948,1721.4296]]]]}}