{"type": "Feature","bbox": [38.1348,37.9057,38.5524,38.23],"geometry": {"type": "MultiPolygon","coordinates": [[[[38.3975,37.9057,1301.1724],[38.4163,37.9276,1244.6947],[38.433,37.9532,1123.1422],[38.436,37.9641,954.316],[38.4357,37.9782,830.9041],[38.4329,37.9862,1033.6383],[38.427,37.9925,997.183],[38.3982,38.0053,994.8467],[38.3813,38.0183,1646.5599],[38.378,38.0229,1510.9624],[38.3757,38.0312,1490.1045],[38.3779,38.0449,1265.7095],[38.3969,38.0726,1665.7787],[38.4421,38.1095,1877.087],[38.4554,38.1284,2200.8633],[38.4643,38.1373,1913.5787],[38.4884,38.155,1515.3743],[38.5124,38.1653,1658.7063],[38.5217,38.1724,1624.7245],[38.5387,38.1975,1724.8062],[38.5524,38.2259,1625.2354],[38.55,38.2284,1574.6653],[38.5458,38.23,1607.561],[38.5307,38.23,1666.7797],[38.5062,38.2223,1759.0793],[38.4712,38.2182,1806.1851],[38.4495,38.2111,2050.106],[38.3986,38.1996,2030.4103],[38.3625,38.177,1545.5488],[38.2569,38.1365,2167.1104],[38.2244,38.1177,1819.4705],[38.1642,38.0946,1806.8345],[38.1348,38.0894,2140.9556],[38.1378,38.061,1693.5542],[38.1477,38.0417,1452.0615],[38.1528,38.0148,1915.4697],[38.1635,37.9922,1521.1722],[38.1678,37.9682,1815.0516],[38.1785,37.9462,1978.4653],[38.1811,37.919,1748.7416],[38.1937,37.9208,1468.7249],[38.2151,37.9275,1393.4027],[38.2267,37.9289,1487.1021],[38.3287,37.929,1116.4944],[38.3472,37.9257,1263.7312],[38.3975,37.9057,1301.1724]]]]}
,"properties": {"GID_2": "TUR.2.2_1","GID_0": "TUR","country": "Turkey","GID_1": "TUR.2_1","province": "Adiyaman","NL_NAME_1": "NA","county": "Çelikhan","VARNAME_2": "NA","NL_NAME_2": "NA","TYPE_2": "District","ENGTYPE_2": "District","CC_2": "NA","HASC_2": "TR.AD.CE","name": "Çelikhan.county","area_km2": 641.1256,"hist_schema_id": "Elevation0-9000","hist_area_km2": {"775": 0.1003,"800": 0.4178,"825": 0.9358,"850": 1.0361,"875": 1.6043,"900": 1.9887,"925": 2.1391,"950": 2.8745,"975": 3.7272,"1000": 4.6469,"1025": 5.3828,"1050": 7.038,"1075": 8.1751,"1100": 9.3954,"1125": 9.6129,"1150": 8.727,"1175": 8.3088,"1200": 8.2754,"1225": 7.8909,"1250": 7.0547,"1275": 13.8541,"1300": 11.8142,"1325": 11.0951,"1350": 9.691,"1375": 9.6574,"1400": 25.4446,"1425": 15.8624,"1450": 16.2795,"1475": 15.3779,"1500": 14.6593,"1525": 15.1257,"1550": 16.7274,"1575": 17.3766,"1600": 18.1094,"1625": 20.5593,"1650": 20.875,"1675": 22.0403,"1700": 19.5718,"1725": 17.8362,"1750": 18.5525,"1775": 16.7011,"1800": 15.9498,"1825": 14.2475,"1850": 13.13,"1875": 13.4304,"1900": 11.8783,"1925": 11.4612,"1950": 10.8945,"1975": 10.1604,"2000": 9.961,"2025": 9.4092,"2050": 8.2911,"2075": 8.3584,"2100": 7.257,"2125": 6.7397,"2150": 6.2061,"2175": 5.5055,"2200": 4.6383,"2225": 4.5216,"2250": 4.0379,"2275": 3.2871,"2300": 2.8532,"2325": 2.5862,"2350": 2.4527,"2375": 2.1695,"2400": 1.6519,"2425": 1.0346,"2450": 1.0515,"2475": 0.7511,"2500": 0.3672,"2525": 0.1835,"2550": 0.0834,"2575": 0.0334}}}