{"type": "Feature","bbox": [31.8469,39.0299,32.6002,39.8901],"geometry": {"type": "MultiPolygon","coordinates": [[[[31.9823,39.8664,903.3692],[31.9687,39.8638,907.1075],[31.9476,39.8566,781.7171],[31.9237,39.8521,872.9573],[31.9025,39.8448,746.9752],[31.8706,39.8391,685.4228],[31.8852,39.813,749.2404],[31.8854,39.806,840.6935],[31.8786,39.7975,822.2207],[31.8539,39.777,970.2769],[31.8473,39.7683,920.212],[31.8469,39.7444,796.9843],[31.8491,39.7304,799.429],[31.8582,39.714,835.6705],[31.8651,39.6929,740.8857],[31.8883,39.6558,784.119],[31.8962,39.6323,775.8897],[31.9112,39.609,770.299],[31.9295,39.5909,756.2276],[31.9416,39.574,688.1945],[31.9637,39.5511,688.0916],[31.9934,39.5046,693.1096],[31.9967,39.4868,695.3792],[31.9973,39.422,701.3646],[31.9998,39.4134,729.0906],[32.009,39.3968,735.4769],[32.0113,39.3818,750.1099],[32.0106,39.2971,775.9806],[32.0077,39.2853,798.8153],[31.998,39.2658,803.225],[31.9956,39.2359,793.0789],[31.9928,39.2274,748.637],[31.9872,39.221,751.9201],[31.9795,39.2162,791.2246],[31.907,39.189,910.1893],[31.8832,39.1738,831.0115],[31.9077,39.1646,879.8585],[31.9272,39.1517,848.2432],[31.9441,39.1367,803.4535],[31.9589,39.1157,882.5297],[31.9733,39.1044,832.9575],[32.0304,39.0814,849.7335],[32.078,39.0462,952.9181],[32.1133,39.0314,946.1909],[32.1232,39.0299,961.337],[32.13,39.0306,964.5565],[32.1472,39.0369,938.3748],[32.1743,39.0424,959.8024],[32.1959,39.0494,977.0529],[32.2307,39.0532,978.443],[32.2557,39.061,941.0264],[32.2803,39.0645,1072.1099],[32.2945,39.0681,1018.2089],[32.2983,39.0825,935.7247],[32.3087,39.1015,848.5594],[32.3128,39.138,834.5828],[32.3238,39.1597,885.4911],[32.3282,39.1962,953.8868],[32.3367,39.2125,998.9744],[32.3386,39.22,1009.8047],[32.3355,39.2299,999.0725],[32.2986,39.2848,945.2858],[32.2858,39.3055,933.9752],[32.2842,39.3105,1008.061],[32.2845,39.3158,973.6141],[32.2868,39.3209,1002.4934],[32.3042,39.3381,952.3582],[32.3082,39.3456,975.8184],[32.3078,39.3534,961.152],[32.2999,39.3666,872.341],[32.2969,39.3773,889.3527],[32.2966,39.3886,938.4973],[32.2996,39.3996,913.2291],[32.3076,39.4089,955.0289],[32.3305,39.4274,1062.9661],[32.339,39.4364,1179.7202],[32.435,39.5858,1000.0768],[32.4429,39.5943,991.2642],[32.4709,39.6182,991.5249],[32.4856,39.6389,1030.4041],[32.5056,39.6533,1118.6704],[32.557,39.6728,1236.275],[32.6002,39.7039,1239.8521],[32.5571,39.7329,1174.9453],[32.5483,39.7362,1126.0509],[32.521,39.7416,1051.2633],[32.5022,39.7532,994.9036],[32.4818,39.7714,936.2631],[32.4654,39.7972,970.6674],[32.4611,39.8092,919.3007],[32.4465,39.8172,831.757],[32.401,39.8345,742.6993],[32.376,39.8488,823.062],[32.3703,39.8321,870.5402],[32.354,39.806399999999996,761.748],[32.3416,39.7981,725.6235],[32.3282,39.7963,741.8322],[32.3187,39.7982,756.3669],[32.3138,39.8014,761.1403],[32.2954,39.826,780.9662],[32.2887,39.8309,792.4286],[32.2696,39.8399,845.7653],[32.2208,39.8584,731.4772],[32.1915,39.8758,702.8479],[32.1578,39.8882,757.6745],[32.1349,39.8901,927.1113],[32.0998,39.889,675.2208],[32.0637,39.8793,766.1001],[32.0174,39.8763,805.2238],[31.9959,39.8691,896.0114],[31.9823,39.8664,903.3692]]]]}
,"properties": {"GID_2": "TUR.7.21_1","GID_0": "TUR","country": "Turkey","GID_1": "TUR.7_1","province": "Ankara","NL_NAME_1": "NA","county": "Polatlı","VARNAME_2": "NA","NL_NAME_2": "NA","TYPE_2": "District","ENGTYPE_2": "District","CC_2": "NA","HASC_2": "TR.AN.PO","name": "Polatlı.county","area_km2": 3375.054,"hist_schema_id": "Elevation0-9000","hist_area_km2": {"600": 0.26,"625": 0.782,"650": 15.765,"675": 120.523,"700": 116.078,"725": 156.577,"750": 218.866,"775": 221.113,"800": 251.565,"825": 251.023,"850": 265.813,"875": 301.45,"900": 279.132,"925": 276.623,"950": 216.02,"975": 165.886,"1000": 126.83,"1025": 95.619,"1050": 63.749,"1075": 43.064,"1100": 32.143,"1125": 25.978,"1150": 23.214,"1175": 19.832,"1200": 18.133,"1225": 16.761,"1250": 15.636,"1275": 14.757,"1300": 10.663,"1325": 5.951,"1350": 3.211,"1375": 1.402,"1400": 0.44,"1425": 0.196}}}