{"type": "Feature","bbox": [29.456,38.506,29.8944,38.89],"geometry": {"type": "MultiPolygon","coordinates": [[[[29.8944,38.7097,1296.8888],[29.8913,38.7901,1196.0752],[29.8877,38.7988,1104.9751],[29.8662,38.8329,1123.3362],[29.8638,38.841,1132.5658],[29.8627,38.8551,1119.5291],[29.8343,38.8555,1208.4197],[29.8189,38.8577,1136.0051],[29.801,38.864,1413.8207],[29.7769,38.8685,1465.9501],[29.7389,38.8796,1536.6527],[29.7354,38.8819,1583.3671],[29.7347,38.8866,1673.139],[29.7083,38.89,1701.3317],[29.6687,38.89,1565.5626],[29.6538,38.8877,1586.238],[29.6326,38.8808,1338.0667],[29.5939,38.8759,1318.0599],[29.561,38.8578,1192.5109],[29.504,38.8356,1350.8478],[29.456,38.826,1287.665],[29.4571,38.8092,1314.424],[29.4601,38.7982,1254.5033],[29.4658,38.7908,1350.2389],[29.4761,38.7824,1391.6608],[29.4881,38.7757,1343.2386],[29.5457,38.7545,1149.5972],[29.5754,38.7484,1132.8889],[29.5834,38.744,1108.6656],[29.5893,38.7377,1115.2838],[29.5922,38.7291,1036.1267],[29.5929,38.72,1082.9565],[29.5921,38.6353,950.5479],[29.5955,38.6236,924.9598],[29.5987,38.619,916.8875],[29.6069,38.6109,929.8279],[29.6252,38.6052,969.779],[29.644,38.5902,917.8208],[29.6539,38.5881,895.6083],[29.6956,38.5851,954.2343],[29.7261,38.5742,1051.386],[29.7352,38.5693,1088.2389],[29.7458,38.5612,1276.1864],[29.7537,38.5515,1417.5114],[29.7596,38.5215,1609.9008],[29.7638,38.5143,1658.9419],[29.7718,38.506,1561.2842],[29.7906,38.5208,1720.0762],[29.7992,38.5301,1751.8816],[29.8728,38.6442,1081.3916],[29.8758,38.6519,1074.5941],[29.8798,38.6768,1180.0742],[29.8891,38.6932,1220.1047],[29.8944,38.7097,1296.8888]]]]}
,"properties": {"GID_2": "TUR.77.1_1","GID_0": "TUR","country": "Turkey","GID_1": "TUR.77_1","province": "Usak","NL_NAME_1": "NA","county": "Banaz","VARNAME_2": "NA","NL_NAME_2": "NA","TYPE_2": "District","ENGTYPE_2": "District","CC_2": "NA","HASC_2": "TR.US.BA","name": "Banaz.county","area_km2": 935.35,"hist_schema_id": "Elevation0-9000","hist_area_km2": {"825": 0.2817,"850": 1.3587,"875": 12.021,"900": 30.4228,"925": 49.3207,"950": 59.6167,"975": 58.0728,"1000": 50.2845,"1025": 47.8116,"1050": 47.8379,"1075": 50.1629,"1100": 51.6095,"1125": 49.7233,"1150": 44.6277,"1175": 44.2734,"1200": 46.1186,"1225": 36.8965,"1250": 34.8747,"1275": 35.02,"1300": 29.7817,"1325": 22.2626,"1350": 17.7027,"1375": 15.0096,"1400": 13.3566,"1425": 12.0518,"1450": 10.3168,"1475": 9.1095,"1500": 8.6965,"1525": 7.721,"1550": 7.3724,"1575": 6.053,"1600": 4.6663,"1625": 4.7515,"1650": 4.5534,"1675": 3.6102,"1700": 2.7985,"1725": 1.8047,"1750": 1.3584,"1775": 1.0443,"1800": 0.6793,"1825": 0.1986,"1850": 0.099,"1875": 0.0165}}}