{"type":"Feature","properties":{"GID_2":"TUR.54.11_1","GID_0":"TUR","country":"Turkey","GID_1":"TUR.54_1","province":"Kütahya","NL_NAME_1":"NA","county":"Şaphane","VARNAME_2":"NA","NL_NAME_2":"NA","TYPE_2":"District","ENGTYPE_2":"District","CC_2":"NA","HASC_2":"TR.KU.SA","name":"Şaphane.county"},
"geometry":{"type": "MultiPolygon","coordinates": [[[[29.1728,39.0834,1467.7798],[29.161,39.0667,1147.8167],[29.1491,39.0459,990.0684],[29.1469,39.0358,956.226],[29.1395,39.0198,1076.8464],[29.1189,38.9989,944.4917],[29.1134,38.9889,927.341],[29.1116,38.9622,896.0233],[29.1123,38.932,1032.7078],[29.1146,38.9178,881.8557],[29.1203,38.9047,1057.6941],[29.1187,38.8977,1085.369],[29.1031,38.8827,1112.7819],[29.072,38.8609,1067.676],[29.0621,38.8571,1098.8679],[29.0328,38.8513,1204.3667],[29.0365,38.8301,947.5831],[29.0366,38.7708,812.9118],[29.057,38.7751,903.6189],[29.0647,38.7793,958.2655],[29.0787,38.7984,972.7916],[29.0867,38.8222,1019.9435],[29.0955,38.8315,1079.889],[29.1142,38.8465,1129.5801],[29.137,38.8622,1106.2327],[29.1617,38.8718,1026.3871],[29.185,38.8839,987.8456],[29.1981,38.9007,1008.0608],[29.207,38.9152,1078.7714],[29.2295,38.938,986.3847],[29.2443,38.9613,847.4673],[29.2475,38.9757,927.1323],[29.2482,39.006,1095.6726],[29.2472,39.0208,1245.521],[29.2442,39.0291,1277.9569],[29.2336,39.0386,1237.6477],[29.2117,39.049,1233.4867],[29.1936,39.0702,1314.5613],[29.1728,39.0834,1467.7798]]]]}}