{"type":"Feature","properties":{"GID_2":"TUR.44.1_1","GID_0":"TUR","country":"Turkey","GID_1":"TUR.44_1","province":"Karaman","NL_NAME_1":"NA","county":"Ayrancı","VARNAME_2":"NA","NL_NAME_2":"NA","TYPE_2":"District","ENGTYPE_2":"District","CC_2":"NA","HASC_2":"TR.KR.AY","name":"Ayrancı.county"},
"geometry":{"type": "MultiPolygon","coordinates": [[[[33.3885,37.3973,1038.6119],[33.3966,37.389,1137.9277],[33.4011,37.3819,1125.9861],[33.4071,37.3635,1009.2068],[33.416,37.347,1011.6801],[33.4218,37.3168,1013.7534],[33.4298,37.303,1017.6918],[33.4364,37.2819,1028.4114],[33.4511,37.2584,1045.7965],[33.4734,37.2357,1093.4802],[33.4958,37.2004,1159.7527],[33.5018,37.1943,1182.8217],[33.5096,37.1897,1215.0781],[33.5518,37.1742,1340.4668],[33.5635,37.1654,1390.7561],[33.5672,37.1578,1400.226],[33.5716,37.1305,1373.5051],[33.5946,37.0934,1572.8259],[33.6027,37.0699,1637.4835],[33.6211,37.046,1723.4829],[33.6522,37.0481,1763.8778],[33.6795,37.0469,1797.3408],[33.6899,37.0443,1772.7649],[33.7308,37.0282,2055.8379],[33.7406,37.0267,2123.6077],[33.7504,37.028,2150.4351],[33.7647,37.0331,2002.7288],[33.7884,37.0377,1905.2703],[33.8096,37.0451,1909.7739],[33.8369,37.0503,1912.1096],[33.8674,37.0611,1938.8213],[33.8942,37.0742,2030.9048],[33.9098,37.0908,1988.7776],[33.9264,37.1023,1998.2983],[33.9898,37.1267,2145.8379],[34.0082,37.1291,2123.6912],[34.0664,37.1289,2259.2827],[34.0925,37.1315,2285.3701],[34.1136,37.1386,2249.7371],[34.1374,37.1432,2311.1016],[34.1662,37.1551,2355.791],[34.1834,37.1643,2406.9214],[34.1976,37.1783,2812.1074],[34.1288,37.229,2361.2629],[34.0988,37.241,2139.8037],[34.0893,37.2439,2155.6924],[34.0536,37.2472,1886.6257],[34.0258,37.256,1629.5861],[33.9936,37.2591,1531.9783],[33.9721,37.2657,1557.9938],[33.9426,37.2693,1645.1036],[33.931,37.2741,1622.9397],[33.918,37.2907,1559.3599],[33.9119,37.3117,1606.2502],[33.905,37.3216,1639.5042],[33.889,37.3336,1555.0662],[33.861,37.3457,1596.5848],[33.8501,37.3536,1468.252],[33.8432,37.3603,1351.9835],[33.8297,37.3816,1434.9675],[33.8248,37.3944,1203.427],[33.8216,37.4166,1102.9927],[33.8125,37.433,1175.6852],[33.8058,37.4541,1215.0238],[33.7975,37.4679,1139.0406],[33.7909,37.4891,996.7104],[33.7675,37.5261,996.7846],[33.7619,37.5447,998.2109],[33.7527,37.5611,1000.4071],[33.7461,37.5822,1000.6721],[33.7261,37.6081,1007.8977],[33.6641,37.6066,998.8224],[33.6454,37.6043,998.2132],[33.4951,37.5465,1000.001],[33.4861,37.5419,997.9649],[33.4575,37.5197,1007.5223],[33.4437,37.5007,1005.1843],[33.4215,37.4779,1005.461],[33.4067,37.4545,1003.1838],[33.4,37.4334,1002.7922],[33.3918,37.4196,1002.6749],[33.3896,37.4115,1004.0477],[33.3885,37.3973,1038.6119]]]]}}