{"type":"Feature","properties":{"featurecla":"River","scalerank":9,"rivernum":1060,"dissolve":"1060River","name":"Kelkit","name_alt":null,"note":"Version 1.2 edit in N. America and Europe","min_zoom":7.1,"strokeweig":0.15,"name_en":"Kelkit","min_label":8.1},
"geometry":{"type": "LineString","coordinates": [[39.618359375000011,39.878924871869117,2175.2568],[39.618896484375,39.893182684369116,2158.5259],[39.62646484375,39.906268621869117,2158.6772],[39.66162109375,39.926629949994116,2027.8624],[39.678955078125,39.942401434369117,2050.9624],[39.69677734375,39.95148346561912,2053.407],[39.7125,39.96356842655662,1969.2054],[39.7158203125,39.978534246869117,1869.6898],[39.702880859375,39.990350653119116,1905.2095],[39.653222656250023,39.997674871869116,1945.2466],[39.63427734375,40.004999090619116,1674.7273],[39.622802734375,40.022723699994117,1719.5706],[39.61474609375,40.05060455936912,1614.3136],[39.605078125,40.075311590619116,1571.8282],[39.59033203125,40.085565496869116,1600.0549],[39.573632812500023,40.088397528119117,1772.8572],[39.542578125,40.10407135624412,1613.2701],[39.513427734375,40.11444733280662,1540.4016],[39.44189453125,40.13873932499412,1398.0776],[39.3095703125,40.11261627811912,1371.4452],[39.258886718750006,40.09650299686912,1349.9368],[39.23779296875,40.094598699994116,1326.968],[39.184472656250023,40.10394928593162,1322.7123],[39.190527343750006,40.11017487186912,1529.1279],[39.164648437500006,40.11115143436912,1318.5682],[39.141503906250023,40.11456940311912,1294.9944],[39.12060546875,40.12128327030662,1313.7849],[39.101171875,40.13190338749412,1357.4375],[39.092871093750006,40.11749909061912,1256.6892],[39.081640625,40.10748932499412,1269.1002],[39.066503906250006,40.10077545780662,1249.8196],[39.046630859375,40.09650299686912,1302.455],[39.038476562500023,40.095819403119116,1272.2437],[39.030371093750006,40.096307684369116,1295.4467],[39.015234375,40.099383856244117,1422.3015]]}}