{"type":"Feature","properties":{"featurecla":"River","scalerank":3,"rivernum":65,"dissolve":"65River","name":"Firat3","name_alt":null,"note":null,"min_zoom":3.0,"strokeweig":0.2,"name_en":"Firat","min_label":4.0},
"geometry":{"type": "LineString","coordinates": [[41.328222656250006,40.01630280155662,1755.9167],[41.319042968750011,40.00495026249412,1754.7715],[41.30712890625,39.99371979374412,1755.2249],[41.29296875,39.98505280155662,1754.4926],[41.276953125,39.981561590619116,1753.5089],[41.026562500000011,39.961053778119116,1761.7388],[40.91064453125,39.92511627811912,1710.6979],[40.870214843750006,39.91950104374412,1728.2222],[40.802734375,39.92658112186912,1748.5615],[40.790722656250011,39.93036530155662,1724.993],[40.7685546875,39.94061920780662,1684.5955],[40.747167968750006,39.93622467655662,1665.7755],[40.7119140625,39.91950104374412,1649.7584],[40.68896484375,39.92072174686912,1662.1936],[40.65283203125,39.93610260624412,1657.7549],[40.468505859375,39.953631903119117,1602.6416],[40.45859375,39.95148346561912,1586.6803],[40.436621093750006,39.94208405155662,1672.9219],[40.427636718750023,39.94000885624412,1685.917],[40.391845703125,39.94208405155662,1680.5245],[40.382910156250006,39.94000885624412,1607.5498],[40.382910156250006,39.93378327030662,1551.3607],[40.351318359375,39.94440338749412,1727.1125],[40.302978515625,39.94037506718162,1636.1438],[40.179101562500023,39.907977606244117,1447.7924],[40.160400390625,39.89996979374412,1519.6315],[40.146386718750023,39.88910553593162,1494.7214],[40.136816406250006,39.870233465619116,1419.3059],[40.14013671875,39.85565827030662,1432.5811],[40.163818359375,39.83075592655662,1403.8223],[40.22314453125,39.79047272343162,1445.1119],[40.251074218750006,39.76361725468162,1404.0056],[40.259375,39.72833893436912,1380.0236],[40.253808593750023,39.717401434369116,1379.5872],[40.24169921875,39.70136139530662,1378.3654],[40.227294921875,39.686883856244116,1376.3401],[40.198974609375,39.67377350468162,1381.5754],[40.192138671875,39.657977606244117,1374.8621],[40.190673828125,39.63959381718162,1377.7955],[40.191162109375,39.62531159061912,1444.2468],[40.189550781250006,39.60809967655662,1476.5048],[40.183691406250006,39.592547918744117,1417.2804],[40.171972656250006,39.58124420780662,1363.6223],[40.139892578125,39.57379791874412,1503.5632],[40.101806640625,39.56012604374412,1425.5626],[40.081298828125,39.557001043744116,1360.3827],[39.994384765625,39.56500885624412,1275.1851],[39.909912109375,39.584344793744116,1223.9587],[39.749267578125,39.645038153119117,1161.7766],[39.731201171875,39.649286199994116,1158.3468],[39.669335937500023,39.65546295780662,1152.7391],[39.615820312500006,39.68048737186912,1147.5787],[39.575097656250023,39.693963934369116,1145.8273],[39.53564453125,39.70050690311912,1144.0876],[39.45068359375,39.701044012494116,1138.5455],[39.408935546875,39.693963934369116,1138.9055],[39.381933593750006,39.679071356244116,1469.0712],[39.327734375,39.63898346561912,1137.2396],[39.306396484375,39.63068268436912,1124.74],[39.2841796875,39.62665436405662,1157.3352],[39.242089843750023,39.62531159061912,1165.9337],[39.2314453125,39.623163153119116,1126.8364],[39.211328125000023,39.613788153119117,1145.5671],[39.201171875,39.61163971561912,1155.5807],[39.156494140625,39.61786530155662,1166.34],[39.047949218750006,39.616083074994116,1110.8999],[39.033300781250006,39.61151764530662,1025.4606],[39.004980468750006,39.59796784061912,1119.6288],[38.975976562500023,39.59186432499412,1365.7725],[38.90673828125,39.58588287968162,1154.2972],[38.875244140625,39.57684967655662,1089.0651],[38.865820312500006,39.58222077030662,1170.4431],[38.85302734375,39.57611725468162,1183.9998],[38.826904296875,39.557001043744116,1083.4858],[38.815820312500023,39.554217840619117,1079.144],[38.772216796875,39.550165106244116,941.3015],[38.755615234375,39.545282293744116,948.119],[38.748144531250006,39.53925202030662,986.7452],[38.742773437500006,39.530047918744117,1045.5306],[38.73193359375,39.51544830936912,1221.8689],[38.72021484375,39.50397369999412,1277.7133],[38.711523437500006,39.50031159061912,1424.8364],[38.6806640625,39.50177643436912,1352.0835],[38.666796875000017,39.50421784061912,1593.9774],[38.639892578125,39.512811590619116,1206.3611],[38.63232421875,39.51203034061912,1122.6962],[38.620996093750023,39.506219793744116,1046.558],[38.583886718750023,39.496600653119117,885.3327],[38.57080078125,39.49494049686912,923.7212],[38.560937500000023,39.49005768436912,980.4236],[38.5224609375,39.457391668744116,874.2524],[38.510156250000023,39.45270416874412,904.5286],[38.458105468750006,39.453973699994116,1179.2882],[38.402929687500006,39.42609284061912,966.9037],[38.3921875,39.41791412968162,1045.9209],[38.383544921875,39.40912506718162,975.6649],[38.374121093750006,39.402118231244117,886.8214],[38.361425781250006,39.39935944218162,910.64],[38.36669921875,39.388690496869117,976.8357],[38.3681640625,39.371454168744116,915.4667],[38.3681640625,39.371454168744116,915.4667],[38.3681640625,39.371454168744116,915.4667],[38.3681640625,39.371454168744116,915.4667],[38.3681640625,39.371454168744116,915.4667],[38.387939453125,39.35700104374412,938.9759],[38.425048828125,39.318475653119116,1253.509],[38.462011718750006,39.30646393436912,935.8181],[38.473730468750006,39.296502996869116,1344.4518],[38.49169921875,39.27521393436912,994.8707],[38.5029296875,39.266961981244116,921.5449],[38.580761718750011,39.22492096561912,862.3734],[38.599707031250006,39.206073309369117,848.0524],[38.607812500000023,39.183368231244117,839.0],[38.619873046875,39.17169830936912,839.0],[38.683007812500023,39.171014715619116,917.0121],[38.71142578125,39.16596100468162,853.1348],[38.714746093750023,39.15473053593162,1336.5837],[38.712988281250006,39.128778387494116,1366.0059],[38.714599609375,39.12128327030662,1273.7605],[38.735595703125,39.105243231244117,963.0085],[38.740136718750023,39.095721746869117,840.6205],[38.739501953125,39.078485418744116,836.0]]}}