{"type":"Feature","properties":{"ISO3166-1-Alpha-3":"TUR","country":"Turkey","fill":"#FF0","id":"2300","name":"Erzincan"},
"geometry":{"type": "Polygon","coordinates": [[[40.2814,40.04717,2169.2759],[40.11789,40.0727,1976.2805],[40.07076,40.05854,2452.9656],[40.03025,40.03032,2151.051],[39.98012,40.0259,2039.4183],[39.92328,40.02991,2064.9858],[39.86912,40.01482,1909.1542],[39.83171,39.97089,1953.7302],[39.78789,39.9348,2243.1899],[39.67637,39.91467,2044.4169],[39.62201,39.89377,2204.7566],[39.56475,39.88919,2346.6187],[39.50584,39.89258,2443.5212],[39.44703,39.888,1895.1283],[39.38543,39.89333,1965.5131],[39.32704,39.91632,2407.2363],[39.26647,39.93025,2290.5479],[39.2489,39.94371,2243.8879],[39.23309,39.96071,2371.8809],[39.19712,39.97834,2466.6238],[39.15826,39.99007,2580.0483],[39.04964,40.03908,2107.918],[39.01967,40.04546,2346.2234],[38.98897,40.04882,2297.6211],[38.96075,40.05851,2255.6528],[38.93326,40.07133,2126.1013],[38.89254,40.05761,1981.24],[38.80552,40.05254,1879.4011],[38.76159,40.05495,1296.8625],[38.75849,40.00376,1373.5967],[38.7372,39.96549,1578.0576],[38.69131,39.9657,1622.0856],[38.64563,39.97151,1495.9199],[38.59323,39.96268,1673.4725],[38.54641,39.93705,1811.5085],[38.49773,39.94307,1904.6172],[38.45112,39.97079,1959.2305],[38.40668,39.95074,2065.6748],[38.36916,39.86793,2297.4072],[38.37722,39.83633,2321.3264],[38.44616,39.83816,1901.9521],[38.51923,39.85199,1995.8843],[38.54021,39.83276,2325.783],[38.52967,39.80522,1916.1829],[38.51034,39.80212,2115.4504],[38.48998,39.80264,2062.8396],[38.45267,39.78718,2126.9692],[38.42663,39.75411,1383.4314],[38.37857,39.70347,1423.9563],[38.3671,39.59913,1536.1262],[38.34415,39.56479,1122.7932],[38.35562,39.52648,1613.7006],[38.39076,39.50048,1593.5093],[38.42384,39.4841,1267.3262],[38.44668,39.45994,1054.9618],[38.43851,39.44403,959.896],[38.40296,39.42602,966.9037],[38.39221,39.41785,1045.9209],[38.38353,39.40907,975.6649],[38.37412,39.40204,873.4539],[38.36141,39.3993,910.64],[38.36668,39.3886,976.8357],[38.36823,39.3714,915.4667],[38.36885,39.33744,1215.252],[38.38156,39.30933,1418.5511],[38.38746,39.2791,1761.3057],[38.38311,39.26169,1486.1659],[38.38167,39.24272,1439.2349],[38.38787,39.22714,1495.505],[38.39262,39.21097,1583.2631],[38.38405,39.17732,1939.4114],[38.36172,39.15027,1916.894],[38.44089,39.11952,1578.199],[38.53556,39.11591,1412.9888],[38.58093,39.10195,1053.9839],[38.62362,39.08216,1132.5657],[38.6879,39.02297,877.4195],[38.71405,39.03343,1029.0327],[38.74568,39.03777,835.5],[38.7372,39.09963,935.006],[38.72914,39.1064,1290.9413],[38.72077,39.11105,1168.4771],[38.71674,39.13441,1289.7412],[38.72036,39.15787,989.9164],[38.72811,39.16345,1048.2738],[38.73348,39.16402,1280.2587],[38.7556,39.1726,1197.7756],[38.76996,39.22965,1702.9648],[38.79374,39.24065,1738.9985],[38.8203,39.24489,2365.7808],[38.84769,39.25776,2095.2849],[38.83384,39.27654,2039.4468],[38.82102,39.30721,2394.429],[38.83683,39.33874,2703.8882],[38.89616,39.35584,2845.1072],[38.90804,39.36078,2750.9832],[38.91941,39.37793,2672.5146],[38.93419,39.39356,2672.3936],[38.96272,39.39243,3225.4409],[38.98783,39.4024,3106.9885],[39.00602,39.42932,2540.397],[39.03331,39.4462,2779.5554],[39.13211,39.47483,3029.249],[39.18462,39.48351,2835.687],[39.23712,39.47589,2557.2424],[39.27918,39.48402,2719.0693],[39.31887,39.50079,2540.4121],[39.39577,39.49687,2595.7212],[39.47235,39.48219,2070.6633],[39.55131,39.48278,2535.4648],[39.70376,39.5009,3013.6924],[39.77414,39.51854,2125.4756],[39.8191,39.56257,1912.6642],[39.85641,39.57154,1588.0228],[39.91036,39.54779,1646.8656],[39.9887,39.53239,2072.406],[40.08131,39.55697,1360.3827],[40.10177,39.56007,1425.5626],[40.13991,39.57373,1482.6169],[40.17205,39.58115,1363.6223],[40.17546,39.58435,1408.2587],[40.1859,39.58296,1655.2744],[40.22352,39.57314,1923.9011],[40.24274,39.56482,2072.1326],[40.39188,39.56105,1880.7914],[40.47291,39.55087,2071.8098],[40.55477,39.54896,2417.6868],[40.61884,39.53245,2178.6216],[40.62225,39.59438,1695.2578],[40.65708,39.64613,1872.5414],[40.68003,39.68766,2341.4219],[40.64778,39.7168,2383.5105],[40.60561,39.73031,2112.6233],[40.56717,39.75189,1979.9467],[40.54929,39.76959,2018.3016],[40.53502,39.79021,1865.3199],[40.5312,39.8177,1683.8708],[40.53296,39.84532,1922.9703],[40.46692,39.91346,2557.6953],[40.29535,39.91583,1680.3022],[40.24223,39.93658,1606.7145],[40.25039,39.99392,2363.0869],[40.2814,40.04717,2169.2759]]]}}