{"type":"Feature","properties":{"GID_2":"TUR.28.9_1","GID_0":"TUR","country":"Turkey","GID_1":"TUR.28_1","province":"Edirne","NL_NAME_1":"NA","county":"Uzunköprü","VARNAME_2":"NA","NL_NAME_2":"NA","TYPE_2":"District","ENGTYPE_2":"District","CC_2":"NA","HASC_2":"TR.ED.UZ","name":"Uzunköprü.county"},
"geometry":{"type": "MultiPolygon","coordinates": [[[[26.5489,41.3389,19.368],[26.5502,41.3079,70.1521],[26.5497,41.2076,39.859],[26.5471,41.1898,9.1052],[26.5399,41.1794,8.5341],[26.5112,41.1549,8.0351],[26.4945,41.1332,7.1509],[26.463,41.1062,16.1332],[26.4509,41.0905,5.7884],[26.4915,41.0934,7.2207],[26.5232,41.0914,9.7187],[26.5317,41.0873,11.7476],[26.5473,41.0737,13.8663],[26.5803,41.0605,55.5323],[26.6281,41.0559,95.5593],[26.6354,41.0518,100.7453],[26.6389,41.0462,82.9157],[26.7011,41.0455,149.3671],[26.7127,41.0436,104.514],[26.7305,41.0373,77.3516],[26.744,41.0345,120.0062],[26.744,41.0548,156.4238],[26.7458,41.0659,128.4571],[26.7598,41.0894,97.5039],[26.7677,41.0977,144.4103],[26.7785,41.1036,153.4384],[26.8625,41.1357,221.5534],[26.8761,41.1383,250.4474],[26.892,41.1386,329.394],[26.9047,41.1498,227.0752],[26.9146,41.1637,205.0352],[26.9306,41.1793,174.7737],[26.9376,41.1895,212.9537],[26.9405,41.2102,166.892],[26.9386,41.2373,143.5408],[26.9347,41.2455,107.0498],[26.9126,41.2682,109.8088],[26.8966,41.294,101.3817],[26.8945,41.3167,73.871],[26.8983,41.343,19.5953],[26.883,41.3613,24.1078],[26.8796,41.373,35.2064],[26.8791,41.3882,66.0225],[26.8829,41.406,37.5618],[26.9034,41.4311,60.9767],[26.8372,41.4306,84.0987],[26.8213,41.4331,58.293],[26.7999,41.4402,45.6563],[26.7729,41.4422,113.811],[26.7498,41.4403,137.8824],[26.7215,41.4319,122.8544],[26.6998,41.4304,60.4054],[26.6862,41.4331,77.7387],[26.6651,41.4404,101.1829],[26.6175,41.449,33.2202],[26.619,41.4391,24.5496],[26.6226,41.4352,23.2535],[26.6309,41.4316,41.0198],[26.6339,41.4284,33.6605],[26.6418,41.3909,37.6026],[26.6369,41.3561,21.9093],[26.6336,41.351,22.0267],[26.6266,41.3464,19.6862],[26.6133,41.3413,33.3939],[26.6028,41.3333,24.9181],[26.5922,41.3287,23.6106],[26.5828,41.3289,19.9777],[26.5721,41.3357,20.4165],[26.5642,41.3457,19.1049],[26.5572,41.3477,18.4166],[26.5486,41.3462,19.0668],[26.5489,41.3389,19.368]]]]}}