{"type":"Feature","properties":{"GID_2":"TUR.9.3_1","GID_0":"TUR","country":"Turkey","GID_1":"TUR.9_1","province":"Ardahan","NL_NAME_1":"NA","county":"Göle","VARNAME_2":"NA","NL_NAME_2":"NA","TYPE_2":"District","ENGTYPE_2":"District","CC_2":"NA","HASC_2":"TR.AR.GO","name":"Göle.county"},
"geometry":{"type": "MultiPolygon","coordinates": [[[[42.3308,40.9349,2104.7158],[42.3348,40.9192,2149.7454],[42.358,40.8821,2343.5859],[42.3647,40.861,2238.7651],[42.3847,40.8258,2299.292],[42.3996,40.8164,2539.3677],[42.4148,40.7962,2205.9717],[42.4448,40.7701,2403.6494],[42.4576,40.7516,2176.2095],[42.4917,40.7214,1996.0898],[42.5008,40.7072,2022.9127],[42.5234,40.6843,1884.5898],[42.5385,40.661,2158.0735],[42.5481,40.6407,2192.9133],[42.5674,40.6389,2486.334],[42.5996,40.6386,2667.4785],[42.6149,40.6411,2663.7915],[42.6476,40.6594,2567.2385],[42.7046,40.6815,2541.6348],[42.75,40.6877,2616.5896],[42.7679,40.6939,2790.125],[42.7951,40.6992,2603.5693],[42.836,40.7135,2738.5305],[42.8532,40.7326,2642.9346],[42.8605,40.7536,2432.8918],[42.8696,40.7703,2358.5269],[42.8718,40.7857,2266.9016],[42.8717,40.837,2256.2209],[42.8733,40.8527,2222.8086],[42.8843,40.875,2202.9065],[42.8903,40.8934,2134.5527],[42.9002,40.9113,2113.8267],[42.8736,40.9257,2030.8199],[42.8434,40.932,2305.189],[42.8132,40.9432,2148.4763],[42.8009,40.9502,2292.9697],[42.7752,40.9689,2335.4836],[42.7627,40.9751,2227.9023],[42.7357,40.9853,2101.9146],[42.7086,40.9906,2149.6396],[42.6871,40.9978,2092.5215],[42.6716,40.9993,2078.2759],[42.5743,40.9998,2146.1567],[42.5506,40.9986,2610.2964],[42.5367,40.9941,2755.26],[42.5105,40.9785,2533.833],[42.4805,40.9669,2015.9092],[42.4619,40.9646,2098.5884],[42.4152,40.9647,2186.2874],[42.3964,40.9631,2217.8276],[42.3625,40.9511,2174.6548],[42.3308,40.9349,2104.7158]]]]}}