{"type":"Feature","properties":{"GID_1":"TUR.11_1","GID_0":"TUR","country":"Turkey","province":"Aydin","VARNAME_1":"Aydın","NL_NAME_1":"NA","TYPE_1":"Il","ENGTYPE_1":"Province","CC_1":"NA","HASC_1":"TR.AY","ISO_1":"TR-09","name":"Aydin.province"},
"geometry":{"type": "MultiPolygon","coordinates": [[[[27.3318,37.3307,0.0],[27.3265,37.3312,0.0],[27.3271,37.3285,0.0],[27.3254,37.326,0.0],[27.331,37.3218,0.0],[27.3338,37.3246,0.0],[27.3338,37.3301,0.1029],[27.3318,37.3307,0.0]]],
[[[27.4382,37.4609,268.4427],[27.4402,37.4689,122.0647],[27.4431,37.5002,1.0],[27.4478,37.5102,1.0],[27.4798,37.5591,134.3155],[27.4967,37.5718,175.2571],[27.5062,37.5746,165.7522],[27.5197,37.5728,184.4599],[27.5457,37.5568,239.86],[27.594,37.5379,909.0757],[27.6176,37.5249,851.7236],[27.6511,37.5159,807.8627],[27.6986,37.4972,716.4916],[27.7259,37.492,648.9406],[27.747,37.4847,734.3854],[27.7708,37.4802,1191.5569],[27.7923,37.4731,845.7153],[27.8424,37.4694,432.4024],[27.885,37.457,559.1274],[27.9082,37.459,518.6591],[28.026,37.4599,1077.3811],[28.0412,37.4622,850.2515],[28.059,37.4684,757.994],[28.0704,37.4703,652.466],[28.127,37.4708,436.7902],[28.1427,37.4723,316.6907],[28.1499,37.4745,269.2851],[28.1644,37.4835,248.0],[28.1716,37.4902,293.4601],[28.1768,37.4976,407.4971],[28.187,37.5216,563.5905],[28.2033,37.5396,723.9042],[28.2121,37.5539,784.8387],[28.2205,37.5622,863.9329],[28.2364,37.5721,1063.5681],[28.2666,37.5786,1246.1002],[28.281,37.5843,1145.2993],[28.2945,37.5869,936.9852],[28.3087,37.586,910.8359],[28.3151,37.5839,1043.1036],[28.3417,37.5679,1025.2332],[28.3659,37.5572,881.1219],[28.4281,37.5107,880.6038],[28.4611,37.4972,809.1911],[28.4784,37.4942,954.5856],[28.5165,37.4952,693.3292],[28.5401,37.4934,500.942],[28.5555,37.4902,415.4009],[28.573,37.4841,631.3185],[28.6042,37.4777,490.8669],[28.5961,37.4931,390.8983],[28.5801,37.5163,725.9787],[28.5624,37.5344,291.5039],[28.5568,37.5442,284.5],[28.5566,37.5492,284.5],[28.5603,37.5627,410.9872],[28.5573,37.5669,423.461],[28.5505,37.571,468.2645],[28.5738,37.5916,751.2883],[28.5964,37.607,795.4136],[28.614,37.6105,826.1504],[28.6355,37.6094,812.5443],[28.66,37.6016,813.1147],[28.6754,37.5991,862.7552],[28.7083,37.5985,970.8828],[28.7404,37.6001,1340.6882],[28.757,37.6152,1060.7141],[28.7862,37.6287,934.9308],[28.8315,37.6617,881.1316],[28.8636,37.6762,973.5736],[28.8705,37.6816,1048.0647],[28.8785,37.6917,1188.0684],[28.8796,37.697,1258.8654],[28.8662,37.733,1679.7075],[28.8575,37.7438,1691.7642],[28.849,37.7632,1747.4607],[28.8327,37.7772,1457.2231],[28.811,37.7873,1167.9498],[28.8,37.7956,1091.8767],[28.7942,37.8082,1183.1356],[28.7831,37.8211,1057.2643],[28.7756,37.8372,871.934],[28.7642,37.8431,806.6518],[28.7653,37.8573,915.5406],[28.7676,37.8654,868.1385],[28.7931,37.9065,461.7833],[28.8073,37.9173,228.286],[28.843,37.9682,492.3515],[28.859,37.9795,663.4611],[28.8697,37.9827,659.3022],[28.8681,37.9891,786.3846],[28.8631,37.998,1056.1826],[28.8518,38.0086,1050.4775],[28.7995,38.0478,1058.6606],[28.7635,38.062,1248.7675],[28.7431,38.0651,1214.2234],[28.7117,38.078,1192.179],[28.7079,38.0814,1065.5415],[28.7047,38.0876,856.4786],[28.7197,38.0993,780.8826],[28.7034,38.1088,877.4112],[28.683,38.1148,771.3218],[28.5599,38.1087,1315.0955],[28.5257,38.0972,1175.6128],[28.448,38.0671,952.0576],[28.4208,38.0618,974.5735],[28.3992,38.0547,525.2939],[28.3153,38.0386,906.6663],[28.2777,38.0276,1377.7354],[28.2718,38.0238,1247.7444],[28.249,38.019,1279.2356],[28.2204,38.0192,1535.4473],[28.202,38.0219,1595.4116],[28.1921,38.0267,1529.6453],[28.1812,38.029,1395.635],[28.0719,38.0294,1580.2478],[28.0369,38.022,1584.8177],[27.9937,38.0084,734.3911],[27.9537,38.0067,1102.1688],[27.9387,38.0184,1445.2771],[27.9288,38.0078,1216.7212],[27.9236,37.9951,1408.7422],[27.8984,37.9931,919.9975],[27.8667,37.9847,1322.6396],[27.8152,37.9826,914.9435],[27.7758,37.9723,347.2161],[27.7639,37.9718,513.2593],[27.7446,37.9743,513.1534],[27.7201,37.9855,660.037],[27.6802,37.9836,587.2446],[27.5318,37.9837,402.174],[27.5199,37.9811,475.0089],[27.5085,37.973,469.8769],[27.5044,37.9655,304.1621],[27.5009,37.9527,384.1866],[27.4942,37.9439,271.4325],[27.4894,37.9405,404.3403],[27.4717,37.9333,400.724],[27.4417,37.9161,519.6533],[27.4083,37.9078,602.17],[27.3665,37.8933,203.4937],[27.3546,37.8913,354.2452],[27.2953,37.8907,188.2961],[27.2679,37.8929,0.0],[27.2651,37.8918,4.5661],[27.2629,37.889,5.5242],[27.2629,37.8865,6.4821],[27.266,37.8849,2.4807],[27.2643,37.8838,2.4807],[27.2651,37.8804,24.4306],[27.2638,37.8799,0.0],[27.2649,37.8757,7.1701],[27.261,37.874,0.0],[27.2599,37.871,0.0],[27.261,37.869,0.0],[27.261,37.8721,0.0],[27.2629,37.8721,5.1275],[27.2621,37.8679,2.3398],[27.2632,37.866,8.1808],[27.259,37.8688,0.0],[27.2593,37.8671,0.0],[27.2621,37.8657,8.1808],[27.2604,37.8626,2.0003],[27.2568,37.8618,2.9461],[27.256,37.8646,0.0],[27.2535,37.8654,0.0],[27.2546,37.8624,0.3484],[27.2521,37.861,8.9835],[27.2496,37.8621,3.4305],[27.2493,37.864,0.0],[27.2465,37.8646,0.0],[27.2488,37.8613,1.4356],[27.2463,37.8587,18.9335],[27.2412,37.8601,0.0],[27.2435,37.8546,5.9801],[27.2421,37.8515,0.0],[27.2426,37.8446,0.0],[27.239,37.8415,8.156],[27.2365,37.8415,1.9381],[27.2354,37.839,4.8129],[27.239,37.834,2.7961],[27.2379,37.8312,0.0],[27.2426,37.8301,0.0],[27.2432,37.8249,0.0],[27.2568,37.8251,0.0],[27.2676,37.8157,0.9261],[27.2696,37.8049,0.0],[27.2665,37.7857,2.6375],[27.2612,37.7665,0.3981],[27.2507,37.7426,1.2215],[27.2407,37.7293,0.9548],[27.234,37.7238,0.3069],[27.2279,37.7212,0.7065],[27.2293,37.7207,1.5336],[27.2235,37.7199,1.4321],[27.2068,37.7082,28.0865],[27.1982,37.7093,0.0],[27.1963,37.7074,11.9541],[27.1926,37.7076,0.0],[27.1896,37.7043,3.5275],[27.184,37.7043,0.0],[27.1807,37.7018,14.5338],[27.1707,37.6993,8.6008],[27.1565,37.6985,2.0173],[27.1496,37.6926,5.8967],[27.1257,37.6901,16.2837],[27.1151,37.6843,25.4231],[27.1115,37.6849,0.0],[27.0993,37.6804,94.8598],[27.0832,37.684,0.0],[27.0726,37.6835,52.0257],[27.0663,37.6865,1.0577],[27.0618,37.6835,31.4685],[27.0476,37.681,2.3228],[27.0454,37.6854,3.0355],[27.041,37.686,0.0],[27.0382,37.6846,2.9151],[27.0365,37.6857,0.0],[27.0365,37.6885,0.0],[27.0312,37.6901,15.3897],[27.0254,37.6879,24.8655],[27.0257,37.6857,41.4405],[27.0154,37.6854,3.5223],[27.0146,37.6801,18.2668],[27.0115,37.6785,12.9896],[27.0101,37.6699,7.9312],[27.0051,37.6682,1.8433],[27.0049,37.6657,0.0],[27.0074,37.6668,0.0],[27.0068,37.6646,0.0],[27.0088,37.6643,0.0],[27.0074,37.6613,7.4369],[27.0029,37.6615,3.924],[27.0029,37.659,14.4283],[27.0063,37.6546,0.0],[27.014,37.6565,2.3769],[27.019,37.6551,0.7786],[27.0132,37.6499,1.1484],[27.0143,37.6471,0.0],[27.0218,37.6474,4.77],[27.0279,37.6499,6.2193],[27.0496,37.6426,0.0],[27.0563,37.6421,19.8652],[27.0574,37.6404,0.0],[27.0715,37.6415,0.0],[27.0774,37.641,6.9621],[27.0793,37.6385,0.0],[27.0838,37.6401,0.0],[27.091,37.6399,0.0],[27.0982,37.6379,14.4781],[27.1054,37.6315,0.0],[27.1243,37.631,0.0065],[27.1318,37.6235,0.0],[27.1385,37.6193,0.0],[27.1393,37.6204,0.0],[27.1385,37.6213,0.0],[27.1332,37.6235,-0.015],[27.1335,37.6265,0.0],[27.139,37.6257,9.4943],[27.1396,37.6232,0.0],[27.1429,37.6224,3.5932],[27.1426,37.6201,0.0],[27.1454,37.6224,2.3808],[27.1518,37.6188,0.3834],[27.1665,37.6165,0.8076],[27.1726,37.6135,0.0],[27.1732,37.6115,0.0],[27.1785,37.6104,-0.0642],[27.179,37.6068,0.0],[27.1838,37.6093,-0.4489],[27.1893,37.6096,-0.2238],[27.1924,37.6076,-0.1604],[27.1918,37.6057,0.0],[27.1965,37.606,0.0],[27.196,37.6037,0.0],[27.1993,37.601,0.0],[27.2029,37.6013,-0.7934],[27.2043,37.5985,-0.0068],[27.2076,37.5982,-0.07],[27.2076,37.5946,0.0],[27.2101,37.5957,-0.727],[27.2118,37.5932,-0.0438],[27.2138,37.5935,-0.1126],[27.2174,37.5907,-0.4046],[27.219,37.5865,-0.4307],[27.2174,37.5829,-0.0369],[27.2138,37.5835,-0.0978],[27.2124,37.5804,0.0],[27.2132,37.5754,-0.4772],[27.2018,37.5768,-0.2785],[27.1929,37.5738,0.0],[27.1899,37.5671,0.0],[27.191,37.5646,0.0],[27.1899,37.5615,0.0],[27.1868,37.5596,-0.1199],[27.1821,37.5593,-0.0363],[27.1818,37.5518,-0.5048],[27.1785,37.5499,-0.2472],[27.1746,37.5551,0.0],[27.1735,37.5493,0.0],[27.176,37.5485,-0.0861],[27.1746,37.5476,-0.1477],[27.1712,37.5493,-0.3806],[27.1729,37.554,0.0],[27.171,37.5535,-0.3568],[27.171,37.559,-0.0315],[27.174,37.5626,-0.0864],[27.1743,37.5618,-0.0655],[27.1735,37.5604,0.0],[27.1757,37.5599,0.0],[27.1754,37.5618,-0.0655],[27.1649,37.5768,0.0143],[27.1649,37.5804,0.0],[27.1615,37.5835,-0.0437],[27.1635,37.5854,0.0],[27.1596,37.5854,-0.1899],[27.1688,37.5651,0.0603],[27.1693,37.5546,0.1513],[27.1663,37.5454,0.0108],[27.1688,37.5399,-0.0183],[27.1679,37.5363,0.0],[27.171,37.5363,0.0],[27.1771,37.5426,-0.1999],[27.1812,37.5418,0.0],[27.1818,37.5465,0.0],[27.1915,37.5457,-0.1645],[27.1921,37.5418,0.0],[27.189,37.5346,-0.2424],[27.186,37.5332,-0.011],[27.1854,37.5351,-0.1949],[27.1832,37.5349,0.0],[27.1876,37.5238,-0.018],[27.1893,37.5229,0.0],[27.1863,37.5199,-0.4897],[27.1863,37.5054,0.0852],[27.1801,37.4829,0.0],[27.1843,37.4882,0.0],[27.1882,37.4882,0.0],[27.1899,37.4912,-0.555],[27.1893,37.5015,0.0],[27.1879,37.5038,0.0852],[27.1896,37.5071,-0.0936],[27.1926,37.5079,0.0],[27.1896,37.5074,-0.0936],[27.1885,37.511,0.0],[27.1938,37.5101,-0.0956],[27.191,37.5129,-0.3932],[27.1918,37.5143,0.0],[27.1887,37.5137,-0.0309],[27.1899,37.5182,-0.654],[27.1921,37.5174,0.0],[27.1924,37.5187,0.0],[27.1876,37.5274,-0.0609],[27.191,37.5282,-0.0006],[27.1946,37.5326,0.0178],[27.196,37.5326,0.0178],[27.196,37.531,0.0],[27.1935,37.5293,-0.0356],[27.1954,37.5268,-0.0016],[27.1965,37.5176,0.0],[27.201,37.5163,-0.0021],[27.201,37.5129,0.0],[27.1988,37.5093,0.0],[27.2018,37.5057,0.0],[27.2007,37.5029,0.0],[27.1985,37.5021,0.0],[27.1979,37.4963,0.0],[27.1996,37.4954,0.0],[27.2024,37.4982,-0.0868],[27.2026,37.4899,0.0287],[27.1818,37.474,0.0],[27.1901,37.4771,-0.063],[27.2035,37.4885,-0.0102],[27.2082,37.4865,0.0],[27.2082,37.484,0.0],[27.2038,37.4801,0.0],[27.2043,37.4787,0.0],[27.2062,37.4807,-0.2544],[27.209,37.4807,0.0],[27.2085,37.4824,0.0273],[27.2124,37.4854,-0.0347],[27.2185,37.4857,-0.3042],[27.2232,37.484,0.0],[27.2226,37.4871,5.6173],[27.2251,37.4879,0.0822],[27.2251,37.484,-0.0845],[27.221,37.4815,0.4717],[27.2204,37.4796,0.3716],[27.2224,37.4771,-0.1676],[27.2257,37.4763,0.0],[27.2276,37.4724,1.8161],[27.2226,37.4646,0.0],[27.2237,37.4624,0.3092],[27.2229,37.4554,4.936],[27.221,37.4546,4.936],[27.221,37.4526,11.0644],[27.2193,37.4549,0.0],[27.2179,37.4535,0.0],[27.221,37.4471,6.6266],[27.2204,37.4379,1.6562],[27.2187,37.4371,0.0],[27.2207,37.4326,2.3929],[27.2193,37.4313,5.7518],[27.2201,37.4251,2.4116],[27.2185,37.4235,0.0],[27.2185,37.4199,0.0],[27.2218,37.4165,1.102],[27.2193,37.4135,1.6511],[27.2201,37.4118,0.0],[27.2237,37.4107,1.811],[27.2243,37.4082,0.0],[27.2285,37.4079,1.4265],[27.2307,37.4057,0.2508],[27.2268,37.401,1.335],[27.224,37.4018,7.7232],[27.219,37.3996,2.8914],[27.2176,37.401,0.0],[27.2162,37.3993,5.8089],[27.2154,37.401,0.6988],[27.2138,37.399,1.6904],[27.2101,37.3999,0.0],[27.209,37.3988,0.0],[27.2096,37.3929,0.0],[27.2149,37.3957,12.6983],[27.2179,37.3924,0.0],[27.2146,37.3918,0.0],[27.2162,37.3887,3.3142],[27.2135,37.3893,0.0],[27.2113,37.3871,0.0],[27.2118,37.3846,1.319],[27.2085,37.381,0.0],[27.2101,37.3771,0.0],[27.2057,37.3749,0.0],[27.2029,37.3713,0.4661],[27.2065,37.3696,3.2323],[27.2076,37.3668,2.987],[27.2038,37.3671,0.0],[27.2054,37.3651,2.5473],[27.2018,37.3629,0.3752],[27.2029,37.3607,1.9048],[27.1929,37.3574,0.0],[27.1915,37.3551,0.0],[27.1924,37.3532,0.1262],[27.1974,37.3532,0.0],[27.2032,37.3507,0.0759],[27.2046,37.3524,0.0],[27.2013,37.354,1.7158],[27.2049,37.354,0.5475],[27.2079,37.3565,1.7519],[27.2093,37.356,0.0],[27.2079,37.354,0.0],[27.2088,37.3524,0.7806],[27.221,37.3546,0.9838],[27.2201,37.3521,0.1035],[27.214,37.3496,0.0],[27.2124,37.3474,0.0],[27.2149,37.3454,0.0],[27.2199,37.3449,0.0],[27.2335,37.3499,1.0835],[27.2296,37.3426,0.6148],[27.2365,37.3418,0.6193],[27.2346,37.3401,0.0],[27.2351,37.3382,0.0],[27.2538,37.3357,0.0],[27.2582,37.3374,1.9577],[27.2618,37.3368,0.8451],[27.2632,37.3382,0.0],[27.2635,37.3435,0.0],[27.2676,37.3429,0.0],[27.2699,37.3465,6.3086],[27.2754,37.3485,0.0],[27.2765,37.3496,0.0],[27.2757,37.3532,0.953],[27.278199999999998,37.3551,1.3969],[27.2854,37.3563,1.6808],[27.2874,37.3563,1.4008],[27.2887,37.3532,0.0],[27.2957,37.3493,1.2836],[27.2999,37.3518,0.0],[27.3085,37.3526,4.2137],[27.3063,37.3515,2.4712],[27.3071,37.3496,0.819],[27.3054,37.3485,3.9319],[27.309,37.3457,1.463],[27.3071,37.344,0.0],[27.3107,37.3438,7.852],[27.3124,37.341,1.3613],[27.314,37.3415,0.0],[27.314,37.3454,2.6999],[27.3165,37.3451,4.0687],[27.316,37.3432,3.2114],[27.3174,37.3421,3.2114],[27.3199,37.3438,12.6239],[27.3232,37.3413,0.0],[27.3304,37.3426,0.782],[27.3335,37.3446,0.0],[27.3338,37.349,0.0],[27.3312,37.3504,3.3263],[27.3312,37.3526,0.0],[27.3293,37.3526,2.0786],[27.3304,37.3554,0.4559],[27.3249,37.3557,0.0],[27.3232,37.3593,1.9682],[27.3204,37.3604,7.2095],[27.3221,37.3707,2.2117],[27.3312,37.3718,0.0],[27.3315,37.3737,2.6603],[27.3285,37.3763,0.0],[27.3293,37.3785,4.9871],[27.3321,37.3785,12.7515],[27.3338,37.376,2.4601],[27.3382,37.3746,0.7602],[27.3376,37.3729,0.943],[27.3343,37.3732,0.0855],[27.3374,37.3707,0.5503],[27.3396,37.3704,0.0],[27.3396,37.3729,1.3352],[27.3415,37.3735,0.0],[27.3424,37.3715,5.3982],[27.341,37.3701,0.0],[27.3438,37.3688,1.5462],[27.354,37.3701,0.0],[27.3568,37.3726,0.9143],[27.3604,37.3724,0.0],[27.3596,37.3754,0.0],[27.3632,37.3807,1.3882],[27.3654,37.3815,0.0],[27.3638,37.3893,0.425],[27.3688,37.3996,0.5793],[27.374,37.4015,0.4163],[27.374,37.4032,0.5317],[27.3776,37.406,1.351],[27.3818,37.4065,0.0],[27.3899,37.411,6.7746],[27.3957,37.409,1.0107],[27.4001,37.4129,0.7612],[27.4149,37.4157,2.9585],[27.4177,37.4268,233.2307],[27.4382,37.4609,268.4427]]],
[[[27.1824,37.5624,-0.0969],[27.181,37.5632,0.0],[27.181,37.5604,0.0],[27.1829,37.5607,-0.3086],[27.1824,37.5624,-0.0969]]],
[[[27.141,37.6104,0.0],[27.1404,37.6138,0.0153],[27.1374,37.6121,0.0],[27.1401,37.606,0.0],[27.1446,37.6029,-0.68],[27.1565,37.5876,0.0],[27.1599,37.5868,0.0],[27.1529,37.5946,-0.004],[27.1529,37.5965,-0.2023],[27.1515,37.5962,-0.2023],[27.1468,37.6015,-0.3504],[27.1454,37.6051,0.0],[27.1424,37.6063,-0.3365],[27.141,37.6104,0.0]]],
[[[27.006,37.6512,3.7752],[27.0063,37.6532,3.3511],[27.0043,37.6532,0.0],[27.0012,37.6521,0.0],[26.9999,37.6493,0.0],[27.0024,37.6485,0.0],[27.006,37.6512,3.7752]]],
[[[27.0157,37.6535,0.0],[27.0135,37.6551,3.3891],[27.0101,37.6543,0.0],[27.0093,37.6526,5.6647],[27.0132,37.6521,4.5214],[27.0157,37.6535,0.0]]],
[[[27.0163,37.6907,0.0],[27.0182,37.6904,0.0],[27.0185,37.6926,0.0],[27.0157,37.6924,0.0],[27.0163,37.6907,0.0]]],
[[[27.4115,37.411,0.8851],[27.4107,37.4135,0.1009],[27.4085,37.4118,0.8961],[27.4079,37.409,0.0],[27.4107,37.409,0.9469],[27.4115,37.411,0.8851]]]]}}