{"type": "Feature","id": "2229","bbox": [27.01149,37.33617,28.90307,38.1062],"geometry": {"type": "MultiPolygon","coordinates": [[[[27.17302,37.57298,0.0],[27.1644,37.58421,0.0],[27.15919,37.58885,0.0],[27.16358,37.59435,0.0],[27.15943,37.59899,0.0],[27.14951,37.59667,-0.0461],[27.15504,37.58735,0.0],[27.16928,37.56476,0.0603],[27.17123,37.56696,-0.2644],[27.1683,37.57022,-0.1143],[27.17189,37.56855,-0.1428],[27.17604,37.56314,0.0],[27.18442,37.5587,-0.6739],[27.17302,37.57298,0.0]]],
[[[28.79052,37.99939,906.8943],[28.77771,38.02884,1356.8241],[28.72221,38.05912,1162.7755],[28.70898,38.08104,1079.3701],[28.69802,38.10382,884.0301],[28.56232,38.1062,1270.2258],[28.4046,38.06122,490.5071],[28.36419,38.05592,477.8152],[28.32461,38.04683,1403.9329],[28.29019,38.03148,1305.3163],[28.25412,38.02006,1138.8755],[28.06106,38.01827,1287.174],[27.82934,37.96905,807.3822],[27.58315,37.9844,552.0253],[27.5323,37.97776,364.2379],[27.41004,37.91433,563.2635],[27.32932,37.88955,264.92],[27.26359,37.88808,16.5831],[27.26183,37.88844,0.0],[27.2618,37.88844,0.0],[27.26043,37.88422,0.0],[27.25554,37.8771,0.0],[27.24252,37.86807,0.0],[27.23911,37.86441,0.0],[27.23715,37.84545,0.0],[27.24334,37.83381,49.0869],[27.2527,37.82526,2.3756],[27.26043,37.81599,0.0],[27.26157,37.80353,0.0],[27.26051,37.78197,0.0],[27.2566,37.75951,0.0],[27.24952,37.74433,0.0],[27.22641,37.72093,0.0],[27.21315,37.71345,0.4781],[27.12721,37.68854,66.3041],[27.10548,37.68627,0.0],[27.03834,37.69013,0.0],[27.02076,37.68627,4.9711],[27.01149,37.66572,53.385],[27.04884,37.65013,312.7335],[27.13624,37.63105,25.3745],[27.19386,37.60102,0.0],[27.20851,37.59687,-0.0411],[27.21217,37.5856,0.0],[27.20932,37.5633,-0.762],[27.20037,37.54755,-0.1507],[27.18458,37.55589,-1.0701],[27.18043,37.54458,-0.0975],[27.18426,37.53876,0.0],[27.18824,37.53449,-0.2424],[27.18458,37.52802,0.0],[27.19044,37.51268,-0.3932],[27.18784,37.49828,-0.0943],[27.1819,37.48334,0.0],[27.17774,37.46654,0.0],[27.18531,37.47411,0.0],[27.19264,37.47866,0.0],[27.19939,37.47858,0.0],[27.20509,37.47272,-0.0272],[27.2225,37.47675,0.0],[27.21746,37.4313,0.0],[27.22625,37.41193,5.0962],[27.22625,37.4051,0.0],[27.22039,37.404,0.0],[27.20509,37.39826,0.0],[27.20948,37.38695,0.0],[27.20753,37.37641,0.0],[27.20069,37.36652,0.0],[27.19077,37.35733,0.0],[27.19858,37.35419,3.5521],[27.20135,37.35228,0.0373],[27.20411,37.35293,0.0822],[27.21192,37.35733,7.4891],[27.21559,37.35415,8.8853],[27.21705,37.35098,0.0],[27.21876,37.3437,0.0],[27.22495,37.34821,6.6264],[27.2317,37.34809,1.8911],[27.23878,37.3439,9.8278],[27.2461,37.33617,0.0],[27.25766,37.34455,14.7271],[27.27149,37.34858,14.0779],[27.33033,37.35163,1.0446],[27.33644,37.3557,0.0],[27.32179,37.36351,0.0],[27.32179,37.37092,2.2117],[27.3462,37.37059,5.641],[27.35646,37.37914,17.2481],[27.36118,37.39216,9.9244],[27.37029,37.4051,8.526],[27.38657,37.41205,5.3054],[27.40345,37.41258,0.0],[27.41541,37.42893,242.3888],[27.46895,37.52192,43.9729],[27.48114,37.53916,162.6975],[27.51246,37.55306,231.7338],[27.54584,37.5545,223.7996],[27.58119,37.53567,707.4558],[27.61964,37.52438,855.3193],[27.70005,37.51495,694.0532],[27.77043,37.4766,1079.3524],[27.81611,37.47084,565.4496],[27.86128,37.47978,532.6509],[27.90727,37.47993,620.9583],[27.94975,37.46242,834.9291],[28.01982,37.45978,892.8545],[28.14136,37.46676,370.5555],[28.18074,37.49236,359.7334],[28.21609,37.54727,694.259],[28.26993,37.57745,1274.2329],[28.34259,37.56538,962.5393],[28.40481,37.52301,1062.0195],[28.47819,37.49167,1013.5388],[28.60893,37.47748,389.7029],[28.60345,37.49234,322.5155],[28.5956,37.50606,513.2704],[28.58526,37.51153,650.2258],[28.57544,37.51464,589.959],[28.56284,37.55298,404.6675],[28.5832,37.58975,773.4481],[28.65306,37.60626,807.5389],[28.73027,37.59835,1207.2593],[28.78329,37.63853,945.1851],[28.83021,37.69106,895.0903],[28.86897,37.69245,1244.1152],[28.89956,37.70966,1852.5131],[28.90307,37.7377,1261.1761],[28.89294,37.76028,1274.4708],[28.82918,37.77051,1772.7773],[28.80789,37.7963,1044.0378],[28.79238,37.8219,843.4472],[28.77057,37.84524,706.4408],[28.77337,37.87107,901.4753],[28.79486,37.88386,606.8622],[28.80427,37.90508,471.6907],[28.78835,37.96523,198.0323],[28.79052,37.99939,906.8943]]]]}
,"properties": {"ISO3166-1-Alpha-3": "TUR","country": "Turkey","fill": "#F0F","name": "Aydin","area_km2": 7942.562,"hist_schema_id": "Elevation0-9000","hist_area_km2": {"0": 597.832,"25": 507.836,"50": 491.528,"75": 409.208,"100": 300.127,"125": 228.149,"150": 204.285,"175": 197.955,"200": 195.273,"225": 182.743,"250": 183.235,"275": 180.22,"300": 162.78,"325": 158.705,"350": 150.133,"375": 143.313,"400": 141.583,"425": 138.586,"450": 144.832,"475": 145.78,"500": 150.023,"525": 147.626,"550": 144.744,"575": 140.332,"600": 134.011,"625": 132.62,"650": 121.962,"675": 114.197,"700": 110.297,"725": 107.107,"750": 102.228,"775": 99.076,"800": 101.352,"825": 96.73,"850": 94.405,"875": 91.407,"900": 86.222,"925": 80.499,"950": 77.565,"975": 71.853,"1000": 66.58,"1025": 63.66,"1050": 57.052,"1075": 53.731,"1100": 51.4,"1125": 47.956,"1150": 46.902,"1175": 42.701,"1200": 40.992,"1225": 40.088,"1250": 37.967,"1275": 35.905,"1300": 32.24,"1325": 31.055,"1350": 27.807,"1375": 26.404,"1400": 22.821,"1425": 22.488,"1450": 18.655,"1475": 16.714,"1500": 14.535,"1525": 13.951,"1550": 12.461,"1575": 9.742,"1600": 7.612,"1625": 5.684,"1650": 5.35,"1675": 3.774,"1700": 3.622,"1725": 2.331,"1750": 1.945,"1775": 2.029,"1800": 1.811,"1825": 0.972,"1850": 0.889,"1875": 0.771,"1900": 0.587,"1925": 0.688,"1950": 0.553,"1975": 0.419,"2000": 0.268,"2025": 0.235,"2050": 0.201,"2075": 0.101,"2100": 0.117,"2125": 0.117,"2175": 0.067,"2250": 0.084}}}