{"type":"Feature","properties":{"GID_2":"TUR.76.2_1","GID_0":"TUR","country":"Turkey","GID_1":"TUR.76_1","province":"Tunceli","NL_NAME_1":"NA","county":"Hozat","VARNAME_2":"NA","NL_NAME_2":"NA","TYPE_2":"District","ENGTYPE_2":"District","CC_2":"NA","HASC_2":"TR.TC.HO","name":"Hozat.county"},
"geometry":{"type": "MultiPolygon","coordinates": [[[[39.1054,39.0735,1504.4843],[39.1162,39.047,1364.4783],[39.1324,39.0212,1271.2542],[39.1455,39.0045,1177.7542],[39.1714,38.9908,1227.7302],[39.2084,38.9775,1353.385],[39.2354,38.9755,1492.0908],[39.2567,38.9785,1265.834],[39.2618,38.9816,1217.3419],[39.2753,38.996,1195.4183],[39.2886,39.0059,1366.2786],[39.325,39.0205,1520.7322],[39.344,39.0228,1687.6359],[39.3839,39.0227,1713.1549],[39.3974,39.0529,1324.6921],[39.3985,39.0992,1434.3131],[39.4022,39.1098,1547.7922],[39.4072,39.1136,1482.1179],[39.4136,39.1154,1387.0062],[39.4463,39.1194,1101.6738],[39.4649,39.1273,1267.4847],[39.4714,39.133,1187.0771],[39.4746,39.1441,1142.5205],[39.4762,39.1785,1377.9294],[39.4867,39.201,1192.2382],[39.4894,39.2205,1310.0923],[39.465,39.2384,1735.3103],[39.4585,39.2408,1857.2063],[39.4483,39.2416,2183.4836],[39.4241,39.2347,1951.9529],[39.393,39.2315,1736.0559],[39.3795,39.2277,1593.377],[39.3613,39.2186,1589.5472],[39.3577,39.2151,1620.5044],[39.3514,39.2031,1599.9586],[39.3468,39.1998,1617.8324],[39.3404,39.1979,1558.8431],[39.318,39.198,1659.0786],[39.2892,39.2071,1732.391],[39.2566,39.2095,1658.4575],[39.228,39.2077,1995.7673],[39.2034,39.1994,1878.6986],[39.1904,39.1978,1772.9375],[39.1841,39.1986,1711.8463],[39.1785,39.2012,1855.2982],[39.1739,39.2083,1852.0789],[39.1729,39.2194,1508.9531],[39.1741,39.2441,1807.0144],[39.1961,39.2603,1734.2427],[39.1994,39.2669,1728.0601],[39.1978,39.2718,1722.8839],[39.1939,39.2755,1803.304],[39.1829,39.2788,1818.7603],[39.1746,39.2775,1882.2002],[39.1668,39.2729,1834.5457],[39.1607,39.2642,1681.3413],[39.1592,39.2557,1529.297],[39.1485,39.249,1586.4766],[39.1132,39.2343,1790.1924],[39.0754,39.2216,1539.9692],[39.0559,39.2205,1763.7428],[39.0364,39.2214,1803.6816],[39.0252,39.2234,1926.2859],[39.0041,39.2305,2046.8877],[38.9789,39.2326,2096.0522],[38.9653,39.2402,2065.967],[38.9489,39.2442,2079.895],[38.954,39.2315,2464.9756],[38.976,39.2083,2077.1709],[38.9977,39.1728,1932.2782],[39.0108,39.156,1690.7731],[39.0342,39.1424,1681.4084],[39.0553,39.1264,1655.7579],[39.0642,39.1176,1680.7454],[39.0752,39.101,1611.9395],[39.1054,39.0735,1504.4843]]]]}}