{"type":"Feature","properties":{"GID_2":"TUR.65.9_1","GID_0":"TUR","country":"Turkey","GID_1":"TUR.65_1","province":"Rize","NL_NAME_1":"NA","county":"İyidere","VARNAME_2":"NA","NL_NAME_2":"NA","TYPE_2":"District","ENGTYPE_2":"District","CC_2":"NA","HASC_2":"TR.RI.IY","name":"İyidere.county"},
"geometry":{"type": "MultiPolygon","coordinates": [[[[40.3994,41.026,0.3437],[40.3826,41.0254,9.568],[40.3726,41.0193,15.0617],[40.3685,41.019,0.0],[40.3685,41.0171,0.0],[40.3632,41.0146,0.697],[40.359,41.0146,0.0],[40.3571,41.0115,3.8978],[40.3518,41.0096,0.5199],[40.3349,40.9952,3.5837],[40.3662,40.9852,212.5957],[40.3792,40.9773,124.3143],[40.3897,40.9673,83.203],[40.3943,40.9545,201.524],[40.4093,40.9545,112.0811],[40.4466,40.9811,201.4476],[40.3994,41.026,0.3437]]]]}}