{"type":"Feature","properties":{"GID_2":"TUR.59.10_1","GID_0":"TUR","country":"Turkey","GID_1":"TUR.59_1","province":"Mugla","NL_NAME_1":"NA","county":"Ortaca","VARNAME_2":"NA","NL_NAME_2":"NA","TYPE_2":"District","ENGTYPE_2":"District","CC_2":"NA","HASC_2":"TR.MG.OR","name":"Ortaca.county"},
"geometry":{"type": "MultiPolygon","coordinates": [[[[28.6982,36.6946,13.4997],[28.6924,36.6943,16.58],[28.6904,36.6921,0.0],[28.6921,36.691,0.0],[28.694,36.6926,23.2631],[28.6982,36.6926,12.6064],[28.6982,36.6946,13.4997]]],
[[[28.7921,36.7836,14.2014],[28.7925,36.8442,51.7037],[28.7697,36.842,28.8405],[28.7516,36.8435,24.2388],[28.7418,36.8472,21.1146],[28.7158,36.8631,120.8921],[28.6862,36.8751,6.1122],[28.6721,36.8769,4.0046],[28.6545,36.8737,0.0972],[28.6401,36.8646,0.2561],[28.633,36.8579,-1.0],[28.6144,36.8294,41.9418],[28.6097,36.8182,-1.0],[28.6126,36.7976,-0.4483],[28.619,36.794,0.3178],[28.6212,36.7951,-0.5],[28.6218,36.7907,0.0],[28.6299,36.7824,0.1031],[28.631,36.7782,-0.4802],[28.629,36.7735,40.5391],[28.6171,36.7715,8.603],[28.6135,36.7665,15.0143],[28.6129,36.764,16.7976],[28.6154,36.7613,10.1883],[28.6129,36.7593,1.0509],[28.619,36.7565,0.0],[28.6335,36.7574,1.687],[28.6329,36.7549,19.7456],[28.6274,36.7537,35.2458],[28.6254,36.7526,2.1031],[28.626,36.7501,31.0315],[28.6232,36.7499,16.9503],[28.6224,36.7446,93.9236],[28.6193,36.744,0.0],[28.6204,36.741,15.3376],[28.6121,36.7401,17.528],[28.6104,36.7385,3.01],[28.6113,36.7357,0.0],[28.6076,36.7351,0.0],[28.6071,36.7337,0.0],[28.6096,36.7313,2.6043],[28.6135,36.7329,0.0],[28.6151,36.7354,0.0],[28.6185,36.7351,13.0353],[28.6188,36.7299,0.0],[28.6243,36.7276,30.9631],[28.621,36.7254,0.0],[28.6207,36.7224,0.0],[28.6232,36.7212,11.9078],[28.6235,36.7174,11.8713],[28.6212,36.7157,11.5681],[28.6168,36.7157,6.0872],[28.6151,36.7137,4.2512],[28.6176,36.7038,0.0],[28.6268,36.6982,0.0],[28.6299,36.7001,13.8946],[28.6329,36.6999,0.0],[28.6332,36.7015,0.0],[28.6371,36.7035,0.0],[28.6363,36.7062,169.095],[28.644,36.7176,82.5052],[28.6463,36.7176,0.0],[28.6457,36.7218,0.0],[28.6479,36.7218,0.0],[28.651,36.7182,0.0],[28.656,36.7171,26.1916],[28.6543,36.7165,0.0],[28.6543,36.7135,0.0],[28.666,36.7163,188.6431],[28.6649,36.7124,0.0],[28.6665,36.7074,21.6286],[28.6724,36.7074,11.9904],[28.6738,36.706,52.8145],[28.6718,36.7001,5.5427],[28.6735,36.6971,0.0],[28.6693,36.6954,0.0],[28.6701,36.6915,0.0],[28.6776,36.6929,3.4731],[28.6793,36.6954,10.0794],[28.6901,36.6971,2.5222],[28.6899,36.699,25.8487],[28.6921,36.7007,48.7617],[28.7065,36.7038,18.5244],[28.7088,36.7029,0.0],[28.7104,36.7057,1.3218],[28.7246,36.7062,1.5165],[28.7274,36.7049,0.0849],[28.7257,36.7093,3.2322],[28.7274,36.7118,0.6652],[28.7279,36.711,0.6652],[28.7265,36.7096,3.2322],[28.7271,36.7074,1.3217],[28.7324,36.7032,0.0],[28.7382,36.7035,0.4114],[28.7629,36.6963,2.0345],[28.7733,36.715,3.7349],[28.7796,36.7447,5.8283],[28.7904,36.7675,11.3838],[28.7921,36.7836,14.2014]]]]}}