{"type": "Feature","bbox": [34.8921,41.0047,35.7174,41.3759],"geometry": {"type": "MultiPolygon","coordinates": [[[[35.2968,41.0436,1458.8879],[35.329,41.038,1470.0793],[35.3539,41.03,1382.7555],[35.3886,41.026,1451.9],[35.4137,41.0183,1521.4617],[35.4752,41.0152,992.2792],[35.4854,41.0123,1045.7388],[35.4989,41.0047,1153.4446],[35.5278,41.0274,708.1815],[35.5422,41.0359,631.4495],[35.5524,41.0386,651.0864],[35.5878,41.0419,670.569],[35.6105,41.0511,715.7378],[35.6175,41.0558,700.8231],[35.6313,41.0753,622.6293],[35.6336,41.0835,625.7548],[35.6366,41.1174,506.8105],[35.6457,41.1338,521.9141],[35.6526,41.1549,691.8768],[35.676,41.1919,933.0651],[35.6827,41.2247,922.4106],[35.6962,41.2387,921.391],[35.7174,41.2515,826.8408],[35.7068,41.2713,886.2573],[35.6966,41.2824,1013.2455],[35.6455,41.3226,721.8048],[35.6338,41.3287,567.2795],[35.6233,41.3307,358.7714],[35.609,41.3298,420.9261],[35.5995,41.3263,298.4637],[35.5806,41.311,352.1525],[35.5715,41.2968,291.3515],[35.5612,41.2868,424.3446],[35.5511,41.28,489.8893],[35.5285,41.2742,260.8282],[35.5015,41.2716,178.0],[35.4833,41.2727,178.0],[35.477,41.2748,178.0],[35.4709,41.2811,178.0],[35.4676,41.3002,399.0912],[35.4641,41.3081,344.6344],[35.4559,41.3162,271.9685],[35.441,41.3255,398.8902],[35.4285,41.3088,358.3499],[35.4204,41.2943,279.7325],[35.4055,41.2755,385.001],[35.3814,41.2638,336.3447],[35.3481,41.2515,200.5656],[35.3303,41.2491,206.6292],[35.2973,41.2503,238.5561],[35.2692,41.2589,334.4174],[35.2375,41.2618,179.5],[35.2308,41.2635,179.5],[35.2204,41.2697,214.483],[35.205,41.29,429.0328],[35.1739,41.3179,185.0245],[35.1643,41.3324,411.4254],[35.1445,41.3531,382.1075],[35.1356,41.3672,198.8991],[35.1232,41.375,182.7437],[35.113,41.3759,431.2098],[35.1037,41.3735,595.2787],[34.9371,41.3076,315.0],[34.9183,41.2858,437.6753],[34.9076,41.2694,425.9025],[34.8921,41.2537,343.905],[34.9221,41.2303,1303.1926],[34.9406,41.202,1314.8792],[34.9462,41.1835,1239.3792],[34.9571,41.1615,1209.8499],[34.9603,41.1135,1631.6221],[34.9753,41.0874,1386.0898],[34.9868,41.0782,1416.4475],[35.0038,41.0746,1356.504],[35.0254,41.0756,1281.842],[35.0533,41.0845,1258.8616],[35.0932,41.0905,1067.5208],[35.1188,41.0848,1162.2258],[35.1472,41.076,1042.5175],[35.2088,41.0731,1173.9534],[35.2836,41.0453,1426.65],[35.2968,41.0436,1458.8879]]]]}
,"properties": {"GID_2": "TUR.67.14_1","GID_0": "TUR","country": "Turkey","GID_1": "TUR.67_1","province": "Samsun","NL_NAME_1": "NA","county": "Vezirköprü","VARNAME_2": "NA","NL_NAME_2": "NA","TYPE_2": "District","ENGTYPE_2": "District","CC_2": "NA","HASC_2": "TR.SS.VE","name": "Vezirköprü.county","area_km2": 1697.09,"hist_schema_id": "Elevation0-9000","hist_area_km2": {"175": 68.234,"200": 23.309,"225": 28.221,"250": 32.514,"275": 41.501,"300": 44.729,"325": 58.025,"350": 49.247,"375": 50.462,"400": 53.24,"425": 48.995,"450": 46.89,"475": 48.089,"500": 49.305,"525": 50.613,"550": 47.824,"575": 44.076,"600": 43.008,"625": 45.485,"650": 46.192,"675": 45.203,"700": 44.207,"725": 39.303,"750": 38.341,"775": 38.088,"800": 37.433,"825": 34.894,"850": 33.12,"875": 34.893,"900": 35.29,"925": 35.272,"950": 34.313,"975": 32.021,"1000": 26.856,"1025": 21.483,"1050": 19.873,"1075": 19.094,"1100": 16.225,"1125": 13.786,"1150": 12.811,"1175": 13.45,"1200": 13.449,"1225": 12.316,"1250": 12.603,"1275": 11.644,"1300": 11.341,"1325": 10.479,"1350": 9.249,"1375": 9.392,"1400": 8.308,"1425": 7.685,"1450": 6.455,"1475": 5.656,"1500": 4.585,"1525": 3.259,"1550": 3.706,"1575": 3.45,"1600": 3.498,"1625": 3.785,"1650": 2.539,"1675": 2.619,"1700": 2.076,"1725": 1.661,"1750": 1.086,"1775": 0.335}}}