{"type":"Feature","properties":{"GID_2":"TUR.40.1_1","GID_0":"TUR","country":"Turkey","GID_1":"TUR.40_1","province":"Istanbul","NL_NAME_1":"NA","county":"Adalar","VARNAME_2":"NA","NL_NAME_2":"NA","TYPE_2":"District","ENGTYPE_2":"District","CC_2":"NA","HASC_2":"TR.IB.AD","name":"Adalar.county"},
"geometry":{"type": "MultiPolygon","coordinates": [[[[29.1143,40.8176,0.0],[29.114,40.8207,0.0],[29.1104,40.8204,0.0],[29.1126,40.8176,0.0],[29.1143,40.8176,0.0]]],
[[[29.144,40.8543,4.9376],[29.1435,40.856,0.0],[29.1404,40.8504,0.0],[29.1449,40.8465,0.0],[29.1485,40.8462,0.0],[29.1482,40.8496,0.0],[29.144,40.8543,4.9376]]],
[[[29.1304,40.8751,6.1479],[29.1279,40.8757,0.0],[29.1218,40.8724,0.0],[29.1151,40.8713,0.0],[29.1143,40.8624,11.448],[29.1068,40.861,0.0],[29.1124,40.8596,12.395],[29.1096,40.8532,0.0],[29.1143,40.8457,56.4205],[29.1099,40.8415,0.0],[29.1129,40.8385,0.0],[29.1243,40.8368,0.0],[29.1257,40.8393,0.0],[29.1251,40.844,2.2902],[29.1271,40.8468,0.0],[29.1262,40.8571,19.1325],[29.1318,40.8599,0.0],[29.1396,40.8699,0.0],[29.1396,40.8726,0.0],[29.1371,40.8732,1.5241],[29.1374,40.8743,0.0],[29.1304,40.8751,6.1479]]],
[[[29.0974,40.8849,9.1197],[29.0929,40.8851,4.0232],[29.0885,40.8832,0.5726],[29.0899,40.8807,3.0234],[29.0874,40.8788,6.8136],[29.0754,40.874,0.0],[29.0749,40.8679,0.0],[29.0838,40.8671,0.0],[29.0829,40.8701,17.8496],[29.0863,40.8715,0.0],[29.0879,40.8707,6.2124],[29.0871,40.8685,0.0],[29.0901,40.8679,0.0],[29.0999,40.8701,0.0],[29.1043,40.8729,0.0],[29.0974,40.8849,9.1197]]],
[[[28.9962,40.866,0.0],[28.9901,40.866,0.0],[28.9912,40.8621,0.0],[28.9957,40.8635,0.0],[28.9962,40.866,0.0]]],
[[[28.974,40.8765,1.3154],[28.9718,40.8771,0.0],[28.969,40.8746,0.0],[28.9699,40.8735,0.0],[28.9746,40.874,0.0],[28.974,40.8765,1.3154]]],
[[[29.0607,40.8863,0.0],[29.0549,40.8865,0.0],[29.0568,40.8832,9.8331],[29.0526,40.8774,17.2055],[29.0635,40.8726,0.0],[29.0682,40.8749,5.5485],[29.0724,40.8799,0.2285],[29.0707,40.8799,2.1948],[29.0704,40.8832,0.0],[29.0682,40.8851,19.4983],[29.0607,40.8863,0.0]]],
[[[29.0782,40.886,0.0],[29.076,40.8851,0.0],[29.0765,40.8812,0.0],[29.0799,40.884,0.0],[29.0782,40.886,0.0]]],
[[[29.0521,40.9143,0.936],[29.039,40.9124,0.0],[29.0401,40.9085,0.0],[29.0454,40.9051,2.5845],[29.0451,40.9021,3.3411],[29.0543,40.9029,0.0],[29.0579,40.9063,0.6474],[29.0565,40.9107,0.0],[29.0521,40.9143,0.936]]]]}}