{"type": "Feature","bbox": [28.3713,36.7857,29.0634,37.2068],"geometry": {"type": "MultiPolygon","coordinates": [[[[28.599,36.7974,1.7227],[28.5965,36.7974,1.321],[28.5954,36.7957,0.0],[28.5971,36.7951,0.0],[28.599,36.7974,1.7227]]],
[[[28.4451,36.8646,0.0],[28.444,36.8632,0.0],[28.446,36.8621,11.9032],[28.446,36.8629,11.9032],[28.4451,36.8646,0.0]]],
[[[29.0395,37.1383,1177.4094],[29.033,37.1444,1257.0342],[29.0165,37.1484,1572.4246],[29.003,37.1561,1383.7144],[28.973,37.1794,1251.0789],[28.9594,37.1818,1122.5414],[28.9509,37.1857,930.1089],[28.9388,37.1949,861.1015],[28.9283,37.2068,767.0852],[28.9033,37.183,1180.9116],[28.8851,37.1715,1434.7324],[28.8742,37.1685,1482.1815],[28.7713,37.1669,1006.694],[28.7025,37.1455,899.8562],[28.6296,37.1448,1013.3055],[28.6107,37.1414,664.0519],[28.5917,37.1295,437.9491],[28.5715,37.1112,736.8129],[28.5494,37.0758,424.6426],[28.5267,37.0529,216.931],[28.5009,37.0136,84.8859],[28.4908,37.007,88.2132],[28.4396,36.9872,238.8548],[28.4167,36.9705,327.6204],[28.4079,36.9622,517.4431],[28.3946,36.9379,565.9014],[28.3767,36.9139,518.0724],[28.373,36.905,767.0052],[28.3713,36.8892,562.9833],[28.3714,36.8521,312.4678],[28.3832,36.8479,4.1084],[28.3888,36.8529,6.0468],[28.3951,36.8526,3.3239],[28.3965,36.8596,0.0],[28.4029,36.8665,0.0],[28.4076,36.8654,0.0],[28.4079,36.8626,0.0],[28.4054,36.8607,0.0],[28.4074,36.854,0.0],[28.4204,36.8557,18.501],[28.4221,36.8579,1.3711],[28.4257,36.8576,7.8345],[28.4274,36.8601,0.0],[28.4301,36.8601,2.2587],[28.4329,36.8576,0.0],[28.4357,36.8621,81.1018],[28.4387,36.8635,0.0],[28.4399,36.8665,0.0],[28.4446,36.8654,0.0],[28.4443,36.8743,8.464],[28.446,36.8807,3.2078],[28.4557,36.8793,4.3285],[28.4588,36.8768,0.3418],[28.4593,36.8729,0.2217],[28.454,36.8701,0.0],[28.4554,36.8674,0.0],[28.4679,36.8662,4.1526],[28.4676,36.8626,0.0],[28.4693,36.8615,2.3127],[28.4665,36.8596,0.0],[28.4685,36.8554,5.8134],[28.4654,36.8515,29.8534],[28.4543,36.8524,0.0],[28.4529,36.8485,10.8617],[28.451,36.8474,0.0],[28.4518,36.8432,3.6698],[28.4562,36.8413,16.9443],[28.456,36.8374,13.1782],[28.4504,36.8371,0.0],[28.4513,36.8343,0.0],[28.4499,36.8321,9.4005],[28.4551,36.829,2.4924],[28.4513,36.824,0.0],[28.4565,36.8229,15.7471],[28.4565,36.8185,5.7186],[28.4588,36.8174,43.0946],[28.4621,36.8112,0.0],[28.4718,36.8157,80.7335],[28.4746,36.8138,0.0],[28.4799,36.8154,0.0],[28.4835,36.8138,0.0],[28.4829,36.8157,1.2365],[28.486,36.8171,24.4993],[28.4899,36.816,0.0],[28.4982,36.8179,0.0],[28.5021,36.8146,0.1029],[28.5024,36.8124,0.0],[28.499,36.8118,19.5816],[28.4999,36.8082,22.1838],[28.4951,36.8074,0.0],[28.4949,36.8032,14.9012],[28.489,36.8021,0.0],[28.4896,36.799,0.0],[28.4985,36.7982,0.0],[28.4982,36.7943,0.0],[28.5029,36.7904,0.0],[28.5079,36.7938,0.0],[28.511,36.7993,35.8315],[28.5182,36.7999,13.7823],[28.521,36.7957,0.0],[28.5187,36.794,0.0],[28.5187,36.7921,10.0597],[28.5213,36.7907,0.0],[28.5204,36.789,0.0],[28.5226,36.7885,0.0],[28.5257,36.7904,16.0986],[28.529,36.7893,17.7197],[28.5324,36.7857,7.9879],[28.5376,36.786,26.8519],[28.5415,36.7882,22.9709],[28.5418,36.7954,24.2041],[28.5401,36.7968,2.6545],[28.536,36.7962,2.7095],[28.5343,36.7999,0.0],[28.5293,36.8001,23.7064],[28.531,36.8051,8.443],[28.529,36.8057,4.8963],[28.5293,36.8079,17.4901],[28.5396,36.8124,65.4189],[28.5443,36.8112,0.0],[28.5485,36.814,12.062],[28.5496,36.8165,18.5499],[28.5471,36.8168,77.5182],[28.546,36.8196,7.4233],[28.5471,36.8215,1.6759],[28.5501,36.8221,52.0777],[28.5493,36.8304,6.0158],[28.5551,36.8324,3.4821],[28.5585,36.8321,18.8155],[28.561,36.8271,25.2156],[28.5649,36.8262,13.8899],[28.5657,36.8224,0.0],[28.5626,36.8218,41.1817],[28.5635,36.8193,9.349],[28.5663,36.8193,7.7306],[28.5715,36.816,3.7972],[28.5768,36.8176,12.5888],[28.5782,36.8163,0.0],[28.5843,36.8168,0.0],[28.5876,36.8154,29.1145],[28.5957,36.8063,48.0812],[28.594,36.7985,0.0],[28.5976,36.799,0.0],[28.5987,36.8018,5.7869],[28.6021,36.8013,0.0],[28.6024,36.8032,5.4142],[28.6112,36.801,-0.5],[28.6097,36.8182,-1.0],[28.6144,36.8294,41.9418],[28.6291,36.853,-0.1879],[28.6401,36.8646,0.2561],[28.6579,36.875,1.2306],[28.6721,36.8769,4.0046],[28.6892,36.874,5.4024],[28.7158,36.8631,120.8921],[28.7418,36.8472,21.1146],[28.7516,36.8435,24.2388],[28.7697,36.842,28.8405],[28.7925,36.8442,51.7037],[28.8178,36.8603,54.0],[28.8388,36.8687,374.3258],[28.8656,36.8848,291.2275],[28.8867,36.8934,110.4388],[28.923,36.9183,267.4199],[28.95,36.93,392.359],[28.9844,36.9555,606.8575],[29.0,36.9707,419.2542],[29.0309,37.0195,743.8928],[29.032,37.0268,659.8252],[29.0305,37.0365,727.0601],[29.0207,37.0539,592.808],[29.022,37.0647,845.403],[29.0389,37.0896,808.6438],[29.0488,37.0968,1007.2576],[29.0634,37.1044,857.3254],[29.0395,37.1383,1177.4094]]]]}
,"properties": {"GID_2": "TUR.59.6_1","GID_0": "TUR","country": "Turkey","GID_1": "TUR.59_1","province": "Mugla","NL_NAME_1": "NA","county": "Köyceğiz","VARNAME_2": "NA","NL_NAME_2": "NA","TYPE_2": "District","ENGTYPE_2": "District","CC_2": "NA","HASC_2": "TR.MG.KO","name": "Köyceğiz.county","area_km2": 1612.78,"hist_schema_id": "Elevation0-9000","hist_area_km2": {"0": 126.655,"25": 52.294,"50": 35.227,"75": 35.677,"100": 41.501,"125": 37.623,"150": 38.352,"175": 41.117,"200": 35.457,"225": 28.796,"250": 26.933,"275": 25.017,"300": 24.895,"325": 24.199,"350": 24.349,"375": 24.991,"400": 24.937,"425": 24.53,"450": 24.461,"475": 24.206,"500": 23.223,"525": 23.155,"550": 26.019,"575": 27.372,"600": 28.846,"625": 26.289,"650": 24.847,"675": 21.932,"700": 19.186,"725": 18.573,"750": 18.843,"775": 18.555,"800": 18.011,"825": 15.539,"850": 14.81,"875": 14.03,"900": 13.673,"925": 14.214,"950": 16.7,"975": 15.751,"1000": 16.765,"1025": 17.848,"1050": 18.051,"1075": 18.287,"1100": 17.915,"1125": 16.747,"1150": 17.778,"1175": 16.492,"1200": 16.963,"1225": 17.86,"1250": 19.162,"1275": 21.495,"1300": 22.086,"1325": 24.773,"1350": 23.471,"1375": 22.811,"1400": 19.108,"1425": 17.57,"1450": 14.052,"1475": 13.765,"1500": 12.141,"1525": 10.349,"1550": 8.946,"1575": 8.168,"1600": 8.202,"1625": 7.39,"1650": 7.018,"1675": 6.596,"1700": 5.818,"1725": 5.564,"1750": 4.956,"1775": 4.178,"1800": 4.06,"1825": 3.552,"1850": 3.688,"1875": 2.926,"1900": 2.571,"1925": 2.148,"1950": 1.827,"1975": 1.624,"2000": 1.201,"2025": 1.133,"2050": 0.727,"2075": 0.643,"2100": 0.592,"2125": 0.474,"2150": 0.474,"2175": 0.491,"2200": 0.338,"2225": 0.727,"2250": 0.321,"2275": 0.152}}}