{"type":"Feature","properties":{"GID_1":"TUR.2_1","GID_0":"TUR","country":"Turkey","province":"Adiyaman","VARNAME_1":"Adıyaman","NL_NAME_1":"NA","TYPE_1":"Il","ENGTYPE_1":"Province","CC_1":"NA","HASC_1":"TR.AD","ISO_1":"TR-02","name":"Adiyaman.province"},
"geometry":{"type": "MultiPolygon","coordinates": [[[[38.1033,37.9024,1311.4041],[38.0885,37.8971,1278.6052],[38.0582,37.8909,1374.2993],[37.9803,37.861,1545.9089],[37.9626,37.8605,1738.3945],[37.9557,37.8618,1830.5599],[37.9382,37.8683,2307.6465],[37.9145,37.8731,2309.0554],[37.8862,37.882,1753.6775],[37.8357,37.8828,1175.6648],[37.8244,37.8815,907.5436],[37.803,37.8743,857.7426],[37.7792,37.87,846.1498],[37.7695,37.8663,795.4299],[37.7582,37.8592,789.1511],[37.7461,37.8487,999.01],[37.7405,37.8416,1108.5997],[37.7373,37.8341,1090.9415],[37.7053,37.8365,888.3881],[37.6716,37.8362,978.9062],[37.6557,37.8338,955.189],[37.6307,37.8263,872.8317],[37.5942,37.8249,899.3051],[37.5778,37.8152,994.8257],[37.5582,37.8087,957.9552],[37.5405,37.7933,1080.6956],[37.5298,37.7769,1359.3325],[37.5213,37.7687,1217.4911],[37.5087,37.7604,1223.408],[37.4971,37.757,1227.8453],[37.4871,37.7445,1279.8322],[37.4804,37.7387,1135.0858],[37.4455,37.7215,1074.7612],[37.4222,37.7033,1035.4926],[37.4166,37.6961,1018.7026],[37.4146,37.6907,1011.0557],[37.4132,37.6794,996.4658],[37.4138,37.6621,953.8041],[37.4166,37.6448,927.6773],[37.4139,37.6302,903.4179],[37.4165,37.6164,996.4028],[37.4265,37.6048,907.9849],[37.4505,37.587,808.3819],[37.4595,37.5824,851.0831],[37.4898,37.5713,987.7371],[37.5322,37.5663,958.7065],[37.5731,37.5505,888.3605],[37.623,37.5121,826.5522],[37.6536,37.5103,995.3113],[37.6791,37.512,848.9244],[37.7599,37.5433,810.6793],[37.7777,37.5456,721.5344],[37.7958,37.5447,713.0264],[37.8058,37.5421,678.5763],[37.8502,37.5247,651.0092],[37.8891,37.5201,688.9412],[37.9103,37.513,671.1419],[37.9342,37.5087,612.7181],[37.9554,37.5015,620.7352],[37.9825,37.4962,623.7957],[38.0006,37.4861,666.5685],[38.0303,37.4627,534.7362],[38.042,37.4512,492.9709],[38.0515,37.4376,380.5],[38.0608,37.4312,381.1457],[38.0898,37.4201,523.1105],[38.1289,37.4149,480.4944],[38.1567,37.4069,461.1855],[38.1739,37.4087,385.931],[38.2073,37.4252,455.0988],[38.2288,37.4338,464.7129],[38.2587,37.4549,416.7866],[38.2704,37.4614,451.3542],[38.3305,37.4844,537.0],[38.359,37.488,537.0],[38.4512,37.4864,537.0],[38.4783,37.4889,537.0],[38.5116,37.5017,537.0],[38.5589,37.5356,537.0],[38.5675,37.5402,537.0],[38.5768,37.5425,537.0],[38.5904,37.5601,537.0],[38.6048,37.5717,537.0],[38.6159,37.5778,537.0],[38.7364,37.6237,537.0],[38.7637,37.6289,537.0],[38.785,37.6357,537.0],[38.8169,37.6382,550.6549],[38.8294,37.6424,537.0],[38.8377,37.6506,537.0],[38.8399,37.6586,551.0059],[38.8382,37.6693,537.0],[38.8293,37.684,543.9817],[38.8288,37.6887,537.0],[38.8307,37.6931,537.0],[38.8531,37.7048,551.0386],[38.9048,37.7248,537.0],[38.9265,37.7373,537.0],[38.9518,37.7491,537.0],[38.9587,37.7579,537.0],[38.9643,37.7761,537.0],[38.9781,37.7954,576.8145],[38.9758,37.8214,537.0],[38.9764,37.8844,650.8234],[38.9801,37.8953,537.0],[38.992,37.9138,677.0114],[39.0021,37.9252,798.1058],[39.0292,37.9483,840.7742],[39.0408,37.965,632.2941],[39.0472,37.9717,570.7794],[39.0734,37.9918,537.8655],[39.1425,38.0197,537.0],[39.1692,38.0291,664.8315],[39.1787,38.0307,537.0],[39.1941,38.0398,668.4814],[39.2101,38.0525,694.6301],[39.2296,38.0835,537.0],[39.234,38.1111,537.0],[39.2412,38.1246,551.7779],[39.246,38.1439,885.0446],[39.2473,38.1583,860.3953],[39.2463,38.1667,900.5116],[39.2408,38.1766,835.7185],[39.2337,38.182,863.3705],[39.205,38.1913,829.1838],[39.193,38.1886,805.1322],[39.1768,38.1785,830.8943],[39.1602,38.1733,746.2642],[39.1327,38.174,1250.2678],[39.1221,38.1779,1175.3763],[39.1117,38.1847,1183.785],[39.1016,38.1742,1434.5248],[39.0901,38.1575,1522.0337],[39.0746,38.145,1502.4529],[39.0655,38.1401,1476.4136],[39.0051,38.1175,1448.4222],[38.9663,38.1129,1490.157],[38.9376,38.1046,1877.2864],[38.8913,38.1014,2058.0103],[38.8699,38.0943,1753.7369],[38.8589,38.0924,1874.604],[38.6435,38.0924,1866.2903],[38.629,38.0953,1775.0267],[38.5724,38.1161,1538.3914],[38.564,38.1223,1632.1707],[38.5625,38.1269,1746.8794],[38.5678,38.1348,1561.9929],[38.5968,38.1476,1243.9563],[38.6196,38.1644,1551.4388],[38.6281,38.1744,1596.0637],[38.6345,38.1992,1447.9298],[38.5849,38.2177,1651.9355],[38.5524,38.2259,1625.2354],[38.5458,38.23,1607.561],[38.5307,38.23,1666.7797],[38.5062,38.2223,1759.0793],[38.4712,38.2182,1806.1851],[38.4495,38.2111,2050.106],[38.3986,38.1996,2030.4103],[38.3625,38.177,1545.5488],[38.2569,38.1365,2167.1104],[38.2244,38.1177,1819.4705],[38.1642,38.0946,1806.8345],[38.1348,38.0894,2140.9556],[38.1378,38.061,1693.5542],[38.1477,38.0417,1452.0615],[38.1528,38.0148,1915.4697],[38.1635,37.9922,1521.1722],[38.1678,37.9682,1815.0516],[38.1785,37.9462,1978.4653],[38.1811,37.919,1748.7416],[38.1486,37.9087,1800.28],[38.1033,37.9024,1311.4041]]]]}}