{"type":"Feature","properties":{"ISO3166-1-Alpha-3":"TUR","country":"Turkey","fill":"#F0F","id":"2281","name":"Adiyaman"},
"geometry":{"type": "Polygon","coordinates": [[[38.6631,38.09817,1705.9886],[38.60346,38.11044,1520.5992],[38.58755,38.11953,1452.2687],[38.57142,38.12594,1498.8853],[38.56388,38.14672,1187.0134],[38.58445,38.15765,1294.8142],[38.62279,38.18658,1593.7319],[38.61866,38.21906,1663.866],[38.56088,38.22844,1575.8688],[38.50094,38.21462,1830.0615],[38.43086,38.21413,1951.4012],[38.3579,38.14902,1639.8079],[38.29495,38.07383,1411.7905],[38.21734,38.04047,1674.4475],[38.19088,38.00081,1295.9056],[38.18922,37.94851,1938.8499],[38.12763,37.90497,1515.9586],[38.04443,37.88875,1629.4376],[38.00949,37.87503,1813.755],[37.97353,37.8657,1695.243],[37.93053,37.87045,2345.2617],[37.88795,37.88097,1753.6775],[37.79597,37.87118,762.4579],[37.7076,37.84203,803.4014],[37.56528,37.82048,906.5016],[37.51702,37.77248,1320.3833],[37.46193,37.73377,1151.1846],[37.42224,37.69413,988.7512],[37.42173,37.63507,872.2527],[37.45707,37.58964,858.9571],[37.5166,37.57218,1047.3743],[37.62512,37.51882,859.3896],[37.7354,37.5367,756.8467],[37.84361,37.53556,632.7357],[37.96144,37.50053,651.9672],[38.03988,37.44598,446.9422],[38.05404,37.43642,380.5],[38.06551,37.43684,426.2025],[38.09445,37.45348,446.1887],[38.1084,37.44089,399.9545],[38.12556,37.43374,466.6248],[38.17021,37.42552,477.7356],[38.17507,37.42257,450.2481],[38.17662,37.41374,388.4524],[38.18013,37.41188,381.0],[38.18571,37.41286,381.0],[38.18829,37.41498,381.0],[38.19005,37.4171,381.0],[38.19315,37.41808,447.4732],[38.19718,37.42361,424.913],[38.19677,37.43575,440.9482],[38.19801,37.44795,385.9203],[38.20679,37.45348,386.466],[38.24989,37.44852,418.5666],[38.26571,37.45441,409.247],[38.27201,37.47642,381.0],[38.28255,37.47694,403.3477],[38.34084,37.49443,542.2963],[38.37226,37.48391,537.0],[38.49484,37.50063,537.0],[38.51541,37.51107,537.0],[38.57535,37.56148,537.0],[38.58796,37.57946,537.0],[38.59737,37.58344,537.0],[38.64563,37.62416,537.0],[38.86846,37.65145,551.7285],[38.81854,37.68085,537.0],[38.80045,37.69698,537.0],[38.82071,37.70669,537.0],[38.82278,37.70447,537.0],[38.83601,37.6947,537.0],[38.84117,37.69243,537.0],[38.84934,37.69328,537.0],[38.85606,37.69563,537.0],[38.86112,37.69811,537.0],[38.86474,37.69925,537.0],[38.86929,37.70307,537.0],[38.87497,37.71039,537.0],[38.88241,37.71486,537.0],[38.89967,37.70617,537.0],[38.90815,37.7062,537.0],[38.91642,37.70902,537.0],[38.92313,37.71351,537.0],[38.89792,37.7356,537.0],[38.88892,37.74085,537.0],[38.90184,37.75271,537.0],[38.9222,37.75604,537.0],[38.94484,37.75692,538.3541],[38.96468,37.76131,537.0],[38.95249,37.77521,537.0],[38.95393,37.80136,537.0],[38.9436,37.80911,537.0],[38.93057,37.80749,537.0],[38.9035,37.79175,537.0],[38.88892,37.78865,545.8921],[38.89781,37.80462,537.0],[38.90846,37.81676,537.0],[38.92138,37.82508,537.0],[38.93678,37.82958,537.0],[38.94546,37.8288,537.0],[38.9653,37.82312,537.0],[38.97088,37.82276,537.0],[38.97791,37.8302,537.0],[38.97915,37.83844,537.0],[38.97615,37.84586,537.0],[38.97088,37.85071,552.2085],[38.98266,37.86544,537.0],[38.98918,37.878,537.0],[38.98845,37.89074,537.0],[38.97832,37.90596,636.9289],[39.02721,37.91797,537.0],[39.04044,37.92518,585.2948],[39.05046,37.9397,577.0873],[39.05563,37.97313,537.0],[39.06028,37.98786,537.0],[39.07227,37.99952,550.6876],[39.08964,38.00696,537.0],[39.14989,38.02073,675.6102],[39.18896,38.04305,571.4249],[39.22492,38.06372,561.0139],[39.23464,38.07607,536.5],[39.22472,38.09029,543.3912],[39.24859,38.13039,537.0],[39.25634,38.1531,754.9763],[39.25262,38.17966,561.2616],[39.22193,38.20503,561.9614],[39.14131,38.17857,989.3622],[39.11485,38.19271,551.4889],[39.06948,38.1515,1460.4747],[39.01563,38.1308,1494.2068],[38.97274,38.12313,1661.5624],[38.93202,38.10729,1953.6606],[38.90515,38.10284,1976.8411],[38.87662,38.10243,1704.432],[38.80324,38.09034,1268.3973],[38.73338,38.09842,1439.5244],[38.6631,38.09817,1705.9886]]]}}