{"type":"Feature","properties":{"GID_2":"TUR.35.1_1","GID_0":"TUR","country":"Turkey","GID_1":"TUR.35_1","province":"Gümüshane","NL_NAME_1":"NA","county":"Kelkit","VARNAME_2":"NA","NL_NAME_2":"NA","TYPE_2":"District","ENGTYPE_2":"District","CC_2":"NA","HASC_2":"TR.GU.KE","name":"Kelkit.county"},
"geometry":{"type": "MultiPolygon","coordinates": [[[[39.7208,40.0503,1945.5137],[39.6879,40.0611,1817.2002],[39.655,40.0791,1953.9017],[39.6127,40.0842,1607.7798],[39.5859,40.0968,1658.9554],[39.5829,40.1011,1722.2449],[39.5766,40.1181,1646.485],[39.5487,40.1623,1607.9604],[39.5376,40.1713,1837.9989],[39.5179,40.18,1992.2935],[39.5097,40.188,2014.2263],[39.5068,40.1959,1862.7632],[39.5061,40.2043,1791.3025],[39.5071,40.2186,1899.5215],[39.5097,40.229,1868.2112],[39.4749,40.2367,1978.903],[39.4448,40.2488,1974.5774],[39.4152,40.2656,1899.9655],[39.3881,40.2711,2037.929],[39.3403,40.2892,1929.0875],[39.3112,40.2935,1936.1384],[39.3128,40.2658,1946.4668],[39.3199,40.2474,1999.5161],[39.3182,40.2387,1822.2205],[39.3053,40.218,1911.3535],[39.2472,40.1722,1547.7112],[39.2407,40.1653,1552.2842],[39.237,40.1574,1573.0594],[39.2354,40.1433,1632.6705],[39.2369,40.1262,1512.0861],[39.2395,40.1182,1457.0758],[39.2482,40.1046,1496.1189],[39.2505,40.0965,1332.7025],[39.2498,40.0855,1410.0112],[39.2463,40.0781,1592.8599],[39.235,40.0638,1749.7599],[39.2234,40.0595,1971.7744],[39.2102,40.0604,1687.3025],[39.19,40.0682,1452.1687],[39.1797,40.0701,1600.9905],[39.1619,40.0687,1782.9558],[39.1504,40.063,1585.0613],[39.1409,40.0554,1758.1569],[39.1338,40.0464,1935.3521],[39.1269,40.0254,2143.6199],[39.1158,40.0125,2420.4084],[39.1157,40.0008,2545.9297],[39.1294,39.9983,2498.199],[39.1596,39.987,2547.2759],[39.1889,39.9696,2416.3887],[39.2345,39.9519,2352.8806],[39.2639,39.9346,2205.5615],[39.3841,39.8877,2154.5503],[39.4143,39.8813,2102.3269],[39.4389,39.8734,2129.0242],[39.4608,39.8722,2344.2366],[39.4792,39.873,2373.7378],[39.5176,39.8834,2343.5686],[39.5434,39.8843,2515.5847],[39.5727,39.8831,2433.1001],[39.6179,39.8853,2154.5854],[39.6463,39.8936,2409.5332],[39.681,39.8976,2395.3728],[39.7064,39.9052,2519.9382],[39.7413,39.9088,2435.5522],[39.751,39.9118,2572.1582],[39.776,39.9235,2395.9749],[39.7848,39.9311,2269.5786],[39.7443,39.9452,2179.2634],[39.7201,39.9568,1932.4663],[39.7049,39.9754,1884.0009],[39.6906,39.9985,2001.6665],[39.6887,40.0062,2032.5073],[39.6906,40.0139,2028.6404],[39.7055,40.0366,2115.3967],[39.7208,40.0503,1945.5137]]]]}}