{"type": "Feature","bbox": [39.6889,39.9311,40.7979,40.5353],"geometry": {"type": "MultiPolygon","coordinates": [[[[39.8397,39.9726,2132.5742],[39.8437,39.9745,2249.9648],[39.8575,39.9927,2021.7241],[39.8735,40.0051,1986.0416],[39.883,40.0096,2174.916],[39.9101,40.0148,1991.4238],[39.931399999999996,40.0217,2037.146],[39.9672,40.0251,1944.6525],[40.0123,40.0365,2079.7422],[40.09,40.0668,2057.2698],[40.1001,40.0692,1992.4742],[40.1218,40.0698,1935.0923],[40.1325,40.0685,1899.8756],[40.1536,40.0611,2051.6816],[40.1806,40.0555,2227.75],[40.2019,40.0483,2225.2837],[40.2637,40.0455,2286.5386],[40.3029,40.0361,2539.5981],[40.3421,40.0329,2626.9736],[40.3636,40.0258,2928.2151],[40.3751,40.0239,2848.3499],[40.4533,40.0228,2545.4521],[40.4774,40.0246,2409.6555],[40.5113,40.0369,2438.0557],[40.5407,40.0542,2216.1069],[40.5791,40.0696,2270.7744],[40.589,40.0803,2284.5796],[40.5984,40.0878,2356.7837],[40.6219,40.098,2220.4004],[40.6461,40.1126,2357.2271],[40.7063,40.1357,2418.5024],[40.7397,40.1426,2694.9146],[40.7641,40.1539,2086.2468],[40.7795,40.1725,2275.7375],[40.7959,40.1981,1994.3474],[40.7977,40.2035,1985.453],[40.7979,40.2145,2150.9893],[40.7924,40.2243,2442.4524],[40.7818,40.2307,2593.187],[40.7678,40.2329,2534.3723],[40.7298,40.2311,2424.1152],[40.7062,40.2332,2228.5696],[40.6689,40.2427,1895.9072],[40.6378,40.2457,2291.3577],[40.6042,40.2574,2551.9719],[40.5926,40.2664,2368.9971],[40.5885,40.2768,2131.7798],[40.5881,40.2908,2092.7444],[40.5783,40.2924,2054.7983],[40.5696,40.296,2224.9551],[40.563,40.3016,2464.3843],[40.5599,40.3066,2488.0776],[40.558,40.3152,2327.8257],[40.5561,40.3421,1882.5785],[40.5466,40.3617,1676.3633],[40.5442,40.3705,1616.6852],[40.5423,40.4206,1638.8436],[40.5398,40.4295,1752.7377],[40.5302,40.449,2098.4421],[40.5269,40.482,2538.0613],[40.5238,40.4901,2415.0605],[40.502,40.5248,2711.3452],[40.4985,40.5353,2725.0884],[40.4835,40.5353,3166.6069],[40.4446,40.5249,3123.0525],[40.3761,40.5229,2925.8784],[40.3356,40.5129,2789.8384],[40.3117,40.5122,2687.8008],[40.2859,40.5144,2744.3782],[40.2631,40.5103,2217.4258],[40.238,40.5023,2146.3198],[40.2261,40.5008,2271.6338],[40.1891,40.5006,2661.613],[40.1695,40.5033,2495.0601],[40.1516,40.5095,2284.9641],[40.1406,40.5115,2160.9812],[40.093,40.5123,2325.3242],[40.0897,40.5017,2592.4678],[40.0802,40.4854,2557.5828],[40.0747,40.4668,2041.8749],[40.0451,40.4202,1775.7119],[40.0345,40.4092,1679.1724],[40.0013,40.3826,1986.1069],[39.9884,40.369,1927.9426],[39.9679,40.3628,1683.3424],[39.9322,40.3593,1922.9941],[39.9109,40.3524,1716.6423],[39.8837,40.3472,1957.007],[39.8713,40.3409,1831.1792],[39.8564,40.328,2024.5975],[39.8404,40.302,1975.3696],[39.8372,40.2913,1989.8817],[39.8372,40.2797,1861.8136],[39.8336,40.2692,1833.923],[39.8234,40.2498,1674.5369],[39.8218,40.2287,1648.75],[39.8222,40.1763,1743.1168],[39.8206,40.1582,1661.1284],[39.8108,40.1387,1818.73],[39.8049,40.1206,1896.7317],[39.7955,40.1102,1888.0819],[39.7687,40.0978,1881.7468],[39.7407,40.0767,1979.5402],[39.7208,40.0503,1945.5137],[39.7055,40.0366,2115.3967],[39.6906,40.0139,2028.6404],[39.6889,40.0089,2032.7313],[39.6906,39.9985,2001.6665],[39.7049,39.9754,1884.0009],[39.7201,39.9568,1932.4663],[39.7443,39.9452,2179.2634],[39.7848,39.9311,2269.5786],[39.7963,39.9358,2297.5815],[39.8102,39.9449,2068.5374],[39.8279,39.9594,1969.5706],[39.8397,39.9726,2132.5742]]]]}
,"properties": {"GID_1": "TUR.15_1","GID_0": "TUR","country": "Turkey","province": "Bayburt","VARNAME_1": "NA","NL_NAME_1": "NA","TYPE_1": "Il","ENGTYPE_1": "Province","CC_1": "NA","HASC_1": "TR.BB","ISO_1": "TR-69","name": "Bayburt.province","area_km2": 3386.857,"hist_schema_id": "Elevation0-9000","hist_area_km2": {"1400": 0.21,"1425": 2.455,"1450": 10.643,"1475": 16.975,"1500": 33.73,"1525": 52.555,"1550": 64.806,"1575": 60.905,"1600": 71.722,"1625": 126.098,"1650": 138.317,"1675": 126.576,"1700": 128.579,"1725": 122.703,"1750": 120.798,"1775": 122.829,"1800": 123.437,"1825": 126.423,"1850": 124.132,"1875": 124.891,"1900": 121.791,"1925": 116.58,"1950": 109.801,"1975": 101.856,"2000": 95.006,"2025": 87.854,"2050": 78.427,"2075": 72.114,"2100": 68.697,"2125": 63.747,"2150": 59.422,"2175": 57.687,"2200": 54.542,"2225": 52.935,"2250": 49.32,"2275": 48.652,"2300": 45.926,"2325": 43.042,"2350": 41.821,"2375": 37.757,"2400": 34.202,"2425": 29.767,"2450": 26.024,"2475": 22.135,"2500": 19.544,"2525": 17.871,"2550": 16.542,"2575": 14.584,"2600": 12.916,"2625": 11.348,"2650": 10.33,"2675": 9.13,"2700": 7.143,"2725": 5.835,"2750": 5.138,"2775": 4.185,"2800": 3.698,"2825": 3.278,"2850": 2.679,"2875": 2.776,"2900": 2.84,"2925": 2.241,"2950": 2.225,"2975": 1.918,"3000": 1.805,"3025": 1.854,"3050": 1.708,"3075": 1.322,"3100": 1.354,"3125": 1.225,"3150": 0.903,"3175": 0.709,"3200": 0.483,"3225": 0.371,"3250": 0.355,"3275": 0.242,"3300": 0.258,"3325": 0.081,"3350": 0.081}}}