{"type":"Feature","properties":{"ISO3166-1-Alpha-3":"TUR","country":"Turkey","fill":"#F0F","id":"3032","name":"Bayburt"},
"geometry":{"type": "Polygon","coordinates": [[[40.18456,40.51042,2511.9714],[40.10167,40.5307,2484.4309],[40.01588,40.53267,2161.3613],[39.97475,40.55026,2356.3391],[39.91377,40.603,1735.7183],[39.88359,40.61181,2277.6863],[39.87656,40.6083,2320.9368],[39.86333,40.59938,2128.8789],[39.86995,40.57494,1831.8022],[39.85465,40.56145,1960.7234],[39.83398,40.56101,1919.6707],[39.86737,40.41358,2125.4922],[39.86003,40.26695,1838.0443],[39.82757,40.2092,1691.7017],[39.81631,40.17698,1810.4812],[39.81145,40.14396,1716.9208],[39.83285,40.07691,1948.1415],[39.86912,40.01482,1909.1542],[39.92328,40.02991,2064.9858],[39.98012,40.0259,2039.4183],[40.03025,40.03032,2151.051],[40.07076,40.05854,2452.9656],[40.11789,40.0727,1976.2805],[40.2814,40.04717,2169.2759],[40.44469,40.03216,2267.3679],[40.48097,40.0366,2189.6665],[40.525,40.06321,2359.8828],[40.56706,40.09453,2181.6001],[40.62308,40.11536,1947.1138],[40.74783,40.14918,2549.2666],[40.77625,40.1761,2210.9814],[40.79981,40.21171,2128.2168],[40.79733,40.23225,2599.7659],[40.73109,40.23705,2354.7075],[40.70246,40.24651,1942.8231],[40.63662,40.2579,2453.1111],[40.57471,40.28382,2259.0776],[40.5497,40.34573,1842.8711],[40.52149,40.48153,2702.8765],[40.48945,40.54213,2936.2583],[40.46919,40.53928,2944.4985],[40.4294,40.52946,2714.9524],[40.32667,40.52996,2834.1401],[40.27675,40.52285,2452.3657],[40.22786,40.51122,2377.8745],[40.18456,40.51042,2511.9714]]]}}