{"type":"Feature","properties":{"GID_2":"TUR.21.12_1","GID_0":"TUR","country":"Turkey","GID_1":"TUR.21_1","province":"Bursa","NL_NAME_1":"NA","county":"Nilüfer","VARNAME_2":"NA","NL_NAME_2":"NA","TYPE_2":"District","ENGTYPE_2":"District","CC_2":"NA","HASC_2":"TR.BU.BN","name":"Nilüfer.county"},
"geometry":{"type": "MultiPolygon","coordinates": [[[[29.0348,40.3646,0.2914],[29.0221,40.3613,13.8178],[29.004,40.3601,8.9954],[28.9882,40.3568,25.4489],[28.9713,40.3568,5.3104],[28.9546,40.3356,103.2219],[28.9455,40.3211,229.798],[28.9362,40.3121,176.0211],[28.9251,40.3044,154.8786],[28.8884,40.2903,96.7817],[28.8463,40.2849,97.5934],[28.8133,40.2672,52.3733],[28.7944,40.2643,48.1088],[28.7709,40.2647,46.394],[28.7559,40.2671,92.5735],[28.731,40.2752,40.953],[28.6962,40.2769,37.0563],[28.673,40.2756,34.2869],[28.654,40.2688,33.4005],[28.6347,40.2582,130.1772],[28.639,40.2523,90.888],[28.6511,40.2441,112.3312],[28.6655,40.2415,79.7337],[28.7191,40.2422,176.5169],[28.7292,40.2411,211.5781],[28.7374,40.2362,183.7114],[28.74,40.2263,95.1938],[28.7358,40.2164,62.9061],[28.7264,40.2092,27.1519],[28.6931,40.1973,16.0921],[28.6625,40.1909,52.579],[28.6504,40.184,3.1431],[28.6303,40.1681,2.5],[28.6662,40.1568,2.5],[28.6841,40.1445,2.5],[28.6919,40.1359,109.2455],[28.7067,40.1125,433.0001],[28.715699999999998,40.0897,467.7126],[28.8809,40.0894,863.8391],[28.893,40.1031,756.9516],[28.9129,40.1215,485.9552],[28.9259,40.1395,493.8305],[28.9359,40.146,547.1984],[28.9567,40.1546,421.6307],[28.9748,40.1673,200.2316],[28.9883,40.1795,172.6123],[28.9988,40.1962,129.9646],[29.0093,40.2063,118.9421],[29.0168,40.2111,104.3822],[29.0254,40.2138,98.2646],[29.0448,40.2115,98.1046],[29.053,40.2209,90.7224],[29.0646,40.2462,89.0159],[29.0767,40.2486,89.112],[29.0934,40.2546,96.2164],[29.1137,40.2748,125.0839],[29.1313,40.2852,192.3535],[29.1706,40.2892,452.5188],[29.195,40.2939,524.6225],[29.1864,40.3129,324.9834],[29.1753,40.327,366.3017],[29.168,40.332,358.4536],[29.154,40.3344,408.7684],[29.1099,40.3345,238.5757],[29.0901,40.3361,321.9928],[29.0647,40.3437,311.0737],[29.0314,40.3485,175.3418],[29.0167,40.3568,118.8194],[29.0348,40.3646,0.2914]]]]}}