{"type": "Feature","bbox": [35.6025,39.0602,35.8854,39.2994],"geometry": {"type": "MultiPolygon","coordinates": [[[[35.6447,39.0786,1511.1057],[35.6688,39.0658,1304.9854],[35.6797,39.062,1208.5914],[35.6989,39.0602,1276.3752],[35.7348,39.0603,1303.7935],[35.7348,39.1039,1494.5179],[35.7361,39.1122,1431.9791],[35.7398,39.1202,1374.2957],[35.76,39.1405,1525.8142],[35.772,39.1572,1540.9568],[35.7904,39.1753,1512.6266],[35.8168,39.2156,1616.2823],[35.8325,39.2279,1582.9763],[35.8566,39.2384,1545.7924],[35.8638,39.2435,1565.6326],[35.8854,39.2763,1478.0345],[35.8418,39.2839,1611.2583],[35.8126,39.2994,1797.6558],[35.7893,39.2768,1749.8318],[35.7237,39.2258,1889.3376],[35.7071,39.215,2100.1064],[35.6708,39.2015,1631.1111],[35.6541,39.2,1612.9714],[35.6235,39.2001,1659.1963],[35.606,39.1809,1711.3899],[35.6026,39.1737,1616.8794],[35.6025,39.1683,1553.8162],[35.6054,39.161,1711.7759],[35.6175,39.1428,1582.6433],[35.6415,39.1176,1549.5719],[35.6449,39.1039,1550.5828],[35.6447,39.0786,1511.1057]]]]}
,"properties": {"GID_2": "TUR.47.9_1","GID_0": "TUR","country": "Turkey","GID_1": "TUR.47_1","province": "Kayseri","NL_NAME_1": "NA","county": "Özvatan","VARNAME_2": "NA","NL_NAME_2": "NA","TYPE_2": "District","ENGTYPE_2": "District","CC_2": "NA","HASC_2": "TR.KY.OZ","name": "Özvatan.county","area_km2": 262.4813,"hist_schema_id": "Elevation0-9000","hist_area_km2": {"1100": 0.3786,"1125": 0.2634,"1150": 0.428,"1175": 0.5761,"1200": 0.5103,"1225": 0.6089,"1250": 1.1685,"1275": 1.514,"1300": 2.534,"1325": 4.4589,"1350": 5.0015,"1375": 5.6429,"1400": 5.3961,"1425": 6.0211,"1450": 7.7967,"1475": 10.1969,"1500": 13.4854,"1525": 18.3321,"1550": 21.9941,"1575": 20.9711,"1600": 19.1929,"1625": 17.5482,"1650": 14.0654,"1675": 10.9915,"1700": 8.8382,"1725": 7.4903,"1750": 6.4391,"1775": 5.6834,"1800": 4.9275,"1825": 4.0403,"1850": 3.9088,"1875": 3.4816,"1900": 2.9727,"1925": 2.6278,"1950": 2.6278,"1975": 2.3486,"2000": 2.4473,"2025": 1.7082,"2050": 2.0696,"2075": 2.2338,"2100": 2.1024,"2125": 2.0203,"2150": 2.086,"2175": 1.4619,"2200": 1.2319,"2225": 0.5092,"2250": 0.0821,"2275": 0.0657}}}