{"type": "Feature","bbox": [34.3409,41.6623,34.8008,41.9768],"geometry": {"type": "MultiPolygon","coordinates": [[[[34.5993,41.669,1066.308],[34.6099,41.6822,1335.0092],[34.6163,41.6984,1265.7402],[34.6209,41.7017,1312.717],[34.6266,41.7032,1359.2743],[34.6354,41.7026,1239.2244],[34.6407,41.7002,1172.1729],[34.6479,41.6862,1372.3623],[34.6537,41.6812,1433.0498],[34.675,41.6704,1248.2256],[34.7014,41.6623,1296.15],[34.7128,41.6638,1356.2379],[34.754,41.6787,1436.9514],[34.7684,41.6803,1447.0131],[34.7945,41.6801,1253.6735],[34.7942,41.7599,910.6749],[34.7911,41.7725,765.6605],[34.7822,41.7894,647.1453],[34.78,41.8024,849.0375],[34.7796,41.9011,374.1642],[34.7806,41.9144,200.7318],[34.7834,41.9239,282.1349],[34.8008,41.9482,95.5482],[34.7983,41.9549,9.6114],[34.7907,41.9565,0.0],[34.7874,41.9538,1.9484],[34.7851,41.9543,0.0],[34.7818,41.9518,12.5703],[34.7779,41.9512,12.984],[34.7701,41.9535,14.7678],[34.7599,41.9532,6.1516],[34.7463,41.9504,25.3294],[34.7374,41.9468,41.2331],[34.7176,41.9435,2.1384],[34.6993,41.9435,32.8566],[34.6932,41.9471,0.0],[34.6799,41.9432,37.841],[34.6596,41.941,6.4549],[34.6532,41.9426,0.0],[34.6437,41.9412,25.3718],[34.6404,41.9429,0.0],[34.6274,41.9415,51.7944],[34.6037,41.9449,24.8807],[34.6021,41.9471,0.0],[34.5943,41.9499,0.5422],[34.5776,41.9471,0.0],[34.5668,41.949,0.0],[34.5649,41.9471,6.7761],[34.5624,41.9482,1.7186],[34.5588,41.9465,9.6297],[34.5563,41.9487,47.2128],[34.546,41.9493,12.0833],[34.5374,41.9532,15.7238],[34.531,41.9535,49.9472],[34.5257,41.956,0.0],[34.5079,41.9582,46.5637],[34.4999,41.9632,2.5788],[34.4996,41.9657,0.0],[34.5024,41.9679,0.0],[34.5018,41.9712,0.0],[34.4907,41.9768,6.3428],[34.4888,41.9765,0.0],[34.4854,41.9712,6.3464],[34.4813,41.9704,18.7975],[34.481,41.9682,77.463],[34.4768,41.966,4.8667],[34.4688,41.9671,0.0],[34.4579,41.9651,31.3806],[34.4487,41.9657,0.0],[34.4463,41.9635,58.7024],[34.4421,41.9629,10.7523],[34.4393,41.9632,46.254],[34.4379,41.9663,0.0],[34.4343,41.9665,0.0],[34.4263,41.9635,12.8935],[34.4209,41.9362,129.0347],[34.4194,41.9048,136.9844],[34.4221,41.8823,452.1997],[34.4316,41.8638,795.2361],[34.4301,41.8536,946.3718],[34.4131,41.8281,777.7969],[34.3637,41.7872,881.4324],[34.3471,41.7613,1314.3022],[34.3409,41.7411,1344.894],[34.381,41.7377,1317.3082],[34.4056,41.73,1452.1633],[34.4169,41.7281,1450.8575],[34.4737,41.7272,1305.3872],[34.4931,41.7248,1486.5935],[34.5564,41.7003,1274.8923],[34.573,41.6889,1188.2126],[34.589,41.673,1311.5464],[34.5993,41.669,1066.308]]]]}
,"properties": {"GID_2": "TUR.70.1_1","GID_0": "TUR","country": "Turkey","GID_1": "TUR.70_1","province": "Sinop","NL_NAME_1": "NA","county": "Ayancık","VARNAME_2": "NA","NL_NAME_2": "NA","TYPE_2": "District","ENGTYPE_2": "District","CC_2": "NA","HASC_2": "TR.SP.AY","name": "Ayancık.county","area_km2": 911.2309,"hist_schema_id": "Elevation0-9000","hist_area_km2": {"0": 3.2642,"25": 6.2451,"50": 7.3967,"75": 9.3535,"100": 9.3858,"125": 11.5163,"150": 13.0632,"175": 14.4684,"200": 15.6996,"225": 16.7893,"250": 17.894,"275": 18.731,"300": 19.0162,"325": 17.7549,"350": 18.3878,"375": 18.4357,"400": 18.1204,"425": 19.2587,"450": 17.8229,"475": 18.0454,"500": 18.3311,"525": 18.9009,"550": 19.2502,"575": 17.941,"600": 17.6582,"625": 16.508,"650": 15.4828,"675": 15.5156,"700": 15.6596,"725": 15.6296,"750": 15.7572,"775": 15.9159,"800": 16.5333,"825": 16.1709,"850": 17.2308,"875": 17.1838,"900": 16.9635,"925": 18.1661,"950": 18.8468,"975": 18.8638,"1000": 18.1063,"1025": 16.6843,"1050": 16.4166,"1075": 16.6073,"1100": 17.0359,"1125": 16.2457,"1150": 15.9463,"1175": 15.3781,"1200": 13.8601,"1225": 13.4496,"1250": 13.3874,"1275": 12.1377,"1300": 10.5875,"1325": 10.8406,"1350": 10.4136,"1375": 9.9545,"1400": 8.9575,"1425": 7.5805,"1450": 6.3938,"1475": 5.3652,"1500": 5.3968,"1525": 4.9535,"1550": 4.2093,"1575": 3.2597,"1600": 2.2469,"1625": 1.4555,"1650": 0.7119,"1675": 0.3164,"1700": 0.174}}}