{"type": "Feature","bbox": [37.6116,40.3285,38.1557,40.7468],"geometry": {"type": "MultiPolygon","coordinates": [[[[38.1166,40.6118,1661.5828],[38.0822,40.6045,1960.4048],[38.0644,40.5979,1852.0671],[38.0373,40.5925,1527.2286],[38.0196,40.586,1929.241],[38.0055,40.5838,1992.4453],[37.9909,40.5837,2185.554],[37.9767,40.5857,1827.2434],[37.9441,40.5984,2034.0836],[37.9371,40.6038,1971.0403],[37.9323,40.6109,1987.1632],[37.9299,40.6314,1900.0977],[37.9319,40.6675,1552.8707],[37.9346,40.6759,1519.8588],[37.944,40.692,1535.5353],[37.9453,40.7001,1547.1206],[37.9442,40.7083,1467.5879],[37.9414,40.7137,1583.7272],[37.9348,40.7209,1796.4714],[37.901,40.7468,823.4414],[37.8874,40.7442,945.0935],[37.8666,40.7364,595.1987],[37.8371,40.7294,1020.2861],[37.8233,40.7011,908.9073],[37.8065,40.6851,792.2815],[37.7477,40.6401,1435.7864],[37.7372,40.6339,1475.2697],[37.7217,40.6284,1271.0043],[37.711,40.6226,1427.386],[37.6336,40.5634,1331.575],[37.6116,40.5511,1491.7015],[37.6175,40.5295,1446.9008],[37.6277,40.5102,1460.7285],[37.6326,40.4832,1414.5996],[37.6418,40.4665,1534.0135],[37.6479,40.4505,1528.842],[37.6627,40.4219,1602.7917],[37.7073,40.3521,1744.4404],[37.721,40.3412,1715.8596],[37.7477,40.3307,1548.2167],[37.7578,40.3285,1578.1541],[37.7721,40.3286,1717.161],[37.7965,40.3364,1761.4775],[37.8203,40.3408,1749.8633],[37.8298,40.3444,1773.584],[37.8434,40.3533,1829.3928],[37.8844,40.3856,1768.9139],[37.9016,40.3951,2020.7627],[37.9405,40.3995,1885.4596],[37.9685,40.4079,2113.7349],[38.0086,40.4095,1558.6147],[38.0255,40.4141,1623.7496],[38.0395,40.4233,1436.772],[38.1274,40.4918,2525.2817],[38.1557,40.5087,2612.1479],[38.1554,40.5283,2896.1348],[38.148,40.5345,2679.7563],[38.1424,40.5436,2370.4287],[38.1375,40.5593,2047.6791],[38.1281,40.5756,2063.4429],[38.1241,40.5919,1865.8086],[38.1166,40.6118,1661.5828]]]]}
,"properties": {"GID_2": "TUR.63.15_1","GID_0": "TUR","country": "Turkey","GID_1": "TUR.63_1","province": "Ordu","NL_NAME_1": "NA","county": "Mesudiye","VARNAME_2": "NA","NL_NAME_2": "NA","TYPE_2": "District","ENGTYPE_2": "District","CC_2": "NA","HASC_2": "TR.OR.ME","name": "Mesudiye.county","area_km2": 1165.8563,"hist_schema_id": "Elevation0-9000","hist_area_km2": {"325": 0.1125,"350": 0.1285,"375": 0.3214,"400": 0.3535,"425": 0.5303,"450": 0.4339,"475": 0.675,"500": 0.5464,"525": 0.7554,"550": 0.8197,"575": 0.9001,"600": 1.077,"625": 1.3984,"650": 1.6558,"675": 1.5434,"700": 2.0579,"725": 2.573,"750": 2.4441,"775": 3.0397,"800": 3.0075,"825": 2.8467,"850": 3.3613,"875": 5.599,"900": 4.3435,"925": 4.6336,"950": 5.3256,"975": 5.4871,"1000": 6.7757,"1025": 7.372,"1050": 7.776,"1075": 9.4027,"1100": 9.6298,"1125": 11.5322,"1150": 13.8206,"1175": 16.126,"1200": 17.9151,"1225": 19.1748,"1250": 23.0266,"1275": 24.6742,"1300": 25.417,"1325": 27.5303,"1350": 26.7423,"1375": 30.094,"1400": 30.838,"1425": 33.0795,"1450": 32.3345,"1475": 38.7364,"1500": 38.5137,"1525": 40.9208,"1550": 41.0569,"1575": 36.317,"1600": 36.043,"1625": 35.011,"1650": 32.0253,"1675": 31.609,"1700": 32.7758,"1725": 30.0675,"1750": 25.3249,"1775": 19.9458,"1800": 18.3463,"1825": 15.8757,"1850": 14.4386,"1875": 14.7443,"1900": 14.8241,"1925": 15.3715,"1950": 14.3892,"1975": 16.0336,"2000": 17.6752,"2025": 16.9666,"2050": 16.37,"2075": 15.5173,"2100": 13.1986,"2125": 11.1208,"2150": 9.9114,"2175": 9.5247,"2200": 9.0091,"2225": 7.5267,"2250": 6.6404,"2275": 5.9475,"2300": 4.4645,"2325": 4.0132,"2350": 3.175,"2375": 2.7882,"2400": 2.2402,"2425": 2.4659,"2450": 1.7889,"2475": 1.7567,"2500": 1.4828,"2525": 1.3539,"2550": 1.0315,"2575": 0.9349,"2600": 0.8543,"2625": 0.8382,"2650": 0.9671,"2675": 0.677,"2700": 0.7093,"2725": 0.677,"2750": 0.3707,"2775": 0.3062,"2800": 0.3224,"2825": 0.3385,"2850": 0.1612,"2875": 0.2256,"2900": 0.274,"2925": 0.1289,"2950": 0.0806,"2975": 0.1289,"3000": 0.0967,"3025": 0.0806,"3050": 0.0806,"3075": 0.0322}}}