{"type":"Feature","properties":{"GID_2":"TUR.41.7_1","GID_0":"TUR","country":"Turkey","GID_1":"TUR.41_1","province":"Izmir","NL_NAME_1":"NA","county":"Buca","VARNAME_2":"NA","NL_NAME_2":"NA","TYPE_2":"District","ENGTYPE_2":"District","CC_2":"NA","HASC_2":"TR.IZ.BU","name":"Buca.county"},
"geometry":{"type": "MultiPolygon","coordinates": [[[[27.1806,38.3935,142.9046],[27.162,38.3843,81.1471],[27.1577,38.3711,77.3462],[27.1508,38.361,94.9666],[27.1539,38.3542,140.8662],[27.1839,38.336,221.8202],[27.2021,38.3273,247.8389],[27.2134,38.3191,229.0024],[27.2234,38.3104,193.7131],[27.2333,38.2955,231.6329],[27.2429,38.2923,230.1778],[27.2514,38.2916,238.1483],[27.2951,38.3017,263.4503],[27.3241,38.3211,411.4478],[27.3626,38.3218,620.0806],[27.362,38.3322,905.842],[27.3586,38.3447,1096.7974],[27.3395,38.3672,1247.9038],[27.3211,38.3814,788.562],[27.2931,38.3998,1005.7513],[27.2703,38.388,577.0208],[27.2488,38.381,244.4376],[27.1874,38.3804,119.9012],[27.1806,38.3935,142.9046]]]]}}