{"type": "Feature","bbox": [27.2404,37.8913,27.5031,38.032],"geometry": {"type": "MultiPolygon","coordinates": [[[[27.5031,37.9605,310.9096],[27.4777,37.9619,448.6708],[27.4677,37.9655,545.8055],[27.459,37.971,494.2545],[27.4452,37.9845,213.0269],[27.4331,38.0054,110.0589],[27.4308,38.0129,7.9441],[27.4162,38.0167,121.6715],[27.3884,38.0208,431.2288],[27.3592,38.0292,291.0953],[27.3027,38.032,267.0844],[27.2882,38.0256,100.9097],[27.2692,38.0124,225.7885],[27.2543,37.9996,181.6351],[27.2404,37.985,0.136],[27.2418,37.9801,0.0],[27.2485,37.9813,0.1956],[27.2532,37.9776,0.4266],[27.2596,37.9679,0.4839],[27.2615,37.9599,0.0],[27.2707,37.9526,1.0121],[27.2732,37.9487,0.4203],[27.2762,37.9368,0.0],[27.2765,37.9238,0.2485],[27.2754,37.9224,0.0],[27.2663,37.9221,0.0],[27.2632,37.9146,19.1299],[27.2607,37.9126,0.0],[27.2635,37.9121,17.7098],[27.2612,37.9093,0.0],[27.2643,37.9051,0.0],[27.2693,37.906,2.0633],[27.2721,37.9032,0.4641],[27.2724,37.8982,4.2349],[27.2682,37.8965,0.0],[27.2671,37.8937,0.0],[27.2783,37.8915,76.6635],[27.3546,37.8913,354.2452],[27.3665,37.8933,203.4937],[27.4083,37.9078,602.17],[27.4417,37.9161,519.6533],[27.4717,37.9333,400.724],[27.4894,37.9405,404.3403],[27.4942,37.9439,271.4325],[27.5009,37.9527,384.1866],[27.5031,37.9605,310.9096]]]]}
,"properties": {"GID_2": "TUR.41.25_1","GID_0": "TUR","country": "Turkey","GID_1": "TUR.41_1","province": "Izmir","NL_NAME_1": "NA","county": "Selçuk","VARNAME_2": "NA","NL_NAME_2": "NA","TYPE_2": "District","ENGTYPE_2": "District","CC_2": "NA","HASC_2": "TR.IZ.SC","name": "Selçuk.county","area_km2": 238.3787,"hist_schema_id": "Elevation0-9000","hist_area_km2": {"0": 64.3492,"25": 18.2379,"50": 14.3923,"75": 13.1054,"100": 11.2828,"125": 10.2298,"150": 8.5583,"175": 8.2737,"200": 8.2901,"225": 8.0058,"250": 7.6393,"275": 6.8875,"300": 6.4863,"325": 6.4035,"350": 5.735,"375": 5.0834,"400": 5.1501,"425": 4.6817,"450": 4.3811,"475": 4.5987,"500": 3.4448,"525": 2.9599,"550": 2.2407,"575": 1.5052,"600": 1.3045,"625": 1.3547,"650": 1.0704,"675": 0.9199,"700": 0.9868,"725": 0.7693,"750": 0.0502}}}