{"type": "Feature","bbox": [41.9963,41.0853,42.5832,41.5149],"geometry": {"type": "MultiPolygon","coordinates": [[[[42.0644,41.5014,2308.0249],[42.0591,41.4782,1494.8662],[42.0356,41.4412,2104.7107],[42.0299,41.4226,2285.1309],[42.0207,41.4062,2370.3972],[42.0137,41.3852,2337.4265],[41.9963,41.3656,2889.7112],[42.0161,41.3593,2485.7441],[42.0432,41.3461,2027.6328],[42.0581,41.3273,1626.3374],[42.0796,41.292,1255.5846],[42.0934,41.2813,1688.8621],[42.1342,41.2646,1178.1942],[42.1454,41.2566,579.5388],[42.1853,41.2554,751.7742],[42.1989,41.2526,1068.4678],[42.2325,41.2392,1517.8951],[42.2527,41.2248,1325.4728],[42.2687,41.2081,1668.8208],[42.2757,41.1915,1863.1837],[42.2909,41.181,1709.8396],[42.2983,41.173,1675.5059],[42.3016,41.1616,1968.8173],[42.3024,41.1404,2337.6057],[42.3048,41.1286,2565.9573],[42.3172,41.1077,2706.2432],[42.3277,41.0978,2892.3003],[42.3367,41.0942,2849.8477],[42.3722,41.091,2675.1023],[42.3984,41.0853,2629.7722],[42.4036,41.0861,2583.3733],[42.4248,41.1064,2409.6912],[42.4896,41.156,2492.9141],[42.4983,41.1605,2400.2607],[42.5442,41.1773,2244.8738],[42.5574,41.1856,2102.8481],[42.5699,41.1981,2149.5662],[42.5832,41.2264,2370.8315],[42.574,41.236,2474.55],[42.5319,41.3008,2106.4873],[42.5243,41.322,2007.5983],[42.5008,41.3615,2135.1704],[42.4941,41.3826,2498.0481],[42.4848,41.399,2671.0088],[42.4798,41.4212,2129.2505],[42.4728,41.4397,2232.8843],[42.4471,41.4404,2256.7268],[42.4395,41.4429,2324.2246],[42.4297,41.4502,2278.0999],[42.4147,41.4572,2288.6958],[42.4077,41.4666,2195.2729],[42.3712,41.4646,2517.9971],[42.3523,41.4729,2400.6021],[42.334,41.471,2370.929],[42.3252,41.4737,2508.8376],[42.3178,41.4805,2582.8987],[42.3032,41.4857,2505.0098],[42.2888,41.4941,2513.4102],[42.2818,41.4952,2574.6716],[42.2642,41.4931,2568.7339],[42.2498,41.4971,2429.999],[42.2094,41.4957,2650.4841],[42.2039,41.4936,2727.7493],[42.1983,41.5059,2507.218],[42.19,41.5095,2517.2461],[42.1839,41.5145,2477.2014],[42.1714,41.5149,2350.0635],[42.152,41.5093,2234.2568],[42.1204,41.5058,2354.9585],[42.1185,41.5129,2230.9414],[42.1118,41.5138,2323.6226],[42.1021,41.5094,2368.8354],[42.0872,41.5118,2356.3989],[42.079,41.5094,2258.772],[42.0644,41.5014,2308.0249]]]]}
,"properties": {"GID_2": "TUR.10.7_1","GID_0": "TUR","country": "Turkey","GID_1": "TUR.10_1","province": "Artvin","NL_NAME_1": "NA","county": "Şavşat","VARNAME_2": "NA","NL_NAME_2": "NA","TYPE_2": "District","ENGTYPE_2": "District","CC_2": "NA","HASC_2": "TR.AV.SA","name": "Şavşat.county","area_km2": 1325.528,"hist_schema_id": "Elevation0-9000","hist_area_km2": {"575": 0.239,"600": 0.383,"625": 0.542,"650": 1.036,"675": 1.1,"700": 1.546,"725": 1.848,"750": 2.231,"775": 2.677,"800": 3.282,"825": 3.951,"850": 3.807,"875": 4.397,"900": 4.843,"925": 5.862,"950": 6.483,"975": 6.77,"1000": 7.36,"1025": 8.411,"1050": 9.048,"1075": 9.43,"1100": 9.908,"1125": 11.804,"1150": 11.867,"1175": 11.819,"1200": 13.189,"1225": 12.997,"1250": 12.79,"1275": 15.193,"1300": 14.604,"1325": 15.958,"1350": 16.307,"1375": 17.119,"1400": 17.915,"1425": 18.392,"1450": 19.953,"1475": 18.965,"1500": 21.082,"1525": 22.993,"1550": 23.885,"1575": 25.684,"1600": 25.413,"1625": 25.415,"1650": 24.983,"1675": 24.058,"1700": 23.307,"1725": 23.53,"1750": 23.37,"1775": 22.253,"1800": 22.126,"1825": 20.453,"1850": 20.15,"1875": 20.388,"1900": 19.529,"1925": 20.815,"1950": 19.573,"1975": 18.903,"2000": 17.789,"2025": 18.011,"2050": 17.851,"2075": 17.866,"2100": 17.389,"2125": 17.818,"2150": 17.754,"2175": 16.801,"2200": 17.789,"2225": 17.739,"2250": 17.774,"2275": 17.121,"2300": 16.485,"2325": 18.301,"2350": 16.839,"2375": 17.51,"2400": 18.262,"2425": 18.124,"2450": 19.976,"2475": 22.818,"2500": 25.853,"2525": 28.151,"2550": 24.848,"2575": 22.093,"2600": 18.937,"2625": 13.962,"2650": 11.282,"2675": 8.413,"2700": 6.244,"2725": 5.175,"2750": 4.174,"2775": 4.413,"2800": 3.969,"2825": 3.939,"2850": 2.998,"2875": 2.71,"2900": 1.992,"2925": 1.274,"2950": 1.179,"2975": 0.557,"3000": 0.493,"3025": 0.255,"3050": 0.302,"3075": 0.127,"3100": 0.095,"3125": 0.08,"3150": 0.064}}}