{"type": "Feature","bbox": [32.8764,39.9239,33.1355,40.0281],"geometry": {"type": "MultiPolygon","coordinates": [[[[33.0278,40.0124,1164.623],[33.0056,40.025,1142.6672],[32.985,40.0281,1156.5288],[32.9667,40.0263,1143.7064],[32.9269,40.0138,1009.9508],[32.9084,40.0018,981.5151],[32.8938,39.99,924.6385],[32.8764,39.9712,892.6125],[32.8814,39.9584,884.9175],[32.8839,39.9407,885.4731],[32.9109,39.9557,956.1693],[32.9209,39.9574,983.0148],[32.9277,39.9564,1012.0218],[32.9401,39.9485,1065.4338],[32.9487,39.9346,1098.2615],[32.9586,39.9239,1005.4154],[32.972,39.9319,1178.2687],[32.993,39.9406,1059.2291],[33.0169,39.9554,1219.604],[33.0498,39.9685,1129.3042],[33.0676,39.9707,1153.9351],[33.0857,39.9696,1167.0621],[33.0953,39.9668,1109.1277],[33.1064,39.9602,1117.4331],[33.1211,39.9689,1089.205],[33.1355,39.9816,1138.5486],[33.1129,40.0028,1242.5188],[33.0928,40.0147,1213.8271],[33.0786,40.0171,1160.5007],[33.0602,40.0173,1153.1622],[33.0278,40.0124,1164.623]]]]}
,"properties": {"GID_2": "TUR.7.2_1","GID_0": "TUR","country": "Turkey","GID_1": "TUR.7_1","province": "Ankara","NL_NAME_1": "NA","county": "Altındağ","VARNAME_2": "NA","NL_NAME_2": "NA","TYPE_2": "District","ENGTYPE_2": "District","CC_2": "NA","HASC_2": "TR.AN.AL","name": "Altındağ.county","area_km2": 139.3568,"hist_schema_id": "Elevation0-9000","hist_area_km2": {"850": 0.1137,"875": 3.2004,"900": 5.3617,"925": 4.4354,"950": 3.8503,"975": 3.5739,"1000": 4.11,"1025": 4.6623,"1050": 6.4821,"1075": 10.3984,"1100": 13.9405,"1125": 17.774,"1150": 21.0859,"1175": 19.3949,"1200": 11.8422,"1225": 5.6047,"1250": 2.0635,"1275": 0.78,"1300": 0.2925,"1325": 0.1788,"1350": 0.1463,"1375": 0.065}}}