{"type":"Feature","properties":{"GID_2":"TUR.32.8_1","GID_0":"TUR","country":"Turkey","GID_1":"TUR.32_1","province":"Eskisehir","NL_NAME_1":"NA","county":"Merkez","VARNAME_2":"EskişehirMerkez\rMerkez","NL_NAME_2":"NA","TYPE_2":"District","ENGTYPE_2":"District","CC_2":"NA","HASC_2":"TR.ES.ES","name":"Merkez.county"},
"geometry":{"type": "MultiPolygon","coordinates": [[[[30.8854,40.1298,421.2516],[30.8748,40.1107,335.3198],[30.8706,40.0867,273.404],[30.8669,40.08,316.5138],[30.8162,40.047,724.1471],[30.7676,40.0285,558.9042],[30.7598,40.0238,617.6667],[30.7523,40.0152,888.4188],[30.7432,39.9917,1192.2512],[30.7337,39.9778,1255.0392],[30.7262,39.9736,1261.1149],[30.6962,39.9697,724.8155],[30.6717,39.962,1152.925],[30.6505,39.9619,1162.6066],[30.6139,39.9758,893.1558],[30.5825,39.9981,365.2002],[30.5697,40.0046,263.2267],[30.552,40.0073,451.1766],[30.5232,40.0067,337.3888],[30.5023,39.9779,658.498],[30.4821,39.9612,1232.1594],[30.4648,39.9509,1205.3911],[30.4377,39.9406,1156.4104],[30.4277,39.9383,1279.8491],[30.3562,39.937,1279.3904],[30.3405,39.922,1152.6194],[30.2828,39.877,984.9051],[30.2734,39.8658,910.0999],[30.2722,39.8624,894.8629],[30.2826,39.8437,848.7552],[30.2853,39.832,815.4443],[30.2857,39.8017,919.9142],[30.2843,39.7928,944.2529],[30.278199999999998,39.7821,970.9387],[30.2495,39.7577,1043.1848],[30.2436,39.7502,1072.0535],[30.2404,39.7385,1029.9436],[30.2385,39.7083,970.7336],[30.2349,39.7007,970.7371],[30.2243,39.6868,1031.0923],[30.2158,39.6837,995.343],[30.2066,39.685,1039.7448],[30.187,39.6967,982.0632],[30.1759,39.673,903.0306],[30.1395,39.6372,1027.875],[30.137,39.6292,986.9994],[30.1392,39.6214,1072.6023],[30.1515,39.6093,906.3701],[30.1979,39.5745,945.3978],[30.2321,39.5576,1097.6458],[30.237,39.5524,1055.5712],[30.2441,39.5405,1015.2245],[30.2523,39.5322,1014.348],[30.3146,39.4835,1361.0254],[30.4025,39.4832,1229.214],[30.4261,39.4846,1241.557],[30.455,39.4929,1212.9913],[30.4934,39.4978,1140.6371],[30.5348,39.5134,1176.3329],[30.5441,39.5156,1235.8191],[30.5541,39.515,1254.7664],[30.5713,39.509,1175.5869],[30.5904,39.5061,1147.2825],[30.6061,39.5065,1100.2585],[30.6194,39.511,1052.0304],[30.6277,39.5192,1058.6411],[30.6299,39.53,1041.6426],[30.6285,39.5381,1035.4075],[30.6165,39.5598,1059.1138],[30.6148,39.5688,1052.8185],[30.6149,39.5899,1030.1067],[30.6179,39.5985,1020.5145],[30.6216,39.6028,1004.4307],[30.6319,39.6092,1025.3907],[30.6585,39.6145,987.6812],[30.6802,39.6212,958.8889],[30.7266,39.6243,938.6569],[30.7555,39.6328,924.2029],[30.7715,39.6346,931.1089],[30.8004,39.6349,909.8971],[30.8204,39.6329,908.3803],[30.8302,39.6295,907.8494],[30.8482,39.6195,901.8832],[30.8773,39.6232,898.3613],[30.8896,39.6278,906.6205],[30.8963,39.6334,904.3152],[30.9112,39.6533,931.4296],[30.9377,39.673,934.7737],[30.919,39.6937,1008.4816],[30.9132,39.7238,861.3166],[30.9023,39.7455,810.2482],[30.9004,39.7828,763.1581],[30.9012,39.7972,764.6296],[30.9053,39.8105,765.7784],[30.9337,39.8547,787.1051],[30.942,39.8638,794.8286],[30.9685,39.8837,855.2192],[30.9965,39.8957,923.861],[31.0295,39.9145,1048.5435],[31.0328,39.9184,1098.4375],[31.0336,39.9231,1095.2443],[31.0311,39.9299,1053.9966],[31.0173,39.9501,1076.1588],[30.9832,39.9799,1200.2432],[30.9539,40.0196,704.2004],[30.9285,40.0289,380.6702],[30.9194,40.0357,294.2852],[30.9162,40.0466,453.3375],[30.9166,40.084,475.1545],[30.9147,40.0962,417.7651],[30.8997,40.1191,381.5466],[30.8854,40.1298,421.2516]]]]}}