{"type":"Feature","properties":{"GID_2":"TUR.40.33_1","GID_0":"TUR","country":"Turkey","GID_1":"TUR.40_1","province":"Istanbul","NL_NAME_1":"NA","county":"Sultanbeyli","VARNAME_2":"NA","NL_NAME_2":"NA","TYPE_2":"District","ENGTYPE_2":"District","CC_2":"NA","HASC_2":"TR.IB.SB","name":"Sultanbeyli.county"},
"geometry":{"type": "MultiPolygon","coordinates": [[[[29.2316,40.9514,195.7303],[29.2328,40.9529,183.8073],[29.2412,40.9535,300.316],[29.264,40.9535,214.5704],[29.2753,40.9613,144.8334],[29.2891,40.9625,146.416],[29.2903,40.9715,235.5294],[29.2933,40.978,263.9307],[29.2819,40.9792,196.9298],[29.2765,40.9846,155.785],[29.2723,40.9954,111.5547],[29.2723,41.0122,84.2275],[29.2753,41.0181,115.4597],[29.2484,41.0182,146.8105],[29.2448,41.0128,141.6],[29.2322,40.99,120.8961],[29.231,40.9822,110.4219],[29.2316,40.9514,195.7303]]]]}}