{"type": "Feature","bbox": [36.6849,40.6888,37.2083,40.9301],"geometry": {"type": "MultiPolygon","coordinates": [[[[36.9045,40.9242,756.725],[36.8933,40.9189,812.2197],[36.8701,40.9042,963.3308],[36.8484,40.895,1072.0209],[36.822,40.8796,1040.2322],[36.8118,40.8768,1210.6296],[36.7798,40.8738,933.9337],[36.7585,40.8668,981.859],[36.7346,40.8625,734.0102],[36.6967,40.8464,248.7433],[36.6883,40.8395,272.7822],[36.6859,40.8345,277.129],[36.6849,40.8265,276.0632],[36.686,40.8211,294.9557],[36.6929,40.8121,384.1835],[36.7008,40.8074,333.7055],[36.8511,40.7501,1344.1418],[36.8661,40.7479,1125.6854],[36.9051,40.746,914.2462],[36.932,40.7395,902.0886],[36.9477,40.7271,918.7777],[36.9612,40.7098,1233.1953],[36.9752,40.7026,1159.7178],[37.0248,40.6988,1186.5864],[37.0539,40.6903,1051.2289],[37.0783,40.6888,1212.6125],[37.107,40.6897,1215.4106],[37.1186,40.6918,1162.5225],[37.1433,40.6994,1494.0837],[37.1873,40.7042,1548.2512],[37.1732,40.7183,1397.3821],[37.1671,40.7279,1500.7357],[37.1645,40.743,1474.9531],[37.165,40.7675,1283.4966],[37.1684,40.7813,1199.0852],[37.1932,40.821,1068.2019],[37.1952,40.8327,1027.6166],[37.1968,40.8688,1050.3601],[37.1995,40.8769,1072.5806],[37.2083,40.8926,1111.3396],[37.1906,40.897,1040.4728],[37.1519,40.9013,459.0999],[37.1216,40.9124,960.8829],[37.0842,40.9301,725.5293],[37.0612,40.9239,970.6852],[37.0391,40.922,916.3973],[36.9399,40.9222,955.8416],[36.9045,40.9242,756.725]]]]}
,"properties": {"GID_2": "TUR.63.1_1","GID_0": "TUR","country": "Turkey","GID_1": "TUR.63_1","province": "Ordu","NL_NAME_1": "NA","county": "Akkuş","VARNAME_2": "NA","NL_NAME_2": "NA","TYPE_2": "District","ENGTYPE_2": "District","CC_2": "NA","HASC_2": "TR.OR.AK","name": "Akkuş.county","area_km2": 772.4347,"hist_schema_id": "Elevation0-9000","hist_area_km2": {"225": 0.1123,"250": 0.3048,"275": 0.4812,"300": 0.4171,"325": 0.7861,"350": 1.1713,"375": 1.6687,"400": 1.797,"425": 2.4707,"450": 2.1177,"475": 2.8716,"500": 2.8235,"525": 3.6737,"550": 4.4116,"575": 4.6679,"600": 5.2291,"625": 6.3363,"650": 7.6036,"675": 8.1965,"700": 9.8332,"725": 10.5059,"750": 11.4045,"775": 12.5423,"800": 14.4518,"825": 15.3339,"850": 16.9223,"875": 19.1359,"900": 21.3681,"925": 23.3095,"950": 27.0648,"975": 28.1092,"1000": 31.4951,"1025": 34.8318,"1050": 35.1368,"1075": 35.7802,"1100": 35.0111,"1125": 33.9525,"1150": 32.5585,"1175": 31.3721,"1200": 27.6016,"1225": 25.1964,"1250": 22.7585,"1275": 21.5719,"1300": 19.2784,"1325": 17.2398,"1350": 14.6555,"1375": 12.5039,"1400": 11.7649,"1425": 10.0812,"1450": 8.9259,"1475": 7.8346,"1500": 7.4817,"1525": 7.1616,"1550": 5.5081,"1575": 5.2198,"1600": 5.2516,"1625": 2.9551,"1650": 1.3811,"1675": 0.546,"1700": 0.2409,"1725": 0.0161}}}