{"type":"Feature","properties":{"GID_2":"TUR.25.3_1","GID_0":"TUR","country":"Turkey","GID_1":"TUR.25_1","province":"Denizli","NL_NAME_1":"NA","county":"Babadağ","VARNAME_2":"NA","NL_NAME_2":"NA","TYPE_2":"District","ENGTYPE_2":"District","CC_2":"NA","HASC_2":"TR.DN.BB","name":"Babadağ.county"},
"geometry":{"type": "MultiPolygon","coordinates": [[[[28.8796,37.697,1258.8654],[28.9046,37.7022,1711.1333],[28.9527,37.7057,1998.9692],[28.9709,37.7392,1216.519],[28.9728,37.7453,1072.4343],[28.9774,37.7976,619.0958],[28.928,37.8172,627.5915],[28.9009,37.8226,550.9572],[28.8795,37.83,464.2903],[28.8522,37.832,530.2034],[28.8257,37.8289,677.179],[28.8153,37.8229,733.0935],[28.8044,37.8122,870.0668],[28.7942,37.8082,1183.1356],[28.7958,37.8031,1185.0392],[28.8,37.7956,1091.8767],[28.805,37.791,1268.9706],[28.8327,37.7772,1457.2231],[28.849,37.7632,1747.4607],[28.8575,37.7438,1691.7642],[28.8662,37.733,1679.7075],[28.8796,37.697,1258.8654]]]]}}