{"type": "Feature","bbox": [26.8991,40.1073,27.5834,40.4751],"geometry": {"type": "MultiPolygon","coordinates": [[[[27.5768,40.3119,0.288],[27.5765,40.3093,0.6258],[27.5743,40.3112,0.0624],[27.569,40.3076,1.2912],[27.5576,40.304,0.0],[27.5393,40.301,0.367],[27.4932,40.3071,0.0],[27.4301,40.3246,0.5681],[27.3665,40.3507,0.8866],[27.3599,40.3549,0.1048],[27.3563,40.3537,0.2849],[27.3565,40.356,0.2826],[27.3388,40.3638,0.1115],[27.3193,40.3765,0.475],[27.3088,40.3718,0.6977],[27.3115,40.3749,0.499],[27.314,40.3754,0.3296],[27.3157,40.3787,0.166],[27.3143,40.3785,0.5792],[27.3113,40.3854,0.2395],[27.309,40.384,0.3675],[27.3093,40.3876,0.2983],[27.3046,40.3963,1.1465],[27.3049,40.401,7.9307],[27.3118,40.4051,0.0],[27.3121,40.4082,2.2223],[27.3143,40.4096,3.4654],[27.324,40.4087,0.0],[27.3337,40.4113,1.5351],[27.3263,40.414,0.0],[27.326,40.419,0.0],[27.3207,40.4235,22.2175],[27.3213,40.426,7.4989],[27.319,40.4282,18.1335],[27.3199,40.4338,0.0],[27.3179,40.4371,0.0],[27.3188,40.4396,3.1308],[27.3168,40.4396,10.9403],[27.316,40.4451,0.0],[27.314,40.4474,0.0],[27.3115,40.4463,59.6205],[27.3101,40.4499,1.2888],[27.3065,40.4499,24.3287],[27.3049,40.4535,33.5056],[27.2985,40.4549,10.2799],[27.2976,40.4588,0.0],[27.2957,40.4585,24.1942],[27.2929,40.4621,0.0],[27.2899,40.4626,0.3272],[27.291,40.4657,0.0],[27.286,40.4701,8.8606],[27.2865,40.4751,17.6722],[27.2757,40.4724,2.3807],[27.2707,40.4693,23.6847],[27.2701,40.4643,0.0],[27.2638,40.461,18.0999],[27.2621,40.4615,18.0999],[27.2604,40.4576,16.4482],[27.2551,40.4593,0.0],[27.246,40.4546,58.806],[27.2435,40.4554,46.7809],[27.2404,40.4526,36.756],[27.239,40.4535,8.6642],[27.2301,40.4479,33.206],[27.2268,40.449,0.0],[27.219,40.4446,67.4046],[27.2107,40.4429,20.681],[27.2076,40.4407,0.0],[27.2093,40.4379,5.1174],[27.2051,40.4343,1.4009],[27.1985,40.4346,14.2713],[27.1901,40.4326,10.3845],[27.1732,40.4426,0.0],[27.1674,40.4429,5.1479],[27.1574,40.4504,0.0],[27.1554,40.4504,18.1522],[27.1551,40.4521,0.0],[27.1493,40.4479,33.9707],[27.1415,40.4493,4.3076],[27.1413,40.4471,6.4354],[27.1413,40.4487,6.4354],[27.1362,40.4496,0.0],[27.1299,40.4493,4.6825],[27.129,40.4474,8.2624],[27.1271,40.4474,13.7841],[27.1221,40.4501,3.0087],[27.1213,40.4526,0.0],[27.1215,40.4485,13.335],[27.1151,40.4449,11.9011],[27.106,40.4418,60.3092],[27.0951,40.4429,0.0],[27.0893,40.4418,39.8412],[27.089,40.4385,19.8068],[27.0851,40.4357,26.957],[27.0779,40.4346,0.0],[27.0788,40.4299,1.292],[27.0737,40.4274,5.2599],[27.0604,40.4282,11.6215],[27.0599,40.4274,0.0],[27.0665,40.4235,0.0],[27.0665,40.4215,0.2223],[27.0649,40.4215,0.2223],[27.0643,40.4151,1.1278],[27.0585,40.411,14.2329],[27.0554,40.4107,0.0],[27.0529,40.4054,30.4405],[27.0493,40.4049,1.4503],[27.044,40.401,8.4371],[27.0399,40.3921,3.5419],[27.0332,40.3896,5.8147],[27.0291,40.3899,7.9281],[27.0393,40.3701,83.099],[27.0401,40.3649,79.6436],[27.0393,40.3596,100.1837],[27.0317,40.3461,143.6109],[27.0236,40.3227,98.918],[27.0087,40.304,87.0837],[26.9785,40.2861,230.6901],[26.9538,40.2672,485.3806],[26.9418,40.256,515.5047],[26.9256,40.2301,542.3751],[26.919,40.1972,340.4779],[26.8991,40.1712,210.565],[26.9359,40.1728,249.0956],[27.0442,40.173,170.1867],[27.0823,40.171,84.6921],[27.1042,40.1641,110.0763],[27.1342,40.1577,167.7455],[27.1643,40.146,283.5927],[27.1937,40.1283,58.6008],[27.252,40.1073,420.8512],[27.2838,40.1239,546.6421],[27.4683,40.1947,382.2422],[27.4792,40.2078,359.3735],[27.5073,40.2302,299.2974],[27.5213,40.2388,254.5169],[27.5455,40.2486,210.7399],[27.5753,40.2712,71.5501],[27.5817,40.2806,36.9063],[27.5834,40.2916,6.4654],[27.5807,40.3119,0.8058],[27.5768,40.3119,0.288]]]]}
,"properties": {"GID_2": "TUR.22.3_1","GID_0": "TUR","country": "Turkey","GID_1": "TUR.22_1","province": "Çanakkale","NL_NAME_1": "NA","county": "Biga","VARNAME_2": "NA","NL_NAME_2": "NA","TYPE_2": "District","ENGTYPE_2": "District","CC_2": "NA","HASC_2": "TR.CK.BI","name": "Biga.county","area_km2": 1244.5583,"hist_schema_id": "Elevation0-9000","hist_area_km2": {"0": 127.2621,"25": 231.6007,"50": 196.8229,"75": 133.6415,"100": 104.2244,"125": 76.9443,"150": 55.937,"175": 41.8873,"200": 37.8858,"225": 35.3318,"250": 32.7108,"275": 29.0357,"300": 24.9549,"325": 22.7055,"350": 20.0987,"375": 17.7508,"400": 14.5125,"425": 10.8517,"450": 7.5796,"475": 6.3807,"500": 4.7937,"525": 4.1782,"550": 3.4659,"575": 2.0569,"600": 0.8263,"625": 0.4701,"650": 0.2269,"675": 0.3242,"700": 0.0973}}}