{"type": "Feature","bbox": [36.4426,36.8065,36.9617,37.1855],"geometry": {"type": "MultiPolygon","coordinates": [[[[36.784,36.8065,848.1672],[36.7821,36.8182,724.7855],[36.7826,36.8295,714.8141],[36.7846,36.8348,700.6494],[36.7921,36.8433,782.3986],[36.8058,36.8526,705.7878],[36.8282,36.8629,680.317],[36.8544,36.8788,748.9197],[36.9,36.8961,657.3586],[36.91,36.9026,709.5358],[36.9217,36.9186,891.3611],[36.9432,36.9417,767.1484],[36.949,36.9602,946.6566],[36.9584,36.9766,988.8557],[36.9617,36.9872,965.4568],[36.9515,36.9978,844.132],[36.943,37.0121,1091.3623],[36.9318,37.0266,1065.1545],[36.9277,37.0303,1063.1184],[36.9184,37.0334,1087.1676],[36.8962,37.0346,1046.3562],[36.869,37.0333,996.2125],[36.858,37.0313,966.8666],[36.8367,37.024,876.0098],[36.8217,37.0222,796.5635],[36.7755,37.0214,534.7232],[36.7588,37.0244,536.558],[36.7542,37.028,561.2827],[36.7519,37.0325,516.2194],[36.7485,37.0533,509.4437],[36.7393,37.0726,486.1572],[36.7361,37.0945,482.3012],[36.7317,37.1046,480.424],[36.7229,37.112,479.8559],[36.7018,37.1211,484.5028],[36.6808,37.1352,537.9916],[36.6561,37.1557,1129.8942],[36.6396,37.1761,823.5422],[36.6251,37.1855,971.4908],[36.6064,37.166,1179.988],[36.5463,37.1195,890.3418],[36.5289,37.1031,774.3677],[36.5138,37.0798,893.2365],[36.5029,37.0541,975.0256],[36.4845,37.033,1357.1099],[36.4776,37.0119,1702.1375],[36.4686,36.9955,1860.3544],[36.4628,36.977,1428.0287],[36.4426,36.9533,1324.959],[36.4551,36.941,1706.6396],[36.4856,36.9248,1134.2205],[36.5188,36.9009,981.4801],[36.5454,36.8893,787.4265],[36.5815,36.8643,393.2933],[36.6024,36.8556,381.5108],[36.6261,36.841,374.6533],[36.6409,36.8371,422.7213],[36.6632,36.8388,369.6421],[36.6685,36.8368,370.0619],[36.6707,36.8427,373.841],[36.6755,36.8456,376.5059],[36.6853,36.8348,432.5305],[36.739,36.8242,619.7836],[36.784,36.8065,848.1672]]]]}
,"properties": {"GID_2": "TUR.33.2_1","GID_0": "TUR","country": "Turkey","GID_1": "TUR.33_1","province": "Gaziantep","NL_NAME_1": "NA","county": "İslahiye","VARNAME_2": "NA","NL_NAME_2": "NA","TYPE_2": "District","ENGTYPE_2": "District","CC_2": "NA","HASC_2": "TR.GA.IS","name": "İslahiye.county","area_km2": 1020.8977,"hist_schema_id": "Elevation0-9000","hist_area_km2": {"375": 10.9093,"400": 48.7942,"425": 49.3901,"450": 93.5894,"475": 94.1429,"500": 50.5375,"525": 42.4313,"550": 26.6059,"575": 18.8241,"600": 16.8262,"625": 17.1831,"650": 19.6597,"675": 21.5409,"700": 23.9992,"725": 25.7465,"750": 27.2687,"775": 27.6877,"800": 27.7007,"825": 26.6807,"850": 25.4742,"875": 24.8777,"900": 25.03,"925": 24.4368,"950": 24.0633,"975": 23.433,"1000": 20.9257,"1025": 19.18,"1050": 17.0123,"1075": 15.098,"1100": 11.8644,"1125": 11.7455,"1150": 10.0355,"1175": 7.445,"1200": 7.1743,"1225": 6.3955,"1250": 5.4484,"1275": 4.9911,"1300": 4.6699,"1325": 4.2806,"1350": 3.8074,"1375": 3.52,"1400": 3.2323,"1425": 3.622,"1450": 3.5374,"1475": 3.4871,"1500": 3.3688,"1525": 2.7592,"1550": 2.793,"1575": 2.3533,"1600": 2.3872,"1625": 2.4219,"1650": 2.4729,"1675": 2.1847,"1700": 2.2863,"1725": 2.1848,"1750": 2.1509,"1775": 1.8459,"1800": 1.4563,"1825": 0.9314,"1850": 1.1346,"1875": 0.762,"1900": 0.7112,"1925": 0.6265,"1950": 0.5588,"1975": 0.3556,"2000": 0.254,"2025": 0.2709,"2050": 0.2032,"2075": 0.1185}}}