{"type":"Feature","properties":{"GID_2":"TUR.8.4_1","GID_0":"TUR","country":"Turkey","GID_1":"TUR.8_1","province":"Antalya","NL_NAME_1":"NA","county":"Finike","VARNAME_2":"NA","NL_NAME_2":"NA","TYPE_2":"District","ENGTYPE_2":"District","CC_2":"NA","HASC_2":"TR.AL.FI","name":"Finike.county"},
"geometry":{"type": "MultiPolygon","coordinates": [[[[30.1443,36.2649,0.0],[30.1443,36.2654,0.0],[30.1399,36.2654,0.0],[30.1415,36.2637,0.0],[30.1443,36.2649,0.0]]],
[[[29.9736,36.5498,1091.7437],[29.8426,36.5501,2173.7993],[29.8428,36.4551,704.1694],[29.8478,36.4413,608.4935],[29.8636,36.4188,395.1003],[29.8737,36.4124,307.5051],[29.9091,36.4026,370.6173],[29.9335,36.3891,748.8687],[30.003,36.3632,1545.9192],[30.0137,36.3571,1772.9753],[30.0193,36.3508,1378.1921],[30.0213,36.3455,1160.7153],[30.0255,36.3181,896.1178],[30.0397,36.2948,308.8334],[30.051,36.2857,144.7717],[30.0691,36.2784,415.3051],[30.0834,36.2693,549.0595],[30.0955,36.2581,296.3824],[30.1046,36.2457,1.4373],[30.1076,36.2457,0.0],[30.1085,36.2485,0.0],[30.1104,36.2463,0.0],[30.1171,36.2476,2.4658],[30.1179,36.2507,23.5205],[30.1207,36.2513,0.0],[30.1207,36.256,7.3744],[30.1224,36.2574,0.0],[30.1218,36.2621,26.0856],[30.1276,36.2613,0.0],[30.129,36.2643,32.9689],[30.1315,36.2646,0.0],[30.1338,36.2735,5.3007],[30.139,36.2785,0.0],[30.1426,36.2774,3.6823],[30.1388,36.2701,20.3265],[30.1404,36.2665,0.0],[30.1437,36.266,1.5821],[30.1518,36.2721,0.0],[30.1496,36.2743,8.7725],[30.1526,36.274,4.0417],[30.1537,36.279,0.0],[30.1515,36.2821,0.0],[30.1526,36.2876,2.8387],[30.1499,36.2899,0.0],[30.1504,36.2918,0.0],[30.1482,36.2954,0.2181],[30.1496,36.301,1.1665],[30.1562,36.3029,0.0],[30.1671,36.3096,1.1028],[30.1782,36.3124,1.2139],[30.1849,36.3121,0.0],[30.1882,36.314,1.5819],[30.2004,36.3154,0.0],[30.2177,36.3149,1.1811],[30.2164,36.3222,10.2921],[30.2124,36.3301,15.3214],[30.1819,36.357,468.301],[30.1746,36.3674,913.6831],[30.1722,36.3825,922.0658],[30.1728,36.4292,773.0144],[30.1705,36.4412,1305.0854],[30.1657,36.449,1261.2251],[30.1465,36.4696,893.4189],[30.1391,36.4905,836.1011],[30.1302,36.507,1728.469],[30.1246,36.5371,2386.6265],[30.1091,36.5632,2664.772],[30.0976,36.5791,2545.9211],[30.0515,36.5642,2465.7539],[30.0282,36.5596,2105.46],[30.0065,36.5525,1794.2693],[29.9736,36.5498,1091.7437]]]]}}