{"type": "Feature","bbox": [28.2585,38.1087,28.8255,38.5484],"geometry": {"type": "MultiPolygon","coordinates": [[[[28.638,38.1122,817.9216],[28.6393,38.1259,730.7321],[28.6443,38.1454,513.9393],[28.6491,38.1546,585.2747],[28.6733,38.1656,618.4618],[28.6978,38.1707,629.8646],[28.7024,38.1742,665.1469],[28.7045,38.1789,718.3095],[28.7045,38.1866,780.2967],[28.701,38.1942,528.6627],[28.6794,38.2144,394.5969],[28.6639,38.237,245.821],[28.6623,38.2474,216.5558],[28.6662,38.2551,191.8654],[28.6804,38.2677,190.8797],[28.7001,38.2805,196.2978],[28.7099,38.2839,205.4925],[28.7337,38.2882,365.8343],[28.7457,38.2941,313.4758],[28.8254,38.3553,756.6028],[28.8255,38.367,675.6395],[28.809,38.3759,687.6107],[28.7818,38.3812,816.4005],[28.7188,38.4055,978.6033],[28.7054,38.4136,831.0203],[28.7015,38.4208,938.0938],[28.6959,38.4235,1006.4878],[28.6893,38.4242,951.0931],[28.6826,38.4229,933.8206],[28.6774,38.4193,909.4393],[28.675,38.4149,924.9448],[28.6716,38.3961,584.5209],[28.6471,38.4103,645.371],[28.5871,38.4334,486.3998],[28.5771,38.4357,440.0765],[28.5415,38.4393,335.2264],[28.5088,38.4517,279.0748],[28.4998,38.4592,388.8132],[28.4969,38.4643,421.2217],[28.4948,38.4795,518.8559],[28.4954,38.511,702.3541],[28.4942,38.5234,850.3124],[28.4913,38.5317,816.9788],[28.4805,38.5484,799.6702],[28.4693,38.5397,693.1932],[28.4544,38.5223,527.3281],[28.4141,38.4894,279.2585],[28.4013,38.4751,197.0838],[28.3739,38.4629,138.6709],[28.3434,38.457,119.6544],[28.3324,38.4508,123.6502],[28.3229,38.443,148.4023],[28.3173,38.4365,190.3534],[28.3043,38.4153,362.1552],[28.2966,38.3917,733.1168],[28.2725,38.3549,1189.9064],[28.2585,38.3266,1360.2673],[28.2654,38.3223,1260.9634],[28.2946,38.3188,1266.5598],[28.3232,38.3103,955.7753],[28.385,38.3074,1124.308],[28.4065,38.3004,1199.7078],[28.4268,38.2968,1181.3522],[28.44,38.2923,1357.0905],[28.4564,38.2805,1308.7451],[28.4626,38.2734,1552.124],[28.4741,38.2545,1719.1455],[28.4784,38.2444,1507.1708],[28.4832,38.2169,954.7575],[28.4912,38.2031,642.7026],[28.4979,38.182,568.8535],[28.5273,38.1353,995.4612],[28.5358,38.1261,867.0823],[28.5599,38.1087,1315.0955],[28.638,38.1122,817.9216]]]]}
,"properties": {"GID_2": "TUR.56.3_1","GID_0": "TUR","country": "Turkey","GID_1": "TUR.56_1","province": "Manisa","NL_NAME_1": "NA","county": "Alaşehir","VARNAME_2": "NA","NL_NAME_2": "NA","TYPE_2": "District","ENGTYPE_2": "District","CC_2": "NA","HASC_2": "TR.MN.AL","name": "Alaşehir.county","area_km2": 1041.9151,"hist_schema_id": "Elevation0-9000","hist_area_km2": {"125": 42.1013,"150": 105.5729,"175": 100.6488,"200": 62.0699,"225": 37.0153,"250": 36.6727,"275": 32.4049,"300": 29.8933,"325": 27.5995,"350": 23.4442,"375": 21.0995,"400": 20.1879,"425": 21.4587,"450": 23.6627,"475": 25.8968,"500": 27.7622,"525": 25.315,"550": 24.8152,"575": 22.4831,"600": 24.1847,"625": 24.8351,"650": 22.4187,"675": 19.5713,"700": 18.7714,"725": 18.0891,"750": 17.0584,"775": 15.5927,"800": 13.695,"825": 12.4602,"850": 11.3106,"875": 10.1819,"900": 9.6327,"925": 8.8346,"950": 8.2685,"975": 7.6211,"1000": 7.2882,"1025": 6.6229,"1050": 7.1889,"1075": 6.9391,"1100": 6.6403,"1125": 6.1904,"1150": 5.4248,"1175": 4.7927,"1200": 3.9607,"1225": 4.1271,"1250": 3.1288,"1275": 3.2951,"1300": 2.7294,"1325": 2.3467,"1350": 2.0802,"1375": 2.4631,"1400": 1.8308,"1425": 1.7976,"1450": 1.4316,"1475": 1.1154,"1500": 0.9822,"1525": 0.9322,"1550": 0.6659,"1575": 0.7325,"1600": 0.5494,"1625": 0.5161,"1650": 0.7659,"1675": 0.4828,"1700": 0.4828,"1725": 0.5994,"1750": 0.4995,"1775": 0.2997,"1800": 0.1831,"1825": 0.1665,"1850": 0.0333}}}