{"type":"Feature","properties":{"GID_2":"TUR.75.10_1","GID_0":"TUR","country":"Turkey","GID_1":"TUR.75_1","province":"Trabzon","NL_NAME_1":"NA","county":"Köprübaşı","VARNAME_2":"NA","NL_NAME_2":"NA","TYPE_2":"District","ENGTYPE_2":"District","CC_2":"NA","HASC_2":"TR.TB.KO","name":"Köprübaşı.county"},
"geometry":{"type": "MultiPolygon","coordinates": [[[[40.1081,40.5705,2282.7578],[40.1336,40.5923,2302.2563],[40.151,40.6178,1788.3562],[40.1664,40.6441,2144.7959],[40.1686,40.6592,2049.0017],[40.1694,40.7121,1690.5291],[40.172,40.7208,1863.9724],[40.182,40.7398,1176.6759],[40.1837,40.7628,876.1884],[40.1819,40.7837,998.2072],[40.1964,40.807,970.7505],[40.1981,40.8153,1009.8549],[40.1988,40.8382,1012.5258],[40.1374,40.8389,719.4464],[40.1215,40.8382,541.8466],[40.1073,40.8347,429.7049],[40.0959,40.8256,759.19],[40.0656,40.7766,842.0341],[40.0632,40.7592,755.1766],[40.0627,40.674,2260.6611],[40.0583,40.6619,2269.1377],[40.0403,40.6381,2342.1941],[40.0587,40.6184,2302.8711],[40.07,40.6015,2200.0969],[40.0954,40.5758,2427.9534],[40.1081,40.5705,2282.7578]]]]}}