{"type": "Feature","bbox": [30.8731,40.7612,31.0835,40.9212],"geometry": {"type": "MultiPolygon","coordinates": [[[[31.0408,40.9212,691.0282],[31.0104,40.9065,277.2543],[30.9773,40.894,322.2845],[30.9618,40.8919,121.5813],[30.9334,40.8917,364.6177],[30.9169,40.883,301.6761],[30.8967,40.8804,309.0289],[30.8774,40.8466,346.6194],[30.875,40.8413,384.3324],[30.8731,40.8292,309.1458],[30.8748,40.8139,384.3589],[30.8927,40.7786,671.345],[30.9162,40.7665,612.5582],[30.9346,40.7612,178.3392],[30.9509,40.7776,277.5307],[30.971,40.7922,414.4626],[30.9826,40.7969,289.9265],[31.0039,40.8004,121.1639],[31.0128,40.8036,117.6513],[31.0368,40.8181,121.3445],[31.0579,40.8266,127.1197],[31.0835,40.845,128.6608],[31.0517,40.8694,142.2244],[31.0414,40.8809,159.891],[31.0382,40.8975,302.742],[31.0408,40.9212,691.0282]]]]}
,"properties": {"GID_2": "TUR.27.5_1","GID_0": "TUR","country": "Turkey","GID_1": "TUR.27_1","province": "Düzce","NL_NAME_1": "NA","county": "Gümüşova","VARNAME_2": "NA","NL_NAME_2": "NA","TYPE_2": "District","ENGTYPE_2": "District","CC_2": "NA","HASC_2": "TR.DU.GU","name": "Gümüşova.county","area_km2": 172.9934,"hist_schema_id": "Elevation0-9000","hist_area_km2": {"100": 0.5452,"125": 51.8331,"150": 13.3088,"175": 10.697,"200": 7.7942,"225": 7.4899,"250": 7.5225,"275": 7.9716,"300": 8.4054,"325": 8.8069,"350": 8.358,"375": 6.7696,"400": 5.7593,"425": 4.4118,"450": 3.2569,"475": 2.8079,"500": 2.6156,"525": 1.9901,"550": 2.1347,"575": 1.8298,"600": 1.5249,"625": 1.1879,"650": 0.9471,"675": 0.8187,"700": 0.7225,"725": 0.7546,"750": 0.7385,"775": 0.4656,"800": 0.3693,"825": 0.3693,"850": 0.4014,"875": 0.2087,"900": 0.1766}}}