{"type":"Feature","properties":{"GID_2":"TUR.52.6_1","GID_0":"TUR","country":"Turkey","GID_1":"TUR.52_1","province":"Kocaeli","NL_NAME_1":"NA","county":"Körfez","VARNAME_2":"NA","NL_NAME_2":"NA","TYPE_2":"District","ENGTYPE_2":"District","CC_2":"NA","HASC_2":"TR.KC.KO","name":"Körfez.county"},
"geometry":{"type": "MultiPolygon","coordinates": [[[[29.6928,41.0256,172.5894],[29.696,41.0094,210.1939],[29.6877,40.9884,196.1641],[29.6868,40.9772,223.1057],[29.688,40.9689,237.3023],[29.6902,40.9637,278.2726],[29.696,40.9575,301.4218],[29.7209,40.9459,202.424],[29.7293,40.9381,202.8777],[29.7324,40.9301,216.7938],[29.7332,40.9189,294.5881],[29.7319,40.9105,338.8146],[29.728,40.9024,375.6237],[29.716,40.8913,428.989],[29.7011,40.8827,450.1018],[29.6135,40.8496,313.5489],[29.5864,40.8443,297.638],[29.5653,40.8371,342.5607],[29.5423,40.8324,264.4088],[29.5295,40.8263,200.994],[29.577,40.7959,236.1173],[29.5902,40.7831,141.5903],[29.6015,40.778,0.0],[29.6082,40.7799,0.0],[29.6093,40.7821,29.1899],[29.6168,40.7826,0.5347],[29.6257,40.7813,1.5139],[29.631,40.7765,1.8515],[29.6351,40.7751,0.0],[29.6429,40.7751,0.0],[29.6513,40.7776,7.3853],[29.6682,40.7782,0.0],[29.6815,40.7768,0.0],[29.6871,40.7782,1.9191],[29.7007,40.7749,0.0],[29.711,40.7762,5.3201],[29.7179,40.7701,0.0],[29.7243,40.7693,0.0],[29.7313,40.7718,0.0],[29.7451,40.7671,5.8575],[29.7507,40.7626,2.4342],[29.7537,40.7565,0.0],[29.7579,40.7551,0.0],[29.7618,40.7479,0.0],[29.7743,40.772,58.9429],[29.7799,40.7868,273.1069],[29.7885,40.8006,262.0605],[29.7959,40.8215,411.133],[29.8118,40.8393,405.7241],[29.815,40.8462,299.8439],[29.8096,40.8613,341.6371],[29.8089,40.8719,300.8685],[29.8107,40.8798,337.4244],[29.8171,40.8908,320.5154],[29.8189,40.8983,305.8151],[29.8172,40.9057,230.9644],[29.8096,40.9196,185.8924],[29.8077,40.9282,182.5758],[29.8067,40.9525,189.5839],[29.809,40.9703,289.4757],[29.8247,40.9966,365.2654],[29.831,41.0036,383.0172],[29.8472,41.0159,443.4045],[29.8698,41.0268,363.4423],[29.8559,41.0449,274.9859],[29.8489,41.0692,27.0133],[29.8006,41.066,104.3836],[29.7726,41.0575,41.3866],[29.7487,41.0532,198.5669],[29.7153,41.0404,127.1906],[29.6928,41.0256,172.5894]]]]}}