{"type":"Feature","properties":{"GID_2":"TUR.48.4_1","GID_0":"TUR","country":"Turkey","GID_1":"TUR.48_1","province":"Kilis","NL_NAME_1":"NA","county":"Polateli","VARNAME_2":"NA","NL_NAME_2":"NA","TYPE_2":"District","ENGTYPE_2":"District","CC_2":"NA","HASC_2":"TR.KI.PO","name":"Polateli.county"},
"geometry":{"type": "MultiPolygon","coordinates": [[[[37.1855,36.9818,933.1432],[37.1691,36.9529,989.3481],[37.124,36.8832,855.3914],[37.1182,36.8764,862.83],[37.059,36.8306,601.4149],[37.0477,36.8252,558.5306],[37.0136,36.8151,552.9993],[37.0257,36.7925,466.2363],[37.0491,36.7803,481.7186],[37.0824,36.7682,791.5651],[37.0937,36.7663,803.8721],[37.1891,36.7662,795.7093],[37.2034,36.7691,766.5777],[37.2305,36.7795,643.9443],[37.257,36.795,650.4502],[37.2752,36.8027,665.9297],[37.2871,36.8113,633.0546],[37.3033,36.8415,739.0106],[37.2777,36.8491,731.6671],[37.248,36.8607,740.119],[37.2363,36.8695,782.899],[37.2324,36.8769,808.6212],[37.2279,36.8926,788.1956],[37.2191,36.9091,794.5676],[37.2136,36.9394,886.3336],[37.1981,36.9652,891.7976],[37.1855,36.9818,933.1432]]]]}}