{"type": "Feature","bbox": [38.5372,40.0474,38.9504,40.1993],"geometry": {"type": "MultiPolygon","coordinates": [[[[38.9285,40.0627,1977.8196],[38.9431,40.0764,1832.6917],[38.9481,40.0831,1697.8108],[38.9504,40.0968,1295.7616],[38.948,40.1049,1353.1865],[38.9367,40.1169,1175.2734],[38.9176,40.1319,1556.9355],[38.909,40.1417,1641.3617],[38.9055,40.1583,1571.5612],[38.9073,40.1836,1693.047],[38.8746,40.1963,1552.4614],[38.8626,40.1984,1605.6266],[38.7042,40.1993,2078.6091],[38.6831,40.1988,2252.8181],[38.6669,40.1965,2285.104],[38.6491,40.1903,2220.6475],[38.6357,40.1875,2045.9264],[38.6163,40.1679,2004.2607],[38.5952,40.1625,1822.0951],[38.5829,40.1574,1710.7784],[38.5536,40.1355,975.8907],[38.5372,40.1193,1551.7219],[38.5707,40.1161,1600.5869],[38.6251,40.096,1864.5681],[38.649,40.0916,1833.5779],[38.6702,40.0846,1922.4034],[38.709,40.0799,1893.3175],[38.7387,40.0632,1793.3811],[38.7737,40.0488,1353.5988],[38.8244,40.0474,1830.4602],[38.8624,40.0483,1827.1023],[38.8743,40.0502,1909.4636],[38.8959,40.0572,1972.7952],[38.9285,40.0627,1977.8196]]]]}
,"properties": {"GID_2": "TUR.34.3_1","GID_0": "TUR","country": "Turkey","GID_1": "TUR.34_1","province": "Giresun","NL_NAME_1": "NA","county": "Çamoluk","VARNAME_2": "NA","NL_NAME_2": "NA","TYPE_2": "District","ENGTYPE_2": "District","CC_2": "NA","HASC_2": "TR.GI.CM","name": "Çamoluk.county","area_km2": 409.5818,"hist_schema_id": "Elevation0-9000","hist_area_km2": {"975": 0.8104,"1000": 1.1995,"1025": 3.2743,"1050": 6.2731,"1075": 6.6462,"1100": 8.3976,"1125": 9.2246,"1150": 9.3057,"1175": 10.1651,"1200": 10.5049,"1225": 10.7479,"1250": 11.2825,"1275": 12.0284,"1300": 11.931,"1325": 11.8984,"1350": 10.9742,"1375": 12.2551,"1400": 11.882,"1425": 11.0874,"1450": 11.4763,"1475": 11.541,"1500": 11.4438,"1525": 12.3514,"1550": 12.3511,"1575": 12.2536,"1600": 11.6055,"1625": 11.6221,"1650": 10.909,"1675": 11.8334,"1700": 10.1969,"1725": 8.8036,"1750": 9.2424,"1775": 9.243,"1800": 10.1677,"1825": 9.9243,"1850": 9.0488,"1875": 8.1574,"1900": 7.8004,"1925": 7.7846,"1950": 7.6222,"1975": 5.4821,"2000": 3.6488,"2025": 3.2104,"2050": 2.7234,"2075": 1.8151,"2100": 1.3124,"2125": 1.2151,"2150": 0.6967,"2175": 0.6479,"2200": 0.5345,"2225": 0.7451,"2250": 0.6802,"2275": 1.0042,"2300": 0.4535,"2325": 0.1458}}}