{"type":"Feature","properties":{"GID_2":"TUR.46.17_1","GID_0":"TUR","country":"Turkey","GID_1":"TUR.46_1","province":"Kastamonu","NL_NAME_1":"NA","county":"Şenpazar","VARNAME_2":"NA","NL_NAME_2":"NA","TYPE_2":"District","ENGTYPE_2":"District","CC_2":"NA","HASC_2":"TR.KS.SP","name":"Şenpazar.county"},
"geometry":{"type": "MultiPolygon","coordinates": [[[[33.3236,41.888,713.7086],[33.3122,41.8968,944.1247],[33.3011,41.9002,993.6437],[33.2289,41.8822,821.817],[33.219,41.8829,738.2994],[33.1993,41.8889,400.7182],[33.1894,41.8881,296.3811],[33.1792,41.8827,273.4383],[33.1665,41.87,856.615],[33.1448,41.8598,863.5837],[33.1259,41.8531,141.0276],[33.1114,41.844,1020.1261],[33.1022,41.8349,964.1364],[33.0984,41.8268,1076.6963],[33.0972,41.8156,880.3454],[33.0986,41.8044,746.2944],[33.1019,41.7966,727.5107],[33.1247,41.7622,1036.2654],[33.1315,41.7399,1161.6521],[33.1942,41.7397,1365.3416],[33.2132,41.7413,1346.1461],[33.2501,41.7547,1267.0554],[33.2725,41.7694,853.1263],[33.2869,41.7822,1112.6976],[33.2903,41.7872,915.7274],[33.2925,41.7953,847.9792],[33.2912,41.8063,990.1013],[33.2814,41.8223,512.6134],[33.2787,41.8303,521.9987],[33.2778,41.8415,629.9332],[33.2797,41.8526,635.4819],[33.2844,41.8603,565.3198],[33.2938,41.868899999999996,762.0922],[33.3236,41.888,713.7086]]]]}}