{"type": "Feature","bbox": [37.5397,40.5511,37.8371,40.7721],"geometry": {"type": "MultiPolygon","coordinates": [[[[37.5397,40.5604,1743.3287],[37.5875,40.5601,1764.1769],[37.5987,40.5578,1615.4359],[37.6116,40.5511,1491.7015],[37.6222,40.5562,1502.9629],[37.6336,40.5634,1331.575],[37.711,40.6226,1427.386],[37.7217,40.6284,1271.0043],[37.7372,40.6339,1475.2697],[37.7477,40.6401,1435.7864],[37.8065,40.6851,792.2815],[37.8233,40.7011,908.9073],[37.8371,40.7294,1020.2861],[37.8213,40.7336,1294.6642],[37.789,40.7363,1226.6185],[37.779,40.7386,919.1991],[37.7491,40.7503,552.7311],[37.7139,40.7721,762.5767],[37.6815,40.7704,898.5778],[37.602,40.7699,1131.5527],[37.5906,40.7686,985.889],[37.5696,40.7623,968.9445],[37.5611,40.7613,870.1578],[37.5571,40.7463,765.5699],[37.5556,40.725,783.7904],[37.5552,40.6477,1274.1289],[37.5529,40.6348,1366.0264],[37.5439,40.6179,1089.4747],[37.5413,40.6088,1098.7192],[37.5397,40.5604,1743.3287]]]]}
,"properties": {"GID_2": "TUR.63.6_1","GID_0": "TUR","country": "Turkey","GID_1": "TUR.63_1","province": "Ordu","NL_NAME_1": "NA","county": "Gölköy","VARNAME_2": "NA","NL_NAME_2": "NA","TYPE_2": "District","ENGTYPE_2": "District","CC_2": "NA","HASC_2": "TR.OR.GO","name": "Gölköy.county","area_km2": 387.829,"hist_schema_id": "Elevation0-9000","hist_area_km2": {"425": 0.0642,"450": 0.2249,"475": 0.3855,"500": 0.4176,"525": 0.6585,"550": 0.8834,"575": 1.0922,"600": 1.285,"625": 1.8152,"650": 2.3132,"675": 2.6988,"700": 3.6146,"725": 3.7593,"750": 4.6429,"775": 5.2859,"800": 6.1859,"825": 6.8449,"850": 7.1347,"875": 7.9223,"900": 8.6294,"925": 8.9348,"950": 9.128,"975": 9.6905,"1000": 11.3624,"1025": 12.1014,"1050": 12.1022,"1075": 12.906,"1100": 14.1599,"1125": 13.4221,"1150": 12.8774,"1175": 12.0107,"1200": 11.6905,"1225": 9.4888,"1250": 8.685,"1275": 9.1678,"1300": 9.2651,"1325": 10.2472,"1350": 11.1649,"1375": 11.4067,"1400": 10.6673,"1425": 10.8607,"1450": 10.8609,"1475": 9.8638,"1500": 8.7859,"1525": 7.933,"1550": 7.4183,"1575": 6.7428,"1600": 5.9383,"1625": 5.7291,"1650": 5.0853,"1675": 3.9264,"1700": 3.3633,"1725": 3.2025,"1750": 3.2509,"1775": 3.5082,"1800": 2.3658,"1825": 1.1107,"1850": 0.4829,"1875": 0.4671,"1900": 0.3866,"1925": 0.1289,"1950": 0.0805}}}