{"type": "Feature","bbox": [44.0529,38.2854,44.5095,38.7134],"geometry": {"type": "MultiPolygon","coordinates": [[[[44.2786,38.7134,2501.9756],[44.2757,38.7107,2472.3657],[44.2639,38.7072,2619.9724],[44.2453,38.7048,2380.7974],[44.2284,38.6997,2377.1514],[44.2171,38.6922,2303.9119],[44.206,38.6807,2211.7012],[44.1858,38.6475,2099.0857],[44.1607,38.6109,2204.2285],[44.1462,38.5852,2177.0303],[44.1468,38.5773,2174.7864],[44.1558,38.5613,2169.5222],[44.1622,38.5431,2188.5161],[44.1699,38.5304,2181.478],[44.1694,38.5234,2159.3687],[44.1637,38.5181,2131.7524],[44.1299,38.5049,2244.7791],[44.1199,38.4983,2381.3865],[44.1151,38.4914,2517.8228],[44.1086,38.4707,2363.2715],[44.0942,38.4517,2595.2505],[44.0697,38.4404,2673.1382],[44.0529,38.4371,2639.2212],[44.0573,38.4243,2512.499],[44.0856,38.3798,2591.1406],[44.1081,38.3569,2560.2588],[44.1171,38.3427,2764.562],[44.1325,38.3285,2931.3638],[44.1754,38.2956,2413.5134],[44.2,38.2974,2440.6121],[44.2316,38.297,2449.6362],[44.2465,38.2946,2393.3721],[44.2678,38.2873,2328.813],[44.2948,38.2854,2316.3008],[44.318,38.2874,2213.0371],[44.3392,38.2945,2251.9951],[44.353,38.296,2326.5405],[44.3634,38.2951,2428.6091],[44.3807,38.2895,2547.7498],[44.3902,38.2882,2654.6531],[44.4033,38.2912,2567.0195],[44.4232,38.303,2416.5488],[44.4398,38.3082,2414.6238],[44.4761,38.3113,2482.9534],[44.4915,38.3087,2650.2012],[44.5082,38.3218,2601.2095],[44.5095,38.3279,2726.4722],[44.5054,38.3487,2888.1846],[44.5011,38.3537,2881.7256],[44.4799,38.358,2840.2832],[44.4769,38.3655,2956.4011],[44.4667,38.379,2625.4802],[44.457,38.3851,2690.4944],[44.4512,38.3865,2744.7148],[44.4468,38.3856,2726.9312],[44.4385,38.38,2647.4883],[44.4186,38.3739,2625.0771],[44.3993,38.3649,2651.2935],[44.3867,38.3635,2696.5376],[44.3828,38.3653,2595.2],[44.3795,38.3737,2656.0542],[44.3765,38.3768,2577.8379],[44.3705,38.3775,2604.876],[44.3548,38.3738,2833.6208],[44.3457,38.3774,2552.1445],[44.323,38.3825,2588.8535],[44.3177,38.3854,2429.5518],[44.3167,38.3921,2256.907],[44.3217,38.4073,2369.6311],[44.322,38.4153,2356.4351],[44.3167,38.4359,2476.7759],[44.3173,38.4416,2400.6997],[44.3263,38.4582,2353.0732],[44.3395,38.5028,2239.0015],[44.3308,38.5247,2154.053],[44.3269,38.5501,2520.0308],[44.3275,38.5586,2666.2495],[44.3347,38.5835,2855.8843],[44.3368,38.6228,2638.6104],[44.3325,38.629,2596.9612],[44.316,38.6361,2652.1123],[44.2882,38.6443,2542.7563],[44.2855,38.6474,2516.3555],[44.2851,38.6508,2503.9612],[44.2997,38.6674,2469.4417],[44.3012,38.6717,2448.751],[44.2984,38.679,2547.2695],[44.2866,38.6943,2479.2844],[44.2837,38.7041,2559.1584],[44.2786,38.7134,2501.9756]]]]}
,"properties": {"GID_2": "TUR.78.12_1","GID_0": "TUR","country": "Turkey","GID_1": "TUR.78_1","province": "Van","NL_NAME_1": "NA","county": "Saray","VARNAME_2": "NA","NL_NAME_2": "NA","TYPE_2": "District","ENGTYPE_2": "District","CC_2": "NA","HASC_2": "TR.VA.SA","name": "Saray.county","area_km2": 862.9912,"hist_schema_id": "Elevation0-9000","hist_area_km2": {"2000": 0.0332,"2025": 0.6969,"2050": 1.4103,"2075": 1.7421,"2100": 5.8875,"2125": 12.3818,"2150": 14.5712,"2175": 22.349,"2200": 31.4735,"2225": 37.0651,"2250": 42.5937,"2275": 38.3294,"2300": 36.249,"2325": 36.8249,"2350": 34.6828,"2375": 34.4537,"2400": 35.9544,"2425": 39.5796,"2450": 40.5109,"2475": 40.9595,"2500": 41.2106,"2525": 41.6764,"2550": 38.588,"2575": 37.975,"2600": 34.884,"2625": 28.9205,"2650": 24.0548,"2675": 21.7629,"2700": 17.2785,"2725": 13.6088,"2750": 10.8339,"2775": 9.1055,"2800": 8.0254,"2825": 6.1327,"2850": 5.8334,"2875": 4.7519,"2900": 3.456,"2925": 2.4915,"2950": 1.8771,"2975": 0.9306,"3000": 0.6317,"3025": 0.3159,"3050": 0.3158,"3075": 0.133,"3100": 0.133,"3125": 0.0997,"3150": 0.0997,"3175": 0.0665,"3200": 0.0499}}}