{"type":"Feature","properties":{"GID_2":"TUR.68.3_1","GID_0":"TUR","country":"Turkey","GID_1":"TUR.68_1","province":"Sanliurfa","NL_NAME_1":"NA","county":"Bozova","VARNAME_2":"NA","NL_NAME_2":"NA","TYPE_2":"District","ENGTYPE_2":"District","CC_2":"NA","HASC_2":"TR.SU.BO","name":"Bozova.county"},
"geometry":{"type": "MultiPolygon","coordinates": [[[[38.0898,37.4201,523.1105],[38.0884,37.364,544.2925],[38.0899,37.3424,561.4052],[38.0931,37.3341,549.6091],[38.1214,37.2901,618.7965],[38.1324,37.2808,631.0122],[38.1525,37.2721,565.9885],[38.1769,37.2575,606.795],[38.2226,37.2402,612.9965],[38.2386,37.2321,606.5619],[38.2609,37.2132,664.9478],[38.2669,37.2041,653.7086],[38.2673,37.1896,648.1434],[38.2601,37.1747,639.0324],[38.26,37.1703,631.1627],[38.2743,37.1456,630.7857],[38.3135,37.1142,593.9617],[38.3245,37.1102,582.9716],[38.3333,37.1032,575.5264],[38.3719,37.103,587.0503],[38.3832,37.1014,577.1396],[38.3903,37.0988,573.725],[38.3988,37.0922,571.8633],[38.402,37.0869,555.7488],[38.4039,37.0788,552.6062],[38.4047,37.0611,565.0568],[38.42,37.0703,554.3257],[38.4286,37.0782,563.9257],[38.4326,37.0856,570.4557],[38.4375,37.1012,597.1356],[38.4455,37.115,598.5446],[38.4486,37.1325,642.1719],[38.448,37.1746,705.858],[38.4503,37.1826,703.116],[38.4557,37.1883,719.8538],[38.4642,37.1907,756.0961],[38.4721,37.1879,744.3269],[38.4851,37.1697,694.3911],[38.4951,37.1633,682.7125],[38.5053,37.1612,704.3502],[38.5159,37.1613,713.4908],[38.5437,37.1701,715.4988],[38.5675,37.1748,701.5529],[38.5854,37.1812,776.3817],[38.6158,37.1871,909.6339],[38.6428,37.1973,802.3361],[38.6549,37.2059,732.8486],[38.6701,37.2288,848.8004],[38.6732,37.237,853.9478],[38.6745,37.2523,848.461],[38.6741,37.2944,684.2008],[38.6774,37.311,685.2421],[38.7431,37.4125,697.1584],[38.732,37.4391,654.9471],[38.7023,37.4855,591.3868],[38.6962,37.4915,588.2268],[38.6884,37.4962,590.9854],[38.6431,37.5134,626.5881],[38.6135,37.5309,566.5795],[38.5768,37.5425,537.0],[38.5675,37.5402,537.0],[38.5589,37.5356,537.0],[38.5116,37.5017,537.0],[38.4783,37.4889,537.0],[38.4512,37.4864,537.0],[38.359,37.488,537.0],[38.3305,37.4844,537.0],[38.2704,37.4614,451.3542],[38.2587,37.4549,416.7866],[38.2288,37.4338,464.7129],[38.169,37.4073,385.9516],[38.1502,37.408,440.0005],[38.1289,37.4149,480.4944],[38.0898,37.4201,523.1105]]]]}}