{"type": "Feature","bbox": [30.447,37.5503,30.7459,37.7294],"geometry": {"type": "MultiPolygon","coordinates": [[[[30.7459,37.5622,517.5687],[30.7425,37.5728,498.5197],[30.7332,37.5892,447.4435],[30.7275,37.6077,625.264],[30.7175,37.6268,957.0967],[30.7153,37.6372,913.9838],[30.7158,37.6551,846.9705],[30.7131,37.6661,842.5654],[30.7026,37.678,1055.2891],[30.6944,37.6839,1190.8113],[30.6853,37.6887,1403.674],[30.6581,37.6988,931.3901],[30.6437,37.7016,993.6868],[30.56,37.7019,1728.5709],[30.5408,37.7036,1530.9834],[30.5042,37.717,1571.6931],[30.4843,37.7294,1407.8241],[30.4731,37.703,1699.2523],[30.4486,37.6664,1717.5171],[30.447,37.6611,1640.8351],[30.4477,37.6474,1591.5962],[30.458,37.6286,1625.7253],[30.4606,37.609,1709.2308],[30.4771,37.6001,1508.5596],[30.5013,37.5957,1099.9742],[30.5129,37.5909,1094.8622],[30.5667,37.5503,1306.7467],[30.6534,37.5511,1218.7927],[30.6693,37.5535,1115.8715],[30.6951,37.561,942.7931],[30.7459,37.5622,517.5687]]]]}
,"properties": {"GID_2": "TUR.20.1_1","GID_0": "TUR","country": "Turkey","GID_1": "TUR.20_1","province": "Burdur","NL_NAME_1": "NA","county": "Ağlasun","VARNAME_2": "NA","NL_NAME_2": "NA","TYPE_2": "District","ENGTYPE_2": "District","CC_2": "NA","HASC_2": "TR.BD.AG","name": "Ağlasun.county","area_km2": 352.3441,"hist_schema_id": "Elevation0-9000","hist_area_km2": {"425": 0.0168,"450": 0.0336,"475": 0.1512,"500": 0.1512,"525": 0.2688,"550": 0.3024,"575": 0.4201,"600": 0.5545,"625": 0.6385,"650": 0.8401,"675": 0.9577,"700": 1.4448,"725": 1.7638,"750": 2.3347,"775": 2.4184,"800": 2.7374,"825": 2.7371,"850": 3.123,"875": 2.9884,"900": 3.0724,"925": 3.7441,"950": 3.9119,"975": 4.4157,"1000": 4.735,"1025": 29.0441,"1050": 17.6512,"1075": 14.7957,"1100": 16.2404,"1125": 17.365,"1150": 18.7589,"1175": 16.1223,"1200": 17.0787,"1225": 15.0635,"1250": 13.6697,"1275": 12.3597,"1300": 9.9748,"1325": 7.9763,"1350": 7.3712,"1375": 6.5149,"1400": 6.6818,"1425": 6.2443,"1450": 5.959,"1475": 6.0425,"1500": 5.6393,"1525": 4.9174,"1550": 5.4544,"1575": 5.0684,"1600": 5.9741,"1625": 5.1349,"1650": 3.222,"1675": 2.9201,"1700": 2.8361,"1725": 2.8025,"1750": 2.5341,"1775": 2.0472,"1800": 1.9633,"1825": 1.8961,"1850": 1.7785,"1875": 1.7785,"1900": 1.1745,"1925": 1.3926,"1950": 0.9396,"1975": 0.8221,"2000": 0.8221,"2025": 0.5033,"2050": 0.3523,"2075": 0.2852,"2100": 0.1846,"2125": 0.2517,"2150": 0.2852,"2175": 0.1175,"2200": 0.302,"2225": 0.1846,"2250": 0.0839}}}