{"type": "Feature","bbox": [32.4701,41.7054,32.7457,41.8344],"geometry": {"type": "MultiPolygon","coordinates": [[[[32.5571,41.7054,701.9993],[32.5856,41.7083,659.8564],[32.6122,41.7231,925.9127],[32.6222,41.7268,871.1338],[32.6372,41.7286,827.2468],[32.6761,41.729,964.2546],[32.691,41.731,985.9622],[32.7243,41.7432,914.0213],[32.7457,41.7531,980.1862],[32.7267,41.7738,412.6813],[32.7032,41.8115,521.2499],[32.6842,41.8344,39.3153],[32.681,41.8343,0.0],[32.6807,41.8315,12.1114],[32.6768,41.8301,19.5886],[32.6735,41.8304,2.4189],[32.6743,41.8312,0.0],[32.6729,41.8324,0.0],[32.6665,41.8318,21.2828],[32.6668,41.8296,22.3302],[32.6654,41.829,0.0],[32.6446,41.8321,0.0],[32.6282,41.831,27.4255],[32.624,41.8321,0.0],[32.6218,41.831,0.0],[32.6215,41.8285,36.9759],[32.6193,41.8288,31.5551],[32.6179,41.8312,16.8442],[32.6149,41.8315,13.1235],[32.6096,41.8299,37.0867],[32.5996,41.8304,24.2026],[32.5893,41.8274,0.0],[32.5801,41.8274,0.0],[32.5776,41.826,6.6094],[32.5774,41.8149,66.5849],[32.5729,41.811,16.7843],[32.5499,41.811,0.0],[32.5465,41.8096,23.303],[32.5454,41.806,0.9271],[32.5426,41.8063,0.0],[32.5412,41.809,3.4827],[32.5382,41.8104,2.805],[32.5279,41.8071,8.3367],[32.5118,41.806,0.0],[32.509,41.8046,0.0],[32.5093,41.8029,62.4963],[32.504,41.8015,3.204],[32.5043,41.7988,2.4149],[32.5013,41.8018,0.0],[32.4987,41.8015,0.0],[32.501,41.7951,1.8416],[32.4907,41.7879,13.1346],[32.4868,41.7868,28.2797],[32.4851,41.781,2.913],[32.479,41.781,2.6662],[32.4787,41.7793,22.6592],[32.4746,41.779,2.4762],[32.4701,41.7765,0.0],[32.4845,41.7528,203.3252],[32.4923,41.7442,415.543],[32.5197,41.7235,527.0397],[32.5437,41.7134,263.8648],[32.5571,41.7054,701.9993]]]]}
,"properties": {"GID_2": "TUR.13.2_1","GID_0": "TUR","country": "Turkey","GID_1": "TUR.13_1","province": "Bartın","NL_NAME_1": "NA","county": "Kurucaşile","VARNAME_2": "NA","NL_NAME_2": "NA","TYPE_2": "District","ENGTYPE_2": "District","CC_2": "NA","HASC_2": "TR.BR.KU","name": "Kurucaşile.county","area_km2": 208.7772,"hist_schema_id": "Elevation0-9000","hist_area_km2": {"0": 3.9199,"25": 7.2719,"50": 7.414,"75": 7.8407,"100": 7.2083,"125": 7.1136,"150": 6.9712,"175": 6.5128,"200": 7.3985,"225": 7.8733,"250": 9.2334,"275": 8.886,"300": 9.0761,"325": 8.8547,"350": 8.7918,"375": 7.9538,"400": 7.1631,"425": 7.6061,"450": 7.2427,"475": 5.8197,"500": 5.9308,"525": 5.4408,"550": 3.6381,"575": 2.1196,"600": 1.7401,"625": 1.6928,"650": 1.5979,"675": 1.5979,"700": 2.1675,"725": 1.8194,"750": 1.6296,"775": 1.3606,"800": 1.2499,"825": 1.2182,"850": 2.0092,"875": 2.7687,"900": 3.4804,"925": 4.2556,"950": 4.4611,"975": 3.0057,"1000": 2.1356,"1025": 1.2022,"1050": 0.87,"1075": 0.617,"1100": 0.3006,"1125": 0.174,"1150": 0.0949,"1175": 0.0475}}}