{"type":"Feature","properties":{"GID_1":"TUR.71_1","GID_0":"TUR","country":"Turkey","province":"Sirnak","VARNAME_1":"Şırnak","NL_NAME_1":"NA","TYPE_1":"Il","ENGTYPE_1":"Province","CC_1":"NA","HASC_1":"TR.SR","ISO_1":"TR-73","name":"Sirnak.province"},
"geometry":{"type": "MultiPolygon","coordinates": [[[[42.8033,37.378,1660.8627],[42.8313,37.3716,1371.7882],[42.8346,37.3682,1377.5909],[42.8421,37.3513,1756.579],[42.8498,37.3469,1985.7985],[42.8731,37.3459,1906.4041],[42.8821,37.339,1902.1958],[42.8865,37.3376,1721.5692],[42.9214,37.3311,1902.3201],[42.9603,37.3179,2163.5586],[42.9737,37.3165,1777.2035],[42.9775,37.3174,1696.1084],[42.9874,37.3241,1865.9867],[43.02,37.333,1762.6997],[43.0271,37.3386,1872.6134],[43.0347,37.3527,1389.9358],[43.0381,37.3555,1403.2015],[43.068,37.3582,1393.823],[43.0917,37.3639,1243.3735],[43.1086,37.3652,1216.6228],[43.1289,37.3718,1070.2275],[43.1412,37.37,1152.7217],[43.1674,37.374,1617.123],[43.1705,37.3724,1618.1716],[43.1789,37.3592,1054.7236],[43.1819,37.3573,983.9544],[43.2081,37.3551,1225.1737],[43.2289,37.3447,1266.2],[43.234,37.3436,1366.5131],[43.2535,37.344,1400.0841],[43.2635,37.3356,1675.4202],[43.2797,37.3267,1448.2029],[43.2886,37.3166,1861.2843],[43.3118,37.312,2054.8879],[43.3255,37.3036,2093.6567],[43.3279,37.3039,2108.3472],[43.332,37.3157,2015.3745],[43.3346,37.3187,1922.5679],[43.3462,37.3265,2074.1602],[43.3601,37.3303,2026.4211],[43.37,37.3286,1834.8884],[43.3837,37.3199,1684.3706],[43.3938,37.3087,2158.7068],[43.501,37.2684,1321.7456],[43.4843,37.2837,1913.9376],[43.4729,37.3003,1486.7388],[43.4413,37.3277,2042.8468],[43.4366,37.3352,1743.7438],[43.4348,37.3492,2121.2134],[43.4349,37.5034,1347.3972],[43.4366,37.5225,2084.7222],[43.4639,37.5829,2280.1523],[43.4656,37.6299,2498.1187],[43.4677,37.642,2588.5432],[43.4907,37.679,2638.0283],[43.4942,37.6875,2803.4092],[43.4959,37.7026,2770.8291],[43.4957,37.7274,3052.1494],[43.3177,37.7279,2515.2783],[43.3019,37.7303,2455.2466],[43.2764,37.7379,2635.6653],[43.2155,37.741,2783.7246],[43.1678,37.7588,3007.2368],[43.1565,37.7616,2745.1152],[43.0542,37.7636,2138.5474],[43.0394,37.7683,2128.6738],[43.0169,37.7814,2268.6594],[42.9987,37.7899,2432.3044],[42.9891,37.7993,2344.2178],[42.9853,37.8093,2503.145],[42.9636,37.8105,2509.3181],[42.9392,37.8186,2539.262],[42.9001,37.823,2583.9385],[42.879,37.8301,2634.0813],[42.8682,37.832,2637.4412],[42.7835,37.8325,1875.9814],[42.7649,37.8343,1584.1901],[42.7549,37.838,1563.9573],[42.7318,37.8521,1532.1448],[42.7134,37.86,1851.3976],[42.6933,37.8724,2124.8916],[42.6803,37.8778,2040.3684],[42.6615,37.8797,2065.4319],[42.6034,37.8785,1992.2429],[42.5931,37.8761,1957.532],[42.5059,37.8425,1653.0226],[42.4935,37.8357,1883.3505],[42.4688,37.8161,2468.1831],[42.4548,37.7968,2210.5449],[42.4345,37.776,2019.5533],[42.4268,37.7641,1870.2188],[42.4105,37.7482,1558.3425],[42.3744,37.7218,1308.2581],[42.3528,37.7125,1638.0261],[42.3325,37.7002,2063.541],[42.3194,37.6949,1979.5334],[42.2961,37.693,1461.7822],[42.1798,37.6936,2135.7773],[42.1665,37.6908,2071.3572],[42.1622,37.6876,1924.0618],[42.1591,37.6818,1688.3259],[42.1342,37.684,1463.4474],[42.1093,37.6919,1427.9735],[42.0915,37.6934,1459.521],[42.0737,37.6918,1556.6011],[42.0458,37.683,1188.4742],[42.0206,37.6824,1007.0192],[41.9339,37.7053,939.8367],[41.9109,37.7218,1259.25],[41.8991,37.7267,1279.7538],[41.8889,37.7286,1157.7228],[41.894,37.7158,859.669],[41.9038,37.7053,816.2919],[41.9188,37.6936,777.8707],[41.9242,37.6807,734.3547],[41.9463,37.6579,1049.2079],[41.9573,37.6377,1121.4225],[41.9554,37.6289,968.4941],[41.9367,37.5997,725.5001],[41.9335,37.5859,760.2803],[41.9355,37.5692,930.9419],[41.9469,37.5476,1121.939],[41.9492,37.5255,963.4473],[41.9116,37.5027,850.9393],[41.902,37.4984,805.0482],[41.8872,37.4959,770.9504],[41.8406,37.4949,692.0345],[41.8265,37.4923,761.0574],[41.8081,37.4863,783.7364],[41.7696,37.4815,860.812],[41.7407,37.4683,894.5291],[41.7389,37.4569,831.6577],[41.7378,37.3574,746.3569],[41.739,37.3371,798.8521],[41.7427,37.3234,808.9189],[41.7564,37.2967,877.0862],[41.7632,37.2913,890.1151],[41.7689,37.2889,855.6796],[41.7791,37.2881,855.6063],[41.7995,37.2949,842.2455],[41.8231,37.3001,831.6722],[41.8422,37.307,788.5364],[41.8512,37.3065,793.7895],[41.8575,37.3016,802.1653],[41.8621,37.2876,826.9408],[41.8707,37.2709,842.437],[41.8755,37.2438,774.2627],[41.8857,37.2242,708.878],[41.888,37.2093,662.5234],[41.8864,37.1882,652.3859],[41.8752,37.1657,650.0317],[41.8692,37.139,623.9591],[41.9751,37.1596,603.1892],[42.0163,37.1774,568.6058],[42.0573,37.1889,564.0518],[42.0793,37.2016,542.0874],[42.1061,37.2129,504.7414],[42.1128,37.2191,494.8857],[42.1224,37.2354,481.5253],[42.1392,37.2494,481.5098],[42.1538,37.2598,475.0105],[42.1839,37.2751,474.0313],[42.1939,37.2822,462.2698],[42.2078,37.3002,363.3661],[42.2165,37.3152,364.6884],[42.2249,37.3191,375.3323],[42.2349,37.3157,438.821],[42.2286,37.2984,423.2805],[42.2188,37.284,365.8875],[42.2181,37.2805,366.2106],[42.2208,37.2775,357.0501],[42.2271,37.2766,366.353],[42.235,37.2805,358.8217],[42.2473,37.2804,356.1273],[42.2559,37.2788,367.4932],[42.267,37.2718,384.446],[42.2756,37.2711,374.4026],[42.295,37.2809,482.823],[42.3001,37.2746,417.3378],[42.3032,37.2651,359.4638],[42.3073,37.2613,353.9674],[42.3211,37.2568,407.515],[42.3275,37.2451,365.6512],[42.3351,37.2403,356.9771],[42.3498,37.2365,414.563],[42.3574,37.2275,386.8593],[42.3587,37.2181,352.8373],[42.3552,37.2106,360.401],[42.3402,37.1996,361.7968],[42.3353,37.1857,348.4503],[42.3371,37.1749,346.4636],[42.3494,37.1483,346.6935],[42.36,37.1352,377.0893],[42.3628,37.1269,341.1723],[42.3637,37.1093,338.6778],[42.3752,37.1178,342.4388],[42.3844,37.1175,344.0795],[42.3959,37.1121,343.9941],[42.4036,37.1121,345.3897],[42.4118,37.1163,348.7321],[42.4268,37.1197,368.7644],[42.4348,37.1243,363.6332],[42.4507,37.128,359.6649],[42.4604,37.1334,364.6996],[42.472,37.1365,368.7537],[42.4839,37.1362,367.409],[42.493899999999996,37.1338,369.477],[42.5122,37.134,375.4881],[42.5267,37.145,378.8786],[42.5363,37.1488,383.2378],[42.5644,37.1482,391.0302],[42.5806,37.1454,394.0762],[42.5916,37.1473,398.3723],[42.596,37.1702,430.2837],[42.6022,37.1792,433.0826],[42.6159,37.1905,449.8207],[42.6216,37.1972,464.5156],[42.6238,37.208,489.9692],[42.627,37.214,510.6118],[42.642,37.2225,624.7656],[42.6525,37.2316,561.2477],[42.6581,37.2411,509.8661],[42.6646,37.262,638.4243],[42.6744,37.2702,550.8816],[42.6856,37.2705,586.2961],[42.6933,37.2806,637.025],[42.7007,37.2854,678.1019],[42.7032,37.2908,569.4094],[42.6989,37.3025,649.1854],[42.6993,37.3054,775.0647],[42.7046,37.3076,560.6148],[42.7268,37.3096,617.2093],[42.737,37.3134,657.1016],[42.7433,37.318,702.8872],[42.7459,37.3244,675.3385],[42.7433,37.3314,701.1167],[42.7308,37.3451,643.4182],[42.7343,37.3479,1092.3796],[42.7742,37.3564,1523.2571],[42.7847,37.363,1352.5044],[42.7936,37.3744,1767.9468],[42.8033,37.378,1660.8627]]]]}}