{"type":"Feature","properties":{"ISO3166-1-Alpha-3":"TUR","country":"Turkey","fill":"#FF0","id":"3044","name":"Sirnak"},
"geometry":{"type": "Polygon","coordinates": [[[43.29021,37.72726,2414.2163],[43.26426,37.73178,2876.1843],[43.18882,37.75697,2500.1914],[43.10293,37.76609,2544.1021],[43.02335,37.73165,2405.7761],[43.01188,37.67538,2117.074],[42.95048,37.62597,2525.0513],[42.78109,37.63837,1683.6718],[42.56973,37.663,1225.9399],[42.36757,37.70442,1597.0311],[42.23539,37.70855,1741.6934],[42.15704,37.64664,1188.4199],[41.95871,37.65902,903.2876],[41.81691,37.71382,425.75],[41.87603,37.58877,463.2537],[41.90497,37.50197,824.4269],[41.89256,37.43585,796.2103],[41.81815,37.40692,735.3737],[41.72307,37.3656,786.7909],[41.68183,37.32842,838.1253],[41.69826,37.28708,859.4572],[41.81402,37.25814,948.6231],[41.87603,37.21682,698.2208],[41.89629,37.15453,632.6261],[41.89637,37.15428,632.6261],[42.00925,37.17561,567.7015],[42.05297,37.19665,572.1749],[42.12831,37.25328,490.8354],[42.17854,37.3063,483.5615],[42.19301,37.31323,391.1035],[42.2112,37.32491,364.9919],[42.22257,37.31395,363.4521],[42.22381,37.30238,394.9257],[42.22216,37.2924,410.519],[42.22319,37.28814,392.7386],[42.23683,37.2863,416.2564],[42.26722,37.27452,354.6478],[42.2729,37.27674,353.4658],[42.27921,37.28227,358.7129],[42.28582,37.28656,397.9646],[42.29202,37.28506,483.0117],[42.29636,37.27969,470.4923],[42.30143,37.26992,380.7115],[42.30577,37.26455,360.6123],[42.33988,37.24264,417.5441],[42.3467,37.23977,387.4729],[42.35321,37.22703,373.8878],[42.33533,37.17117,345.459],[42.3467,37.15843,355.9984],[42.35455,37.15241,352.3737],[42.35651,37.13828,347.556],[42.35724,37.10998,339.6442],[42.40189,37.11414,347.0126],[42.45914,37.12931,362.5376],[42.54524,37.14089,397.3581],[42.56126,37.14662,389.8],[42.56467,37.15205,391.6841],[42.57697,37.17923,428.8415],[42.70233,37.32535,934.291],[42.70616,37.33323,1389.3955],[42.7074,37.34015,1398.2546],[42.70946,37.34718,1163.9646],[42.71567,37.35529,726.4478],[42.72218,37.35891,907.7021],[42.77158,37.3749,1484.7056],[42.78047,37.3755,1895.1653],[42.79246,37.37433,1767.9468],[42.80114,37.36909,1720.5826],[42.80548,37.35186,1487.9098],[42.81406,37.34682,1700.1212],[42.89674,37.32491,1818.3174],[42.93705,37.32015,1999.0974],[42.97963,37.33183,1787.0059],[43.00516,37.34726,1757.8149],[43.0435,37.36025,1493.9558],[43.08371,37.36883,1201.3682],[43.11481,37.37113,1198.9553],[43.13197,37.36726,1227.1799],[43.26338,37.3107,1790.0378],[43.27031,37.30868,1792.5369],[43.27863,37.30775,1862.7094],[43.28752,37.30914,1952.2007],[43.29687,37.31674,1817.2705],[43.30566,37.31997,1750.6489],[43.32416,37.32222,2073.5461],[43.33615,37.32023,1901.3213],[43.36251,37.30391,1891.7648],[43.37599,37.32475,1652.2651],[43.401,37.378,2638.2329],[43.40927,37.46479,2703.1062],[43.3762,37.53091,1831.8535],[43.35966,37.58463,2791.4321],[43.38033,37.64248,2799.5454],[43.38684,37.73364,2337.3687],[43.33857,37.72824,2560.9541],[43.29021,37.72726,2414.2163]]]}}