{"type":"Feature","properties":{"GID_2":"TUR.25.5_1","GID_0":"TUR","country":"Turkey","GID_1":"TUR.25_1","province":"Denizli","NL_NAME_1":"NA","county":"Bekilli","VARNAME_2":"NA","NL_NAME_2":"NA","TYPE_2":"District","ENGTYPE_2":"District","CC_2":"NA","HASC_2":"TR.DN.BL","name":"Bekilli.county"},
"geometry":{"type": "MultiPolygon","coordinates": [[[[29.5117,38.1045,838.4419],[29.5165,38.1273,1026.5753],[29.5203,38.1351,1012.6068],[29.5289,38.1439,1049.0764],[29.5672,38.1743,965.7233],[29.5726,38.1813,968.7654],[29.5759,38.1918,986.7047],[29.5565,38.1924,1152.2197],[29.5441,38.1953,1180.8203],[29.5053,38.2217,1096.2753],[29.4843,38.2304,990.5989],[29.4603,38.245,924.1054],[29.4393,38.2537,902.1014],[29.4259,38.2617,1039.7634],[29.4122,38.2593,986.6835],[29.382,38.2479,972.9402],[29.3493,38.2295,749.1295],[29.3254,38.225,660.6096],[29.3043,38.2177,593.6586],[29.2894,38.215,588.1709],[29.2923,38.1996,710.2838],[29.2973,38.1935,728.5403],[29.3402,38.175,969.7285],[29.3788,38.1489,832.6716],[29.442,38.1246,684.7666],[29.4843,38.1194,1083.5151],[29.5117,38.1045,838.4419]]]]}}