{"type": "Feature","bbox": [41.8975,38.456,42.2599,38.6948],"geometry": {"type": "MultiPolygon","coordinates": [[[[42.0562,38.6948,1809.6517],[42.0208,38.6679,1279.0514],[41.9888,38.6534,1278.0852],[41.9405,38.6181,1288.0477],[41.8975,38.6027,1489.3827],[41.9102,38.5869,1610.8517],[41.9135,38.5805,1605.3345],[41.9136,38.5761,1653.6797],[41.9074,38.5607,1501.7323],[41.9082,38.5472,1754.5697],[41.9127,38.5397,1964.0577],[41.9304,38.5217,1745.1161],[41.9344,38.5135,1790.4039],[41.936,38.4862,1812.8062],[41.9322,38.456,1468.1343],[41.9707,38.472,1711.7482],[41.9906,38.4738,2257.3303],[42.0526,38.4734,2250.4312],[42.0769,38.4746,2133.8572],[42.1057,38.4831,1943.1256],[42.1294,38.4877,2032.8416],[42.1526,38.4955,1883.5361],[42.1698,38.5163,1790.345],[42.1739,38.5238,1791.1321],[42.1759,38.5355,1885.0787],[42.1764,38.5658,1958.5161],[42.1804,38.5797,1989.0017],[42.1958,38.6031,2318.2727],[42.2184,38.6257,2247.5],[42.233,38.6491,2482.3977],[42.2411,38.6726,2536.3633],[42.2599,38.6947,2400.4951],[42.0562,38.6948,1809.6517]]]]}
,"properties": {"GID_2": "TUR.18.3_1","GID_0": "TUR","country": "Turkey","GID_1": "TUR.18_1","province": "Bitlis","NL_NAME_1": "NA","county": "Güroymak","VARNAME_2": "NA","NL_NAME_2": "NA","TYPE_2": "District","ENGTYPE_2": "District","CC_2": "NA","HASC_2": "TR.BT.GU","name": "Güroymak.county","area_km2": 526.9513,"hist_schema_id": "Elevation0-9000","hist_area_km2": {"1275": 41.5191,"1300": 30.1529,"1325": 17.8099,"1350": 16.7496,"1375": 16.5999,"1400": 15.5232,"1425": 13.3538,"1450": 14.365,"1475": 12.7591,"1500": 13.0909,"1525": 12.4289,"1550": 12.9278,"1575": 13.757,"1600": 12.9953,"1625": 13.56,"1650": 13.9093,"1675": 13.7445,"1700": 12.1868,"1725": 14.4431,"1750": 13.4823,"1775": 12.2551,"1800": 10.232,"1825": 10.1144,"1850": 9.053,"1875": 9.2515,"1900": 9.0374,"1925": 8.9546,"1950": 9.2533,"1975": 8.6393,"2000": 6.982,"2025": 6.3848,"2050": 6.3672,"2075": 5.5882,"2100": 5.7204,"2125": 5.14,"2150": 4.7594,"2175": 4.5769,"2200": 4.1447,"2225": 4.5252,"2250": 7.821,"2275": 3.8456,"2300": 2.7185,"2325": 2.5194,"2350": 2.9333,"2375": 2.7345,"2400": 3.181,"2425": 3.3294,"2450": 2.1209,"2475": 2.6008,"2500": 1.9885,"2525": 2.3189,"2550": 1.8549,"2575": 1.8879,"2600": 1.9206,"2625": 1.7385,"2650": 2.0862,"2675": 2.3675,"2700": 2.1357,"2725": 1.9372,"2750": 1.4736,"2775": 1.4239,"2800": 1.1424,"2825": 0.9106,"2850": 1.01,"2875": 0.5133,"2900": 0.0993}}}