{"type":"Feature","properties":{"GID_2":"TUR.7.24_1","GID_0":"TUR","country":"Turkey","GID_1":"TUR.7_1","province":"Ankara","NL_NAME_1":"NA","county":"Yenimahalle","VARNAME_2":"NA","NL_NAME_2":"NA","TYPE_2":"District","ENGTYPE_2":"District","CC_2":"NA","HASC_2":"TR.AN.YM","name":"Yenimahalle.county"},
"geometry":{"type": "MultiPolygon","coordinates": [[[[32.8764,39.9712,892.6125],[32.8066,39.9969,1128.6488],[32.7798,40.0074,911.7292],[32.772,40.0121,925.9337],[32.766,40.0182,945.759],[32.753,40.0391,1178.3596],[32.7472,40.0574,1298.0228],[32.7419,40.0671,1240.7267],[32.7337,40.0754,1363.8663],[32.7262,40.0727,1262.2111],[32.7223,40.0696,1264.0068],[32.7152,40.0537,1164.7787],[32.7022,40.0427,1068.426],[32.6871,40.0364,981.8683],[32.6571,40.0199,924.2964],[32.6179,40.0157,925.6379],[32.5944,40.0114,980.2792],[32.5845,39.9903,822.8915],[32.5831,39.9754,790.3334],[32.5842,39.9698,793.2839],[32.5887,39.9629,794.0093],[32.5983,39.9591,800.6227],[32.6097,39.9651,791.5865],[32.6182,39.9642,792.9943],[32.6264,39.9579,797.649],[32.6318,39.949,816.0504],[32.6376,39.9432,830.0508],[32.6598,39.9328,817.2504],[32.669,39.9256,823.6053],[32.6728,39.918,830.947],[32.6729,39.9069,867.7734],[32.6694,39.8989,916.6505],[32.663,39.8921,963.0293],[32.6364,39.8724,1002.7283],[32.6235,39.8672,1078.7561],[32.6128,39.8659,1112.3898],[32.5346,39.8658,1047.239],[32.5176,39.861,1058.0605],[32.4993,39.8468,934.4599],[32.4836,39.8251,967.7544],[32.4611,39.8092,919.3007],[32.4633,39.8021,950.5317],[32.4818,39.7714,936.2631],[32.5022,39.7532,994.9036],[32.521,39.7416,1051.2633],[32.5483,39.7362,1126.0509],[32.5571,39.7329,1174.9453],[32.6002,39.7039,1239.8521],[32.6475,39.7419,1252.0349],[32.6552,39.7504,1243.5792],[32.6625,39.7624,1223.9828],[32.6835,39.7831,1201.5759],[32.705,39.8185,1158.4368],[32.7154,39.8319,1156.1017],[32.7346,39.863,1066.2522],[32.7414,39.8715,1013.7281],[32.7849,39.9069,881.0823],[32.7977,39.9254,867.4056],[32.811,39.9375,867.8644],[32.8245,39.9453,843.7532],[32.84,39.9509,844.9495],[32.8764,39.9712,892.6125]]]]}}