{"type": "Feature","bbox": [32.681,40.851,34.5993,42.0204],"geometry": {"type": "MultiPolygon","coordinates": [[[[33.7508,41.0714,1764.0504],[33.7707,41.0778,1810.8422],[33.7871,41.0875,1766.656],[33.821,41.0973,1745.1671],[33.8349,41.0957,1898.8202],[33.8467,41.0891,2030.6575],[33.8541,41.0826,2185.146],[33.8581,41.0778,1992.9401],[33.8619,41.0668,1719.3505],[33.8606,41.0528,2079.7998],[33.8577,41.0451,2024.8672],[33.8259,41.0248,2032.549],[33.8023,41.0068,1635.7056],[33.7912,40.9959,1488.7318],[33.7875,40.9881,1470.8794],[33.7859,40.9768,1796.9789],[33.7868,40.9568,1640.4869],[33.7895,40.9486,1424.9476],[33.7998,40.9371,1127.5814],[33.8297,40.9161,783.5107],[33.8929,40.8916,1013.3163],[33.9257,40.8829,1277.7738],[33.9532,40.8688,1650.9948],[33.9803,40.8633,1776.0905],[34.0015,40.8563,1537.5898],[34.0359,40.851,1542.2826],[34.0672,40.8561,1544.7094],[34.0884,40.8633,1587.5945],[34.1156,40.8686,1716.1952],[34.1635,40.8866,1493.5443],[34.1907,40.892,1390.62],[34.2142,40.9029,1532.4795],[34.2544,40.9153,1568.2878],[34.2778,40.9272,1600.7148],[34.2819,40.9346,1624.7029],[34.2832,40.9459,1650.613],[34.2821,40.964,1496.2118],[34.2791,40.9763,1496.9762],[34.2451,40.9985,1303.4235],[34.2261,41.0086,1037.395],[34.2105,41.0294,473.9361],[34.2106,41.04,473.6082],[34.2798,41.1463,1652.098],[34.291,41.1674,1893.0941],[34.3017,41.1734,1893.614],[34.3083,41.1792,1829.3008],[34.3177,41.193,1824.4453],[34.3383,41.2139,1639.0951],[34.3497,41.2304,1529.8762],[34.3792,41.2558,1699.6279],[34.3947,41.2771,1441.1931],[34.4168,41.2962,1236.8796],[34.4344,41.3061,1266.2262],[34.4486,41.3081,1150.4493],[34.4595,41.3076,1331.0287],[34.4756,41.3039,1396.4865],[34.4783,41.3306,1179.8458],[34.4786,41.3923,1010.5878],[34.4761,41.4087,1070.5183],[34.4661,41.4287,1187.6487],[34.4639,41.4416,1264.7831],[34.4651,41.5409,1199.6431],[34.4806,41.5444,1282.9045],[34.5109,41.5561,1241.8639],[34.5466,41.5805,1034.3484],[34.5671,41.5925,1006.9346],[34.5804,41.6092,650.1165],[34.5962,41.6349,434.9203],[34.5989,41.6459,556.3934],[34.5993,41.669,1066.308],[34.589,41.673,1311.5464],[34.573,41.6889,1188.2126],[34.5564,41.7003,1274.8923],[34.4931,41.7248,1486.5935],[34.4737,41.7272,1305.3872],[34.4169,41.7281,1450.8575],[34.4056,41.73,1452.1633],[34.381,41.7377,1317.3082],[34.3409,41.7411,1344.894],[34.3158,41.7393,1718.2476],[34.2691,41.7391,1568.8649],[34.2694,41.7895,1042.3065],[34.2672,41.805,768.5225],[34.2517,41.8314,433.1406],[34.2288,41.8657,584.7647],[34.2256,41.874,643.7285],[34.224,41.8896,430.9616],[34.2243,41.9249,266.3427],[34.2265,41.9551,0.923],[34.2251,41.954,0.9203],[34.2151,41.9546,2.9689],[34.1751,41.9593,3.0826],[34.1712,41.9604,50.2385],[34.1712,41.964,0.0],[34.1693,41.9613,4.9333],[34.1671,41.9618,33.7204],[34.1679,41.9657,0.558],[34.1735,41.9646,0.0],[34.1704,41.9663,0.0],[34.1629,41.9654,33.1604],[34.1607,41.9674,0.0],[34.1349,41.9701,87.582],[34.1082,41.9765,81.2698],[34.106,41.9782,18.2681],[34.0957,41.9793,0.0],[34.0721,41.9785,28.0171],[34.0563,41.981,0.0],[34.0496,41.9796,10.3556],[34.0462,41.9821,0.0],[34.0438,41.9799,18.1754],[34.0324,41.9793,1.2642],[34.0246,41.9799,2.4214],[34.024,41.9826,0.0],[34.0218,41.9826,0.0],[34.0179,41.981,0.8873],[33.9821,41.9793,0.0],[33.9685,41.981,0.0],[33.9629,41.9765,28.6828],[33.956,41.9768,9.7575],[33.9457,41.974,2.2615],[33.9296,41.9751,6.6382],[33.9224,41.9732,14.1552],[33.9096,41.974,0.0],[33.9029,41.9721,0.0],[33.8937,41.9721,0.0],[33.8904,41.974,0.0],[33.8921,41.9751,0.0],[33.8913,41.9762,0.0],[33.8818,41.9735,19.4742],[33.8496,41.9749,4.0155],[33.8432,41.9732,28.8013],[33.8357,41.9743,0.0],[33.8293,41.9729,11.0318],[33.814,41.9751,18.4531],[33.8135,41.9768,8.0619],[33.8049,41.9751,33.9327],[33.7979,41.9771,0.0],[33.7924,41.9735,23.8495],[33.7835,41.9729,15.0356],[33.7751,41.9749,11.6582],[33.7715,41.9765,1.0748],[33.7701,41.9793,0.0],[33.7671,41.9785,2.1449],[33.7654,41.9799,5.2686],[33.7729,41.9801,0.0],[33.774,41.9815,0.7485],[33.7651,41.9821,0.0],[33.7632,41.9799,28.8386],[33.7535,41.9779,2.8521],[33.7412,41.9774,1.226],[33.7254,41.9785,4.7005],[33.7199,41.9804,15.1067],[33.6785,41.9804,54.7444],[33.6601,41.9849,2.9152],[33.6457,41.9837,49.6314],[33.6338,41.9846,23.9611],[33.6318,41.9863,0.0],[33.6207,41.9851,48.9844],[33.6168,41.9865,1.5007],[33.6176,41.9885,0.3484],[33.6149,41.9868,2.9117],[33.5818,41.9888,16.2885],[33.5785,41.9912,6.3737],[33.5721,41.9904,95.8532],[33.5696,41.9921,0.0],[33.5679,41.9912,28.0036],[33.5665,41.9932,10.4607],[33.5593,41.994,10.8919],[33.5588,41.996,0.0],[33.5535,41.9974,0.0],[33.5415,41.9979,16.6512],[33.5351,42.0007,0.0],[33.5296,42.0004,12.1574],[33.5285,42.0018,0.0],[33.5235,42.0007,0.0],[33.516,42.004,0.0],[33.4938,42.0035,19.6433],[33.4929,42.0049,0.0],[33.4776,42.0054,46.2367],[33.4754,42.0068,0.0],[33.4646,42.0062,7.569],[33.4613,42.0074,0.0],[33.4629,42.0104,0.0],[33.4554,42.0121,0.0],[33.4487,42.0099,12.4437],[33.4421,42.0126,0.0],[33.4321,42.009,0.0],[33.4251,42.0099,0.0],[33.4182,42.0082,24.1146],[33.4188,42.0096,0.0],[33.4132,42.0088,0.0],[33.4082,42.0112,31.0112],[33.4071,42.014,0.0],[33.4038,42.0149,0.0],[33.3979,42.0121,15.6304],[33.3971,42.0151,2.1478],[33.3913,42.0168,2.9887],[33.3829,42.016,12.0974],[33.3812,42.0182,6.321],[33.3754,42.0182,0.0],[33.374,42.0163,3.2295],[33.3629,42.016,0.4115],[33.3607,42.0165,2.4839],[33.3615,42.0187,0.0],[33.3585,42.0199,0.0],[33.3571,42.0185,0.0],[33.3601,42.0182,0.4664],[33.3596,42.0171,0.4664],[33.3518,42.0196,0.0],[33.3471,42.0187,15.6971],[33.3421,42.0201,4.5483],[33.3399,42.0187,56.3923],[33.3382,42.0204,2.0703],[33.3346,42.0182,40.7945],[33.3299,42.0187,0.0],[33.3229,42.016,5.2663],[33.3196,42.0163,0.0],[33.3118,42.0104,37.4037],[33.2971,42.0079,0.0],[33.2971,42.0062,11.2738],[33.291,42.0035,16.1965],[33.279,42.0004,24.3912],[33.2754,41.9957,6.1096],[33.2637,41.9896,35.6252],[33.2443,41.9849,27.9556],[33.2399,41.9854,19.1535],[33.2299,41.9801,8.6525],[33.2221,41.9804,31.9546],[33.2196,41.9787,96.9353],[33.2129,41.9801,0.0],[33.2076,41.9749,18.5328],[33.2035,41.9738,0.0],[33.2012,41.9749,1.6435],[33.1965,41.9712,22.1087],[33.1929,41.9715,16.4044],[33.1904,41.9676,129.8757],[33.1824,41.9657,26.2701],[33.1793,41.9668,1.3959],[33.1724,41.9615,0.0],[33.1721,41.959,0.0],[33.1688,41.9582,0.0],[33.169,41.9554,63.0432],[33.1604,41.9535,21.0767],[33.1576,41.9546,0.0],[33.1535,41.9524,6.9858],[33.1471,41.9532,0.0],[33.1426,41.9482,51.4361],[33.1326,41.9501,33.4827],[33.1224,41.949,0.0],[33.1096,41.9463,0.0],[33.1054,41.9432,47.1792],[33.0962,41.9432,13.8875],[33.0851,41.939,0.0],[33.0707,41.9374,0.0],[33.0668,41.9346,8.1394],[33.0485,41.9332,1.7214],[33.0468,41.931,4.6414],[33.0435,41.9321,0.0],[33.0379,41.9287,73.3148],[33.0274,41.9274,0.0],[33.0276,41.9221,0.0],[33.0171,41.9154,82.377],[33.0124,41.9168,5.1255],[33.0065,41.9115,31.2997],[32.9888,41.9099,24.1172],[32.9821,41.9074,0.0],[32.9815,41.904,21.5879],[32.9771,41.9001,0.0],[32.9815,41.9029,0.6728],[32.9857,41.9018,0.0],[32.9857,41.9001,0.6972],[32.9826,41.899,0.0],[32.9799,41.9004,0.0],[32.9821,41.8963,1.7472],[32.971,41.8904,4.3586],[32.9368,41.8818,0.4518],[32.914,41.8735,4.5635],[32.8868,41.8671,0.0],[32.8735,41.8679,26.109],[32.8621,41.8635,17.4225],[32.8607,41.861,0.9893],[32.8632,41.8601,27.2901],[32.8599,41.8587,74.6758],[32.8574,41.859,0.0],[32.8579,41.861,0.0],[32.8413,41.8613,2.3132],[32.8374,41.8599,39.1769],[32.8329,41.8624,0.0],[32.8226,41.8601,14.7765],[32.8218,41.8579,0.0],[32.8174,41.856,1.0324],[32.8146,41.8576,0.0],[32.7996,41.859,0.0],[32.7762,41.8593,0.0],[32.7749,41.8576,9.1844],[32.7771,41.8565,10.0713],[32.7701,41.8532,0.0],[32.7665,41.8488,18.382],[32.7574,41.8501,0.0],[32.7576,41.8482,4.736],[32.7521,41.8474,0.0],[32.7499,41.849,0.0],[32.7371,41.8496,2.8992],[32.7332,41.849,0.0],[32.7274,41.8454,21.1657],[32.7226,41.8451,4.1735],[32.7215,41.8451,4.1735],[32.7221,41.8474,0.5021],[32.7163,41.8485,3.1645],[32.7118,41.8457,0.0],[32.7121,41.8429,5.2689],[32.7079,41.8379,7.4402],[32.6935,41.8385,13.9348],[32.6846,41.8371,0.0],[32.681,41.8346,0.0],[32.6842,41.8344,39.3153],[32.7032,41.8115,521.2499],[32.7267,41.7738,412.6813],[32.7508,41.7475,996.02],[32.7612,41.7323,1081.9058],[32.7649,41.7198,1018.3341],[32.7633,41.711,1098.2822],[32.7681,41.6971,1035.2679],[32.7744,41.6843,892.7413],[32.7939,41.6576,503.6062],[32.8005,41.6364,737.3858],[32.8144,41.6127,1015.6434],[32.8273,41.5956,1152.8798],[32.836,41.5889,950.625],[32.8551,41.5801,1130.8875],[32.9256,41.554,1178.1385],[32.945,41.5506,1079.0178],[32.9525,41.5464,874.8036],[32.9604,41.5394,851.3737],[33.0247,41.4382,974.1374],[33.0448,41.4165,1016.0037],[33.0264,41.3921,924.2853],[33.0192,41.3799,968.3649],[33.0109,41.3708,1027.4288],[32.9872,41.3528,1063.3844],[32.9604,41.3407,968.7756],[32.9511,41.3336,992.1132],[32.9138,41.2755,968.8947],[32.9158,41.2592,891.2758],[32.9173,41.2146,508.1896],[32.9201,41.2056,407.3394],[32.9276,41.1952,442.3586],[32.9452,41.191,623.0178],[32.9753,41.1793,850.9933],[32.9915,41.1696,720.7753],[33.0259,41.1423,508.428],[33.0319,41.1359,488.1956],[33.0426,41.1196,493.2218],[33.0771,41.0889,1150.7039],[33.1482,41.087,999.4327],[33.1584,41.0846,810.1271],[33.2152,41.0624,712.8531],[33.2445,41.045,695.1744],[33.2963,41.0247,857.359],[33.3229,41.0049,699.2245],[33.3316,40.996,732.5692],[33.3391,40.9841,927.3492],[33.3499,40.9747,1161.5846],[33.3858,40.961,1600.9254],[33.4226,40.9597,1709.795],[33.4492,40.9623,1469.1626],[33.4489,40.9663,1395.6372],[33.4535,40.9704,1400.2734],[33.4669,40.9749,1415.0135],[33.478,40.981,1499.3445],[33.4967,40.9864,1601.2997],[33.5056,40.9912,1660.5328],[33.5163,40.9937,1623.3837],[33.5466,40.9945,1509.665],[33.5498,41.0008,1666.832],[33.5535,41.0043,1790.8922],[33.5775,41.016,2080.033],[33.608,41.0269,1966.6741],[33.632,41.0312,2047.826],[33.6532,41.0384,2172.3467],[33.6836,41.0445,1997.1715],[33.7508,41.0714,1764.0504]]]]}
,"properties": {"GID_1": "TUR.46_1","GID_0": "TUR","country": "Turkey","province": "Kastamonu","VARNAME_1": "NA","NL_NAME_1": "NA","TYPE_1": "Il","ENGTYPE_1": "Province","CC_1": "NA","HASC_1": "TR.KS","ISO_1": "TR-37","name": "Kastamonu.province","area_km2": 13448.48,"hist_schema_id": "Elevation0-9000","hist_area_km2": {"0": 16.43,"25": 22.16,"50": 24.43,"75": 26.39,"100": 31.39,"125": 36.11,"150": 41.89,"175": 45.58,"200": 46.54,"225": 49.86,"250": 50.66,"275": 54.19,"300": 54.58,"325": 55.03,"350": 56.56,"375": 65.89,"400": 69.32,"425": 74.37,"450": 79.07,"475": 94.45,"500": 102.07,"525": 113.14,"550": 130.06,"575": 137.54,"600": 153.38,"625": 174.12,"650": 188.11,"675": 204.1,"700": 215.89,"725": 225.26,"750": 231.1,"775": 234.1,"800": 239.02,"825": 247.22,"850": 266.08,"875": 291.39,"900": 306.04,"925": 333.26,"950": 361.44,"975": 387.69,"1000": 422.95,"1025": 453.21,"1050": 478.42,"1075": 471.98,"1100": 458.33,"1125": 447.39,"1150": 442.91,"1175": 423.87,"1200": 407.47,"1225": 388.56,"1250": 353.08,"1275": 314.51,"1300": 284.52,"1325": 247.82,"1350": 215.38,"1375": 194.43,"1400": 174.92,"1425": 162.6,"1450": 145.46,"1475": 138.45,"1500": 134.44,"1525": 129.77,"1550": 118.44,"1575": 115.58,"1600": 107.45,"1625": 97.34,"1650": 86.76,"1675": 74.92,"1700": 62.93,"1725": 51.64,"1750": 41.41,"1775": 33.86,"1800": 29.69,"1825": 25.88,"1850": 23.0,"1875": 20.42,"1900": 17.52,"1925": 15.59,"1950": 13.44,"1975": 11.89,"2000": 10.5,"2025": 9.43,"2050": 8.2,"2075": 6.87,"2100": 6.63,"2125": 5.5,"2150": 5.26,"2175": 4.59,"2200": 3.98,"2225": 3.47,"2250": 2.49,"2275": 1.93,"2300": 1.71,"2325": 0.99,"2350": 0.89,"2375": 0.69,"2400": 0.56,"2425": 0.24,"2450": 0.11}}}