{"type":"Feature","properties":{"ISO3166-1-Alpha-3":"TUR","country":"Turkey","fill":"#00F","id":"2270","name":"Kastamonu"},
"geometry":{"type": "Polygon","coordinates": [[[34.21613,41.96014,0.0],[34.00359,41.98265,0.0],[33.87355,41.97443,0.0],[33.84523,41.98265,0.0],[33.82716,41.97769,0.0],[33.61345,41.99372,0.0],[33.56324,42.00772,0.0],[33.54054,42.01065,0.0],[33.43434,42.01065,0.0],[33.36085,42.02066,0.0],[33.32447,42.01903,0.0],[33.16554,41.95698,0.0],[33.00807,41.9173,0.0],[32.96192,41.89411,0.0],[32.92612,41.88182,0.0],[32.85564,41.86831,0.0],[32.84457,41.87279,0.0],[32.82748,41.86469,0.0],[32.79851,41.85969,0.0],[32.80831,41.79951,638.832],[32.8366,41.75506,1380.3184],[32.87297,41.68232,862.5772],[32.80847,41.64785,653.0562],[32.81798,41.57635,1143.3516],[32.85219,41.54775,1083.6587],[32.91306,41.55478,1089.6693],[32.98612,41.57322,970.96],[33.05885,41.53281,990.709],[33.08714,41.44391,929.2105],[33.11542,41.39542,1033.2305],[33.01703,41.38037,966.9433],[32.96474,41.34115,967.8141],[32.91937,41.29443,936.5229],[32.91027,41.26056,897.3674],[32.9297,41.1533,738.6246],[32.98582,41.147,640.2946],[33.03801,41.12886,465.7917],[33.05951,41.10581,486.3945],[33.06923,41.09302,865.6139],[33.09217,41.07041,761.9884],[33.10571,41.06127,749.7284],[33.23459,41.05039,690.6922],[33.32554,41.00494,689.4655],[33.36234,40.97125,1353.3765],[33.40895,40.95985,1731.0181],[33.4475,40.97088,1444.4769],[33.55251,41.0177,2233.7468],[33.63002,41.02856,2136.1157],[33.79218,41.09398,1852.2544],[33.82587,41.10372,1706.8894],[33.84086,41.09661,2043.1689],[33.8512,41.05731,2024.0964],[33.82091,41.02504,2009.9248],[33.79497,41.00365,1505.5396],[33.78329,40.97383,1741.7758],[33.82091,40.92536,795.3347],[33.87962,40.90942,1138.3384],[33.91073,40.8867,1137.2866],[33.94452,40.86867,1660.7496],[33.98555,40.86218,1707.3838],[34.02721,40.86076,1498.0098],[34.11454,40.87474,1729.287],[34.25644,40.91939,1515.5869],[34.28021,40.9691,1444.7104],[34.24797,40.99603,1357.4199],[34.22637,41.0021,1160.526],[34.20766,41.0393,479.4021],[34.21768,41.05941,596.2605],[34.2522,41.09134,742.3818],[34.28714,41.15723,1800.963],[34.33375,41.18875,1550.2156],[34.35742,41.20942,1435.1752],[34.38522,41.26425,1592.698],[34.41943,41.302,1332.0872],[34.47193,41.31081,1449.6606],[34.47979,41.44161,1120.6873],[34.46945,41.46098,1123.0809],[34.46294,41.47985,1101.0791],[34.47204,41.5185,1196.6462],[34.49178,41.5523,1208.7319],[34.52092,41.57416,1189.6394],[34.55327,41.59116,737.574],[34.58789,41.65748,893.0247],[34.5325,41.71316,1346.5358],[34.46614,41.72745,1252.8125],[34.34429,41.73254,1598.2618],[34.28424,41.74526,1569.5028],[34.24094,41.74861,1622.9323],[34.20508,41.74784,1584.0226],[34.14038,41.76706,1493.2296],[34.14224,41.80024,1400.0017],[34.19257,41.84509,912.4659],[34.22089,41.90354,191.7953],[34.21613,41.96007,0.0],[34.21613,41.96014,0.0]]]}}