{"type": "Feature","bbox": [36.9289,37.8477,37.2993,38.1403],"geometry": {"type": "MultiPolygon","coordinates": [[[[36.9289,37.9831,1928.5953],[36.9495,37.9879,1514.8442],[36.969,37.9893,1620.907],[36.9832,37.9878,1608.0137],[36.9916,37.9825,1306.2255],[36.9945,37.9746,1026.5935],[36.994,37.9631,842.5983],[36.9911,37.9544,1017.9271],[36.9827,37.9408,1136.0903],[36.9793,37.9286,1033.6989],[36.9783,37.8771,1291.9962],[36.9804,37.8685,1308.9812],[36.9836,37.8635,1220.3312],[37.0091,37.8477,1933.9744],[37.024,37.8604,1673.3706],[37.037,37.8687,1845.1693],[37.0701,37.8811,1968.8276],[37.0975,37.8859,1967.5646],[37.1277,37.8972,1880.438],[37.1572,37.9145,1847.322],[37.1791,37.9234,1770.1788],[37.1977,37.9376,1945.3131],[37.215,37.9633,2176.3857],[37.2181,37.9711,1717.1602],[37.2194,37.9853,1846.9822],[37.219,38.0317,1664.6978],[37.2222,38.0455,1638.0073],[37.2374,38.0613,1772.4348],[37.2593,38.0764,1739.9033],[37.2993,38.0899,1391.6565],[37.293,38.1126,1395.9177],[37.2882,38.1203,1645.8207],[37.2813,38.1271,1504.5156],[37.2668,38.1362,1529.1924],[37.256,38.1392,1535.6888],[37.2325,38.1403,1630.4574],[37.2094,38.138,1506.4783],[37.1994,38.1341,1552.6776],[37.1763,38.1203,1765.8584],[37.1656,38.1173,1567.6384],[37.1137,38.1158,1178.2546],[37.0743,38.1181,1217.193],[37.0642,38.1218,1233.8938],[37.0408,38.1353,1151.1953],[37.0243,38.1397,1171.2496],[37.0208,38.1291,1168.0267],[37.0117,38.1127,1153.1056],[37.0079,38.0877,1220.1565],[37.0048,38.08,1142.1868],[36.99,38.0613,1405.323],[36.9684,38.0494,1726.5182],[36.9515,38.0342,1858.631],[36.9368,38.0107,2158.9473],[36.9289,37.9831,1928.5953]]]]}
,"properties": {"GID_2": "TUR.42.4_1","GID_0": "TUR","country": "Turkey","GID_1": "TUR.42_1","province": "K.Maras","NL_NAME_1": "NA","county": "Ekinözü","VARNAME_2": "NA","NL_NAME_2": "NA","TYPE_2": "District","ENGTYPE_2": "District","CC_2": "NA","HASC_2": "TR.KM.EK","name": "Ekinözü.county","area_km2": 585.5352,"hist_schema_id": "Elevation0-9000","hist_area_km2": {"825": 0.0334,"850": 0.1839,"875": 0.351,"900": 0.4847,"925": 0.9527,"950": 1.1366,"975": 1.1866,"1000": 1.6546,"1025": 2.106,"1050": 2.1728,"1075": 2.056,"1100": 20.4538,"1125": 13.9083,"1150": 20.1663,"1175": 24.8067,"1200": 24.1239,"1225": 23.3736,"1250": 26.0115,"1275": 23.2247,"1300": 16.3483,"1325": 14.6804,"1350": 14.6975,"1375": 14.7651,"1400": 16.1849,"1425": 20.4239,"1450": 20.7437,"1475": 20.3111,"1500": 19.3603,"1525": 17.2397,"1550": 15.4861,"1575": 14.785,"1600": 13.0465,"1625": 14.0482,"1650": 11.1435,"1675": 10.4938,"1700": 10.1436,"1725": 9.241,"1750": 8.6564,"1775": 6.7682,"1800": 6.334,"1825": 6.1342,"1850": 6.0173,"1875": 6.3528,"1900": 5.6005,"1925": 4.5812,"1950": 4.0631,"1975": 4.3143,"2000": 3.6119,"2025": 3.3779,"2050": 3.5953,"2075": 3.3782,"2100": 4.0303,"2125": 3.8801,"2150": 4.1474,"2175": 3.5624,"2200": 3.5454,"2225": 3.5621,"2250": 3.3947,"2275": 4.2137,"2300": 3.6958,"2325": 3.4782,"2350": 2.7593,"2375": 2.2574,"2400": 1.8394,"2425": 1.6052,"2450": 1.2874,"2475": 1.2205,"2500": 0.8694,"2525": 0.6018,"2550": 0.2842,"2575": 0.2673,"2600": 0.2005,"2625": 0.1169,"2650": 0.1336,"2675": 0.0668,"2700": 0.0668,"2725": 0.1002,"2750": 0.0334}}}