{"type": "Feature","bbox": [39.9674,38.1253,40.3669,38.3127],"geometry": {"type": "MultiPolygon","coordinates": [[[[39.983,38.2888,898.366],[39.9735,38.2788,915.7012],[39.9687,38.267,940.5021],[39.9674,38.2511,978.5059],[39.9677,38.1957,927.6049],[39.9808,38.193,913.6255],[39.9888,38.1887,914.2661],[39.995,38.1829,885.4036],[40.0027,38.1711,820.2135],[40.0246,38.1509,786.0172],[40.0494,38.1325,786.5529],[40.0658,38.1264,802.836],[40.1064,38.1253,784.3574],[40.1247,38.1266,662.5232],[40.1347,38.1291,707.2544],[40.176,38.1456,746.1854],[40.1862,38.148,758.272],[40.2634,38.1485,770.1205],[40.2815,38.1512,759.8465],[40.2939,38.1595,724.9887],[40.3031,38.1734,723.861],[40.3119,38.1823,758.2324],[40.3619,38.2213,764.7822],[40.3669,38.2305,772.2191],[40.3659,38.2351,787.8146],[40.3539,38.2521,780.4668],[40.3218,38.2536,849.7728],[40.2334,38.2532,853.7084],[40.2135,38.2553,856.8327],[40.1995,38.2626,814.3745],[40.1878,38.2776,791.9409],[40.1815,38.2832,779.4758],[40.16,38.2944,799.8941],[40.144,38.3082,893.858],[40.1305,38.3119,852.8134],[40.1066,38.3127,983.4677],[40.0821,38.3112,941.7666],[40.0532,38.3024,881.0877],[40.0295,38.2977,912.5655],[40.0116,38.2915,893.0528],[39.983,38.2888,898.366]]]]}
,"properties": {"GID_2": "TUR.26.6_1","GID_0": "TUR","country": "Turkey","GID_1": "TUR.26_1","province": "Diyarbakir","NL_NAME_1": "NA","county": "Eğil","VARNAME_2": "NA","NL_NAME_2": "NA","TYPE_2": "District","ENGTYPE_2": "District","CC_2": "NA","HASC_2": "TR.DY.EG","name": "Eğil.county","area_km2": 480.2517,"hist_schema_id": "Elevation0-9000","hist_area_km2": {"625": 0.9001,"650": 2.4332,"675": 2.6835,"700": 13.6941,"725": 21.9815,"750": 40.4576,"775": 48.5552,"800": 51.4749,"825": 45.9936,"850": 66.7796,"875": 46.4241,"900": 43.4667,"925": 40.2996,"950": 22.7138,"975": 13.5688,"1000": 8.9726,"1025": 5.7918,"1050": 3.4283,"1075": 0.6324}}}