{"type":"Feature","properties":{"GID_2":"TUR.70.3_1","GID_0":"TUR","country":"Turkey","GID_1":"TUR.70_1","province":"Sinop","NL_NAME_1":"NA","county":"Dikmen","VARNAME_2":"NA","NL_NAME_2":"NA","TYPE_2":"District","ENGTYPE_2":"District","CC_2":"NA","HASC_2":"TR.SP.DI","name":"Dikmen.county"},
"geometry":{"type": "MultiPolygon","coordinates": [[[[35.4642,41.5588,557.2172],[35.4726,41.5742,281.0186],[35.4851,41.5868,370.7869],[35.4853,41.6057,468.997],[35.4871,41.618,426.892],[35.4987,41.6421,0.0],[35.4949,41.6437,1.5664],[35.4732,41.6463,0.9884],[35.4576,41.6515,30.9366],[35.4437,41.6607,0.0],[35.4412,41.6646,0.8706],[35.421,41.6743,0.5396],[35.4182,41.6793,23.3554],[35.419,41.6815,0.0],[35.4151,41.6835,2.8124],[35.3929,41.6854,41.6544],[35.389,41.6879,1.2655],[35.3499,41.6954,70.3253],[35.3387,41.7004,11.4542],[35.3324,41.6999,46.104],[35.3274,41.7015,8.8511],[35.3241,41.7015,28.882],[35.3182,41.6878,238.2923],[35.3151,41.6843,303.1503],[35.3071,41.6811,441.7084],[35.2802,41.6779,407.8824],[35.2551,41.6704,577.8705],[35.2125,41.6682,807.4475],[35.1979,41.6649,981.5419],[35.1888,41.6599,1051.1105],[35.1786,41.6515,867.6693],[35.1631,41.6298,957.4969],[35.1479,41.6171,1061.4696],[35.1388,41.6123,967.1097],[35.1115,41.6022,1145.2224],[35.0947,41.5988,1146.6034],[35.0797,41.5871,1185.0914],[35.1029,41.5675,1121.666],[35.1151,41.5484,1207.3474],[35.1287,41.5325,1345.4211],[35.1408,41.5292,998.2499],[35.1691,41.5286,1172.9658],[35.1829,41.5262,1367.8984],[35.1933,41.5201,1092.4625],[35.2044,41.5047,1216.9537],[35.2108,41.499,1025.7029],[35.2425,41.4853,1334.2988],[35.2635,41.4819,1228.0693],[35.2966,41.483,1076.7698],[35.3066,41.4856,946.5095],[35.3472,41.5021,886.3135],[35.3606,41.5034,1042.8567],[35.3731,41.4988,1266.9712],[35.4023,41.4775,1246.0518],[35.4176,41.4698,1185.1603],[35.4357,41.4923,1270.0793],[35.4504,41.5157,895.3607],[35.4534,41.5234,747.4672],[35.4577,41.5481,527.2678],[35.4642,41.5588,557.2172]]]]}}