{"type": "Feature","bbox": [37.4643,40.8314,37.6267,40.9222],"geometry": {"type": "MultiPolygon","coordinates": [[[[37.4643,40.9005,170.9989],[37.5026,40.869,612.9188],[37.5154,40.8506,1029.0103],[37.5258,40.8402,983.6709],[37.5511,40.8379,1061.6403],[37.5706,40.8314,1084.625],[37.5797,40.8316,1063.9274],[37.5847,40.834,865.5635],[37.6093,40.8594,571.2317],[37.6192,40.8737,486.5591],[37.6267,40.8811,688.3083],[37.6166,40.9041,497.8298],[37.6121,40.9111,593.1524],[37.6025,40.9182,547.2518],[37.5889,40.9217,375.794],[37.5271,40.9222,287.9395],[37.5044,40.9209,392.7464],[37.4906,40.9165,511.3813],[37.4643,40.9005,170.9989]]]]}
,"properties": {"GID_2": "TUR.63.3_1","GID_0": "TUR","country": "Turkey","GID_1": "TUR.63_1","province": "Ordu","NL_NAME_1": "NA","county": "Çamaş","VARNAME_2": "NA","NL_NAME_2": "NA","TYPE_2": "District","ENGTYPE_2": "District","CC_2": "NA","HASC_2": "TR.OR.CM","name": "Çamaş.county","area_km2": 93.08537,"hist_schema_id": "Elevation0-9000","hist_area_km2": {"75": 0.01602,"100": 0.28845,"125": 0.27243,"150": 0.33654,"175": 0.75317,"200": 1.02552,"225": 1.26589,"250": 1.42613,"275": 2.0191,"300": 2.21135,"325": 2.51591,"350": 2.83641,"375": 3.4935,"400": 3.49356,"425": 3.62187,"450": 4.16698,"475": 4.19913,"500": 4.26324,"525": 4.37564,"550": 4.11936,"575": 3.95924,"600": 3.76709,"625": 3.44654,"650": 3.60716,"675": 3.12629,"700": 3.51107,"725": 3.23864,"750": 2.75777,"775": 2.61361,"800": 2.54956,"825": 2.14871,"850": 2.06863,"875": 1.68378,"900": 1.42726,"925": 1.2669,"950": 1.0425,"975": 0.73779,"1000": 0.64158,"1025": 0.75387,"1050": 0.86619,"1075": 0.75392,"1100": 0.41707}}}