{"type":"Feature","properties":{"GID_2":"TUR.56.14_1","GID_0":"TUR","country":"Turkey","GID_1":"TUR.56_1","province":"Manisa","NL_NAME_1":"NA","county":"Selendi","VARNAME_2":"NA","NL_NAME_2":"NA","TYPE_2":"District","ENGTYPE_2":"District","CC_2":"NA","HASC_2":"TR.MN.SE","name":"Selendi.county"},
"geometry":{"type": "MultiPolygon","coordinates": [[[[29.0366,38.7708,812.9118],[29.0365,38.8301,947.5831],[29.035,38.8432,958.5802],[29.028,38.8611,1078.1453],[29.0216,38.8707,926.2783],[29.0181,38.8733,898.8149],[29.0107,38.8733,827.9318],[28.9782,38.8817,951.7787],[28.9605,38.8884,976.4844],[28.9376,38.8911,979.2599],[28.9066,38.8892,852.607],[28.8778,38.8806,1027.7893],[28.8318,38.8777,1001.4205],[28.8179,38.8704,924.8237],[28.8023,38.85,716.952],[28.7835,38.8362,588.8781],[28.7228,38.8132,647.3928],[28.693,38.807,527.5409],[28.6803,38.799,565.8807],[28.6649,38.7762,612.4061],[28.6619,38.7683,485.3397],[28.661,38.7571,546.8573],[28.6625,38.7459,626.432],[28.6727,38.7271,761.2566],[28.6749,38.7163,755.4354],[28.6728,38.7056,626.9719],[28.6637,38.6893,573.2031],[28.6609,38.6698,411.3364],[28.7035,38.6587,389.9777],[28.7873,38.6569,475.9146],[28.8162,38.6484,485.5161],[28.8512,38.6447,473.0583],[28.8788,38.6374,532.4189],[28.884,38.6379,534.0664],[28.8961,38.643,583.3914],[28.9417,38.6764,903.4775],[28.978,38.6894,809.6726],[28.9896,38.7027,711.3503],[29.0169,38.7229,696.9478],[29.0365,38.7277,814.8104],[29.0366,38.7708,812.9118]]]]}}