{"type": "Feature","bbox": [31.6822,39.8391,32.2462,40.4269],"geometry": {"type": "MultiPolygon","coordinates": [[[[32.1457,40.1229,791.2753],[32.1469,40.1339,839.1516],[32.1449,40.1448,849.8285],[32.1226,40.1788,676.4094],[32.1205,40.1865,765.4513],[32.1239,40.1964,938.1039],[32.1459,40.228,823.8104],[32.1598,40.2512,785.264],[32.1595,40.2614,837.3395],[32.1513,40.2768,934.7362],[32.152,40.2846,992.2041],[32.1568,40.2917,1141.5806],[32.1637,40.298,1328.575],[32.2009,40.3254,1345.705],[32.213,40.331,1288.9541],[32.2462,40.3406,1237.8745],[32.2284,40.3518,1312.1244],[32.2145,40.3633,1402.9966],[32.1967,40.3906,1633.4558],[32.1961,40.3986,1683.7788],[32.1981,40.4036,1697.5144],[32.2173,40.4251,1259.4475],[32.1669,40.4269,1564.9067],[32.1352,40.4224,1643.761],[32.1023,40.4043,1749.3516],[32.0422,40.3812,1613.8097],[32.0149,40.3759,1588.6992],[31.9938,40.3688,1674.1049],[31.9698,40.3644,1733.6274],[31.952,40.358,1601.506],[31.9249,40.3527,1434.0472],[31.9034,40.3456,1474.5505],[31.857,40.3425,1317.0227],[31.8283,40.3339,1280.4663],[31.8132,40.3322,1159.1885],[31.7746,40.3326,1359.468],[31.7642,40.3343,1270.6346],[31.7454,40.3413,1012.924],[31.7293,40.3438,968.7134],[31.7051,40.3439,635.186],[31.6947,40.3426,656.21],[31.6862,40.3384,821.1124],[31.701,40.3099,798.5547],[31.7108,40.2966,887.2398],[31.7197,40.2806,814.8997],[31.7217,40.2741,795.5673],[31.712,40.254,866.2688],[31.7013,40.2382,1209.387],[31.6942,40.2171,886.3838],[31.6848,40.2006,811.6614],[31.6822,40.18,753.5996],[31.683,40.1439,727.0283],[31.6858,40.1354,798.9846],[31.6896,40.1303,802.5052],[31.7226,40.1011,650.8132],[31.7265,40.0929,677.8322],[31.7282,40.0781,687.3289],[31.7278,40.0479,764.8086],[31.7255,40.0333,467.0],[31.71,40.007,484.4916],[31.696,39.9882,470.2706],[31.7189,39.9561,836.5746],[31.7504,39.9284,549.6622],[31.7617,39.9117,725.9915],[31.7681,39.9049,556.3088],[31.7885,39.8884,629.9126],[31.7972,39.8832,636.2878],[31.8071,39.8798,625.5297],[31.8459,39.8781,685.5355],[31.8577,39.8745,598.6946],[31.8622,39.8682,591.4272],[31.8706,39.8391,685.4228],[31.9025,39.8448,746.9752],[31.9237,39.8521,872.9573],[31.9476,39.8566,781.7171],[31.9687,39.8638,907.1075],[31.9823,39.8664,903.3692],[31.9824,39.8867,916.9804],[31.9844,39.8978,986.389],[31.9998,39.9239,1005.2256],[32.019,39.9516,1045.0723],[32.0594,39.9843,1037.5453],[32.0701,39.9953,1041.9272],[32.0996,40.042,844.8217],[32.1075,40.0656,708.4207],[32.1357,40.11,792.1226],[32.1457,40.1229,791.2753]]]]}
,"properties": {"GID_2": "TUR.7.5_1","GID_0": "TUR","country": "Turkey","GID_1": "TUR.7_1","province": "Ankara","NL_NAME_1": "NA","county": "Beypazarı","VARNAME_2": "NA","NL_NAME_2": "NA","TYPE_2": "District","ENGTYPE_2": "District","CC_2": "NA","HASC_2": "TR.AN.BE","name": "Beypazarı.county","area_km2": 1878.885,"hist_schema_id": "Elevation0-9000","hist_area_km2": {"475": 25.008,"500": 23.299,"525": 27.839,"550": 30.223,"575": 35.605,"600": 50.689,"625": 55.295,"650": 60.624,"675": 67.261,"700": 60.898,"725": 55.528,"750": 51.893,"775": 50.835,"800": 51.573,"825": 48.625,"850": 45.131,"875": 42.691,"900": 41.991,"925": 44.22,"950": 47.618,"975": 53.188,"1000": 58.147,"1025": 106.516,"1050": 126.305,"1075": 52.551,"1100": 26.762,"1125": 22.144,"1150": 20.115,"1175": 19.855,"1200": 21.519,"1225": 20.902,"1250": 22.985,"1275": 24.778,"1300": 22.189,"1325": 22.106,"1350": 21.862,"1375": 22.734,"1400": 24.172,"1425": 25.626,"1450": 25.383,"1475": 25.915,"1500": 25.493,"1525": 22.776,"1550": 21.515,"1575": 19.381,"1600": 16.712,"1625": 15.902,"1650": 13.928,"1675": 13.038,"1700": 12.149,"1725": 8.498,"1750": 7.238,"1775": 5.493,"1800": 4.604,"1825": 4.296,"1850": 3.23,"1875": 0.937,"1900": 0.436,"1925": 0.404,"1950": 0.194,"1975": 0.065}}}