{"type":"Feature","properties":{"GID_2":"TUR.39.1_1","GID_0":"TUR","country":"Turkey","GID_1":"TUR.39_1","province":"Isparta","NL_NAME_1":"NA","county":"Aksu","VARNAME_2":"NA","NL_NAME_2":"NA","TYPE_2":"District","ENGTYPE_2":"District","CC_2":"NA","HASC_2":"TR.IP.AK","name":"Aksu.county"},
"geometry":{"type": "MultiPolygon","coordinates": [[[[31.1151,37.6998,1247.6281],[31.1347,37.6799,1565.8721],[31.1739,37.65,1277.8594],[31.2252,37.6297,1856.4109],[31.2329,37.625,1675.373],[31.252,37.6008,1831.9752],[31.2792,37.5799,1586.4408],[31.303,37.5697,1388.3568],[31.3297,37.5537,1541.9164],[31.3385,37.5512,2178.9297],[31.3658,37.5499,1479.1917],[31.3721,37.5604,1315.9595],[31.3757,37.5716,1346.597],[31.3792,37.5927,1564.3063],[31.3892,37.612,1633.7317],[31.3917,37.6316,1626.172],[31.37,37.6327,1448.2302],[31.3562,37.6369,1352.4521],[31.3357,37.6507,1603.7959],[31.3214,37.6648,2115.3271],[31.3176,37.6735,2370.8533],[31.3164,37.6828,2002.5095],[31.3177,37.7723,1849.9952],[31.3152,37.7906,1782.6545],[31.3102,37.7978,1800.1318],[31.3031,37.803,1838.2715],[31.2824,37.8108,2044.135],[31.262,37.8215,1961.7098],[31.2583,37.8282,2129.509],[31.2571,37.8413,2206.9912],[31.1943,37.8421,1962.703],[31.1581,37.8518,1992.6229],[31.126,37.8536,2036.9819],[31.0858,37.8529,1549.1045],[31.0753,37.8499,1441.2192],[31.0677,37.8448,1638.5487],[31.0626,37.8375,1708.219],[31.0606,37.8285,1895.6635],[31.0613,37.8163,1506.0718],[31.0644,37.8074,1313.5051],[31.076,37.7951,1248.2109],[31.11,37.7689,1282.5157],[31.1199,37.756,1227.106],[31.1222,37.7442,1353.675],[31.122,37.7259,1261.8752],[31.1196,37.7108,1355.2684],[31.1151,37.6998,1247.6281]]]]}}