{"type": "Feature","bbox": [27.625,39.0308,27.9644,39.3573],"geometry": {"type": "MultiPolygon","coordinates": [[[[27.7915,39.3573,841.4326],[27.7764,39.3573,730.3589],[27.7614,39.3457,742.7365],[27.7479,39.3162,585.5342],[27.7475,39.308,665.0984],[27.7494,39.3,700.2645],[27.7584,39.2834,811.4235],[27.7639,39.2566,745.463],[27.775,39.2342,490.3755],[27.7764,39.2252,405.9886],[27.7762,39.2038,311.4109],[27.7737,39.1951,372.1808],[27.7694,39.1882,345.7573],[27.7611,39.1781,303.2455],[27.7506,39.1722,242.377],[27.7213,39.1688,229.5213],[27.6958,39.1616,168.8942],[27.6686,39.1593,178.3984],[27.6538,39.156,446.9216],[27.6366,39.145,783.0724],[27.6286,39.1353,803.4221],[27.6254,39.1233,870.7566],[27.625,39.1077,783.4188],[27.6258,39.0794,505.7448],[27.6297,39.0605,514.3333],[27.6595,39.0401,498.4135],[27.6719,39.0338,487.6373],[27.6829,39.0316,498.7059],[27.718,39.0308,403.8758],[27.7335,39.0316,362.4753],[27.7477,39.0345,247.729],[27.7779,39.0466,256.0817],[27.8191,39.0738,259.3957],[27.8498,39.0801,282.3994],[27.872,39.0891,339.4173],[27.8782,39.0946,328.6863],[27.8801,39.1019,283.8682],[27.8777,39.112,334.5767],[27.8688,39.1272,410.6545],[27.8688,39.1324,407.8318],[27.871,39.1373,388.2451],[27.8749,39.1413,348.145],[27.883,39.1455,399.4238],[27.9126,39.1485,722.2925],[27.9184,39.1501,694.7535],[27.923,39.1535,588.2063],[27.926,39.1603,596.7167],[27.9282,39.176,722.8423],[27.931,39.1837,734.1227],[27.9455,39.2072,665.5728],[27.9644,39.2311,731.325],[27.9289,39.2285,592.5778],[27.9064,39.23,602.4039],[27.9001,39.2325,519.0182],[27.8958,39.2361,478.9013],[27.8835,39.2531,413.3717],[27.8817,39.264,530.3125],[27.8841,39.2749,517.5271],[27.9084,39.3116,446.1556],[27.9171,39.329,425.0787],[27.909,39.3445,757.9129],[27.8966,39.3572,757.9972],[27.8815,39.3456,803.8279],[27.8454,39.3469,645.8745],[27.8166,39.3552,843.3633],[27.7915,39.3573,841.4326]]]]}
,"properties": {"GID_2": "TUR.56.7_1","GID_0": "TUR","country": "Turkey","GID_1": "TUR.56_1","province": "Manisa","NL_NAME_1": "NA","county": "Kırkağaç","VARNAME_2": "NA","NL_NAME_2": "NA","TYPE_2": "District","ENGTYPE_2": "District","CC_2": "NA","HASC_2": "TR.MN.KI","name": "Kırkağaç.county","area_km2": 542.7151,"hist_schema_id": "Elevation0-9000","hist_area_km2": {"150": 21.1032,"175": 52.8523,"200": 35.4671,"225": 29.9699,"250": 30.1337,"275": 22.1388,"300": 20.5403,"325": 19.1549,"350": 19.6936,"375": 18.0002,"400": 14.5292,"425": 14.9879,"450": 14.6892,"475": 15.7552,"500": 13.1254,"525": 14.2228,"550": 13.5815,"575": 15.3551,"600": 14.893,"625": 16.3049,"650": 17.814,"675": 15.597,"700": 14.6596,"725": 14.2996,"750": 13.4622,"775": 12.7063,"800": 12.3951,"825": 9.8523,"850": 6.2072,"875": 3.1878,"900": 1.8251,"925": 1.5624,"950": 1.1018,"975": 0.6581,"1000": 0.3455,"1025": 0.3126,"1050": 0.2304}}}