{"type":"Feature","properties":{"GID_2":"TUR.8.7_1","GID_0":"TUR","country":"Turkey","GID_1":"TUR.8_1","province":"Antalya","NL_NAME_1":"NA","county":"İbradi","VARNAME_2":"NA","NL_NAME_2":"NA","TYPE_2":"District","ENGTYPE_2":"District","CC_2":"NA","HASC_2":"TR.AL.IB","name":"İbradi.county"},
"geometry":{"type": "MultiPolygon","coordinates": [[[[31.6838,37.329,1406.323],[31.5775,37.3289,1761.4637],[31.5614,37.3307,1540.0819],[31.5398,37.3377,1563.8763],[31.5285,37.3396,1834.1333],[31.46,37.3415,1772.7183],[31.4493,37.344,1405.1516],[31.4048,37.3614,1571.1151],[31.3746,37.3703,1578.8917],[31.3774,37.338,1744.7662],[31.3798,37.33,1694.1088],[31.3873,37.3166,1765.5543],[31.3879,37.3088,1782.2123],[31.385,37.3017,1761.7925],[31.3654,37.2722,1689.6736],[31.362,37.2642,1755.9017],[31.3601,37.2432,1595.2765],[31.3606,37.228,1881.9913],[31.3627,37.2162,1923.4058],[31.3871,37.1765,1390.2743],[31.3958,37.1528,1386.2037],[31.431,37.121,1241.1294],[31.4477,37.0951,1015.9505],[31.4503,37.0836,1268.8396],[31.4521,37.0445,1066.917],[31.4628,37.0224,662.3632],[31.4668,36.9976,800.0585],[31.4697,36.9898,896.2686],[31.4828,36.9687,711.4714],[31.4892,36.9617,722.4338],[31.5055,36.9499,570.2963],[31.5312,36.9375,446.3726],[31.5449,36.9204,165.5],[31.554,36.9131,165.5],[31.5863,36.9001,279.8657],[31.6116,36.8985,434.6973],[31.6311,36.902,624.411],[31.6326,36.9176,593.4267],[31.6363,36.925,905.4209],[31.6482,36.9437,1189.0721],[31.6708,36.9664,734.5942],[31.6934,37.0018,896.8209],[31.7072,37.0154,1105.3098],[31.7372,37.0384,997.2997],[31.7443,37.0452,1041.2092],[31.7491,37.0529,1159.5376],[31.7515,37.0731,1564.0802],[31.7514,37.1478,1339.9065],[31.7537,37.1618,1206.9357],[31.7595,37.1748,1314.8807],[31.7592,37.1795,1154.9163],[31.7502,37.1903,1120.1016],[31.7072,37.2229,1072.3245],[31.6944,37.2366,1147.7806],[31.6875,37.2576,1149.4963],[31.6792,37.2716,1184.5575],[31.6764,37.2834,1190.0405],[31.6769,37.3092,1790.3126],[31.6838,37.329,1406.323]]]]}}