{"type": "Feature","bbox": [30.7318,38.3216,31.256,38.673],"geometry": {"type": "MultiPolygon","coordinates": [[[[30.9158,38.673,973.7704],[30.9122,38.6048,1001.0889],[30.9104,38.5991,1000.9409],[30.896,38.5756,1022.9641],[30.8819,38.5625,1009.136],[30.8734,38.5576,1014.5919],[30.8607,38.5545,1005.6859],[30.8485,38.5271,1063.4055],[30.8279,38.5063,1215.0676],[30.8205,38.4943,1165.7595],[30.8103,38.4839,1219.4535],[30.8002,38.4767,1222.4224],[30.7734,38.4654,1207.0372],[30.7626,38.4588,1240.515],[30.7428,38.4434,1170.6449],[30.7343,38.4318,1215.1294],[30.7318,38.415,1093.097],[30.7343,38.3923,1028.0122],[30.7538,38.3616,1116.9669],[30.771,38.3467,1298.3787],[30.7876,38.3355,1630.5964],[30.8303,38.3216,1342.3833],[30.8358,38.3243,1359.3373],[30.848,38.338,1351.7412],[30.8776,38.3616,1343.7451],[30.8933,38.3722,1367.9695],[30.9145,38.3805,1428.5458],[30.9279,38.3887,1557.6514],[31.0884,38.5123,2086.3369],[31.1036,38.5166,1829.9071],[31.1195,38.5157,1819.2112],[31.1309,38.5106,1551.2346],[31.1464,38.497,1775.3505],[31.157,38.4995,1720.2952],[31.1824,38.5069,1358.5541],[31.2215,38.523,1080.1199],[31.2481,38.5427,984.7123],[31.2539,38.5495,981.3548],[31.256,38.5547,979.1594],[31.2554,38.5626,979.2656],[31.2466,38.5785,982.9954],[31.2414,38.6059,966.7082],[31.2321,38.6224,965.6694],[31.2275,38.6381,965.5577],[31.2166,38.6425,965.1593],[31.1825,38.6537,964.7741],[31.1704,38.6557,964.5831],[31.0062,38.6568,969.1431],[30.9899,38.6591,968.947],[30.9684,38.6659,970.3879],[30.9295,38.6698,972.9034],[30.9158,38.673,973.7704]]]]}
,"properties": {"GID_2": "TUR.3.4_1","GID_0": "TUR","country": "Turkey","GID_1": "TUR.3_1","province": "Afyon","NL_NAME_1": "NA","county": "Çay","VARNAME_2": "NA","NL_NAME_2": "NA","TYPE_2": "District","ENGTYPE_2": "District","CC_2": "NA","HASC_2": "TR.AF.CA","name": "Çay.county","area_km2": 849.9218,"hist_schema_id": "Elevation0-9000","hist_area_km2": {"975": 185.2339,"1000": 127.3368,"1025": 68.9452,"1050": 42.8967,"1075": 27.4232,"1100": 19.5454,"1125": 15.415,"1150": 13.4574,"1175": 11.3997,"1200": 9.3092,"1225": 9.0601,"1250": 8.6951,"1275": 8.3473,"1300": 8.3812,"1325": 9.3945,"1350": 10.99,"1375": 11.1564,"1400": 12.2699,"1425": 12.0546,"1450": 12.7349,"1475": 11.2392,"1500": 12.6676,"1525": 12.9507,"1550": 13.9479,"1575": 13.1507,"1600": 11.4052,"1625": 11.7866,"1650": 10.6735,"1675": 11.6031,"1700": 10.722,"1725": 9.8587,"1750": 8.7954,"1775": 7.8829,"1800": 7.0353,"1825": 6.0558,"1850": 5.9898,"1875": 5.3593,"1900": 5.8236,"1925": 5.2598,"1950": 5.4259,"1975": 5.8409,"2000": 4.6624,"2025": 4.5459,"2050": 3.7495,"2075": 2.7207,"2100": 2.5548,"2125": 2.3559,"2150": 2.1568,"2175": 1.7088,"2200": 1.1281,"2225": 1.3106,"2250": 0.8627,"2275": 0.647,"2300": 0.5475,"2325": 0.5641,"2350": 0.6138,"2375": 0.5143,"2400": 0.5475,"2425": 0.3318,"2450": 0.4811,"2475": 0.282,"2500": 0.0995,"2525": 0.0166}}}