{"type": "Feature","bbox": [35.046,40.6661,35.3792,41.0905],"geometry": {"type": "MultiPolygon","coordinates": [[[[35.2218,40.669,1076.5343],[35.257,40.6661,998.6452],[35.2575,40.7658,804.7689],[35.2609,40.7829,753.9401],[35.2665,40.7904,743.4742],[35.2741,40.7968,737.3461],[35.2895,40.8048,703.8449],[35.3046,40.8069,725.0295],[35.3472,40.809,669.1092],[35.3693,40.8183,643.8213],[35.3739,40.8215,632.1526],[35.3771,40.8263,603.6792],[35.3792,40.8434,650.7537],[35.3787,40.893,1162.3997],[35.3754,40.9108,1353.1338],[35.3081,41.0152,1502.9917],[35.2968,41.0436,1458.8879],[35.2836,41.0453,1426.65],[35.2088,41.0731,1173.9534],[35.1472,41.076,1042.5175],[35.1188,41.0848,1162.2258],[35.0932,41.0905,1067.5208],[35.0938,41.0514,1134.293],[35.0913,41.0323,889.3135],[35.0668,40.9923,886.542],[35.0606,40.9739,994.9088],[35.0496,40.9514,1279.9604],[35.048,40.9353,1474.5803],[35.0478,40.8724,1195.8094],[35.046,40.8529,1101.0006],[35.0818,40.8541,1406.1025],[35.1035,40.8524,1552.1753],[35.1165,40.847,1504.1691],[35.1319,40.8345,1486.7539],[35.1933,40.7385,1076.373],[35.1963,40.7308,1274.7493],[35.2012,40.7033,1274.3789],[35.2218,40.669,1076.5343]]]]}
,"properties": {"GID_2": "TUR.6.2_1","GID_0": "TUR","country": "Turkey","GID_1": "TUR.6_1","province": "Amasya","NL_NAME_1": "NA","county": "Gümüşhacıköy","VARNAME_2": "NA","NL_NAME_2": "NA","TYPE_2": "District","ENGTYPE_2": "District","CC_2": "NA","HASC_2": "TR.AM.GU","name": "Gümüşhacıköy.county","area_km2": 757.119,"hist_schema_id": "Elevation0-9000","hist_area_km2": {"600": 0.8663,"625": 3.706,"650": 7.7486,"675": 10.379,"700": 16.0573,"725": 17.0498,"750": 18.9409,"775": 20.8188,"800": 19.9369,"825": 19.5011,"850": 20.3008,"875": 20.0094,"900": 19.7173,"925": 19.5866,"950": 19.8592,"975": 20.5501,"1000": 23.0026,"1025": 25.8275,"1050": 25.2479,"1075": 25.0039,"1100": 22.4694,"1125": 22.2478,"1150": 19.407,"1175": 18.0746,"1200": 17.8127,"1225": 17.6504,"1250": 18.4195,"1275": 20.0838,"1300": 20.0501,"1325": 18.0451,"1350": 16.6972,"1375": 16.3747,"1400": 16.9188,"1425": 18.2303,"1450": 18.3092,"1475": 17.7653,"1500": 15.0777,"1525": 14.4394,"1550": 13.8634,"1575": 12.3755,"1600": 10.6956,"1625": 9.4463,"1650": 8.534,"1675": 6.213,"1700": 4.4206,"1725": 3.4282,"1750": 1.9866,"1775": 1.394,"1800": 1.2976,"1825": 0.801,"1850": 0.3363,"1875": 0.128,"1900": 0.016}}}