{"type":"Feature","properties":{"GID_2":"TUR.52.1_1","GID_0":"TUR","country":"Turkey","GID_1":"TUR.52_1","province":"Kocaeli","NL_NAME_1":"NA","county":"Derince","VARNAME_2":"NA","NL_NAME_2":"NA","TYPE_2":"District","ENGTYPE_2":"District","CC_2":"NA","HASC_2":"TR.KC.DE","name":"Derince.county"},
"geometry":{"type": "MultiPolygon","coordinates": [[[[29.8167,40.9067,230.9644],[29.8548,40.9059,212.7805],[29.8605,40.9031,211.2151],[29.8809,40.8839,350.4685],[29.9005,40.8761,332.0891],[29.9136,40.8867,290.1538],[29.9422,40.8982,276.8882],[29.9434,40.9031,254.6277],[29.9434,40.9092,296.5257],[29.934,40.9268,316.3231],[29.934,40.9464,211.9792],[29.93,40.9517,213.8734],[29.9251,40.955,213.4249],[29.9169,40.957,275.061],[29.9108,40.9521,232.2742],[29.892,40.9443,297.2278],[29.8777,40.9427,324.4662],[29.8589,40.9509,297.6924],[29.8466,40.9611,397.8062],[29.8397,40.9693,311.8216],[29.8282,40.9732,219.6985],[29.8166,40.9832,387.3762],[29.809,40.9703,289.4757],[29.8067,40.9525,189.5839],[29.8077,40.9282,182.5758],[29.8096,40.9196,185.8924],[29.8167,40.9067,230.9644]]]]}}