{"type":"Feature","properties":{"GID_1":"TUR.45_1","GID_0":"TUR","country":"Turkey","province":"Kars","VARNAME_1":"NA","NL_NAME_1":"NA","TYPE_1":"Il","ENGTYPE_1":"Province","CC_1":"NA","HASC_1":"TR.KA","ISO_1":"TR-36","name":"Kars.province"},
"geometry":{"type": "MultiPolygon","coordinates": [[[[42.8833,39.9542,2526.7856],[42.931399999999996,39.972,2552.1274],[42.9432,39.974,2481.1812],[42.9666,39.9748,2629.4648],[42.9913,39.9838,2508.2251],[43.0301,39.9882,2496.8862],[43.0517,39.9953,2740.8481],[43.0787,40.0008,2900.6282],[43.0964,40.0071,2994.8157],[43.1103,40.0087,3007.5898],[43.1241,40.007,2895.4922],[43.1491,39.9993,2724.9153],[43.1954,39.9959,2611.6304],[43.2206,39.9881,2728.9844],[43.2553,39.9842,2556.1655],[43.2843,39.9758,2379.427],[43.3154,39.9726,2298.9978],[43.3369,39.9655,2229.3228],[43.3505,39.9628,2462.1604],[43.3502,39.9858,2261.3943],[43.3463,39.9992,2056.4028],[43.3309,40.0225,2263.2351],[43.3082,40.0451,2246.3057],[43.2921,40.071,1741.5641],[43.2912,40.0849,1876.1281],[43.2928,40.0903,1795.3638],[43.3069,40.1092,1283.827],[43.3122,40.1121,1261.2534],[43.3218,40.1135,1295.5532],[43.3316,40.1125,1243.2722],[43.3484,40.1062,1527.0989],[43.358,40.1045,1406.5824],[43.3684,40.106,1469.4401],[43.3804,40.1124,1389.3209],[43.3896,40.1212,1136.5879],[43.3925,40.1264,1055.2736],[43.3933,40.1317,1085.6088],[43.3911,40.1392,1235.1592],[43.3831,40.1522,1473.3251],[43.3818,40.1599,1553.429],[43.3837,40.1672,1684.0876],[43.3924,40.174,1724.8755],[43.4119,40.182,2106.5527],[43.4422,40.1842,2007.7894],[43.5518,40.1837,1720.4518],[43.575,40.1862,1669.7686],[43.5928,40.1925,1542.3313],[43.6198,40.1982,1449.2571],[43.65,40.2147,1319.02],[43.6628,40.2187,1182.9939],[43.6592,40.2218,1180.9596],[43.6581,40.2287,1202.192],[43.673,40.2282,1283.1646],[43.682,40.2299,1234.6021],[43.6806,40.2382,1223.3501],[43.6833,40.2429,1247.929],[43.6813,40.2452,1254.2888],[43.6817,40.2585,1240.4143],[43.6675,40.268,1253.6626],[43.6541,40.2708,1293.0886],[43.6399,40.2766,1263.2109],[43.6399,40.2823,1292.4343],[43.6364,40.2856,1288.8518],[43.632,40.295,1265.5317],[43.617,40.3138,1289.7139],[43.5937,40.3373,1291.8169],[43.5964,40.3665,1279.0596],[43.6034,40.3788,1283.682],[43.6137,40.3891,1287.2491],[43.621,40.3993,1304.3638],[43.6134,40.4135,1287.944],[43.6188,40.4181,1298.287],[43.6085,40.4339,1386.619],[43.5978,40.4395,1354.7992],[43.5904,40.4471,1398.4993],[43.5756,40.4565,1342.8983],[43.557,40.4598,1405.3508],[43.5538,40.4642,1365.7114],[43.5467,40.4681,1359.568],[43.5456,40.4771,1399.1921],[43.5549,40.4795,1361.0719],[43.5562,40.4907,1405.8752],[43.5757,40.4981,1481.9465],[43.6083,40.5178,1446.7693],[43.6152,40.5237,1450.0543],[43.6194,40.5251,1398.7996],[43.6218,40.5214,1446.0551],[43.6269,40.5195,1392.5554],[43.6318,40.5307,1411.2548],[43.63,40.5355,1451.795],[43.6319,40.5373,1443.4443],[43.6402,40.5318,1438.7899],[43.648,40.5315,1413.4581],[43.642,40.559,1441.4182],[43.6558,40.5637,1446.6793],[43.6635,40.573,1449.7117],[43.6752,40.5794,1444.0],[43.6865,40.593,1444.0],[43.7156,40.6378,1444.0],[43.7193,40.6465,1444.0],[43.7203,40.655,1444.0],[43.7264,40.6647,1444.0],[43.7393,40.6651,1444.0],[43.7501,40.6806,1451.5969],[43.7444,40.6882,1446.6244],[43.7419,40.6983,1453.4351],[43.7363,40.7079,1464.5554],[43.7468,40.7259,1468.6259],[43.7487,40.7359,1485.3073],[43.7426,40.7529,1515.4958],[43.713,40.8119,1609.1649],[43.6835,40.835,1705.0675],[43.6761,40.8444,1765.6606],[43.6762,40.8513,1782.8289],[43.679,40.8611,1822.4775],[43.6726,40.8776,1829.3568],[43.6758,40.8929,1951.2455],[43.6805,40.9034,2100.8914],[43.6719,40.9161,2197.4277],[43.6762,40.9277,2162.5061],[43.6718,40.9334,2140.4429],[43.599,40.9858,2256.3962],[43.5856,40.9917,2304.2129],[43.5515,40.996,2678.2417],[43.5098,41.0143,2767.3447],[43.4809,41.0215,2988.3105],[43.4722,41.028,2853.7329],[43.4704,41.0333,2808.6575],[43.4717,41.0449,2725.2437],[43.4706,41.0598,2753.0527],[43.468,41.0644,2758.5337],[43.4548,41.0775,2868.6138],[43.4515,41.0837,2843.5149],[43.4498,41.0922,2805.395],[43.4575,41.1095,2967.29],[43.4713,41.1298,2829.053],[43.4629,41.1413,2772.2209],[43.4555,41.161,2818.1597],[43.451,41.1672,2853.707],[43.4372,41.1794,2817.4492],[43.4052,41.1882,2734.8452],[43.3841,41.1995,2626.1414],[43.3654,41.2024,2730.2715],[43.3178,41.1929,2503.334],[43.2806,41.1832,2347.0901],[43.2822,41.1819,2286.4082],[43.2684,41.1659,1984.2109],[43.2638,41.1554,1941.2561],[43.2626,41.1432,1923.9526],[43.263,41.0993,1958.5],[43.2608,41.0842,1958.5],[43.2456,41.0578,1958.5],[43.23,41.035,1958.5],[43.219,41.0257,1958.5],[43.2011,41.0181,2224.2651],[43.1744,41.003,2518.7368],[43.144,40.9962,2624.751],[43.1126,40.9845,2945.3623],[43.0901,40.9872,2921.6458],[43.0721,40.9858,2802.5835],[43.0598,40.9812,2837.175],[43.0422,40.9705,2775.1694],[42.9935,40.9618,2413.1968],[42.9333,40.9391,2085.167],[42.9152,40.9275,2102.0967],[42.9002,40.9113,2113.8267],[42.8903,40.8934,2134.5527],[42.8843,40.875,2202.9065],[42.8752,40.8586,2212.0549],[42.8723,40.8465,2249.6133],[42.8718,40.7857,2266.9016],[42.8696,40.7703,2358.5269],[42.8605,40.7536,2432.8918],[42.8532,40.7326,2642.9346],[42.836,40.7135,2738.5305],[42.7951,40.6992,2603.5693],[42.7679,40.6939,2790.125],[42.75,40.6877,2616.5896],[42.7046,40.6815,2541.6348],[42.6476,40.6594,2567.2385],[42.6213,40.6439,2703.7952],[42.6112,40.6401,2672.1006],[42.5836,40.6382,2591.0376],[42.5481,40.6407,2192.9133],[42.5679,40.6143,2650.335],[42.5705,40.6054,2719.8169],[42.5703,40.5902,2795.1797],[42.5663,40.5786,2710.4209],[42.5598,40.5676,2546.3716],[42.5571,40.5584,2709.2737],[42.5542,40.5061,2085.3188],[42.5433,40.4834,2428.0093],[42.5383,40.4642,2343.4958],[42.5394,40.4554,2115.1204],[42.5385,40.4442,2290.5469],[42.5249,40.4207,2602.5171],[42.5146,40.4106,2751.1326],[42.2718,40.3163,2134.333],[42.2618,40.314,2252.9231],[42.2297,40.311,2370.9023],[42.2085,40.3039,2307.8726],[42.1846,40.2995,2373.5068],[42.1635,40.2922,2380.8169],[42.1498,40.2896,2324.8977],[42.1461,40.2793,2393.1189],[42.1382,40.2658,2345.918],[42.1373,40.2605,2455.9834],[42.1405,40.2507,2312.3276],[42.1674,40.209,2011.5265],[42.1878,40.188,1981.8308],[42.197,40.1742,1976.864],[42.2056,40.1666,2017.2915],[42.2178,40.1621,1731.6055],[42.2381,40.1586,1918.0565],[42.2559,40.1523,1975.666],[42.2949,40.148,2085.4082],[42.3161,40.1409,1874.7595],[42.3515,40.1372,1743.6576],[42.3675,40.1315,1672.1241],[42.4122,40.0983,1624.4653],[42.4365,40.0879,1841.514],[42.4476,40.0812,2065.8901],[42.499,40.0412,2034.6],[42.507,40.0323,2221.354],[42.5292,39.997,2387.2798],[42.5517,39.9741,1932.6862],[42.5664,39.9476,2432.2717],[42.6006,39.9305,2183.5769],[42.6277,39.9201,2685.0286],[42.6383,39.9176,2596.3613],[42.699,39.9166,2287.936],[42.7185,39.9191,2515.8291],[42.7396,39.9262,2421.1584],[42.7596,39.9303,2346.4009],[42.7724,39.936,2450.8518],[42.8297,39.9415,2411.7754],[42.8503,39.9497,2475.2756],[42.8833,39.9542,2526.7856]]]]}}