{"type":"Feature","properties":{"featurecla":"River","scalerank":8,"rivernum":747,"dissolve":"747River","name":"Kr","name_alt":null,"note":null,"min_zoom":7.0,"strokeweig":0.15,"name_en":"Kr","min_label":8.0},
"geometry":{"type": "LineString","coordinates": [[43.288281250000011,40.97528717655662,1958.5],[43.282958984375,40.94721100468162,1958.5],[43.305078125000023,40.913446356244116,1958.0625],[43.356640625000011,40.85858795780662,1691.5458],[43.37265625,40.82587311405662,1656.0503],[43.38330078125,40.81500885624412,1652.2529],[43.401562500000011,40.810809637494117,1649.468],[43.425683593750023,40.816034246869116,1654.1592],[43.435791015625,40.817010809369116,1661.05],[43.446386718750006,40.814715887494117,1640.5303],[43.45361328125,40.80927155155662,1655.2554],[43.45947265625,40.802850653119116,1574.8423],[43.466552734375,40.79779694218162,1566.2534]]}}