{"type": "Feature","id": "3040","bbox": [42.15043,39.92214,43.72935,41.10659],"geometry": {"type": "Polygon","coordinates": [[[43.65251,40.52941,1454.1707],[43.65147,40.55339,1460.608],[43.66481,40.57406,1444.0],[43.70718,40.61194,1444.0],[43.69953,40.63458,1465.0375],[43.70563,40.64078,1460.6871],[43.72641,40.66899,1450.2769],[43.72935,40.6771,1467.5951],[43.72413,40.74635,1529.9429],[43.72062,40.76289,1555.2021],[43.71132,40.78165,1570.6395],[43.66977,40.83213,1725.2537],[43.65954,40.85198,1767.9373],[43.65416,40.87472,1904.7585],[43.65194,40.89477,2028.8134],[43.64765,40.91389,2091.5393],[43.63618,40.93352,2091.457],[43.60486,40.96334,2039.9171],[43.56543,40.98815,2515.8115],[43.52239,41.00447,2668.4155],[43.4796,41.00913,2963.8782],[43.46048,41.02287,2959.9363],[43.44456,41.05145,2699.4819],[43.43629,41.08323,2873.2097],[43.44043,41.10659,2766.728],[43.37545,41.08993,2456.7063],[43.27486,41.04682,1958.5],[43.112,40.99413,2701.3455],[42.94914,40.94144,2119.2678],[42.82938,40.89354,1994.1562],[42.80543,40.8169,2237.2134],[42.79106,40.69715,2736.4731],[42.7719,40.6253,2101.4209],[42.65215,40.61572,2551.0759],[42.53697,40.59918,2343.6401],[42.53056,40.56432,3039.4792],[42.51413,40.53052,2700.0391],[42.53821,40.43071,2412.6963],[42.49883,40.41133,2616.5122],[42.45677,40.3972,2410.3765],[42.42287,40.37986,2527.0767],[42.39062,40.35955,2769.8591],[42.32685,40.33188,2107.1821],[42.18123,40.29444,2500.1226],[42.15043,40.24054,2236.5627],[42.18557,40.20842,1938.0117],[42.20645,40.18122,2111.7776],[42.23094,40.16049,1919.5211],[42.31652,40.14957,1995.4546],[42.34907,40.14109,1760.972],[42.37874,40.12497,1587.2542],[42.39517,40.10753,1508.3973],[42.4085,40.08678,1696.4517],[42.42525,40.07626,1990.8628],[42.44571,40.07179,1974.78],[42.48457,40.05885,1915.323],[42.50999,40.02828,2252.8105],[42.5347,39.9881,2106.5264],[42.56374,39.95185,2322.2432],[42.75732,39.92214,2364.7295],[43.06448,39.98934,2842.8306],[43.17352,39.98852,2745.3792],[43.21962,39.97932,2525.7573],[43.2653,39.98658,2592.8311],[43.31842,39.96932,2278.478],[43.35629,40.00259,2093.4082],[43.35629,40.04091,2432.5171],[43.40898,40.06007,2130.0002],[43.53352,40.07444,1513.5863],[43.66543,40.11016,946.0629],[43.65251,40.139,965.5869],[43.66636,40.14892,1067.3687],[43.71163,40.15646,1198.1429],[43.72139,40.16938,1147.9668],[43.71493,40.18065,1240.7584],[43.68372,40.2101,1280.3762],[43.67308,40.22773,1283.1646],[43.69137,40.23863,1295.8308],[43.69035,40.24044,1263.3126],[43.67597,40.26597,1285.9437],[43.63148,40.31031,1289.4229],[43.60445,40.32979,1283.8271],[43.59422,40.34545,1288.1233],[43.60104,40.36183,1309.4304],[43.60957,40.37299,1306.6952],[43.62446,40.41114,1343.6388],[43.62533,40.41335,1346.0935],[43.62533,40.42017,1345.4269],[43.58486,40.44658,1317.8013],[43.56362,40.46471,1488.2166],[43.55949,40.47789,1566.5538],[43.5937,40.509,1388.7717],[43.6153,40.52042,1413.0524],[43.63897,40.52259,1392.7681],[43.63628,40.52978,1442.0293],[43.63463,40.53277,1458.4033],[43.63148,40.53685,1458.0953],[43.63757,40.53515,1417.6229],[43.64202,40.53437,1406.7678],[43.64646,40.53303,1423.6044],[43.65251,40.52941,1454.1707]]]}
,"properties": {"ISO3166-1-Alpha-3": "TUR","country": "Turkey","fill": "#000","name": "Kars","area_km2": 10498.688,"hist_schema_id": "Elevation0-9000","hist_area_km2": {"950": 3.307,"975": 15.159,"1000": 19.634,"1025": 19.65,"1050": 21.319,"1075": 18.498,"1100": 21.9,"1125": 23.437,"1150": 23.678,"1175": 25.864,"1200": 31.519,"1225": 33.431,"1250": 37.363,"1275": 55.276,"1300": 56.255,"1325": 58.186,"1350": 62.049,"1375": 66.986,"1400": 68.565,"1425": 65.586,"1450": 103.518,"1475": 129.309,"1500": 146.735,"1525": 163.442,"1550": 165.553,"1575": 155.264,"1600": 155.747,"1625": 173.28,"1650": 191.721,"1675": 231.038,"1700": 210.184,"1725": 187.372,"1750": 241.97,"1775": 274.092,"1800": 281.598,"1825": 298.343,"1850": 292.996,"1875": 292.719,"1900": 289.224,"1925": 271.033,"1950": 327.196,"1975": 286.415,"2000": 277.719,"2025": 281.366,"2050": 284.228,"2075": 290.859,"2100": 286.889,"2125": 271.403,"2150": 238.251,"2175": 240.323,"2200": 247.565,"2225": 228.32,"2250": 210.512,"2275": 219.678,"2300": 185.78,"2325": 165.514,"2350": 146.256,"2375": 132.473,"2400": 124.341,"2425": 112.742,"2450": 99.617,"2475": 90.341,"2500": 81.228,"2525": 71.235,"2550": 64.994,"2575": 59.947,"2600": 54.457,"2625": 50.773,"2650": 47.855,"2675": 42.929,"2700": 41.084,"2725": 37.624,"2750": 29.77,"2775": 26.121,"2800": 22.684,"2825": 19.919,"2850": 17.987,"2875": 16.847,"2900": 16.503,"2925": 14.389,"2950": 12.67,"2975": 11.338,"3000": 9.377,"3025": 6.631,"3050": 4.715,"3075": 3.426,"3100": 1.798,"3125": 1.141,"3150": 0.386,"3175": 0.113,"3225": 0.081}}}