{"type": "Feature","bbox": [28.7613,36.5882,29.1909,37.1044],"geometry": {"type": "MultiPolygon","coordinates": [[[[28.764,36.6279,0.0],[28.7629,36.6288,0.0],[28.7613,36.6263,0.0],[28.7651,36.6268,0.0],[28.764,36.6279,0.0]]],
[[[28.8963,36.6699,31.8434],[28.8924,36.6668,18.0725],[28.889,36.6704,11.1256],[28.8879,36.6679,11.5004],[28.8951,36.661,4.1864],[28.899,36.6601,3.7265],[28.9026,36.6518,0.0],[28.9079,36.6512,10.6255],[28.9093,36.6571,11.548],[28.9074,36.6649,28.5078],[28.8996,36.6676,27.9051],[28.899,36.6699,8.0065],[28.8963,36.6699,31.8434]]],
[[[28.9176,36.6813,29.882],[28.9126,36.681,24.1787],[28.9121,36.6787,0.0],[28.9162,36.6751,2.4455],[28.9146,36.6746,2.4455],[28.9121,36.6771,0.0],[28.9093,36.6721,0.0],[28.9112,36.6632,43.9141],[28.9129,36.6615,83.582],[28.9124,36.6557,36.6975],[28.9149,36.6543,5.1707],[28.9168,36.6546,0.0],[28.9232,36.6615,0.0],[28.9238,36.664,26.7456],[28.9268,36.6643,0.0],[28.9268,36.6707,17.4586],[28.9296,36.6712,35.2882],[28.9332,36.6688,8.4641],[28.9396,36.6738,0.0],[28.9368,36.6757,3.7114],[28.9304,36.6754,105.9707],[28.9249,36.6785,13.1809],[28.9196,36.6774,15.5177],[28.9196,36.6801,18.1124],[28.9176,36.6813,29.882]]],
[[[28.9293,36.6993,0.0],[28.9246,36.7001,0.8509],[28.9232,36.6988,0.8509],[28.926,36.6929,0.0],[28.9301,36.696,0.0],[28.9293,36.6993,0.0]]],
[[[28.9335,36.7118,0.0],[28.9315,36.7121,0.0],[28.9296,36.7099,3.2672],[28.9318,36.7074,3.987],[28.9332,36.7079,2.3818],[28.9318,36.7104,4.4409],[28.9335,36.7118,0.0]]],
[[[28.9338,36.6968,5.2002],[28.9315,36.6968,24.4943],[28.931,36.6949,9.8631],[28.9335,36.694,0.0],[28.9338,36.6968,5.2002]]],
[[[28.9354,36.7079,1.4284],[28.9346,36.7088,0.0],[28.9335,36.7074,2.3818],[28.934,36.7029,9.5109],[28.9326,36.7024,0.0],[28.9321,36.6988,1.3372],[28.9343,36.6999,1.0996],[28.9354,36.7079,1.4284]]],
[[[28.9407,36.7363,7.9844],[28.9396,36.7371,0.0],[28.9365,36.7343,0.0],[28.9376,36.7321,85.9202],[28.9351,36.7296,7.8651],[28.9365,36.7246,0.0],[28.9338,36.724,0.0],[28.9351,36.7199,6.056],[28.9385,36.7176,3.5463],[28.9446,36.7218,0.0],[28.9457,36.7254,4.9053],[28.9504,36.7254,0.0],[28.9488,36.7279,8.4656],[28.9454,36.729,0.0],[28.9465,36.7318,0.0],[28.9407,36.7363,7.9844]]],
[[[29.0572,37.0738,533.1283],[29.0609,37.0866,832.2907],[29.0634,37.1044,857.3254],[29.0488,37.0968,1007.2576],[29.0389,37.0896,808.6438],[29.022,37.0647,845.403],[29.0207,37.0539,592.808],[29.0305,37.0365,727.0601],[29.032,37.0268,659.8252],[29.0309,37.0195,743.8928],[29.0,36.9707,419.2542],[28.9844,36.9555,606.8575],[28.95,36.93,392.359],[28.923,36.9183,267.4199],[28.8867,36.8934,110.4388],[28.8656,36.8848,291.2275],[28.8388,36.8687,374.3258],[28.8178,36.8603,54.0],[28.7925,36.8442,51.7037],[28.7921,36.7836,14.2014],[28.7904,36.7675,11.3838],[28.7796,36.7447,5.8283],[28.7733,36.715,3.7349],[28.7629,36.6963,2.0345],[28.7707,36.6915,0.0],[28.7746,36.6921,0.6133],[28.7901,36.686,0.5527],[28.7979,36.679,13.3952],[28.7996,36.6726,9.8719],[28.8065,36.669,53.2075],[28.7957,36.6643,0.0],[28.796,36.6613,0.0],[28.794,36.6596,0.0],[28.7957,36.656,4.5711],[28.7938,36.654,0.0],[28.794,36.6504,0.0],[28.8021,36.6526,7.7094],[28.8035,36.6557,23.1699],[28.8104,36.6551,0.0],[28.8182,36.6593,26.5891],[28.8201,36.6585,6.1991],[28.8213,36.6554,0.0],[28.8246,36.6551,29.1086],[28.8307,36.6471,29.4705],[28.8296,36.6443,0.0],[28.8307,36.6387,0.0],[28.839,36.6418,0.0],[28.8438,36.6418,3.3665],[28.8512,36.6376,18.6913],[28.8438,36.6354,29.3379],[28.8374,36.6312,0.0],[28.8365,36.6276,18.7929],[28.8326,36.629,0.0],[28.8243,36.6257,15.2908],[28.8279,36.6213,0.0],[28.8249,36.6126,6.097],[28.8304,36.611,7.7779],[28.829,36.6101,0.0],[28.8301,36.6074,24.3798],[28.829,36.6054,0.0],[28.8304,36.604,10.3256],[28.8449,36.5968,17.935],[28.8457,36.5882,0.0],[28.8582,36.5954,0.0],[28.8618,36.6007,16.4701],[28.8676,36.6018,0.0],[28.8735,36.6004,0.0],[28.8757,36.6018,0.0],[28.8693,36.6046,0.0],[28.8674,36.6096,0.0],[28.8693,36.6129,0.0],[28.8674,36.6151,0.0],[28.8724,36.6165,0.0],[28.8657,36.6179,10.4315],[28.8688,36.6188,6.3614],[28.8685,36.6218,0.0],[28.8715,36.6201,0.0],[28.8754,36.621,0.0],[28.874,36.6246,17.6009],[28.876,36.6257,57.3716],[28.8824,36.6254,0.0],[28.8821,36.6288,0.0],[28.8779,36.629,4.1401],[28.8796,36.6304,0.0],[28.8918,36.6299,0.0],[28.886,36.6338,2.7662],[28.8876,36.6351,2.7662],[28.8868,36.6363,14.3057],[28.8901,36.6368,0.0],[28.8929,36.6401,9.1364],[28.8963,36.6393,0.0],[28.8988,36.6413,3.3275],[28.9065,36.6393,0.0],[28.904,36.6457,28.3379],[28.9071,36.6463,2.0232],[28.9085,36.6485,0.0],[28.9046,36.6507,2.9528],[28.901,36.6504,13.6652],[28.896,36.6488,0.0],[28.894,36.6443,34.9544],[28.8915,36.6454,15.3158],[28.8896,36.644,0.0],[28.8851,36.6476,14.007],[28.8779,36.6479,11.7519],[28.8774,36.6376,12.3894],[28.8804,36.6354,9.5007],[28.8735,36.6335,53.1187],[28.8704,36.6335,40.0876],[28.8635,36.6404,40.4762],[28.8635,36.6424,7.3449],[28.8676,36.6418,0.0],[28.8654,36.6446,0.0],[28.8607,36.6446,0.0],[28.8554,36.6401,37.1599],[28.8501,36.6432,33.5001],[28.8532,36.6468,0.0],[28.8585,36.6488,35.3163],[28.8596,36.6507,49.1218],[28.8629,36.651,20.5618],[28.8662,36.654,11.0178],[28.8601,36.6546,23.3975],[28.8596,36.6565,0.0],[28.8571,36.6568,15.7879],[28.8576,36.6593,2.8247],[28.8524,36.6587,8.768],[28.851,36.6615,0.0],[28.8512,36.6637,0.0],[28.864,36.6665,0.0],[28.869,36.671,0.0],[28.8654,36.6749,8.3728],[28.8582,36.676,31.309],[28.8618,36.6799,6.9277],[28.866,36.6804,0.0],[28.8662,36.684,50.6683],[28.8685,36.6871,0.0],[28.8671,36.6904,0.0],[28.8685,36.6932,0.0],[28.8649,36.6946,20.4944],[28.8646,36.6971,64.8419],[28.8713,36.6971,58.9538],[28.8735,36.6943,7.7699],[28.8771,36.6935,0.0],[28.8796,36.6949,0.0],[28.8776,36.6988,0.0],[28.8785,36.7007,12.926],[28.8865,36.6993,0.0],[28.8926,36.7001,0.0],[28.9015,36.6974,4.5214],[28.9015,36.6999,5.8965],[28.8985,36.7007,0.0],[28.8982,36.7026,11.5451],[28.9013,36.7038,53.3892],[28.9065,36.7029,0.0],[28.9071,36.7051,0.0],[28.9093,36.7054,0.0],[28.9093,36.7079,5.2452],[28.906,36.709,0.0],[28.9018,36.7082,40.4441],[28.8988,36.7107,0.0],[28.8937,36.7093,3.3501],[28.8943,36.7121,11.7936],[28.901,36.7137,0.0],[28.9024,36.7124,5.4057],[28.9101,36.7129,13.9432],[28.9104,36.7179,0.0],[28.9149,36.7232,0.0],[28.9093,36.724,39.7892],[28.9143,36.729,12.5251],[28.9207,36.7282,0.0],[28.9229,36.731,0.0],[28.9204,36.7329,10.4915],[28.9299,36.7343,0.0],[28.9246,36.7424,32.7058],[28.926,36.7454,0.0],[28.931,36.7465,0.0],[28.931,36.7513,0.0],[28.9254,36.7496,0.0],[28.9218,36.7515,0.0],[28.9236,36.7515,0.0],[28.9299,36.771,134.5951],[28.9465,36.7968,212.246],[28.9556,36.8057,289.9234],[28.9983,36.839,832.8506],[29.0188,36.8509,557.3643],[29.046,36.8561,743.4751],[29.0638,36.8624,1120.5027],[29.0911,36.8675,1648.3298],[29.1421,36.8867,1491.9711],[29.1601,36.8883,1356.6855],[29.1909,36.8872,1261.3722],[29.1718,36.908,1236.0336],[29.1085,36.9573,1516.0725],[29.0951,36.9705,955.563],[29.0818,36.9915,1335.8497],[29.0789,36.9993,902.2738],[29.0777,37.0365,637.971],[29.0758,37.0476,691.7261],[29.0719,37.055,561.0334],[29.0572,37.0738,533.1283]]]]}
,"properties": {"GID_2": "TUR.59.2_1","GID_0": "TUR","country": "Turkey","GID_1": "TUR.59_1","province": "Mugla","NL_NAME_1": "NA","county": "Dalaman","VARNAME_2": "NA","NL_NAME_2": "NA","TYPE_2": "District","ENGTYPE_2": "District","CC_2": "NA","HASC_2": "TR.MG.DL","name": "Dalaman.county","area_km2": 621.1842,"hist_schema_id": "Elevation0-9000","hist_area_km2": {"0": 47.6875,"25": 31.7454,"50": 15.428,"75": 15.7841,"100": 15.1032,"125": 14.1175,"150": 14.2192,"175": 19.8624,"200": 17.2714,"225": 18.458,"250": 19.1356,"275": 18.4031,"300": 17.178,"325": 16.9733,"350": 14.7457,"375": 14.0823,"400": 12.7393,"425": 12.3978,"450": 12.4317,"475": 12.4128,"500": 11.6829,"525": 11.9864,"550": 11.731,"575": 10.2563,"600": 9.7129,"625": 9.3572,"650": 8.2219,"675": 8.6797,"700": 8.0179,"725": 9.0857,"750": 9.4246,"775": 8.3736,"800": 7.4411,"825": 6.6094,"850": 6.6428,"875": 5.1521,"900": 4.8634,"925": 4.9483,"950": 5.0159,"975": 4.2027,"1000": 4.7448,"1025": 5.3038,"1050": 6.2026,"1075": 5.6775,"1100": 5.7626,"1125": 5.5766,"1150": 5.7463,"1175": 5.9671,"1200": 5.8483,"1225": 5.5092,"1250": 5.2719,"1275": 5.0856,"1300": 4.0515,"1325": 3.6278,"1350": 3.6787,"1375": 3.0854,"1400": 3.1532,"1425": 2.4242,"1450": 2.5767,"1475": 2.0003,"1500": 1.8478,"1525": 1.6613,"1550": 1.4071,"1575": 1.0511,"1600": 0.7461,"1625": 0.5597,"1650": 0.2883,"1675": 0.2375,"1700": 0.2205,"1725": 0.0848,"1750": 0.0509,"1775": 0.0678,"1800": 0.017,"1825": 0.0509,"1850": 0.017}}}