{"type": "Feature","bbox": [29.199,37.6169,29.4757,37.843],"geometry": {"type": "MultiPolygon","coordinates": [[[[29.4757,37.6169,1450.4888],[29.4671,37.632,1415.1312],[29.4546,37.6447,1680.5366],[29.4513,37.6553,1514.406],[29.4418,37.6716,1363.0553],[29.4361,37.6901,1222.3159],[29.4266,37.7065,1161.9684],[29.4244,37.7176,1210.594],[29.4243,37.7348,1175.9248],[29.4279,37.7485,1173.2661],[29.4498,37.7714,907.2686],[29.4593,37.7856,735.0479],[29.4674,37.7946,706.6356],[29.4496,37.8114,609.6558],[29.4388,37.8174,646.0206],[29.3749,37.841,489.3416],[29.3508,37.843,475.8243],[29.3261,37.8428,483.5646],[29.2977,37.8403,495.4734],[29.2737,37.8335,431.7048],[29.246,37.8288,405.0708],[29.2281,37.8192,296.5288],[29.206,37.8005,264.5894],[29.2023,37.7929,327.9777],[29.203,37.785,376.7458],[29.2122,37.7693,454.3258],[29.2144,37.7555,569.4429],[29.2124,37.7416,953.5423],[29.2025,37.7254,693.365],[29.1999,37.7174,955.1114],[29.199,37.7061,915.1938],[29.2009,37.695,737.1449],[29.2104,37.6828,790.2023],[29.2527,37.6488,1266.4343],[29.2576,37.6412,1120.0057],[29.2633,37.621,1046.4902],[29.2949,37.6215,1109.5713],[29.3181,37.6241,1405.5698],[29.3359,37.6303,1653.334],[29.3494,37.6331,1500.0817],[29.354,37.6395,1400.428],[29.3617,37.6415,1351.1101],[29.3916,37.6343,1395.8967],[29.4395,37.6331,1555.1753],[29.4559,37.6234,1500.2974],[29.4757,37.6169,1450.4888]]]]}
,"properties": {"GID_2": "TUR.25.14_1","GID_0": "TUR","country": "Turkey","GID_1": "TUR.25_1","province": "Denizli","NL_NAME_1": "NA","county": "Honaz","VARNAME_2": "NA","NL_NAME_2": "NA","TYPE_2": "District","ENGTYPE_2": "District","CC_2": "NA","HASC_2": "TR.DN.HO","name": "Honaz.county","area_km2": 450.7221,"hist_schema_id": "Elevation0-9000","hist_area_km2": {"275": 1.5578,"300": 2.1944,"325": 2.5965,"350": 7.6223,"375": 13.4868,"400": 16.0006,"425": 13.4873,"450": 16.0831,"475": 21.3735,"500": 14.5241,"525": 9.3996,"550": 6.2672,"575": 5.8315,"600": 5.3456,"625": 4.9938,"650": 4.5414,"675": 4.5084,"700": 4.3414,"725": 4.1236,"750": 4.9118,"775": 4.5095,"800": 3.7885,"825": 4.0735,"850": 3.7886,"875": 4.8947,"900": 5.8505,"925": 5.4484,"950": 6.3533,"975": 6.2531,"1000": 6.6729,"1025": 7.3776,"1050": 9.659,"1075": 9.7773,"1100": 10.2643,"1125": 10.9529,"1150": 11.6243,"1175": 11.4073,"1200": 10.4019,"1225": 9.5139,"1250": 8.4235,"1275": 8.2226,"1300": 7.8371,"1325": 6.9643,"1350": 6.4104,"1375": 6.6623,"1400": 5.7728,"1425": 5.6384,"1450": 5.689,"1475": 5.6384,"1500": 5.3532,"1525": 5.655,"1550": 5.5378,"1575": 5.9576,"1600": 5.4374,"1625": 5.2526,"1650": 4.4471,"1675": 3.5071,"1700": 3.2052,"1725": 3.1212,"1750": 2.1983,"1775": 2.4835,"1800": 1.9968,"1825": 1.6947,"1850": 2.0471,"1875": 1.7283,"1900": 1.8458,"1925": 1.7115,"1950": 1.4765,"1975": 1.4933,"2000": 1.6444,"2025": 1.2416,"2050": 1.0068,"2075": 1.1243,"2100": 0.8222,"2125": 0.8558,"2150": 0.5034,"2175": 0.5034,"2200": 0.4698,"2225": 0.4363,"2250": 0.4027,"2275": 0.4698,"2300": 0.2685,"2325": 0.3692,"2350": 0.3524,"2375": 0.1678,"2400": 0.1678,"2425": 0.2014,"2450": 0.2349,"2475": 0.2014,"2500": 0.0671}}}