{"type":"Feature","properties":{"GID_2":"TUR.19.6_1","GID_0":"TUR","country":"Turkey","GID_1":"TUR.19_1","province":"Bolu","NL_NAME_1":"NA","county":"Merkez","VARNAME_2":"Bolu","NL_NAME_2":"NA","TYPE_2":"District","ENGTYPE_2":"District","CC_2":"NA","HASC_2":"TR.BL.BL","name":"Merkez.county"},
"geometry":{"type": "MultiPolygon","coordinates": [[[[31.9203,40.7502,1160.0996],[31.9231,40.763,1171.9099],[31.9244,40.7822,1176.2423],[31.924,40.8056,1271.8926],[31.9219,40.8233,1337.6478],[31.8812,40.8205,1031.6205],[31.8662,40.821,1127.9153],[31.8561,40.8233,973.9268],[31.8493,40.8284,960.7477],[31.8298,40.857,696.2399],[31.8207,40.8643,742.1771],[31.6909,40.9147,1436.1898],[31.6382,40.893,1294.9377],[31.6042,40.8813,1035.7388],[31.5579,40.8781,1096.0273],[31.5327,40.8706,1224.3232],[31.5175,40.8683,1236.9301],[31.4935,40.8682,1040.2507],[31.4693,40.871,956.4073],[31.4562,40.8456,1026.7439],[31.4466,40.8322,1092.8102],[31.4315,40.8051,1054.5359],[31.429,40.785,1066.1125],[31.4293,40.7156,939.8751],[31.4271,40.7013,944.3685],[31.4238,40.6966,1007.9469],[31.4192,40.6934,1066.5974],[31.3789,40.6763,1324.8154],[31.3609,40.6615,1352.0355],[31.3696,40.6273,1247.63],[31.3767,40.6185,1201.4297],[31.3882,40.6132,1491.1357],[31.42,40.6108,1175.517],[31.4331,40.6069,1008.1135],[31.4521,40.594,1333.2423],[31.4861,40.5656,1640.8357],[31.5357,40.5661,1315.3318],[31.547,40.568,1408.0341],[31.5649,40.5741,1307.0093],[31.5806,40.5764,1459.0035],[31.7055,40.5777,1666.5844],[31.7155,40.5802,1658.5806],[31.7596,40.598,1918.073],[31.7772,40.5997,2131.5601],[31.7877,40.5979,2017.5035],[31.7999,40.5917,2021.0637],[31.8557,40.5486,1859.4513],[31.8685,40.5436,1811.6003],[31.8865,40.5428,1964.2462],[31.9056,40.5661,2113.9238],[31.9122,40.5872,1925.5098],[31.9495,40.6452,1317.4862],[31.958,40.6686,1318.387],[31.975,40.6864,1371.8679],[31.9778,40.6929,1364.5439],[31.9731,40.7019,1396.786],[31.9327,40.7337,1371.9598],[31.9203,40.7502,1160.0996]]]]}}