{"type": "Feature","bbox": [41.7649,38.1295,42.4091,38.4955],"geometry": {"type": "MultiPolygon","coordinates": [[[[41.9322,38.456,1468.1343],[41.948,38.4379,1584.8696],[41.9612,38.4169,1727.3248],[41.9643,38.4088,1860.2004],[41.9658,38.3938,1624.0281],[41.9662,38.3292,2112.8413],[41.9655,38.3203,2194.5774],[41.9627,38.3118,1920.0692],[41.9544,38.3037,1881.9514],[41.9451,38.3,2194.9072],[41.8838,38.2982,2021.9653],[41.873,38.2953,1683.5365],[41.8607,38.2882,1681.0215],[41.8044,38.2447,1973.2734],[41.7919,38.2333,1976.3203],[41.7869,38.2256,1681.001],[41.7811,38.2071,962.349],[41.7708,38.1908,1319.3254],[41.7649,38.1773,1074.6189],[41.81,38.1692,734.3217],[41.8347,38.1612,849.4788],[41.8848,38.1574,1327.2644],[41.9061,38.1501,1299.3708],[41.9166,38.1483,1273.0179],[41.9383,38.1485,1224.6895],[41.9655,38.1564,1151.8911],[41.979,38.1563,790.4134],[41.9884,38.1524,999.1238],[42.0259,38.1295,1177.4282],[42.0427,38.1584,1381.6367],[42.0485,38.1652,1533.2249],[42.0868,38.1957,1717.2882],[42.1046,38.2042,2050.8545],[42.1406,38.2079,1840.6892],[42.1688,38.2164,2058.4114],[42.2079,38.2169,2059.2686],[42.2191,38.215,1844.217],[42.2402,38.2078,2184.415],[42.264,38.2031,1825.5537],[42.2982,38.1878,2172.9407],[42.3119,38.2144,2277.533],[42.3167,38.2208,2225.542],[42.3471,38.2466,1860.5945],[42.362,38.2672,1726.353],[42.3949,38.2951,1829.7261],[42.4091,38.311,1791.772],[42.3973,38.3232,1921.2577],[42.3873,38.3302,2199.8752],[42.342,38.3476,2554.1221],[42.3126,38.3649,2176.4019],[42.2672,38.3826,1720.0171],[42.2596,38.3871,1787.3566],[42.2438,38.4009,2220.4504],[42.2221,38.4059,2365.4858],[42.2071,38.414,1982.6456],[42.1996,38.4205,2180.0591],[42.1939,38.4281,1828.214],[42.1868,38.4603,2052.426],[42.1804,38.4676,1946.9037],[42.1641,38.479,1801.0508],[42.1526,38.4955,1883.5361],[42.1294,38.4877,2032.8416],[42.1057,38.4831,1943.1256],[42.0769,38.4746,2133.8572],[42.0526,38.4734,2250.4312],[41.9906,38.4738,2257.3303],[41.9707,38.472,1711.7482],[41.9322,38.456,1468.1343]]]]}
,"properties": {"GID_2": "TUR.18.5_1","GID_0": "TUR","country": "Turkey","GID_1": "TUR.18_1","province": "Bitlis","NL_NAME_1": "NA","county": "Merkez","VARNAME_2": "BitlisMerkezi","NL_NAME_2": "NA","TYPE_2": "District","ENGTYPE_2": "District","CC_2": "NA","HASC_2": "TR.BT.BT","name": "Merkez.county","area_km2": 1171.0241,"hist_schema_id": "Elevation0-9000","hist_area_km2": {"725": 0.3667,"750": 1.3166,"775": 2.3998,"800": 3.9996,"825": 5.5656,"850": 5.6155,"875": 6.2819,"900": 6.1818,"925": 6.8647,"950": 6.7646,"975": 6.381,"1000": 6.931,"1025": 7.0806,"1050": 7.3305,"1075": 7.4305,"1100": 6.7139,"1125": 7.4968,"1150": 7.0133,"1175": 9.9783,"1200": 10.6454,"1225": 11.8282,"1250": 11.9946,"1275": 12.6931,"1300": 12.8426,"1325": 13.1402,"1350": 13.7388,"1375": 13.7038,"1400": 15.0679,"1425": 17.0798,"1450": 18.4434,"1475": 20.788,"1500": 23.3147,"1525": 24.4787,"1550": 25.375,"1575": 26.0565,"1600": 27.9027,"1625": 30.1656,"1650": 32.4245,"1675": 33.0193,"1700": 36.3287,"1725": 37.0069,"1750": 35.1922,"1775": 36.3387,"1800": 37.8161,"1825": 34.7066,"1850": 33.1778,"1875": 32.3657,"1900": 31.1514,"1925": 27.6427,"1950": 26.0786,"1975": 27.356,"2000": 26.5043,"2025": 25.159,"2050": 24.742,"2075": 21.4017,"2100": 20.4879,"2125": 16.4135,"2150": 15.3509,"2175": 15.0009,"2200": 12.823,"2225": 11.659,"2250": 11.3274,"2275": 9.3487,"2300": 8.0846,"2325": 7.3523,"2350": 6.7041,"2375": 5.889,"2400": 5.6895,"2425": 4.5417,"2450": 4.4915,"2475": 3.4279,"2500": 2.8453,"2525": 2.6454,"2550": 1.9798,"2575": 1.3484,"2600": 0.7326,"2625": 0.7659,"2650": 0.4996,"2675": 0.6328,"2700": 0.6161,"2725": 0.6328,"2750": 0.3497}}}