{"type": "Feature","bbox": [40.3994,40.9788,40.4926,41.0349],"geometry": {"type": "MultiPolygon","coordinates": [[[[40.4926,40.9795,360.9176],[40.4758,40.9974,157.4056],[40.4705,41.0102,201.843],[40.4695,41.0243,161.3702],[40.476,41.0349,4.2426],[40.4649,41.0315,8.6748],[40.4551,41.0324,0.0],[40.4504,41.0304,13.6505],[40.4404,41.0307,0.0],[40.4271,41.0274,0.0],[40.4254,41.0257,2.1136],[40.3994,41.026,0.3437],[40.4466,40.9811,201.4476],[40.4646,40.9788,420.6999],[40.4926,40.9795,360.9176]]]]}
,"properties": {"GID_2": "TUR.65.4_1","GID_0": "TUR","country": "Turkey","GID_1": "TUR.65_1","province": "Rize","NL_NAME_1": "NA","county": "Derepazarı","VARNAME_2": "NA","NL_NAME_2": "NA","TYPE_2": "District","ENGTYPE_2": "District","CC_2": "NA","HASC_2": "TR.RI.DE","name": "Derepazarı.county","area_km2": 24.87983,"hist_schema_id": "Elevation0-9000","hist_area_km2": {"0": 1.02367,"25": 0.75179,"50": 1.11972,"75": 1.18378,"100": 1.56776,"125": 1.67978,"150": 2.03188,"175": 2.11198,"200": 2.04802,"225": 2.20807,"250": 1.88809,"275": 2.03217,"300": 1.6803,"325": 1.42429,"350": 0.9282,"375": 0.64017,"400": 0.27206,"425": 0.14405,"450": 0.08003,"475": 0.06403}}}