{"type":"Feature","properties":{"GID_2":"TUR.53.14_1","GID_0":"TUR","country":"Turkey","GID_1":"TUR.53_1","province":"Konya","NL_NAME_1":"NA","county":"Ereğli","VARNAME_2":"NA","NL_NAME_2":"NA","TYPE_2":"District","ENGTYPE_2":"District","CC_2":"NA","HASC_2":"TR.KO.ER","name":"Ereğli.county"},
"geometry":{"type": "MultiPolygon","coordinates": [[[[34.0189,37.2571,1622.4177],[34.0235,37.27,1563.241],[34.0687,37.3401,2372.3877],[34.0806,37.3513,2281.5161],[34.113,37.3767,2322.1619],[34.1218,37.3859,1926.6163],[34.1373,37.412,1406.8995],[34.1398,37.4459,1142.2427],[34.1421,37.4542,1107.7421],[34.1499,37.4641,1143.3134],[34.1629,37.4737,1181.166],[34.1757,37.4763,1215.5891],[34.1839,37.4729,1309.1583],[34.2021,37.4446,1280.4485],[34.2132,37.4353,1251.139],[34.2711,37.4202,1424.6261],[34.2894,37.4199,1405.6429],[34.3035,37.422,1352.5013],[34.3843,37.454,1739.5853],[34.38,37.4729,1525.0428],[34.3802,37.5004,1636.644],[34.3831,37.512,1648.0725],[34.3922,37.5287,1660.5315],[34.3973,37.5556,1698.6084],[34.4126,37.582,1354.594],[34.4375,37.6186,1398.244],[34.4501,37.6396,1220.7546],[34.4532,37.6476,1200.4562],[34.4555,37.6776,1179.3582],[34.4534,37.6959,1126.5214],[34.421,37.7471,1051.176],[34.4001,37.7678,1050.0333],[34.3909,37.782,1051.2594],[34.3701,37.8028,1052.917],[34.3609,37.8169,1054.6121],[34.3421,37.8356,1059.6777],[34.3269,37.8564,1070.9221],[34.2843,37.8914,1153.0352],[34.2711,37.9104,1178.5187],[34.2598,37.9214,1148.5459],[34.2385,37.9368,1248.5559],[34.2298,37.9407,1237.0027],[34.2237,37.942,1252.0801],[34.1995,37.9345,1179.5554],[34.1719,37.9297,1155.9446],[34.1054,37.9039,1135.7646],[34.0668,37.8751,1143.2671],[34.0554,37.8637,1105.8994],[34.0461,37.8498,1104.697],[34.0337,37.8416,1126.4797],[34.0119,37.8387,1091.2566],[33.9388,37.84,1126.4357],[33.9285,37.8391,1317.9524],[33.9197,37.8357,1321.2302],[33.9155,37.829,1253.7926],[33.9127,37.7966,1124.129],[33.9039,37.7845,1152.8477],[33.8812,37.7659,1208.9961],[33.8712,37.7544,1201.6268],[33.8563,37.7281,1080.5564],[33.8528,37.6915,1047.1165],[33.8373,37.6654,1030.6099],[33.831,37.6584,1028.3572],[33.8147,37.6465,1018.3447],[33.7928,37.6375,1014.9381],[33.7664,37.6219,1010.7222],[33.7261,37.6081,1007.8977],[33.7461,37.5822,1000.6721],[33.7527,37.5611,1000.4071],[33.7619,37.5447,998.2109],[33.7675,37.5261,996.7846],[33.7909,37.4891,996.7104],[33.7975,37.4679,1139.0406],[33.8058,37.4541,1215.0238],[33.8125,37.433,1175.6852],[33.8216,37.4166,1102.9927],[33.8271,37.3863,1271.8804],[33.8432,37.3603,1351.9835],[33.861,37.3457,1596.5848],[33.889,37.3336,1555.0662],[33.905,37.3216,1639.5042],[33.9119,37.3117,1606.2502],[33.918,37.2907,1559.3599],[33.9332,37.2724,1609.6783],[33.9426,37.2693,1645.1036],[33.9721,37.2657,1557.9938],[33.9936,37.2591,1531.9783],[34.0189,37.2571,1622.4177]]]]}}