{"type":"Feature","properties":{"GID_2":"TUR.61.7_1","GID_0":"TUR","country":"Turkey","GID_1":"TUR.61_1","province":"Nevsehir","NL_NAME_1":"NA","county":"Merkez","VARNAME_2":"Nevşehir","NL_NAME_2":"NA","TYPE_2":"District","ENGTYPE_2":"District","CC_2":"NA","HASC_2":"TR.NV.NV","name":"Merkez.county"},
"geometry":{"type": "MultiPolygon","coordinates": [[[[34.6605,38.4776,1515.7411],[34.6935,38.479,1446.0144],[34.7614,38.4782,1455.3779],[34.7796,38.4812,1488.6143],[34.7846,38.4852,1456.217],[34.7877,38.4927,1534.2266],[34.7915,38.5125,1486.3916],[34.8051,38.5363,1447.6672],[34.822,38.5615,1410.8137],[34.8367,38.5772,1310.6169],[34.8462,38.5981,1282.1647],[34.8482,38.622,1253.3359],[34.8481,38.6772,1012.7281],[34.8498,38.7018,950.3069],[34.7835,38.7281,921.1667],[34.7688,38.7389,916.4297],[34.7555,38.753,929.6825],[34.7211,38.7304,994.4714],[34.7043,38.7244,999.4575],[34.6465,38.7222,987.7501],[34.6213,38.7147,1009.5526],[34.605,38.7123,1023.3167],[34.5243,38.7117,1019.1041],[34.5369,38.6919,1055.2942],[34.5629,38.6765,1097.9961],[34.6275,38.6264,1224.7058],[34.6354,38.6179,1236.5181],[34.6468,38.5996,1299.9302],[34.6495,38.5923,1334.2454],[34.6494,38.5871,1327.6697],[34.6401,38.5683,1373.825],[34.6377,38.5562,1368.2844],[34.6374,38.5153,1408.0549],[34.6419,38.5009,1407.0818],[34.6605,38.4776,1515.7411]]]]}}