{"type": "Feature","bbox": [30.5058,38.003,30.852,38.2743],"geometry": {"type": "MultiPolygon","coordinates": [[[[30.5896,38.2201,1820.8854],[30.5926,38.2137,1730.0314],[30.5929,38.2061,1567.2111],[30.5889,38.1982,1414.6121],[30.5821,38.191,1374.5649],[30.5771,38.1786,1377.196],[30.5683,38.1712,1317.9456],[30.5232,38.1544,1262.5359],[30.5132,38.1478,1253.533],[30.5073,38.1381,1139.7228],[30.5058,38.1184,973.1266],[30.5094,38.0988,974.2271],[30.5243,38.0755,2115.7073],[30.56,38.0434,2026.0076],[30.5879,38.0047,1478.0962],[30.6683,38.0046,1776.736],[30.6986,38.003,1735.5551],[30.7236,38.0053,1826.4236],[30.7368,38.0096,1765.8452],[30.7662,38.0306,1701.3126],[30.7857,38.0474,1537.333],[30.8266,38.1107,1195.4575],[30.8457,38.1292,916.5],[30.852,38.1377,917.0829],[30.8357,38.147,916.5],[30.8249,38.1569,916.5],[30.782,38.2245,916.5],[30.7727,38.2504,999.1364],[30.7544,38.2743,1614.8596],[30.7276,38.2626,1633.4786],[30.6921,38.2588,1610.677],[30.6708,38.252,1559.5073],[30.6405,38.2458,1506.8901],[30.6101,38.2339,1504.3894],[30.5896,38.2201,1820.8854]]]]}
,"properties": {"GID_2": "TUR.39.9_1","GID_0": "TUR","country": "Turkey","GID_1": "TUR.39_1","province": "Isparta","NL_NAME_1": "NA","county": "Senirkent","VARNAME_2": "NA","NL_NAME_2": "NA","TYPE_2": "District","ENGTYPE_2": "District","CC_2": "NA","HASC_2": "TR.IP.SE","name": "Senirkent.county","area_km2": 597.2249,"hist_schema_id": "Elevation0-9000","hist_area_km2": {"925": 125.6967,"950": 45.7746,"975": 29.1989,"1000": 16.9074,"1025": 13.4376,"1050": 12.0705,"1075": 11.1689,"1100": 10.569,"1125": 9.4354,"1150": 9.5354,"1175": 9.7851,"1200": 11.8689,"1225": 12.9022,"1250": 12.3863,"1275": 11.9213,"1300": 10.2045,"1325": 10.3389,"1350": 10.256,"1375": 9.2891,"1400": 8.4729,"1425": 8.1569,"1450": 8.3909,"1475": 7.8074,"1500": 8.0076,"1525": 7.373,"1550": 7.3732,"1575": 7.9578,"1600": 6.4904,"1625": 6.6404,"1650": 6.2912,"1675": 6.0753,"1700": 5.8248,"1725": 5.9588,"1750": 5.6583,"1775": 5.6425,"1800": 4.8081,"1825": 4.675,"1850": 4.8752,"1875": 4.775,"1900": 4.5914,"1925": 4.3575,"1950": 4.4076,"1975": 5.5595,"2000": 5.3425,"2025": 6.0103,"2050": 5.6762,"2075": 5.0586,"2100": 4.3408,"2125": 4.1906,"2150": 3.8231,"2175": 2.9382,"2200": 3.222,"2225": 2.9549,"2250": 2.7878,"2275": 2.4372,"2300": 2.1868,"2325": 2.0365,"2350": 1.6359,"2375": 1.2854,"2400": 1.3021,"2425": 0.8681,"2450": 0.818,"2475": 0.8848,"2500": 0.6344,"2525": 0.7178,"2550": 0.5008,"2575": 0.6344,"2600": 0.5008,"2625": 0.4174,"2650": 0.4174,"2675": 0.3339,"2700": 0.1336,"2725": 0.1503,"2750": 0.0334,"2775": 0.0334}}}