{"type": "Feature","bbox": [27.0347,39.4215,27.3568,39.7901],"geometry": {"type": "MultiPolygon","coordinates": [[[[27.2643,39.7708,273.8029],[27.2384,39.7848,269.2753],[27.2107,39.7901,245.2053],[27.2037,39.7662,542.8823],[27.1892,39.7427,461.7987],[27.17,39.7149,544.7454],[27.1426,39.6918,763.8107],[27.1342,39.6828,597.9945],[27.106,39.6385,367.0393],[27.0966,39.6128,218.0476],[27.0863,39.6022,150.7173],[27.0513,39.5751,29.3014],[27.0347,39.5594,18.4268],[27.0642,39.5537,23.4686],[27.0711,39.5487,27.8048],[27.0806,39.5362,66.0524],[27.0851,39.5257,178.1956],[27.0886,39.5015,327.0735],[27.0981,39.4818,595.6794],[27.1018,39.458,575.3235],[27.1076,39.4479,556.3434],[27.1172,39.4411,411.7361],[27.1439,39.4307,703.2938],[27.1768,39.4215,1031.8707],[27.1757,39.4595,532.1714],[27.1789,39.4733,566.6827],[27.1844,39.4805,496.0275],[27.2019,39.4952,660.4468],[27.2225,39.5066,552.4775],[27.2649,39.5115,839.2808],[27.3015,39.5255,720.8537],[27.3177,39.5376,601.7234],[27.3239,39.5447,551.4121],[27.3535,39.5913,532.9838],[27.3568,39.6085,498.411],[27.3568,39.627,534.1198],[27.3527,39.6545,853.9012],[27.3354,39.6652,768.2139],[27.3203,39.6776,700.4601],[27.2918,39.7194,314.1658],[27.2699,39.7355,422.4119],[27.2667,39.7453,389.8828],[27.2643,39.7708,273.8029]]]]}
,"properties": {"GID_2": "TUR.12.11_1","GID_0": "TUR","country": "Turkey","GID_1": "TUR.12_1","province": "Balikesir","NL_NAME_1": "NA","county": "Havran","VARNAME_2": "NA","NL_NAME_2": "NA","TYPE_2": "District","ENGTYPE_2": "District","CC_2": "NA","HASC_2": "TR.BK.HA","name": "Havran.county","area_km2": 571.7832,"hist_schema_id": "Elevation0-9000","hist_area_km2": {"25": 13.6977,"50": 12.7983,"75": 10.7866,"100": 11.946,"125": 12.3713,"150": 10.1491,"175": 11.1292,"200": 11.8967,"225": 12.076,"250": 13.1669,"275": 15.1737,"300": 15.1584,"325": 15.4035,"350": 17.0362,"375": 19.3738,"400": 21.2511,"425": 22.9012,"450": 23.4752,"475": 25.6957,"500": 27.7059,"525": 29.158,"550": 28.8625,"575": 27.572,"600": 26.6893,"625": 23.6663,"650": 21.0027,"675": 18.6173,"700": 16.8206,"725": 14.0263,"750": 11.4637,"775": 8.5562,"800": 7.5625,"825": 4.4259,"850": 3.1037,"875": 2.5977,"900": 2.1087,"925": 0.9654,"950": 0.4913,"975": 0.4258,"1000": 0.1801,"1025": 0.1638,"1050": 0.0983,"1075": 0.0328}}}