{"type": "Feature","bbox": [28.5505,37.2377,28.9796,37.6106],"geometry": {"type": "MultiPolygon","coordinates": [[[[28.6042,37.4777,490.8669],[28.6104,37.4749,476.7016],[28.6129,37.468,564.402],[28.6125,37.4028,426.6055],[28.6159,37.3905,635.5096],[28.624,37.3825,624.9024],[28.6334,37.3787,414.9951],[28.6831,37.3756,577.864],[28.7048,37.369,459.7211],[28.7282,37.3645,536.3612],[28.7396,37.3591,465.2336],[28.7475,37.3509,490.2795],[28.7602,37.33,660.0979],[28.7628,37.3183,630.237],[28.7641,37.2791,961.1251],[28.767,37.2711,823.4352],[28.7818,37.2481,674.2701],[28.7915,37.2413,692.403],[28.8049,37.2381,663.6487],[28.823,37.2377,621.7687],[28.8252,37.2462,691.6744],[28.8292,37.2529,821.8798],[28.8477,37.269,847.4587],[28.8666,37.2809,915.353],[28.8849,37.2876,1062.7758],[28.9064,37.2979,1454.3121],[28.9194,37.3106,1373.7026],[28.9297,37.3165,1422.4951],[28.9365,37.3182,1502.3003],[28.9544,37.3191,1409.7085],[28.9796,37.3157,1279.403],[28.9517,37.3579,1394.8721],[28.9122,37.39,1262.7466],[28.9033,37.3992,1352.5753],[28.8941,37.4253,1284.5608],[28.8773,37.4503,1021.5724],[28.8669,37.4565,989.4186],[28.8399,37.4616,1002.4227],[28.8092,37.4721,977.6547],[28.7826,37.4851,980.4809],[28.7788,37.492,959.0734],[28.7783,37.5054,717.7473],[28.7814,37.5161,586.1807],[28.7925,37.535,639.9091],[28.7941,37.549,856.8733],[28.7922,37.5601,939.2249],[28.7875,37.5677,981.5195],[28.7756,37.5785,1049.0963],[28.7591,37.5901,1195.9912],[28.7404,37.6001,1340.6882],[28.7083,37.5985,970.8828],[28.6754,37.5991,862.7552],[28.66,37.6016,813.1147],[28.6355,37.6094,812.5443],[28.6215,37.6106,827.8525],[28.6067,37.6098,803.6815],[28.5964,37.607,795.4136],[28.5873,37.6019,792.6064],[28.5505,37.571,468.2645],[28.5573,37.5669,423.461],[28.5603,37.5627,410.9872],[28.5566,37.5492,284.5],[28.5588,37.5391,418.7787],[28.5801,37.5163,725.9787],[28.5961,37.4931,390.8983],[28.6042,37.4777,490.8669]]]]}
,"properties": {"GID_2": "TUR.25.15_1","GID_0": "TUR","country": "Turkey","GID_1": "TUR.25_1","province": "Denizli","NL_NAME_1": "NA","county": "Kale","VARNAME_2": "NA","NL_NAME_2": "NA","TYPE_2": "District","ENGTYPE_2": "District","CC_2": "NA","HASC_2": "TR.DN.KA","name": "Kale.county","area_km2": 722.6865,"hist_schema_id": "Elevation0-9000","hist_area_km2": {"275": 2.8591,"300": 6.2436,"325": 6.1769,"350": 5.9569,"375": 5.9402,"400": 6.6803,"425": 6.7472,"450": 7.7742,"475": 9.8631,"500": 12.4067,"525": 14.5433,"550": 14.2584,"575": 16.7654,"600": 18.298,"625": 19.0737,"650": 19.9172,"675": 20.7443,"700": 22.1098,"725": 24.5651,"750": 34.1453,"775": 38.5082,"800": 41.8369,"825": 39.4725,"850": 32.8299,"875": 27.8218,"900": 25.3675,"925": 18.8533,"950": 17.6082,"975": 16.1624,"1000": 16.1262,"1025": 13.1955,"1050": 11.651,"1075": 7.679,"1100": 5.9275,"1125": 6.148,"1150": 5.9965,"1175": 6.4177,"1200": 12.384,"1225": 14.5097,"1250": 10.1447,"1275": 7.3973,"1300": 6.606,"1325": 8.224,"1350": 9.1512,"1375": 9.607,"1400": 7.9555,"1425": 6.0008,"1450": 5.647,"1475": 4.2141,"1500": 3.1688,"1525": 3.1687,"1550": 3.0674,"1575": 2.4269,"1600": 1.8371,"1625": 0.4381,"1650": 0.0674}}}