{"type": "Feature","bbox": [34.7796,41.6792,34.9757,42.0163],"geometry": {"type": "MultiPolygon","coordinates": [[[[34.7945,41.6801,1253.6735],[34.8406,41.6792,996.326],[34.8393,41.7109,1134.6316],[34.841,41.732,1051.7168],[34.8509,41.7515,855.6599],[34.8597,41.775,769.3626],[34.874,41.7888,700.1298],[34.9326,41.8336,452.9966],[34.9524,41.8476,420.5768],[34.9683,41.8564,503.1887],[34.9735,41.8627,359.8502],[34.9757,41.8734,387.0656],[34.9756,41.9185,132.5659],[34.9725,41.9355,78.7809],[34.9543,41.9634,123.6448],[34.9211,41.9912,9.6598],[34.8978,42.0163,1.0641],[34.8838,42.0068,0.0],[34.8763,41.9996,19.1378],[34.8354,41.9724,0.0],[34.8251,41.9663,14.5536],[34.8176,41.9643,0.0],[34.8124,41.9604,22.2085],[34.7985,41.9551,9.6114],[34.8008,41.9482,95.5482],[34.7834,41.9239,282.1349],[34.7806,41.9144,200.7318],[34.7796,41.9011,374.1642],[34.78,41.8024,849.0375],[34.7822,41.7894,647.1453],[34.7911,41.7725,765.6605],[34.7942,41.7599,910.6749],[34.7945,41.6801,1253.6735]]]]}
,"properties": {"GID_2": "TUR.70.5_1","GID_0": "TUR","country": "Turkey","GID_1": "TUR.70_1","province": "Sinop","NL_NAME_1": "NA","county": "Erfelek","VARNAME_2": "NA","NL_NAME_2": "NA","TYPE_2": "District","ENGTYPE_2": "District","CC_2": "NA","HASC_2": "TR.SP.ER","name": "Erfelek.county","area_km2": 356.3224,"hist_schema_id": "Elevation0-9000","hist_area_km2": {"0": 2.7109,"25": 11.0189,"50": 14.5193,"75": 15.7028,"100": 18.2916,"125": 16.4811,"150": 14.339,"175": 13.9623,"200": 12.8746,"225": 11.2663,"250": 9.7207,"275": 8.4747,"300": 6.708,"325": 5.9353,"350": 6.7882,"375": 6.7727,"400": 8.1466,"425": 9.1415,"450": 8.8892,"475": 7.5635,"500": 7.2953,"525": 6.9799,"550": 6.0959,"575": 5.7485,"600": 4.6435,"625": 3.9016,"650": 3.2859,"675": 3.8076,"700": 3.6341,"725": 4.1398,"750": 4.2981,"775": 4.6144,"800": 4.3299,"825": 4.7413,"850": 4.7417,"875": 4.5999,"900": 5.5491,"925": 5.1856,"950": 6.5455,"975": 6.1511,"1000": 6.1037,"1025": 5.4716,"1050": 6.0731,"1075": 5.6934,"1100": 5.0772,"1125": 4.2392,"1150": 3.4173,"1175": 2.674,"1200": 2.2311,"1225": 1.6776,"1250": 1.2979,"1275": 0.9023,"1300": 0.6649,"1325": 0.5541,"1350": 0.3483,"1375": 0.2691,"1400": 0.0317}}}