{"type":"Feature","properties":{"GID_2":"TUR.33.3_1","GID_0":"TUR","country":"Turkey","GID_1":"TUR.33_1","province":"Gaziantep","NL_NAME_1":"NA","county":"Karkamış","VARNAME_2":"NA","NL_NAME_2":"NA","TYPE_2":"District","ENGTYPE_2":"District","CC_2":"NA","HASC_2":"TR.GA.KA","name":"Karkamış.county"},
"geometry":{"type": "MultiPolygon","coordinates": [[[[38.0106,36.8252,350.9072],[38.0124,36.854,337.3121],[38.0122,36.8998,338.5865],[37.9812,36.8839,396.4825],[37.9404,36.8753,399.4729],[37.932,36.8759,411.1824],[37.9144,36.8807,415.1022],[37.9,36.882,424.9196],[37.8779,36.8822,444.62],[37.8639,36.8798,458.1443],[37.8557,36.8752,461.7565],[37.8502,36.8688,459.2241],[37.8482,36.8636,456.6278],[37.8452,36.8389,457.0415],[37.8426,36.8337,448.1862],[37.8337,36.8244,450.9693],[37.8163,36.8138,464.9305],[37.7703,36.7965,499.4713],[37.7409,36.7793,526.953],[37.7065,36.7704,522.4004],[37.7089,36.7568,519.8268],[37.7079,36.7455,515.2728],[37.7116,36.7449,510.4918],[37.7337,36.7495,509.9836],[37.767,36.7466,502.5845],[37.7912,36.7486,511.979],[37.8144,36.7592,505.046],[37.8623,36.7741,478.7965],[37.908,36.7857,443.7536],[37.9765,36.8182,392.8715],[37.998,36.8238,368.7578],[38.0106,36.8252,350.9072]]]]}}