{"type": "Feature","bbox": [35.8742,40.9576,36.2579,41.2666],"geometry": {"type": "MultiPolygon","coordinates": [[[[36.2039,40.98,932.1694],[36.1844,40.9963,840.418],[36.1771,41.0049,843.8994],[36.1747,41.0186,725.3843],[36.1786,41.0294,696.087],[36.1951,41.0445,768.8249],[36.2177,41.059,662.0941],[36.2315,41.0623,756.4197],[36.2579,41.0642,854.3011],[36.2392,41.0843,721.1057],[36.2136,41.1237,608.2339],[36.2036,41.1303,723.0641],[36.1581,41.1472,573.2551],[36.1449,41.1555,792.8109],[36.1324,41.168,763.1504],[36.111,41.2037,600.2209],[36.0936,41.2285,591.5879],[36.0837,41.2351,657.3209],[36.0631,41.2438,453.7173],[36.0279,41.2666,743.6194],[35.9966,41.2524,716.9664],[35.978,41.2457,801.85],[35.9578,41.2314,943.0554],[35.9497,41.2197,754.9547],[35.9417,41.1986,814.9962],[35.9094,41.1689,1019.545],[35.8994,41.1545,882.895],[35.8835,41.1389,969.2393],[35.8767,41.1286,985.9193],[35.8742,41.1135,1219.9373],[35.8749,41.0259,809.0442],[35.8788,41.0146,873.3956],[35.8976,40.9917,811.577],[35.9145,40.9904,914.5935],[35.9436,40.9825,891.9453],[35.989,40.979,965.1825],[36.0107,40.9721,1084.6505],[36.0226,40.9701,1068.0101],[36.1628,40.9687,860.9276],[36.1762,40.9653,798.065],[36.1895,40.9576,717.2919],[36.2001,40.964,799.6452],[36.2029,40.9707,891.3027],[36.2039,40.98,932.1694]]]]}
,"properties": {"GID_2": "TUR.67.7_1","GID_0": "TUR","country": "Turkey","GID_1": "TUR.67_1","province": "Samsun","NL_NAME_1": "NA","county": "Kavak","VARNAME_2": "NA","NL_NAME_2": "NA","TYPE_2": "District","ENGTYPE_2": "District","CC_2": "NA","HASC_2": "TR.SS.KA","name": "Kavak.county","area_km2": 699.8136,"hist_schema_id": "Elevation0-9000","hist_area_km2": {"350": 0.2236,"375": 0.527,"400": 1.4535,"425": 2.2998,"450": 4.0565,"475": 6.9791,"500": 10.3502,"525": 14.9188,"550": 22.2996,"575": 29.9215,"600": 34.408,"625": 41.3717,"650": 49.0528,"675": 51.8133,"700": 52.8869,"725": 52.2826,"750": 48.515,"775": 42.0183,"800": 34.7876,"825": 30.5747,"850": 28.7757,"875": 26.8135,"900": 26.513,"925": 24.4033,"950": 20.3584,"975": 15.3058,"1000": 10.7165,"1025": 7.9825,"1050": 4.0792,"1075": 2.3833,"1100": 0.7673,"1125": 0.4154,"1150": 0.2716,"1175": 0.0958,"1200": 0.1278,"1225": 0.0639}}}