{"type":"Feature","properties":{"GID_2":"TUR.45.2_1","GID_0":"TUR","country":"Turkey","GID_1":"TUR.45_1","province":"Kars","NL_NAME_1":"NA","county":"Arpaçay","VARNAME_2":"NA","NL_NAME_2":"NA","TYPE_2":"District","ENGTYPE_2":"District","CC_2":"NA","HASC_2":"TR.KA.AR","name":"Arpaçay.county"},
"geometry":{"type": "MultiPolygon","coordinates": [[[[43.4711,41.1295,2829.053],[43.4629,41.1413,2772.2209],[43.4555,41.161,2818.1597],[43.451,41.1672,2853.707],[43.4372,41.1794,2817.4492],[43.4052,41.1882,2734.8452],[43.3841,41.1995,2626.1414],[43.3747,41.2019,2647.8315],[43.3554,41.2012,2784.5247],[43.2806,41.1832,2347.0901],[43.2822,41.1819,2286.4082],[43.2684,41.1659,1984.2109],[43.2638,41.1554,1941.2561],[43.2626,41.1432,1923.9526],[43.263,41.0993,1958.5],[43.2608,41.0842,1958.5],[43.2456,41.0578,1958.5],[43.23,41.035,1958.5],[43.219,41.0257,1958.5],[43.2011,41.0181,2224.2651],[43.1744,41.003,2518.7368],[43.144,40.9962,2624.751],[43.1126,40.9845,2945.3623],[43.1143,40.9678,2977.6924],[43.1227,40.9562,3051.5784],[43.1377,40.9455,2819.1702],[43.1648,40.934,2498.24],[43.1941,40.9126,2131.4692],[43.2108,40.8979,2245.1941],[43.2242,40.879,2201.1392],[43.2575,40.849,1830.1736],[43.266,40.8255,1705.2621],[43.2761,40.806399999999996,1675.4708],[43.2773,40.7894,1640.6841],[43.2752,40.7725,1627.5031],[43.3054,40.7581,1706.4678],[43.333,40.7529,1714.4587],[43.3419,40.7495,1684.5867],[43.3589,40.7365,1682.9919],[43.3688,40.7206,1713.651],[43.3722,40.7168,1715.1982],[43.3794,40.7128,1715.2483],[43.3856,40.7126,1708.4891],[43.3911,40.7144,1698.1587],[43.4126,40.7305,1645.8795],[43.4247,40.7435,1632.4241],[43.445,40.7768,1594.728],[43.4512,40.7839,1590.4376],[43.4672,40.7959,1585.2714],[43.4906,40.8075,1691.8184],[43.4875,40.8307,1760.498],[43.4889,40.8523,1807.3757],[43.5001,40.8745,1945.115],[43.5061,40.893,2056.186],[43.5139,40.9069,2112.6045],[43.5207,40.935,2296.6216],[43.5272,40.9405,2322.2034],[43.5433,40.9477,2347.1123],[43.5727,40.9537,2251.0183],[43.5815,40.9574,2143.2366],[43.5882,40.963,2125.0232],[43.5914,40.9677,2109.7393],[43.5972,40.9862,2267.9966],[43.599,40.9858,2256.3962],[43.5856,40.9917,2304.2129],[43.5515,40.996,2678.2417],[43.5098,41.0143,2767.3447],[43.4809,41.0215,2988.3105],[43.4722,41.028,2853.7329],[43.4704,41.0333,2808.6575],[43.4717,41.0449,2725.2437],[43.4706,41.0598,2753.0527],[43.468,41.0644,2758.5337],[43.4548,41.0775,2868.6138],[43.4515,41.0837,2843.5149],[43.4498,41.0922,2805.395],[43.4575,41.1095,2967.29],[43.4711,41.1295,2829.053]]]]}}