{"type": "Feature","bbox": [28.0744,38.7292,28.503,39.14],"geometry": {"type": "MultiPolygon","coordinates": [[[[28.1662,39.0427,1025.2384],[28.1626,39.0322,963.2867],[28.1544,39.0184,944.1644],[28.1515,39.0064,914.0544],[28.1512,38.9138,702.7651],[28.149,38.8952,657.3405],[28.1289,38.8639,926.3015],[28.09,38.8329,380.7686],[28.0826,38.8258,315.9568],[28.0766,38.8146,406.4026],[28.0753,38.8053,415.5878],[28.0744,38.7487,251.9531],[28.1042,38.7378,451.3661],[28.1179,38.7304,613.8888],[28.1524,38.7292,627.0668],[28.1641,38.7311,557.9579],[28.1895,38.7386,590.5216],[28.2256,38.7399,489.235],[28.2406,38.7516,480.2276],[28.2408,38.7746,427.1302],[28.2454,38.7881,402.5362],[28.262,38.8039,441.5988],[28.2927,38.8262,637.4545],[28.3057,38.8314,667.4298],[28.3411,38.8352,798.9395],[28.3691,38.8435,798.0627],[28.4141,38.8448,784.9976],[28.4229,38.8643,596.9921],[28.4339,38.8833,731.1635],[28.4359,38.895,681.1165],[28.4367,38.9252,945.29],[28.4395,38.9367,921.5526],[28.4628,38.9737,683.6689],[28.4705,39.0063,877.0002],[28.4893,39.0266,996.047],[28.4931,39.0341,1036.324],[28.4927,39.0419,1096.8082],[28.4854,39.0552,932.8651],[28.4824,39.0665,1032.3602],[28.4817,39.1123,1199.6499],[28.4943,39.125,1249.5922],[28.503,39.14,1219.1816],[28.4831,39.1336,1215.5431],[28.4667,39.124,1195.8531],[28.4414,39.1222,1133.9678],[28.4201,39.1151,1123.1876],[28.3929,39.1098,1111.5229],[28.3451,39.0917,945.0252],[28.3212,39.0873,878.215],[28.3001,39.0801,1058.1277],[28.2761,39.0758,1366.562],[28.255,39.0685,1184.8375],[28.231,39.0642,921.3618],[28.2098,39.057,857.6875],[28.1861,39.0525,938.3586],[28.1662,39.0427,1025.2384]]]]}
,"properties": {"GID_2": "TUR.56.6_1","GID_0": "TUR","country": "Turkey","GID_1": "TUR.56_1","province": "Manisa","NL_NAME_1": "NA","county": "Gördes","VARNAME_2": "NA","NL_NAME_2": "NA","TYPE_2": "District","ENGTYPE_2": "District","CC_2": "NA","HASC_2": "TR.MN.GR","name": "Gördes.county","area_km2": 915.6562,"hist_schema_id": "Elevation0-9000","hist_area_km2": {"225": 5.2408,"250": 3.389,"275": 3.7857,"300": 3.5046,"325": 5.7526,"350": 9.2563,"375": 12.0321,"400": 14.3455,"425": 21.8283,"450": 29.4057,"475": 33.015,"500": 35.5663,"525": 37.2923,"550": 37.6156,"575": 35.3462,"600": 51.5637,"625": 46.9617,"650": 40.7767,"675": 39.4564,"700": 36.9319,"725": 35.8424,"750": 35.0159,"775": 32.6727,"800": 32.0795,"825": 30.5463,"850": 29.0597,"875": 26.7013,"900": 26.8155,"925": 28.6411,"950": 25.4077,"975": 19.9343,"1000": 17.1643,"1025": 14.3125,"1050": 12.2855,"1075": 10.555,"1100": 7.9518,"1125": 5.6295,"1150": 3.9011,"1175": 3.7034,"1200": 3.2425,"1225": 2.8313,"1250": 2.6502,"1275": 2.3539,"1300": 2.107,"1325": 0.8231,"1350": 0.3128,"1375": 0.0494}}}