{"type": "Feature","bbox": [33.0956,40.3284,33.4341,40.6105],"geometry": {"type": "MultiPolygon","coordinates": [[[[33.2803,40.3284,808.4224],[33.3176,40.3311,811.0587],[33.3246,40.3323,781.3092],[33.3331,40.3364,777.316],[33.3457,40.353,774.5503],[33.3515,40.371,808.3443],[33.3555,40.3783,809.1809],[33.3641,40.3859,910.712],[33.3737,40.3909,883.0799],[33.3849,40.4139,954.9099],[33.4142,40.4392,1124.0287],[33.4221,40.4485,1299.908],[33.4252,40.4594,1308.6296],[33.4273,40.4877,1552.8551],[33.4341,40.5056,1403.5571],[33.4234,40.5282,1271.7212],[33.4063,40.5535,1410.5269],[33.3957,40.5637,1533.1648],[33.3742,40.5799,1439.5752],[33.3489,40.5908,1465.4733],[33.322,40.6067,1497.1622],[33.3055,40.6105,1574.9875],[33.2892,40.6012,1500.9646],[33.2254,40.5772,1547.6973],[33.2018,40.5755,1450.0302],[33.1255,40.5762,1374.9469],[33.1149,40.5749,1365.6038],[33.1058,40.5712,1398.5027],[33.0975,40.5631,1358.2212],[33.0956,40.5577,1432.5271],[33.096,40.5469,1416.1956],[33.1053,40.5306,1509.8571],[33.1088,40.5203,1449.3619],[33.1087,40.512,1510.8552],[33.1062,40.5042,1573.0012],[33.0964,40.4878,1688.3298],[33.0984,40.4834,1768.0808],[33.1126,40.4692,1657.7839],[33.1232,40.4627,1527.3739],[33.1476,40.4525,1234.3806],[33.1641,40.441,1206.3455],[33.1787,40.4282,1292.9036],[33.1968,40.4,1143.339],[33.2041,40.3763,942.6702],[33.221,40.3512,884.9772],[33.231,40.3447,949.4324],[33.2579,40.3341,828.3085],[33.2803,40.3284,808.4224]]]]}
,"properties": {"GID_2": "TUR.23.11_1","GID_0": "TUR","country": "Turkey","GID_1": "TUR.23_1","province": "Çankiri","NL_NAME_1": "NA","county": "Şabanözü","VARNAME_2": "NA","NL_NAME_2": "NA","TYPE_2": "District","ENGTYPE_2": "District","CC_2": "NA","HASC_2": "TR.CI.SA","name": "Şabanözü.county","area_km2": 586.8217,"hist_schema_id": "Elevation0-9000","hist_area_km2": {"775": 3.7004,"800": 10.5505,"825": 11.4527,"850": 12.7909,"875": 14.7584,"900": 13.869,"925": 12.8672,"950": 12.7206,"975": 16.0935,"1000": 19.1418,"1025": 21.4626,"1050": 20.6213,"1075": 20.3775,"1100": 19.4568,"1125": 20.7119,"1150": 21.1456,"1175": 24.305,"1200": 24.4489,"1225": 25.1067,"1250": 25.1357,"1275": 23.5841,"1300": 22.2106,"1325": 22.1268,"1350": 22.8336,"1375": 24.9746,"1400": 21.0092,"1425": 16.9325,"1450": 15.8522,"1475": 14.9174,"1500": 11.8404,"1525": 8.0397,"1550": 6.7508,"1575": 5.6391,"1600": 3.916,"1625": 3.0785,"1650": 2.2083,"1675": 2.0152,"1700": 1.693,"1725": 1.0804,"1750": 1.2901,"1775": 1.1127,"1800": 0.7579,"1825": 0.6128,"1850": 0.5322,"1875": 0.9837,"1900": 0.1129}}}