{"type":"Feature","properties":{"GID_2":"TUR.50.1_1","GID_0":"TUR","country":"Turkey","GID_1":"TUR.50_1","province":"Kirklareli","NL_NAME_1":"NA","county":"Babaeski","VARNAME_2":"NA","NL_NAME_2":"NA","TYPE_2":"District","ENGTYPE_2":"District","CC_2":"NA","HASC_2":"TR.KL.BA","name":"Babaeski.county"},
"geometry":{"type": "MultiPolygon","coordinates": [[[[26.9193,41.4699,41.5444],[27.0197,41.3912,76.7227],[27.0274,41.3827,83.8621],[27.0361,41.3688,60.9572],[27.0565,41.3499,38.5819],[27.0683,41.336,28.499],[27.0884,41.3397,29.8446],[27.1063,41.346,44.7572],[27.1205,41.3481,42.2809],[27.2252,41.3483,52.5108],[27.2251,41.4316,56.3777],[27.226,41.4437,67.0353],[27.2285,41.4523,114.9573],[27.2585,41.4988,83.0088],[27.2808,41.5216,127.5389],[27.3038,41.557,143.2158],[27.3158,41.5696,160.6078],[27.2995,41.5821,147.1548],[27.2876,41.589,166.7385],[27.2322,41.6036,156.2841],[27.1289,41.6057,131.2336],[27.1188,41.6081,151.9952],[27.0745,41.6258,121.4319],[27.0604,41.628,93.6564],[27.0352,41.6266,123.5566],[27.0141,41.6192,117.3888],[27.0005,41.6164,114.1728],[27.0008,41.5649,73.8731],[26.9971,41.5475,61.8005],[26.9755,41.5246,54.4114],[26.9614,41.5058,88.5499],[26.9193,41.4699,41.5444]]]]}}