{"type":"Feature","properties":{"GID_2":"TUR.75.8_1","GID_0":"TUR","country":"Turkey","GID_1":"TUR.75_1","province":"Trabzon","NL_NAME_1":"NA","county":"Düzköy","VARNAME_2":"NA","NL_NAME_2":"NA","TYPE_2":"District","ENGTYPE_2":"District","CC_2":"NA","HASC_2":"TR.TB.DU","name":"Düzköy.county"},
"geometry":{"type": "MultiPolygon","coordinates": [[[[39.3737,40.9269,1615.2145],[39.3641,40.9148,1605.5942],[39.3527,40.9049,1490.9999],[39.3421,40.8983,1482.1121],[39.3254,40.8909,1426.3981],[39.3285,40.8713,1505.9303],[39.3313,40.8633,1576.9257],[39.3529,40.8403,1035.5897],[39.3668,40.8163,1726.8943],[39.4203,40.8162,1838.3416],[39.4582,40.8259,1832.5918],[39.4651,40.8557,1690.1573],[39.4721,40.8737,992.9588],[39.47,40.8802,941.1312],[39.4632,40.8901,803.639],[39.4565,40.8951,450.8033],[39.4347,40.8999,796.1298],[39.4043,40.9108,1658.4484],[39.3737,40.9269,1615.2145]]]]}}