{"type": "Feature","bbox": [27.1904,37.6926,27.4133,37.9078],"geometry": {"type": "MultiPolygon","coordinates": [[[[27.4083,37.9078,602.17],[27.3665,37.8933,203.4937],[27.3546,37.8913,354.2452],[27.2953,37.8907,188.2961],[27.2679,37.8929,0.0],[27.2651,37.8918,4.5661],[27.2629,37.889,5.5242],[27.2629,37.8865,6.4821],[27.266,37.8849,2.4807],[27.2643,37.8838,2.4807],[27.2651,37.8804,24.4306],[27.2638,37.8799,0.0],[27.2649,37.8757,7.1701],[27.261,37.874,0.0],[27.2599,37.871,0.0],[27.261,37.869,0.0],[27.261,37.8721,0.0],[27.2629,37.8721,5.1275],[27.2621,37.8679,2.3398],[27.2632,37.866,8.1808],[27.259,37.8688,0.0],[27.2593,37.8671,0.0],[27.2621,37.8657,8.1808],[27.2604,37.8626,2.0003],[27.2568,37.8618,2.9461],[27.256,37.8646,0.0],[27.2535,37.8654,0.0],[27.2546,37.8624,0.3484],[27.2521,37.861,8.9835],[27.2496,37.8621,3.4305],[27.2493,37.864,0.0],[27.2465,37.8646,0.0],[27.2488,37.8613,1.4356],[27.2463,37.8587,18.9335],[27.2412,37.8601,0.0],[27.2435,37.8546,5.9801],[27.2421,37.8515,0.0],[27.2426,37.8446,0.0],[27.2354,37.8404,4.8129],[27.239,37.834,2.7961],[27.2379,37.8312,0.0],[27.2426,37.8301,0.0],[27.2432,37.8249,0.0],[27.2588,37.8243,3.7495],[27.2687,37.8132,0.6338],[27.2696,37.8049,0.0],[27.2676,37.7918,0.7561],[27.2596,37.7621,0.0],[27.2507,37.7426,1.2215],[27.2374,37.7262,2.3918],[27.2279,37.7212,0.7065],[27.2293,37.7207,1.5336],[27.224,37.7201,1.4321],[27.2165,37.716,0.0],[27.215699999999998,37.7137,2.2232],[27.2068,37.7082,28.0865],[27.1982,37.7093,0.0],[27.1963,37.7074,11.9541],[27.1926,37.7076,0.0],[27.1904,37.7051,10.8887],[27.2171,37.6929,339.9166],[27.2532,37.6926,451.0056],[27.2762,37.695,760.684],[27.3035,37.7075,377.866],[27.3185,37.7262,208.1226],[27.3477,37.7731,206.6755],[27.3562,37.8079,402.6091],[27.364,37.8161,415.0421],[27.3743,37.8222,352.7808],[27.3899,37.8358,215.8977],[27.4057,37.8456,227.858],[27.411,37.8524,234.3155],[27.4133,37.8642,172.6238],[27.4132,37.8803,219.4016],[27.4083,37.9078,602.17]]]]}
,"properties": {"GID_2": "TUR.11.11_1","GID_0": "TUR","country": "Turkey","GID_1": "TUR.11_1","province": "Aydin","NL_NAME_1": "NA","county": "Kuşadası","VARNAME_2": "NA","NL_NAME_2": "NA","TYPE_2": "District","ENGTYPE_2": "District","CC_2": "NA","HASC_2": "TR.AY.KD","name": "Kuşadası.county","area_km2": 215.6707,"hist_schema_id": "Elevation0-9000","hist_area_km2": {"0": 17.8826,"25": 18.533,"50": 15.3305,"75": 13.7882,"100": 12.8325,"125": 11.5101,"150": 9.8856,"175": 12.5296,"200": 19.559,"225": 16.0077,"250": 14.1502,"275": 13.4793,"300": 10.4489,"325": 7.9034,"350": 5.9276,"375": 3.7184,"400": 2.6467,"425": 2.2617,"450": 1.8764,"475": 1.0558,"500": 1.0728,"525": 0.8887,"550": 0.7211,"575": 0.4864,"600": 0.2684,"625": 0.2349,"650": 0.2181,"675": 0.1174,"700": 0.1174,"725": 0.0839,"750": 0.0503,"775": 0.0503,"800": 0.0168,"825": 0.0168}}}