{"type":"Feature","properties":{"GID_2":"TUR.51.1_1","GID_0":"TUR","country":"Turkey","GID_1":"TUR.51_1","province":"Kirsehir","NL_NAME_1":"NA","county":"Akçakent","VARNAME_2":"NA","NL_NAME_2":"NA","TYPE_2":"District","ENGTYPE_2":"District","CC_2":"NA","HASC_2":"TR.KH.AC","name":"Akçakent.county"},
"geometry":{"type": "MultiPolygon","coordinates": [[[[34.0029,39.7715,785.7087],[33.9917,39.7631,712.1935],[33.9774,39.7567,736.4312],[33.9633,39.7477,750.2024],[33.9254,39.7188,789.8392],[33.9108,39.7058,854.8506],[33.9061,39.6983,800.4414],[33.9006,39.6798,808.6168],[33.8923,39.6661,794.141],[33.8868,39.6474,849.4504],[33.8773,39.6311,872.7162],[33.874,39.6205,858.7267],[33.8876,39.6179,827.2809],[33.9087,39.6106,836.3881],[33.9325,39.6062,863.7216],[33.9538,39.5992,1015.6528],[33.9928,39.595,1179.0084],[34.011,39.585,1066.03],[34.0217,39.5732,1100.6326],[34.0235,39.5677,1071.8103],[34.0235,39.5593,1095.3184],[34.0189,39.5489,1132.7463],[34.0021,39.5323,1017.8597],[34.0005,39.5248,953.5963],[34.0071,39.5157,937.9534],[34.0211,39.5069,1033.7759],[34.0316,39.5044,1054.6014],[34.0424,39.5043,1061.1299],[34.0812,39.5148,1068.5541],[34.144,39.5156,1060.1991],[34.1764,39.5408,1155.8047],[34.1849,39.5491,1214.4373],[34.2171,39.5999,1464.3356],[34.2197,39.6193,1576.1179],[34.2198,39.7116,785.1377],[34.2235,39.7239,794.1375],[34.2346,39.7367,699.9399],[34.2212,39.7448,713.523],[34.2002,39.7534,726.3632],[34.1763,39.7681,736.7148],[34.1281,39.787,701.7131],[34.107,39.8001,668.1943],[34.0914,39.8058,671.5035],[34.0689,39.8084,706.7439],[34.0565,39.7969,729.702],[34.0439,39.7881,760.3831],[34.0029,39.7715,785.7087]]]]}}