{"type": "Feature","bbox": [29.5778,37.2834,30.0072,37.4815],"geometry": {"type": "MultiPolygon","coordinates": [[[[29.9798,37.4697,1135.4502],[29.9648,37.4813,1499.2983],[29.9288,37.4815,1582.2764],[29.9096,37.4796,1451.2201],[29.8584,37.4607,1395.2935],[29.8426,37.4583,1372.515],[29.683,37.4585,1792.309],[29.6584,37.4572,1988.209],[29.6294,37.4487,1748.9152],[29.6057,37.4441,1889.9532],[29.5795,37.4354,1442.2446],[29.5778,37.418,1411.7722],[29.5792,37.4102,1382.5529],[29.6052,37.4117,1544.0293],[29.7078,37.412,1671.8424],[29.7271,37.4113,1803.9021],[29.7381,37.4091,1655.3855],[29.7677,37.3924,1385.4049],[29.7923,37.3814,1268.2886],[29.8636,37.3272,1099.5013],[29.8941,37.3129,1148.6963],[29.9173,37.2986,1105.4036],[29.9506,37.2858,1452.0073],[29.9794,37.2834,1449.5],[29.9783,37.3092,1203.5886],[29.9758,37.3173,1156.0536],[29.9655,37.3363,1077.168],[29.9648,37.3558,1051.1682],[29.9677,37.3638,1050.9949],[29.9713,37.3681,1050.5],[29.9943,37.3834,1139.777],[30.0052,37.398,1179.2736],[30.0072,37.4056,1161.0618],[30.0053,37.4132,1153.7791],[29.9987,37.4243,1146.4828],[29.9927,37.4427,1021.6222],[29.9832,37.4591,1056.7297],[29.9798,37.4697,1135.4502]]]]}
,"properties": {"GID_2": "TUR.20.7_1","GID_0": "TUR","country": "Turkey","GID_1": "TUR.20_1","province": "Burdur","NL_NAME_1": "NA","county": "Karamanlı","VARNAME_2": "NA","NL_NAME_2": "NA","TYPE_2": "District","ENGTYPE_2": "District","CC_2": "NA","HASC_2": "TR.BD.KA","name": "Karamanlı.county","area_km2": 379.7633,"hist_schema_id": "Elevation0-9000","hist_area_km2": {"1025": 0.3872,"1050": 27.6116,"1075": 36.905,"1100": 44.9072,"1125": 19.9812,"1150": 15.804,"1175": 13.3757,"1200": 17.6491,"1225": 19.4319,"1250": 16.1989,"1275": 15.5922,"1300": 14.2789,"1325": 11.2475,"1350": 10.4226,"1375": 10.1354,"1400": 7.0213,"1425": 5.489,"1450": 5.0682,"1475": 4.5628,"1500": 5.523,"1525": 4.3777,"1550": 4.647,"1575": 4.546,"1600": 5.0002,"1625": 4.3101,"1650": 4.8995,"1675": 5.1018,"1700": 4.7311,"1725": 5.1688,"1750": 5.051,"1775": 4.0072,"1800": 4.6132,"1825": 4.4953,"1850": 3.6533,"1875": 2.9798,"1900": 2.5925,"1925": 1.5487,"1950": 1.5151,"1975": 1.5487,"2000": 1.1278,"2025": 0.8585,"2050": 0.5219,"2075": 0.1515,"2100": 0.1852,"2125": 0.1852,"2150": 0.1515,"2175": 0.0337,"2200": 0.101,"2225": 0.0505,"2250": 0.0168}}}