{"type":"Feature","properties":{"id":139769.0,"name":"Seyhan Baraji","lge_id":null,"pfafstette":15.0,"lke_type":"N","altitude":56,"objectid":87186,"scalerank":11,"featurecla":"Lake","note":null,"funkyname":0,"min_zoom":6.7,"min_label":7.7},
"geometry":{"type": "Polygon","coordinates": [[[35.312388542583733,37.064825750775327,62.0],[35.312388542583733,37.064825750775327,62.0],[35.334727409771233,37.064215399212827,62.0],[35.342051628521233,37.079352117962827,104.1656],[35.325205925396233,37.084967352337827,89.1737],[35.330210808208733,37.098395086712827,62.0],[35.342784050396233,37.110602117962827,75.7734],[35.327647331646233,37.117438055462827,75.0359],[35.310313347271233,37.117438055462827,80.2529],[35.290660026958733,37.107916571087827,79.1334],[35.266612175396233,37.088263250775327,106.1618],[35.279063347271233,37.077276922650327,62.0],[35.312388542583733,37.064825750775327,62.0]]]}}