{"type": "Feature","id": 140695.0,"bbox": [28.595957878521233,36.866705633587827,28.729258659771233,36.966742254681577],"geometry": {"type": "Polygon","coordinates": [[[28.632578972271233,36.866705633587827,-1.0],[28.632578972271233,36.866705633587827,-1.0],[28.639903191021233,36.868902899212827,-1.0],[28.646006706646233,36.891363836712827,9.1791],[28.657603386333733,36.905646063275327,-1.0],[28.678843620708733,36.910162664837827,-1.0],[28.695811394146233,36.922613836712827,-1.0],[28.705088737896233,36.935736395306577,-1.0],[28.715952995708733,36.941534735150327,-1.0],[28.729258659771233,36.947027899212827,1.6121],[28.704112175396233,36.960333563275327,19.492],[28.668223503521233,36.966742254681577,7.1575],[28.657237175396233,36.951849676556577,0.1416],[28.643809441021233,36.938482977337827,-0.1579],[28.624156120708733,36.923285223431577,0.1882],[28.609263542583733,36.913214422650327,100.4841],[28.595957878521233,36.906256414837827,3.5644],[28.597666862896233,36.885870672650327,-1.0],[28.620127800396233,36.874945379681577,-1.0],[28.632578972271233,36.866705633587827,-1.0]]]}
,"properties": {"name": "Kyceiz Golu","lge_id": null,"pfafstette": 15.0,"lke_type": "N","altitude": -2,"objectid": 89586,"scalerank": 11,"featurecla": "Lake","note": null,"funkyname": 1,"min_zoom": 6.7,"min_label": 7.7,"area_km2": 52.9532,"hist_schema_id": "Elevation0-9000","hist_area_km2": {"0": 48.63069,"25": 1.44049,"50": 0.64425,"75": 0.42383,"100": 0.5764,"125": 0.55945,"150": 0.23734,"175": 0.28819,"200": 0.05086,"225": 0.10171}}}