{"type": "Feature","id": 134395.0,"bbox": [43.139781120708733,40.975287176556577,43.316661003521233,41.107062078900327],"geometry": {"type": "Polygon","coordinates": [[[43.294444206646233,41.084112860150327,1971.0082],[43.294444206646233,41.084112860150327,1971.0082],[43.287242058208733,41.090399481244077,1958.5],[43.281016472271233,41.107062078900327,2046.9075],[43.228282097271233,41.102301336712827,2063.657],[43.165293816021233,41.089789129681577,1998.9968],[43.139781120708733,41.083868719525327,2000.671],[43.146250847271233,41.066900946087827,1958.5],[43.169810417583733,41.048712469525327,1958.5],[43.189707878521233,41.043951727337827,1958.5],[43.208750847271233,41.037726141400327,1958.5],[43.232920769146233,41.016974188275327,1958.5],[43.248057487896233,40.994024969525327,1958.5],[43.268565300396233,40.980963446087827,1958.5],[43.288340691021233,40.975287176556577,1958.5],[43.299449089458733,41.023810125775327,1958.5],[43.293711784771233,41.041327215619077,1962.8074],[43.307139519146233,41.060980535931577,1958.5],[43.316661003521233,41.082648016400327,2017.261],[43.294444206646233,41.084112860150327,1971.0082]]]}
,"properties": {"name": "Cildir","lge_id": "tr","pfafstette": 286771.0,"lke_type": null,"altitude": 1959,"objectid": 83661,"scalerank": 10,"featurecla": "Lake","note": null,"funkyname": 0,"min_zoom": 6.0,"min_label": 7.0,"area_km2": 112.82926,"hist_schema_id": "Elevation0-9000","hist_area_km2": {"1950": 102.33053,"1975": 3.62778,"2000": 2.39699,"2025": 1.39019,"2050": 1.13445,"2075": 1.02259,"2100": 0.68706,"2125": 0.23967}}}