{"type": "Feature","bbox": [39.946,38.4748,40.2991,38.6267],"geometry": {"type": "MultiPolygon","coordinates": [[[[40.2395,38.6081,1097.4749],[40.2137,38.6215,1530.599],[40.2,38.6254,1691.3983],[40.1717,38.6267,1620.6384],[40.0977,38.6254,2147.5718],[40.0869,38.6229,2143.248],[40.0122,38.5943,1709.4355],[39.9703,38.5887,1846.6208],[39.9593,38.5829,1842.928],[39.946,38.5712,1505.9199],[39.9696,38.5558,1605.6982],[39.9768,38.549,1491.6005],[39.9817,38.5411,1396.5493],[39.984,38.5265,1113.2543],[39.9834,38.4867,937.804],[40.008,38.4846,944.0325],[40.0338,38.4769,1028.6997],[40.0546,38.475,1031.0825],[40.2921,38.4748,878.1604],[40.297,38.4871,861.8966],[40.299,38.5026,847.9298],[40.2991,38.5404,938.9276],[40.296,38.5555,959.5822],[40.2829,38.5763,1034.7893],[40.2773,38.5826,1142.827],[40.2701,38.5877,1126.45],[40.2507,38.5969,1063.531],[40.2395,38.6081,1097.4749]]]]}
,"properties": {"GID_2": "TUR.29.3_1","GID_0": "TUR","country": "Turkey","GID_1": "TUR.29_1","province": "Elazığ","NL_NAME_1": "NA","county": "Aricak","VARNAME_2": "NA","NL_NAME_2": "NA","TYPE_2": "District","ENGTYPE_2": "District","CC_2": "NA","HASC_2": "TR.EG.AR","name": "Aricak.county","area_km2": 417.5857,"hist_schema_id": "Elevation0-9000","hist_area_km2": {"800": 1.9086,"825": 8.8281,"850": 14.7671,"875": 16.2752,"900": 15.08,"925": 14.2171,"950": 16.5902,"975": 16.6229,"1000": 16.7219,"1025": 17.9822,"1050": 17.4341,"1075": 15.1933,"1100": 11.9584,"1125": 10.5977,"1150": 9.3705,"1175": 8.8398,"1200": 7.6123,"1225": 7.0981,"1250": 6.2355,"1275": 5.8207,"1300": 5.8371,"1325": 6.135,"1350": 5.9526,"1375": 6.3504,"1400": 6.1016,"1425": 5.753,"1450": 5.885,"1475": 5.8351,"1500": 5.6194,"1525": 6.1499,"1550": 6.216,"1575": 6.0004,"1600": 5.6522,"1625": 6.4313,"1650": 5.8511,"1675": 6.0996,"1700": 5.8344,"1725": 4.8233,"1750": 6.0166,"1775": 5.486,"1800": 4.8728,"1825": 4.2098,"1850": 4.2595,"1875": 3.6627,"1900": 3.9278,"1925": 2.95,"1950": 3.4802,"1975": 3.3476,"2000": 3.0326,"2025": 2.5353,"2050": 2.7506,"2075": 2.3529,"2100": 2.0546,"2125": 2.2533,"2150": 2.0544,"2175": 2.336,"2200": 2.1539,"2225": 1.458,"2250": 1.2923,"2275": 1.2261,"2300": 1.0273,"2325": 0.6627,"2350": 0.5468,"2375": 0.613,"2400": 0.5302,"2425": 0.3811,"2450": 0.1988,"2475": 0.1325,"2500": 0.0994}}}