{"type":"Feature","properties":{"GID_2":"TUR.68.1_1","GID_0":"TUR","country":"Turkey","GID_1":"TUR.68_1","province":"Sanliurfa","NL_NAME_1":"NA","county":"Akçakale","VARNAME_2":"NA","NL_NAME_2":"NA","TYPE_2":"District","ENGTYPE_2":"District","CC_2":"NA","HASC_2":"TR.SU.AK","name":"Akçakale.county"},
"geometry":{"type": "MultiPolygon","coordinates": [[[[38.635,36.7779,423.6219],[38.697,36.7284,387.9534],[38.7236,36.7104,379.9689],[38.7315,36.7075,377.5165],[38.7774,36.6993,368.9728],[38.8008,36.6974,364.5385],[38.8471,36.6967,356.2888],[38.9697,36.6989,347.0121],[38.999,36.7029,346.316],[39.0202,36.7033,353.9942],[39.0739,36.6982,360.558],[39.0751,36.7051,358.8338],[39.0733,36.7117,356.5318],[39.0267,36.7458,349.4773],[38.9871,36.762,352.694],[38.9598,36.7669,356.3599],[38.9293,36.7779,372.6682],[38.9173,36.7845,379.3764],[38.9049,36.7953,381.6124],[38.9001,36.8032,383.2526],[38.898,36.815,376.1138],[38.8989,36.9216,387.7585],[38.8699,36.9135,398.2864],[38.8222,36.8952,455.7152],[38.7832,36.8908,456.0337],[38.762,36.8838,454.9652],[38.7347,36.8786,470.2759],[38.6874,36.8595,509.9701],[38.6615,36.8512,495.3329],[38.6496,36.8536,501.8043],[38.6181,36.8761,568.5048],[38.5941,36.8869,502.8981],[38.5851,36.8659,516.8721],[38.5803,36.8234,467.6348],[38.591,36.8174,438.3826],[38.6006,36.806,448.6061],[38.6229,36.7903,425.6268],[38.635,36.7779,423.6219]]]]}}