{"type":"Feature","properties":{"GID_2":"TUR.32.5_1","GID_0":"TUR","country":"Turkey","GID_1":"TUR.32_1","province":"Eskisehir","NL_NAME_1":"NA","county":"Han","VARNAME_2":"NA","NL_NAME_2":"NA","TYPE_2":"District","ENGTYPE_2":"District","CC_2":"NA","HASC_2":"TR.ES.HA","name":"Han.county"},
"geometry":{"type": "MultiPolygon","coordinates": [[[[30.8997,39.2153,1097.3599],[30.9147,39.2269,1046.8997],[30.9105,39.2399,1075.3506],[30.8973,39.261,1061.7798],[30.8752,39.2812,1113.4814],[30.834,39.312,1142.483],[30.8115,39.3004,1166.0073],[30.7899,39.2917,1100.4489],[30.7677,39.2763,1142.4038],[30.726,39.2425,1254.2441],[30.6924,39.1913,1261.5667],[30.6893,39.1775,1223.0425],[30.6898,39.1313,1209.24],[30.6975,39.1067,1312.2969],[30.7329,39.1131,1497.0952],[30.7666,39.1285,1606.1089],[30.7692,39.1355,1765.2986],[30.7835,39.1586,1630.8763],[30.7995,39.1724,1376.864],[30.8288,39.1856,1230.7451],[30.8557,39.2016,1227.3969],[30.886,39.2129,1165.2283],[30.8997,39.2153,1097.3599]]]]}}