{"type":"Feature","properties":{"GID_2":"TUR.9.1_1","GID_0":"TUR","country":"Turkey","GID_1":"TUR.9_1","province":"Ardahan","NL_NAME_1":"NA","county":"Çıldır","VARNAME_2":"NA","NL_NAME_2":"NA","TYPE_2":"District","ENGTYPE_2":"District","CC_2":"NA","HASC_2":"TR.AR.CI","name":"Çıldır.county"},
"geometry":{"type": "MultiPolygon","coordinates": [[[[43.2029,41.2976,1442.7614],[43.2023,41.3004,1477.1956],[43.199,41.3036,1541.131],[43.1848,41.3084,1626.5925],[43.1666,41.3091,1652.1898],[43.1599,41.3105,1818.2822],[43.1551,41.3156,1678.3787],[43.1296,41.3179,1853.5825],[43.1015,41.3546,2000.6353],[43.0663,41.3688,2349.1816],[43.0472,41.3698,2607.656],[43.0366,41.375,2672.2651],[43.0248,41.3783,2872.583],[43.0214,41.382,2891.2659],[43.0233,41.3648,2836.0117],[43.0204,41.3491,2854.1274],[43.0058,41.3304,2611.1392],[42.9931,41.3251,2680.9563],[42.9929,41.3106,2632.6155],[42.9942,41.2965,2514.5691],[42.9987,41.2864,2637.7253],[43.0111,41.2678,2269.5315],[43.0263,41.2527,2239.7119],[43.031,41.246,2051.6067],[43.0309,41.239,2103.9517],[43.0209,41.221,2188.1587],[43.0125,41.2119,2101.3132],[42.997,41.1994,1931.5634],[42.9766,41.1877,1861.1218],[42.9551,41.1851,1851.5657],[42.9056,41.1866,1773.3776],[42.9029,41.171,1822.7603],[42.9037,41.1568,1987.5602],[42.9068,41.149,1893.2006],[42.92,41.128,1945.282],[42.954,41.0769,2173.9119],[43.0064,41.035,2387.2385],[43.0181,41.024,2561.3684],[43.0345,40.9982,2783.7866],[43.0422,40.9705,2775.1694],[43.0598,40.9812,2837.175],[43.0721,40.9858,2802.5835],[43.0901,40.9872,2921.6458],[43.1126,40.9845,2945.3623],[43.144,40.9962,2624.751],[43.1678,41.0009,2601.2075],[43.1806,41.0061,2433.8328],[43.2011,41.0181,2224.2651],[43.219,41.0257,1958.5],[43.2262,41.0309,1958.5],[43.2456,41.0578,1958.5],[43.2585,41.079,1958.5],[43.2622,41.0901,1958.5],[43.263,41.0993,1958.5],[43.2626,41.1432,1923.9526],[43.2638,41.1554,1941.2561],[43.2684,41.1659,1984.2109],[43.2822,41.1819,2286.4082],[43.2806,41.1832,2347.0901],[43.248,41.1774,2285.8562],[43.2265,41.1761,2199.272],[43.2336,41.1873,1925.5264],[43.2318,41.1927,1796.5],[43.1981,41.2475,1985.6516],[43.1921,41.2521,2025.4021],[43.176,41.2547,1996.9414],[43.1533,41.2456,1847.9742],[43.1315,41.2497,1495.2528],[43.1239,41.2541,1462.7021],[43.1282,41.2575,1469.1589],[43.1406,41.263,1508.0576],[43.1594,41.2682,1360.9072],[43.1749,41.275,1397.9473],[43.188,41.2851,1405.8467],[43.1965,41.2894,1454.5088],[43.1971,41.2924,1469.6639],[43.2029,41.2976,1442.7614]]]]}}