{"type": "Feature","bbox": [28.6702,39.6147,29.0238,39.8576],"geometry": {"type": "MultiPolygon","coordinates": [[[[28.9095,39.623,390.0459],[28.9049,39.6332,486.4286],[28.9031,39.6445,743.9263],[28.9048,39.6555,789.1274],[28.9097,39.6625,807.0831],[28.9169,39.6677,797.6294],[28.9408,39.6779,653.7474],[28.9738,39.7005,654.2192],[28.9952,39.7092,827.5767],[29.0238,39.725,938.1342],[29.0203,39.7395,961.1904],[29.0118,39.7564,848.2256],[29.0091,39.7735,862.0419],[29.0059,39.7811,813.7751],[29.0009,39.7849,769.6992],[28.9942,39.7867,771.9745],[28.9519,39.7871,743.116],[28.9388,39.7911,795.5571],[28.9353,39.7956,819.4189],[28.9338,39.8008,812.0681],[28.933,39.8238,720.6342],[28.929,39.8346,758.3499],[28.9203,39.8423,746.2072],[28.8878,39.8551,820.9114],[28.8608,39.8576,892.1714],[28.8336,39.8556,798.0754],[28.8121,39.8482,649.0256],[28.7645,39.8364,698.9554],[28.7544,39.8369,646.7645],[28.7236,39.8456,836.6547],[28.7201,39.8351,725.0729],[28.7109,39.8184,561.8725],[28.7081,39.7855,300.6177],[28.7052,39.777,473.1449],[28.6947,39.7672,749.549],[28.6702,39.756,854.1909],[28.674,39.7447,1066.9792],[28.6828,39.7277,948.6951],[28.7165,39.6979,427.658],[28.73,39.6789,287.4113],[28.7592,39.6533,315.2126],[28.7726,39.6348,370.3571],[28.7874,39.6247,424.506],[28.8172,39.6147,327.9713],[28.8274,39.6153,314.9482],[28.8446,39.6215,330.9246],[28.8584,39.6238,415.1082],[28.9095,39.623,390.0459]]]]}
,"properties": {"GID_2": "TUR.21.1_1","GID_0": "TUR","country": "Turkey","GID_1": "TUR.21_1","province": "Bursa","NL_NAME_1": "NA","county": "Büyükorhan","VARNAME_2": "NA","NL_NAME_2": "NA","TYPE_2": "District","ENGTYPE_2": "District","CC_2": "NA","HASC_2": "TR.BU.BK","name": "Büyükorhan.county","area_km2": 520.3761,"hist_schema_id": "Elevation0-9000","hist_area_km2": {"225": 0.1629,"250": 1.2552,"275": 1.8587,"300": 5.1399,"325": 5.1563,"350": 5.4501,"375": 6.037,"400": 6.0045,"425": 6.5589,"450": 6.754,"475": 7.064,"500": 8.5151,"525": 7.9596,"550": 9.0358,"575": 10.7784,"600": 11.5276,"625": 13.9402,"650": 17.7199,"675": 21.9235,"700": 27.3493,"725": 30.9198,"750": 32.24,"775": 32.9755,"800": 32.8804,"825": 31.4311,"850": 29.8191,"875": 24.6191,"900": 20.9506,"925": 17.6226,"950": 15.6817,"975": 14.0659,"1000": 12.7619,"1025": 10.284,"1050": 8.5398,"1075": 6.6818,"1100": 5.5087,"1125": 5.526,"1150": 3.0807,"1175": 1.5971,"1200": 0.7497,"1225": 0.5053,"1250": 0.3749,"1275": 0.4402,"1300": 0.2119,"1325": 0.2934,"1350": 0.2282,"1375": 0.1793,"1400": 0.0163}}}