{"type": "Feature","bbox": [30.6735,38.7866,30.9472,39.1285],"geometry": {"type": "MultiPolygon","coordinates": [[[[30.7666,39.1285,1606.1089],[30.7329,39.1131,1497.0952],[30.6975,39.1067,1312.2969],[30.6973,39.1015,1339.4684],[30.6907,39.0938,1468.3827],[30.6892,39.0729,1621.126],[30.6905,39.0587,1544.2946],[30.7006,39.0396,1372.7671],[30.7067,39.0212,1395.4543],[30.7142,39.0076,1390.8596],[30.715699999999998,38.9975,1370.5757],[30.706,38.9762,1361.6401],[30.7014,38.9514,1388.9055],[30.6888,38.936,1383.4268],[30.6881,38.8791,1216.7557],[30.685,38.8673,1158.7903],[30.6768,38.8535,1103.2285],[30.6735,38.8386,1130.0214],[30.6738,38.8293,1132.0908],[30.6774,38.8179,1099.8854],[30.6951,38.7936,1030.0375],[30.7048,38.7881,1024.4587],[30.7105,38.7866,1023.1215],[30.7346,38.7941,1066.3021],[30.7588,38.7966,1060.3523],[30.7958,38.7955,1048.0061],[30.8312,38.7873,1102.5056],[30.840699999999998,38.7886,1093.3068],[30.8588,38.7942,1143.7983],[30.8784,38.7962,1195.9337],[30.9195,38.7958,1502.3242],[30.9472,38.7918,1518.0925],[30.9432,38.8214,1428.8527],[30.9372,38.8298,1316.1279],[30.9124,38.8403,1296.2878],[30.8792,38.8436,1279.1672],[30.8738,38.8462,1318.2031],[30.8704,38.8505,1450.3467],[30.8693,38.8553,1455.4492],[30.8704,38.8629,1415.1901],[30.88,38.8787,1568.2632],[30.8837,38.8929,1334.1938],[30.8845,38.9262,1397.2404],[30.8821,38.9438,1358.1151],[30.8666,38.9701,1234.3923],[30.8212,39.0397,1588.3634],[30.7989,39.0625,1558.7008],[30.7837,39.0859,1493.2461],[30.7762,39.1097,1455.6748],[30.7666,39.1285,1606.1089]]]]}
,"properties": {"GID_2": "TUR.3.12_1","GID_0": "TUR","country": "Turkey","GID_1": "TUR.3_1","province": "Afyon","NL_NAME_1": "NA","county": "İscehisar","VARNAME_2": "NA","NL_NAME_2": "NA","TYPE_2": "District","ENGTYPE_2": "District","CC_2": "NA","HASC_2": "TR.AF.IS","name": "İscehisar.county","area_km2": 516.5096,"hist_schema_id": "Elevation0-9000","hist_area_km2": {"1025": 4.098,"1050": 22.6655,"1075": 34.719,"1100": 27.4154,"1125": 24.3876,"1150": 21.6108,"1175": 22.2033,"1200": 18.6357,"1225": 17.0166,"1250": 17.2117,"1275": 17.7668,"1300": 20.8662,"1325": 23.3551,"1350": 28.6366,"1375": 36.0147,"1400": 32.2215,"1425": 26.3531,"1450": 22.6098,"1475": 17.8637,"1500": 15.1599,"1525": 13.1817,"1550": 11.4989,"1575": 10.526,"1600": 9.307,"1625": 7.8571,"1650": 5.5184,"1675": 3.1298,"1700": 1.9934,"1725": 1.2852,"1750": 1.022,"1775": 0.3297,"1800": 0.0495}}}