{"type": "Feature","bbox": [32.2538,36.0921,32.6581,36.5762],"geometry": {"type": "MultiPolygon","coordinates": [[[[32.2538,36.3082,0.0],[32.2621,36.3024,20.1909],[32.2757,36.2876,0.4397],[32.274,36.2824,0.0],[32.2788,36.2793,29.839],[32.2807,36.2668,3.1087],[32.2799,36.2632,1.376],[32.2774,36.2624,0.4098],[32.2771,36.2607,10.1634],[32.286,36.2537,0.0],[32.2893,36.2482,2.6557],[32.2921,36.2474,3.4326],[32.2954,36.2412,3.5359],[32.296,36.2357,5.2857],[32.2949,36.2349,0.0],[32.3071,36.2287,0.0],[32.3101,36.229,28.619],[32.3138,36.2254,0.0],[32.3224,36.2224,19.6713],[32.3296,36.2218,0.0],[32.3329,36.2179,39.1724],[32.3324,36.2157,11.9384],[32.3363,36.2146,0.0],[32.3393,36.2157,27.3663],[32.3507,36.2079,0.0],[32.354,36.2035,0.0],[32.3607,36.2004,0.0],[32.3607,36.1985,0.0],[32.3643,36.1954,0.0],[32.3632,36.1932,0.0],[32.3662,36.1929,2.1698],[32.3713,36.186,0.0],[32.3746,36.1854,0.0],[32.3749,36.181,0.0],[32.3796,36.1751,0.0],[32.3793,36.1729,0.0],[32.3815,36.171,0.0],[32.389,36.1696,4.3955],[32.3901,36.1657,20.7211],[32.389,36.1629,0.0],[32.3976,36.1649,0.0],[32.3996,36.1618,0.0],[32.4015,36.1629,4.0801],[32.404,36.1615,0.0],[32.4085,36.1629,4.0043],[32.4126,36.1621,56.2031],[32.4149,36.1604,19.1781],[32.4124,36.1568,0.0],[32.414,36.1543,0.0],[32.4162,36.1546,1.3393],[32.416,36.1532,0.0],[32.4176,36.1526,0.0],[32.4212,36.1532,11.266],[32.4226,36.149,0.0],[32.4313,36.1471,42.3807],[32.436,36.1418,0.0],[32.4418,36.1415,20.8921],[32.441,36.1376,0.0],[32.4457,36.1385,1.2172],[32.4615,36.1335,0.0],[32.4621,36.1307,26.4016],[32.4654,36.1293,4.7244],[32.4687,36.1237,0.0],[32.471,36.1246,1.3977],[32.4721,36.1226,0.0],[32.4779,36.1213,4.9912],[32.4779,36.119,0.0],[32.4815,36.1165,12.0447],[32.4818,36.1146,4.0819],[32.4879,36.1132,0.0],[32.4879,36.109,0.0],[32.491,36.1087,0.0],[32.4949,36.1113,12.568],[32.5015,36.1043,3.75],[32.5071,36.1043,0.0],[32.5099,36.106,34.0049],[32.5146,36.1015,0.0],[32.5171,36.0965,0.0],[32.5332,36.094,52.8811],[32.534,36.0921,2.3892],[32.5438,36.0949,36.397],[32.5501,36.0929,0.0],[32.5543,36.099,64.1902],[32.566,36.0999,0.4964],[32.5736,36.105,68.1614],[32.5874,36.1182,90.6146],[32.6004,36.1391,169.1719],[32.6035,36.1474,460.3036],[32.6085,36.1743,295.7672],[32.6165,36.1882,553.8877],[32.6225,36.2067,383.1357],[32.6327,36.2259,437.7834],[32.6372,36.2618,1190.1639],[32.6451,36.2786,1507.8604],[32.6468,36.286,2097.2915],[32.6451,36.2935,2170.5032],[32.6378,36.3074,2213.688],[32.636,36.3165,2235.3682],[32.6358,36.3836,2002.1377],[32.6388,36.3956,1927.6221],[32.6478,36.412,1895.7083],[32.653,36.434,1914.2451],[32.6581,36.4461,1884.9352],[32.6397,36.4614,1797.6522],[32.6159,36.4718,1771.2299],[32.583,36.4944,1734.5315],[32.5542,36.5082,1751.9343],[32.5482,36.5142,1803.6641],[32.5305,36.5415,1563.1243],[32.5167,36.5491,1740.9397],[32.5073,36.5566,1507.5844],[32.5025,36.5636,1047.6235],[32.4987,36.5762,1463.5825],[32.4719,36.5691,1726.413],[32.4516,36.557,1727.2849],[32.4165,36.5302,1741.234],[32.4019,36.5173,1668.4374],[32.3984,36.5123,1542.0529],[32.3954,36.5013,1499.191],[32.3943,36.4496,1214.3629],[32.3913,36.4418,1379.8468],[32.3759,36.419,878.6787],[32.3637,36.4106,535.2535],[32.3457,36.4035,381.2376],[32.3284,36.3908,452.4373],[32.3112,36.3678,362.0631],[32.2642,36.3286,248.6596],[32.2538,36.3082,0.0]]]]}
,"properties": {"GID_2": "TUR.8.5_1","GID_0": "TUR","country": "Turkey","GID_1": "TUR.8_1","province": "Antalya","NL_NAME_1": "NA","county": "Gazipaşa","VARNAME_2": "NA","NL_NAME_2": "NA","TYPE_2": "District","ENGTYPE_2": "District","CC_2": "NA","HASC_2": "TR.AL.GP","name": "Gazipaşa.county","area_km2": 1175.3117,"hist_schema_id": "Elevation0-9000","hist_area_km2": {"0": 13.4748,"25": 24.1902,"50": 18.3786,"75": 14.979,"100": 16.877,"125": 16.3645,"150": 16.1928,"175": 17.6981,"200": 17.715,"225": 17.5273,"250": 18.1419,"275": 19.6979,"300": 19.9706,"325": 19.3384,"350": 18.3624,"375": 18.4982,"400": 18.2586,"425": 18.4287,"450": 18.8731,"475": 18.1037,"500": 18.6167,"525": 17.6248,"550": 17.6754,"575": 18.2225,"600": 16.7177,"625": 17.0067,"650": 15.9815,"675": 15.6386,"700": 14.9185,"725": 14.5436,"750": 13.1247,"775": 13.1932,"800": 12.2704,"825": 12.4579,"850": 11.8783,"875": 10.9732,"900": 10.6308,"925": 11.2816,"950": 10.2714,"975": 10.2551,"1000": 10.1512,"1025": 10.0828,"1050": 10.39,"1075": 9.9786,"1100": 10.1331,"1125": 8.5942,"1150": 9.1578,"1175": 8.2853,"1200": 8.3861,"1225": 7.8392,"1250": 8.3163,"1275": 7.7347,"1300": 7.3924,"1325": 6.9478,"1350": 7.2027,"1375": 7.3726,"1400": 7.6619,"1425": 7.2018,"1450": 7.6636,"1475": 7.2356,"1500": 7.2016,"1525": 7.2857,"1550": 7.0462,"1575": 6.9433,"1600": 6.5332,"1625": 6.2085,"1650": 6.0717,"1675": 6.6853,"1700": 15.1748,"1725": 22.6416,"1750": 12.3791,"1775": 13.8126,"1800": 15.1279,"1825": 14.6168,"1850": 17.7041,"1875": 17.5848,"1900": 16.4428,"1925": 15.6587,"1950": 14.0899,"1975": 13.1523,"2000": 13.529,"2025": 15.0322,"2050": 12.7308,"2075": 13.1251,"2100": 11.8802,"2125": 10.0032,"2150": 8.7407,"2175": 6.9669,"2200": 11.5283,"2225": 10.2298,"2250": 4.218,"2275": 2.2369,"2300": 0.6318,"2325": 0.0171}}}