{"type": "Feature","bbox": [40.8506,37.3675,40.9703,37.4383],"geometry": {"type": "MultiPolygon","coordinates": [[[[40.9684,37.3839,1057.0038],[40.9703,37.3916,1094.7369],[40.9698,37.3997,1083.8757],[40.9675,37.4049,1088.333],[40.9616,37.4119,1094.5588],[40.9351,37.4316,1075.3861],[40.919,37.4373,1058.7241],[40.9121,37.4383,1119.6708],[40.8953,37.4299,1100.6364],[40.8658,37.4233,1071.8306],[40.8562,37.4162,1121.8772],[40.8529,37.4111,1132.8049],[40.8506,37.4022,1123.1857],[40.8509,37.39,1094.7888],[40.8539,37.3811,1117.5854],[40.8625,37.373,1160.1066],[40.8757,37.3684,1145.9948],[40.8871,37.3675,1145.3239],[40.9184,37.3691,1109.8743],[40.9684,37.3839,1057.0038]]]]}
,"properties": {"GID_2": "TUR.57.10_1","GID_0": "TUR","country": "Turkey","GID_1": "TUR.57_1","province": "Mardin","NL_NAME_1": "NA","county": "Yeşilli","VARNAME_2": "NA","NL_NAME_2": "NA","TYPE_2": "District","ENGTYPE_2": "District","CC_2": "NA","HASC_2": "TR.MR.YE","name": "Yeşilli.county","area_km2": 61.20875,"hist_schema_id": "Elevation0-9000","hist_area_km2": {"1000": 0.05051,"1025": 0.20204,"1050": 1.91983,"1075": 6.73704,"1100": 18.157,"1125": 23.24461,"1150": 10.42617,"1175": 0.47154}}}