{"type":"Feature","properties":{"GID_2":"TUR.8.10_1","GID_0":"TUR","country":"Turkey","GID_1":"TUR.8_1","province":"Antalya","NL_NAME_1":"NA","county":"Kemer","VARNAME_2":"NA","NL_NAME_2":"NA","TYPE_2":"District","ENGTYPE_2":"District","CC_2":"NA","HASC_2":"TR.AL.KE","name":"Kemer.county"},
"geometry":{"type": "MultiPolygon","coordinates": [[[[30.5535,36.4601,3.4843],[30.5507,36.461,0.0],[30.5471,36.4574,0.0],[30.5493,36.4562,0.0],[30.551,36.459,11.8432],[30.554,36.4574,2.1072],[30.5535,36.4601,3.4843]]],
[[[30.4954,36.3273,74.5743],[30.5015,36.3226,2.4136],[30.5057,36.3229,0.0],[30.5074,36.3235,0.0],[30.5085,36.3268,0.0],[30.5085,36.3318,0.0],[30.5187,36.329,2.8294],[30.5293,36.334,7.8541],[30.5301,36.3379,0.0],[30.526,36.3443,0.0],[30.5249,36.3421,0.0],[30.5199,36.3415,14.9119],[30.5154,36.3443,0.0],[30.511,36.3446,29.1443],[30.5099,36.3537,0.0],[30.5071,36.3563,0.0],[30.5049,36.3526,5.551],[30.5029,36.356,44.0726],[30.5046,36.3593,22.2831],[30.5085,36.3601,0.0],[30.5057,36.3699,1.1641],[30.5001,36.3693,0.0],[30.501,36.3651,1.4929],[30.4976,36.3671,0.0],[30.4915,36.3776,0.0],[30.4857,36.3829,22.354],[30.4874,36.391,0.0],[30.4776,36.3957,0.0],[30.4768,36.3988,0.2521],[30.479,36.4012,0.0],[30.4779,36.4046,3.8623],[30.4821,36.4149,4.1714],[30.484,36.4151,0.3325],[30.4835,36.421,4.2709],[30.4918,36.4215,0.0],[30.4888,36.4235,5.5008],[30.4874,36.4307,0.0],[30.4826,36.4315,20.9728],[30.4813,36.434,0.0],[30.4832,36.4368,0.0],[30.4876,36.4351,0.0],[30.4882,36.4393,3.9098],[30.4979,36.4354,0.0],[30.5007,36.4379,7.1738],[30.5051,36.4365,0.0],[30.5096,36.4399,0.0],[30.5113,36.4451,0.0],[30.5104,36.4476,0.0],[30.5124,36.4501,0.0],[30.5115,36.4532,0.0],[30.5129,36.4546,4.1619],[30.5163,36.4543,0.0],[30.5174,36.4568,0.0],[30.5101,36.4601,2.6336],[30.5121,36.4621,0.0],[30.5065,36.4654,71.765],[30.5074,36.4688,16.379],[30.5135,36.4688,12.4817],[30.5168,36.4699,0.0],[30.5151,36.4729,16.5383],[30.5218,36.4735,0.0],[30.5179,36.4754,1.3836],[30.5168,36.479,2.4122],[30.5196,36.4801,9.5409],[30.5207,36.4785,0.0],[30.5229,36.4787,0.0],[30.5213,36.4824,10.5446],[30.5271,36.4932,4.0354],[30.5332,36.5013,8.2175],[30.5365,36.5032,0.0],[30.5365,36.5054,1.8511],[30.5399,36.5096,8.455],[30.5446,36.5096,0.0],[30.5415,36.5224,27.4896],[30.5485,36.5243,10.2469],[30.5507,36.5232,24.6595],[30.5504,36.5207,26.5077],[30.5524,36.5196,0.0],[30.5543,36.5238,8.95],[30.5513,36.5271,6.09],[30.5554,36.529,12.4658],[30.5554,36.5307,48.5945],[30.5624,36.531,5.0852],[30.5654,36.5326,0.631],[30.5646,36.534,0.0],[30.5579,36.5343,24.0528],[30.5576,36.5363,9.8516],[30.5607,36.5371,0.0],[30.5574,36.5399,3.0675],[30.5579,36.5435,8.6859],[30.5668,36.5549,3.5563],[30.576,36.5626,0.9081],[30.5835,36.5718,0.0],[30.5885,36.579,0.9928],[30.5857,36.5846,0.0],[30.5888,36.5854,0.0],[30.5915,36.5893,0.0],[30.590699999999998,36.5985,9.6974],[30.5876,36.5988,0.0],[30.5824,36.5954,25.457],[30.576,36.5971,2.0086],[30.5751,36.5988,0.9338],[30.5776,36.6004,0.0],[30.5726,36.6024,0.0],[30.5696,36.601,0.2698],[30.5599,36.6115,9.5841],[30.5568,36.6188,0.8924],[30.5585,36.6296,19.578],[30.5565,36.6321,0.0],[30.5565,36.6354,0.0],[30.5607,36.644,0.0],[30.556,36.6437,14.5584],[30.5549,36.6499,0.7071],[30.5607,36.6607,0.0],[30.5713,36.6749,0.0],[30.571,36.6868,0.0],[30.5746,36.7032,3.8303],[30.5724,36.7099,0.5159],[30.566,36.7174,2.5082],[30.564,36.726,1.7884],[30.56,36.7242,5.9754],[30.5487,36.7074,349.4619],[30.5206,36.6925,379.7836],[30.4837,36.6793,487.0803],[30.4336,36.6758,1157.3339],[30.4241,36.6724,1165.0641],[30.4135,36.6661,1186.4764],[30.4099,36.6556,1154.4446],[30.4007,36.639,1522.1974],[30.3965,36.5913,1881.3116],[30.3853,36.5691,1675.5161],[30.3839,36.5631,1805.2917],[30.3853,36.5419,1802.7261],[30.3946,36.5253,1658.5054],[30.3979,36.5104,1581.9138],[30.3974,36.4089,939.5197],[30.3989,36.3935,589.939],[30.4011,36.3877,500.3127],[30.4122,36.3751,275.0589],[30.4642,36.3356,134.3096],[30.4776,36.3299,566.9769],[30.4954,36.3273,74.5743]]]]}}