{"type":"Feature","properties":{"GID_1":"TUR.72_1","GID_0":"TUR","country":"Turkey","province":"Sivas","VARNAME_1":"NA","NL_NAME_1":"NA","TYPE_1":"Il","ENGTYPE_1":"Province","CC_1":"NA","HASC_1":"TR.SV","ISO_1":"TR-58","name":"Sivas.province"},
"geometry":{"type": "MultiPolygon","coordinates": [[[[37.0115,38.6077,1806.7144],[37.0304,38.6002,1857.6394],[37.0599,38.5782,1979.3922],[37.095,38.584,2033.941],[37.1167,38.591,2021.459],[37.1332,38.5933,2044.4587],[37.2517,38.5936,1993.9332],[37.2884,38.5959,2070.3567],[37.2978,38.6022,2088.3315],[37.3212,38.6067,1882.2488],[37.3328,38.6115,1778.6895],[37.3936,38.6568,1354.9373],[37.4203,38.6683,1339.5347],[37.4566,38.6932,1530.7141],[37.4778,38.7015,1595.7007],[37.4938,38.7116,1659.4485],[37.5129,38.7274,1623.7355],[37.5274,38.7483,1580.2484],[37.541,38.7605,1490.0276],[37.5614,38.7741,1786.1665],[37.5739,38.7764,1658.3713],[37.5849,38.8017,1773.573],[37.5946,38.8183,1594.7722],[37.5963,38.8366,1841.4166],[37.5935,38.8485,1873.3667],[37.5854,38.8623,1646.353],[37.5782,38.8833,1553.0037],[37.556,38.9178,1429.4414],[37.5527,38.9259,1384.2549],[37.5511,38.941,1319.5454],[37.5519,38.9594,1489.599],[37.5536,38.9684,1479.2079],[37.5588,38.9811,1479.5303],[37.5649,38.9841,1516.63],[37.5831,39.0069,1862.6447],[37.5881,39.0099,1881.6354],[37.5943,39.0114,1912.3779],[37.6075,39.011,1917.196],[37.6317,39.0029,1677.0635],[37.6474,39.001,1591.5469],[37.6904,39.0005,1583.3837],[37.7249,39.0021,1403.1508],[37.747,39.0007,1346.7179],[37.7804,39.0011,1357.4338],[37.7969,39.0051,1345.7151],[37.8983,39.045,2143.5334],[37.9395,39.0591,2496.2427],[37.9742,39.0595,2322.9512],[37.986,39.0614,2005.7517],[38.0038,39.0675,2161.8777],[38.027,39.0702,2481.7322],[38.1492,39.0699,2102.4861],[38.1814,39.0726,1824.4952],[38.2117,39.0838,2024.0859],[38.2418,39.0999,1667.774],[38.2592,39.1176,1666.97],[38.2738,39.1265,1633.4419],[38.3075,39.1385,1722.2085],[38.3545,39.1398,1744.4666],[38.3755,39.1639,2096.5994],[38.39,39.1874,1748.927],[38.3926,39.1968,1738.4987],[38.3936,39.2134,1570.1957],[38.3935,39.3787,1062.5865],[38.3964,39.4112,915.287],[38.3914,39.4272,1025.1412],[38.3812,39.4466,1104.6865],[38.3752,39.4764,1351.7502],[38.3672,39.4903,1391.3026],[38.3602,39.5112,1505.5583],[38.352,39.525,1563.3789],[38.3491,39.5366,1520.6213],[38.3483,39.5547,1263.0817],[38.3497,39.5727,1384.7338],[38.3523,39.5812,1214.2424],[38.3592,39.5927,1472.6682],[38.3634,39.6065,1459.5591],[38.3664,39.6342,1796.9421],[38.3637,39.6666,1536.4904],[38.3663,39.6834,1429.2903],[38.3732,39.6934,1450.1039],[38.3892,39.709,1394.6979],[38.4138,39.7462,1262.7422],[38.4234,39.753,1401.2418],[38.4394,39.7569,1340.9232],[38.4411,39.7762,1952.4613],[38.4438,39.7811,1948.3287],[38.4505,39.7869,2132.5693],[38.4634,39.7913,1978.3369],[38.506,39.7927,1944.3262],[38.5226,39.7972,1975.368],[38.539,39.8043,1907.0461],[38.5436,39.8078,1867.0813],[38.5534,39.8218,2074.5073],[38.5544,39.8265,2215.7427],[38.5526,39.8317,2209.0298],[38.5443,39.8402,2184.5095],[38.5326,39.8466,2081.9668],[38.5222,39.8482,2027.0734],[38.5154,39.8475,1999.1854],[38.491,39.84,1955.7649],[38.4447,39.8363,1943.8625],[38.4233,39.8289,1883.0309],[38.4129,39.8269,1974.9861],[38.3913,39.8263,2082.9382],[38.3808,39.8284,2158.1016],[38.375,39.8311,2250.2336],[38.3683,39.837,2327.8125],[38.3656,39.842,2219.5413],[38.3644,39.8502,2043.5597],[38.3659,39.8584,2052.2102],[38.3755,39.8745,2406.4194],[38.3829,39.8955,2440.0027],[38.403,39.9213,2256.7205],[38.4113,39.9403,2073.156],[38.4159,39.9468,1963.0906],[38.4298,39.9586,1990.5017],[38.4474,39.9694,1980.4705],[38.5061,39.965,2109.9834],[38.5352,39.9566,1994.7029],[38.5514,39.9548,1764.9601],[38.6998,39.9542,1488.3135],[38.7122,39.9547,1489.95],[38.7314,39.9591,1603.2999],[38.7461,39.9662,1655.0671],[38.7506,39.9695,1616.0919],[38.7537,39.9743,1552.9828],[38.7584,39.9969,1317.0333],[38.7681,40.0167,1203.9871],[38.7737,40.0488,1353.5988],[38.7387,40.0632,1793.3811],[38.709,40.0799,1893.3175],[38.6702,40.0846,1922.4034],[38.649,40.0916,1833.5779],[38.6251,40.096,1864.5681],[38.5707,40.1161,1600.5869],[38.5372,40.1193,1551.7219],[38.5165,40.1152,1415.6243],[38.4922,40.1042,1235.8777],[38.4695,40.097,1087.2118],[38.4628,40.0963,1066.204],[38.453,40.0978,1071.8755],[38.3964,40.12,1097.7754],[38.3668,40.1375,965.5779],[38.3214,40.155,845.0],[38.3052,40.1644,914.5064],[38.2827,40.1804,1072.2402],[38.2564,40.1926,1232.5997],[38.25,40.1984,1353.507],[38.2456,40.2091,1487.6285],[38.2441,40.248,929.9915],[38.2418,40.2565,1018.2601],[38.232,40.2759,1171.7135],[38.2288,40.3208,1081.3265],[38.2181,40.3431,1424.5906],[38.2131,40.3701,2098.4485],[38.2031,40.3897,2052.0232],[38.1982,40.4167,1720.3622],[38.1891,40.4334,1779.2979],[38.1857,40.4439,2100.2109],[38.1848,40.4581,2134.3562],[38.1825,40.4662,2237.4595],[38.1557,40.5087,2612.1479],[38.1274,40.4918,2525.2817],[38.0395,40.4233,1436.772],[38.0255,40.4141,1623.7496],[38.0086,40.4095,1558.6147],[37.9685,40.4079,2113.7349],[37.9405,40.3995,1885.4596],[37.9016,40.3951,2020.7627],[37.8844,40.3856,1768.9139],[37.8434,40.3533,1829.3928],[37.8298,40.3444,1773.584],[37.8203,40.3408,1749.8633],[37.7965,40.3364,1761.4775],[37.7721,40.3286,1717.161],[37.7578,40.3285,1578.1541],[37.7477,40.3307,1548.2167],[37.721,40.3412,1715.8596],[37.7111,40.3479,1680.9993],[37.6627,40.4219,1602.7917],[37.6479,40.4505,1528.842],[37.631,40.443,1571.8982],[37.6042,40.4251,1738.0604],[37.5917,40.4137,1819.5518],[37.588,40.4084,1861.3572],[37.5849,40.3964,2105.9106],[37.5849,40.3589,1793.4948],[37.5826,40.3476,1130.6047],[37.5775,40.3414,1026.3903],[37.5617,40.3309,567.025],[37.5568,40.324,765.4437],[37.5551,40.3182,981.8698],[37.5547,40.2966,1465.2666],[37.56,40.2764,1442.264],[37.5227,40.2664,1075.2671],[37.4988,40.2515,1526.4442],[37.4811,40.2441,1535.0358],[37.4717,40.2382,1712.0792],[37.4528,40.2105,1922.8918],[37.4468,40.1807,1720.8026],[37.4376,40.1639,1816.4019],[37.4342,40.1534,2250.0857],[37.4089,40.1554,1591.6575],[37.3843,40.1631,1345.2228],[37.349,40.1672,1060.9082],[37.3205,40.1756,1401.73],[37.2664,40.1777,1588.9609],[37.2304,40.1872,1621.6083],[37.1688,40.1902,1791.3066],[37.135,40.2022,1719.1692],[37.091,40.2204,1714.542],[37.0775,40.2229,1850.5104],[37.0668,40.2226,1722.019],[37.0568,40.2204,1662.2246],[36.997,40.197,1819.4956],[36.9679,40.1822,2040.6702],[36.9372,40.1976,1934.3389],[36.8989,40.2026,1541.1848],[36.8737,40.2103,1762.05],[36.862,40.2117,1705.2206],[36.7886,40.2121,1580.4122],[36.7736,40.2238,1495.1084],[36.761,40.2111,1649.895],[36.7525,40.1959,1567.6854],[36.7197,40.1694,1441.1252],[36.701,40.1415,1430.5576],[36.6991,40.1334,1463.058],[36.6997,40.1252,1561.1244],[36.711,40.1039,1556.2523],[36.712,40.0903,1513.8649],[36.7091,40.0825,1476.0476],[36.6792,40.036,1758.406],[36.6641,40.0173,1606.1348],[36.64,40.0056,1685.7117],[36.6066,39.9935,1633.6521],[36.5826,39.9893,1578.6281],[36.5614,39.982,1630.2887],[36.5374,39.9777,1632.4955],[36.5163,39.9704,1511.1573],[36.489,39.9652,1505.1543],[36.4716,39.958,1528.4663],[36.4425,39.9496,1726.1427],[36.421,39.9563,1529.2695],[36.3059,39.957,1222.2391],[36.2938,39.959,1259.145],[36.2724,39.9658,1329.5787],[36.247,39.9704,1136.7523],[36.2271,39.9776,1270.803],[36.1858,39.9592,1217.3643],[36.1475,39.9542,1399.3374],[36.118,39.946,1371.225],[36.0846,39.9446,1178.9351],[35.9858,39.9459,986.9803],[35.9742,39.9226,1080.5194],[35.962,39.91,1040.7648],[35.9655,39.8999,1134.3524],[35.9689,39.8956,1229.5516],[35.9784,39.8888,1389.29],[35.9966,39.8812,1347.7979],[36.0203,39.8675,1359.4647],[36.0383,39.8602,1333.9534],[36.0471,39.8527,1355.6621],[36.0514,39.8425,1267.3702],[36.0544,39.8206,1388.4583],[36.063,39.8039,1331.8645],[36.07,39.7832,1339.2764],[36.0807,39.7738,1391.2755],[36.0987,39.7666,1372.4058],[36.1103,39.7597,1327.9238],[36.118,39.7534,1287.5803],[36.1239,39.746,1387.3986],[36.1267,39.7373,1431.0756],[36.1274,39.7222,1416.0649],[36.1258,39.7039,1534.8978],[36.1224,39.6931,1706.8296],[36.1403,39.6869,1599.7844],[36.1567,39.6771,1853.2301],[36.1416,39.6654,1761.2784],[36.1382,39.6549,1670.4707],[36.129,39.6382,1893.2439],[36.1251,39.6141,1589.5917],[36.122,39.6059,1524.9457],[36.1068,39.5824,1853.0536],[36.0841,39.5598,1917.5693],[36.0692,39.5365,1811.8235],[36.0665,39.5256,1752.1582],[36.0662,39.5025,2147.7285],[36.0362,39.4792,2122.9775],[36.0274,39.4711,1960.2844],[36.0166,39.4546,2050.7249],[36.0105,39.4483,1840.6125],[35.9786,39.4229,1542.1483],[35.9626,39.4129,1484.0632],[35.9386,39.403,1618.5138],[35.8805,39.3594,1717.4639],[35.8694,39.3535,1606.6306],[35.8538,39.348,1780.2534],[35.8381,39.3378,1708.4061],[35.8278,39.3272,1602.74],[35.8152,39.306399999999996,1702.0863],[35.8126,39.2994,1797.6558],[35.8418,39.2839,1611.2583],[35.8854,39.2763,1478.0345],[35.905,39.245,1553.3168],[35.9387,39.2152,1227.3945],[35.9482,39.2008,1132.7299],[35.961,39.1878,1150.2476],[36.0127,39.1481,1327.1852],[36.0483,39.1331,1430.5289],[36.0579,39.1308,1353.6774],[36.0817,39.1297,1273.8269],[36.1143,39.131,1214.2369],[36.3074,39.1303,1581.2881],[36.3231,39.1334,1629.3635],[36.374,39.1534,1800.7605],[36.3944,39.1504,1836.2673],[36.4418,39.132,1696.7311],[36.4594,39.1304,1644.949],[36.4698,39.1319,1620.2488],[36.4907,39.1391,1710.2253],[36.5146,39.1437,1638.1323],[36.5891,39.1727,1834.0945],[36.6151,39.1763,1669.6941],[36.7528,39.1763,1887.0853],[36.7773,39.1751,1789.5833],[36.7888,39.1724,1789.4491],[36.8153,39.1623,1744.7971],[36.8387,39.1498,1768.0858],[36.881,39.1363,1733.7219],[36.9016,39.1219,1714.9121],[36.9171,39.1075,1716.6543],[36.9342,39.082,1706.5272],[36.9449,39.0616,1676.6151],[36.9449,39.0572,1671.0245],[36.9386,39.0446,1710.4216],[36.9328,39.0256,1732.376],[36.9234,39.0092,1726.021],[36.9177,38.9907,1715.6638],[36.8942,38.9536,1889.734],[36.8885,38.9351,1818.262],[36.8792,38.9187,1890.6317],[36.8735,38.9002,1849.9692],[36.8642,38.8838,1856.574],[36.8574,38.8627,1898.4537],[36.8339,38.8256,2068.4585],[36.8271,38.8045,2256.9404],[36.8188,38.7907,2445.8591],[36.8132,38.7721,2514.3469],[36.8037,38.7558,2605.6299],[36.7957,38.7323,2138.0918],[36.7584,38.6744,2050.9346],[36.756,38.6657,2036.098],[36.7527,38.6327,1829.5842],[36.7433,38.6161,1884.0233],[36.7323,38.5911,1858.6925],[36.7653,38.5956,1896.6219],[36.7865,38.6029,1857.7651],[36.8136,38.6082,1954.2552],[36.835,38.6154,1930.7216],[36.8814,38.6185,1664.5963],[36.9099,38.6271,1946.4717],[36.9205,38.6285,1885.1626],[36.9457,38.6272,1990.2588],[36.9668,38.62,1822.3821],[36.994,38.6147,1782.3688],[37.0115,38.6077,1806.7144]]]]}}