{"type":"Feature","properties":{"ISO3166-1-Alpha-3":"TUR","country":"Turkey","fill":"#000","id":"2295","name":"Sivas"},
"geometry":{"type": "Polygon","coordinates": [[[38.45422,40.09988,1102.4442],[38.39231,40.12827,1049.3035],[38.33113,40.16468,902.7443],[38.2748,40.18607,1143.4669],[38.23821,40.22858,913.9772],[38.24049,40.28522,1156.538],[38.15832,40.52355,2984.0679],[38.12887,40.50373,2738.7754],[38.09517,40.49218,2203.7319],[38.04918,40.4888,1873.0371],[38.00836,40.48099,1556.3263],[37.99802,40.46882,1533.6946],[37.99533,40.43965,1510.7769],[38.00588,40.42859,1522.0095],[38.00164,40.41156,1657.4147],[37.98025,40.40131,1970.5],[37.89767,40.4041,2011.3015],[37.86139,40.38394,1663.0582],[37.83131,40.35276,1745.2991],[37.80186,40.33568,1748.7302],[37.76693,40.33188,1735.853],[37.69013,40.37942,1537.1871],[37.63494,40.4612,1552.4753],[37.58409,40.38203,1964.3354],[37.52415,40.317,1049.3068],[37.48808,40.30607,1699.7782],[37.45108,40.29912,1436.4517],[37.43609,40.29919,1427.0549],[37.42214,40.29553,1390.4125],[37.38803,40.27411,1209.7932],[37.35083,40.25904,1508.4286],[37.26711,40.2494,1557.408],[37.18236,40.25294,1515.6064],[37.08945,40.24336,1873.7906],[36.95871,40.21667,1742.1658],[36.92222,40.20486,1895.3632],[36.80771,40.21662,1627.1908],[36.76926,40.20734,1793.677],[36.73391,40.19132,1493.5963],[36.70725,40.13326,1453.5983],[36.68637,40.07301,1412.5598],[36.66694,40.03446,1840.9967],[36.6349,40.0097,1802.0854],[36.48752,39.96593,1481.6943],[36.32205,39.95968,1360.4534],[36.08868,39.92371,1322.0652],[36.11669,39.85046,1341.7521],[36.16527,39.78432,1245.3911],[36.2003,39.76961,1305.5198],[36.21053,39.74822,1394.0685],[36.21301,39.7244,1561.2461],[36.18346,39.64259,1578.6024],[36.11039,39.58673,1779.0488],[36.02429,39.53505,2033.7],[35.98967,39.50242,1876.4807],[35.95897,39.46586,1722.7828],[35.93458,39.42754,1569.3667],[35.90327,39.39522,1838.0603],[35.85758,39.36935,1880.2118],[35.81986,39.33445,1641.255],[35.87236,39.3315,1602.6879],[35.92104,39.31217,1390.6946],[35.93014,39.30298,1379.0225],[35.94285,39.28158,1319.8972],[35.95143,39.27357,1337.9709],[35.98367,39.26331,1242.1111],[36.01664,39.25939,1273.7979],[36.11152,39.2057,1152.6826],[36.21043,39.19546,1445.8278],[36.28671,39.21644,1495.5476],[36.45207,39.1982,1627.1931],[36.50127,39.16864,1662.6682],[36.55129,39.15508,1729.8259],[36.64121,39.17885,1677.4696],[36.73433,39.17885,1890.5564],[36.82052,39.16634,1753.6094],[36.89979,39.13345,1719.0856],[36.93628,39.04421,1712.9003],[36.89359,38.94966,1852.2048],[36.87096,38.91349,1888.3907],[36.85153,38.87551,1865.9678],[36.82528,38.79626,2360.0261],[36.78497,38.70549,2115.533],[36.78115,38.68883,2093.9062],[36.77391,38.67425,2124.0403],[36.75024,38.64043,1858.9062],[36.74745,38.5994,1873.5417],[36.87892,38.62503,1672.8633],[37.00883,38.61051,1798.3521],[37.03364,38.59741,1889.7443],[37.05968,38.58808,2010.5747],[37.28437,38.60359,1919.4449],[37.34287,38.62493,1739.374],[37.39361,38.66131,1422.8708],[37.44467,38.70823,1468.2817],[37.46689,38.71441,1677.4269],[37.50978,38.73663,1595.3489],[37.58048,38.79683,1726.4116],[37.59691,38.83432,1831.3739],[37.59112,38.85665,1736.604],[37.57955,38.87745,1523.8873],[37.56136,38.92217,1300.4861],[37.55164,38.96943,1490.2473],[37.57355,39.00821,1731.125],[37.61758,39.017,1937.7534],[37.70223,38.98431,1532.5732],[37.78584,38.99834,1341.8127],[37.8216,39.01695,1552.8529],[37.85943,39.0294,1764.7554],[37.89488,39.04811,2296.353],[37.93198,39.06234,2503.085],[38.01001,39.06369,2030.615],[38.04432,39.0749,2473.0933],[38.08019,39.08017,2322.3003],[38.14768,39.07258,2314.522],[38.21227,39.08756,1870.1017],[38.2839,39.1297,1660.7898],[38.36172,39.15027,1916.894],[38.38405,39.17732,1939.4114],[38.39262,39.21097,1583.2631],[38.38787,39.22714,1495.505],[38.38167,39.24272,1439.2349],[38.38311,39.26169,1486.1659],[38.38746,39.2791,1761.3057],[38.38156,39.30933,1418.5511],[38.36885,39.33744,1215.252],[38.36823,39.3714,915.4667],[38.36668,39.3886,976.8357],[38.36141,39.3993,910.64],[38.37412,39.40204,873.4539],[38.38353,39.40907,975.6649],[38.39221,39.41785,1045.9209],[38.40296,39.42602,966.9037],[38.43851,39.44403,959.896],[38.44668,39.45994,1054.9618],[38.42384,39.4841,1267.3262],[38.39076,39.50048,1593.5093],[38.35562,39.52648,1613.7006],[38.34415,39.56479,1122.7932],[38.3671,39.59913,1536.1262],[38.37857,39.70347,1423.9563],[38.42663,39.75411,1383.4314],[38.45267,39.78718,2126.9692],[38.48998,39.80264,2062.8396],[38.51034,39.80212,2115.4504],[38.52967,39.80522,1916.1829],[38.54021,39.83276,2325.783],[38.51923,39.85199,1995.8843],[38.44616,39.83816,1901.9521],[38.37722,39.83633,2321.3264],[38.36916,39.86793,2297.4072],[38.40668,39.95074,2065.6748],[38.45112,39.97079,1959.2305],[38.49773,39.94307,1904.6172],[38.54641,39.93705,1811.5085],[38.59323,39.96268,1673.4725],[38.64563,39.97151,1495.9199],[38.69131,39.9657,1622.0856],[38.7372,39.96549,1578.0576],[38.75849,40.00376,1373.5967],[38.76159,40.05495,1296.8625],[38.66103,40.09347,1839.3606],[38.55633,40.11939,1651.7689],[38.45422,40.09988,1102.4442]]]}}