{"type": "Feature","bbox": [35.107,40.2832,35.4648,40.6661],"geometry": {"type": "MultiPolygon","coordinates": [[[[35.4532,40.5029,1113.1346],[35.454,40.541,1103.8239],[35.4566,40.5496,924.8793],[35.4641,40.563,711.0172],[35.4648,40.5709,618.9823],[35.462,40.5782,655.7007],[35.4503,40.5965,812.5227],[35.4422,40.604,1096.9922],[35.4297,40.6115,1093.7417],[35.4277,40.6152,1090.5919],[35.3943,40.6231,1270.0703],[35.3464,40.6412,923.6914],[35.3042,40.6466,1026.1913],[35.2726,40.6578,929.9774],[35.257,40.6661,998.6452],[35.229,40.645,944.5315],[35.2173,40.6339,949.1747],[35.1936,40.5959,1220.509],[35.176,40.5712,1056.0149],[35.166,40.5647,1044.9534],[35.1211,40.5478,1238.6838],[35.112,40.5404,1200.7175],[35.109,40.5354,1235.2852],[35.107,40.5265,1220.2206],[35.1073,40.4388,1296.5741],[35.1095,40.4268,1284.5266],[35.1204,40.4046,1218.1233],[35.1232,40.3598,711.1033],[35.1291,40.3489,677.4396],[35.1551,40.3269,1127.3489],[35.1636,40.317,1338.429],[35.1667,40.3065,1512.2517],[35.1675,40.2832,1199.6444],[35.1844,40.2871,1079.7554],[35.2408,40.3086,847.9501],[35.2705,40.326,758.6586],[35.2915,40.3348,797.0592],[35.3156,40.3493,1076.2021],[35.3437,40.3583,817.094],[35.3637,40.3679,960.7095],[35.3708,40.3731,974.1678],[35.3844,40.3914,1441.5643],[35.4026,40.4096,1197.7209],[35.4124,40.4241,943.1991],[35.4349,40.4468,585.7993],[35.4484,40.4677,698.0858],[35.452,40.4783,777.1657],[35.4532,40.5029,1113.1346]]]]}
,"properties": {"GID_2": "TUR.24.8_1","GID_0": "TUR","country": "Turkey","GID_1": "TUR.24_1","province": "Çorum","NL_NAME_1": "NA","county": "Mecitözü","VARNAME_2": "NA","NL_NAME_2": "NA","TYPE_2": "District","ENGTYPE_2": "District","CC_2": "NA","HASC_2": "TR.CM.ME","name": "Mecitözü.county","area_km2": 859.4354,"hist_schema_id": "Elevation0-9000","hist_area_km2": {"525": 3.1784,"550": 10.5055,"575": 15.2218,"600": 15.3855,"625": 16.3836,"650": 15.3131,"675": 15.8262,"700": 18.8706,"725": 21.1914,"750": 24.8842,"775": 26.0274,"800": 26.7199,"825": 30.6011,"850": 37.2179,"875": 42.2237,"900": 46.731,"925": 47.7594,"950": 37.941,"975": 34.1124,"1000": 31.1191,"1025": 29.7842,"1050": 35.2314,"1075": 34.8768,"1100": 32.3962,"1125": 31.1875,"1150": 24.7566,"1175": 23.5167,"1200": 17.8727,"1225": 13.6317,"1250": 12.5355,"1275": 10.3914,"1300": 9.859,"1325": 9.3112,"1350": 7.9732,"1375": 6.5707,"1400": 6.9585,"1425": 6.7806,"1450": 6.2641,"1475": 4.5688,"1500": 3.3744,"1525": 2.5023,"1550": 2.0498,"1575": 2.2757,"1600": 2.0174,"1625": 2.0496,"1650": 1.4041,"1675": 0.9038,"1700": 0.4519,"1725": 0.3228,"1750": 0.2098,"1775": 0.1775,"1800": 0.0161}}}