{"type": "Feature","bbox": [37.9952,38.0894,38.3986,38.3838],"geometry": {"type": "MultiPolygon","coordinates": [[[[38.3986,38.1996,2030.4103],[38.362,38.2105,1877.4496],[38.3512,38.2163,1801.1031],[38.1981,38.3352,955.8964],[38.1827,38.345,934.7512],[38.1672,38.3505,943.3467],[38.1569,38.3559,925.1787],[38.1383,38.3699,917.8969],[38.1237,38.3838,865.8897],[38.1088,38.3707,861.4023],[38.0939,38.3475,926.6376],[38.0912,38.336,946.2745],[38.0894,38.2968,1026.5756],[38.0784,38.2748,1076.4482],[38.0715,38.2539,1186.0933],[38.054,38.2291,1226.396],[38.0468,38.224,1199.5328],[38.0295,38.2168,1159.707],[38.0202,38.2098,1150.2322],[38.0025,38.1847,1169.9231],[37.9952,38.1709,1091.1979],[38.02,38.1376,1448.8658],[38.0321,38.1298,1747.491],[38.0517,38.1269,1955.1808],[38.1136,38.1279,1935.427],[38.1277,38.1252,1907.5236],[38.1329,38.1211,1894.7607],[38.1353,38.1158,1950.6671],[38.1362,38.107,2217.5493],[38.1348,38.0894,2140.9556],[38.1642,38.0946,1806.8345],[38.2244,38.1177,1819.4705],[38.2569,38.1365,2167.1104],[38.3625,38.177,1545.5488],[38.3986,38.1996,2030.4103]]]]}
,"properties": {"GID_2": "TUR.55.14_1","GID_0": "TUR","country": "Turkey","GID_1": "TUR.55_1","province": "Malatya","NL_NAME_1": "NA","county": "Yeşilyurt","VARNAME_2": "NA","NL_NAME_2": "NA","TYPE_2": "District","ENGTYPE_2": "District","CC_2": "NA","HASC_2": "TR.ML.YE","name": "Yeşilyurt.county","area_km2": 557.0693,"hist_schema_id": "Elevation0-9000","hist_area_km2": {"850": 0.0332,"875": 1.5127,"900": 5.5029,"925": 11.5068,"950": 17.28,"975": 14.9211,"1000": 11.33,"1025": 8.6356,"1050": 8.8527,"1075": 8.7036,"1100": 8.6045,"1125": 8.4392,"1150": 6.9927,"1175": 9.0272,"1200": 8.6441,"1225": 8.6438,"1250": 7.7114,"1275": 8.7443,"1300": 9.0107,"1325": 8.2445,"1350": 9.3442,"1375": 10.5599,"1400": 10.51,"1425": 11.5601,"1450": 12.7096,"1475": 12.9099,"1500": 13.9427,"1525": 13.2937,"1550": 13.3442,"1575": 12.7615,"1600": 13.2786,"1625": 12.0298,"1650": 13.4297,"1675": 12.7635,"1700": 13.4975,"1725": 15.0314,"1750": 15.3982,"1775": 15.7486,"1800": 16.8503,"1825": 15.4338,"1850": 14.4679,"1875": 15.8196,"1900": 15.6196,"1925": 15.2364,"1950": 12.0026,"1975": 9.7691,"2000": 7.1521,"2025": 6.6192,"2050": 5.4186,"2075": 4.5186,"2100": 3.218,"2125": 2.6514,"2150": 2.2179,"2175": 1.9012,"2200": 1.751,"2225": 1.0005,"2250": 0.5336,"2275": 0.3169,"2300": 0.1168}}}