{"type": "Feature","bbox": [27.6746,41.3477,28.2317,41.5801],"geometry": {"type": "MultiPolygon","coordinates": [[[[28.1993,41.5482,13.4589],[28.1926,41.5479,41.7397],[28.1932,41.5524,0.0],[28.1882,41.5526,9.5615],[28.1849,41.556,2.283],[28.1882,41.5588,0.0],[28.1812,41.5632,57.8521],[28.1818,41.5657,59.0651],[28.186,41.5671,0.0],[28.1835,41.5687,41.9281],[28.1826,41.5718,2.4306],[28.1676,41.5737,90.8194],[28.1663,41.5746,10.1138],[28.1662,41.579,0.0],[28.1607,41.5801,4.2383],[28.1317,41.5786,60.1216],[28.1104,41.5716,115.5302],[28.0831,41.5664,149.8441],[28.0653,41.5601,126.8725],[28.0263,41.5556,202.1257],[28.0051,41.5486,187.6351],[27.9778,41.5433,252.1705],[27.8665,41.5008,128.3437],[27.8474,41.499,123.1049],[27.8161,41.4995,140.8656],[27.8011,41.5014,163.2733],[27.7771,41.5087,185.468],[27.7639,41.5076,194.0478],[27.7308,41.4944,169.9005],[27.6962,41.4696,149.559],[27.6746,41.4578,141.7019],[27.6821,41.4412,132.8768],[27.6929,41.4368,132.5033],[27.7023,41.4281,135.6393],[27.7053,41.4196,127.6589],[27.7091,41.3957,116.6326],[27.7209,41.3782,121.1154],[27.7271,41.3728,117.461],[27.7487,41.3625,117.6179],[27.7893,41.3489,153.1404],[27.8282,41.3477,111.063],[27.855,41.35,162.4211],[27.8781,41.3562,125.7107],[27.8734,41.3661,132.9207],[27.8707,41.3799,129.6595],[27.8724,41.391,121.1329],[27.8772,41.3981,126.871],[27.8843,41.4034,128.6056],[27.9109,41.4139,167.0023],[27.924,41.4171,173.7714],[27.9383,41.4169,181.2203],[27.966,41.4079,146.362],[28.0005,41.4001,169.5584],[28.0119,41.4001,173.6596],[28.0353,41.4078,158.5344],[28.1854,41.4663,306.5966],[28.2197,41.4819,205.1313],[28.2225,41.489,181.3308],[28.2317,41.4991,147.327],[28.2084,41.5158,148.3856],[28.1852,41.5247,64.3319],[28.1779,41.5316,42.5416],[28.1779,41.5365,101.784],[28.1829,41.542,154.0784],[28.1993,41.5482,13.4589]]]]}
,"properties": {"GID_2": "TUR.73.8_1","GID_0": "TUR","country": "Turkey","GID_1": "TUR.73_1","province": "Tekirdag","NL_NAME_1": "NA","county": "Saray","VARNAME_2": "NA","NL_NAME_2": "NA","TYPE_2": "District","ENGTYPE_2": "District","CC_2": "NA","HASC_2": "TR.TG.SR","name": "Saray.county","area_km2": 614.657,"hist_schema_id": "Elevation0-9000","hist_area_km2": {"0": 0.3332,"25": 0.8091,"50": 2.3484,"75": 4.189,"100": 16.0834,"125": 81.7942,"150": 147.5978,"175": 100.6623,"200": 58.4038,"225": 52.2791,"250": 35.1752,"275": 27.729,"300": 26.9835,"325": 25.7451,"350": 17.2786,"375": 8.1779,"400": 5.1607,"425": 2.2549,"450": 1.1911,"475": 0.397,"500": 0.0635}}}