{"type": "Feature","bbox": [38.548,38.6506,38.9234,38.8884],"geometry": {"type": "MultiPolygon","coordinates": [[[[38.6328,38.8486,1150.4126],[38.6336,38.7648,873.6061],[38.6324,38.7557,927.017],[38.6297,38.7502,828.3447],[38.6208,38.7447,688.5],[38.6093,38.7431,980.0436],[38.548,38.7456,917.3285],[38.5801,38.7126,1006.1296],[38.5898,38.6981,956.5727],[38.6008,38.6867,1092.5273],[38.6119,38.6791,1171.8876],[38.63,38.6741,1148.1853],[38.7397,38.6733,1604.8153],[38.7512,38.6714,1641.6296],[38.7722,38.6642,1918.9851],[38.7959,38.6595,1622.5017],[38.8171,38.6523,1628.7645],[38.8603,38.6506,1500.5938],[38.8573,38.675,1289.1664],[38.8596,38.6933,1298.1392],[38.8831,38.7306,1289.8424],[38.887,38.7421,1362.3647],[38.8892,38.8065,966.5951],[38.9004,38.8289,1055.7802],[38.9064,38.8473,979.4436],[38.9159,38.8637,835.5],[38.9234,38.8884,835.5],[38.8929,38.8815,835.5],[38.8642,38.8728,835.5],[38.8445,38.8719,835.5],[38.8209,38.8738,835.5],[38.797,38.8621,835.5],[38.7703,38.8521,844.5642],[38.7589,38.8495,835.5],[38.7348,38.8483,1017.7596],[38.6328,38.8486,1150.4126]]]]}
,"properties": {"GID_2": "TUR.29.6_1","GID_0": "TUR","country": "Turkey","GID_1": "TUR.29_1","province": "Elazığ","NL_NAME_1": "NA","county": "Keban","VARNAME_2": "NA","NL_NAME_2": "NA","TYPE_2": "District","ENGTYPE_2": "District","CC_2": "NA","HASC_2": "TR.EG.KE","name": "Keban.county","area_km2": 506.8738,"hist_schema_id": "Elevation0-9000","hist_area_km2": {"700": 5.0909,"725": 2.628,"750": 2.975,"775": 3.7354,"800": 3.9007,"825": 49.4412,"850": 10.7551,"875": 12.4248,"900": 12.7721,"925": 13.7969,"950": 14.9222,"975": 17.2366,"1000": 17.618,"1025": 18.7752,"1050": 20.2804,"1075": 23.7187,"1100": 22.2172,"1125": 21.8056,"1150": 21.1784,"1175": 20.0891,"1200": 18.8185,"1225": 18.1581,"1250": 16.737,"1275": 15.5969,"1300": 14.1087,"1325": 12.8526,"1350": 11.6457,"1375": 12.0772,"1400": 10.2076,"1425": 9.5795,"1450": 7.0984,"1475": 5.5268,"1500": 4.6829,"1525": 4.0542,"1550": 3.4089,"1575": 2.8463,"1600": 3.1608,"1625": 2.8464,"1650": 2.3501,"1675": 2.0853,"1700": 2.1183,"1725": 1.7212,"1750": 1.9032,"1775": 1.5888,"1800": 1.7212,"1825": 1.3903,"1850": 1.1751,"1875": 0.8772,"1900": 0.6786,"1925": 0.2979,"1950": 0.149,"1975": 0.0497}}}