{"type":"Feature","properties":{"GID_2":"TUR.42.7_1","GID_0":"TUR","country":"Turkey","GID_1":"TUR.42_1","province":"K.Maras","NL_NAME_1":"NA","county":"Merkez","VARNAME_2":"KaramanmaraşMerkezi","NL_NAME_2":"NA","TYPE_2":"District","ENGTYPE_2":"District","CC_2":"NA","HASC_2":"TR.KM.KM","name":"Merkez.county"},
"geometry":{"type": "MultiPolygon","coordinates": [[[[36.4889,37.368899999999996,860.3105],[36.5135,37.3806,689.4235],[36.5336,37.3838,1084.5759],[36.5498,37.4002,1233.0538],[36.5582,37.4045,1597.4072],[36.5687,37.4064,1494.0408],[36.5828,37.4052,1610.9229],[36.592,37.4016,1531.1023],[36.6021,37.3949,1386.4186],[36.6133,37.3846,1530.0819],[36.6237,37.3717,1837.8419],[36.6582,37.3864,1664.882],[36.6732,37.4051,1404.5256],[36.6843,37.424,1049.7716],[36.6941,37.4362,1293.9437],[36.6991,37.4392,1120.5457],[36.7085,37.4412,949.52],[36.7476,37.4432,756.0769],[36.7986,37.4625,556.8461],[36.82,37.465,687.89],[36.8345,37.4639,709.1937],[36.8448,37.461,761.3663],[36.8711,37.4455,577.5129],[36.8915,37.4362,475.2891],[36.8998,37.4284,473.9167],[36.9199,37.3958,484.7623],[36.9312,37.3867,490.3],[36.9935,37.3726,513.8665],[37.0207,37.3708,520.2148],[37.044,37.3718,566.8967],[37.0548,37.3747,598.2592],[37.0692,37.3839,625.14],[37.0763,37.3905,637.0086],[37.0923,37.4123,661.6147],[37.1207,37.4372,627.7356],[37.135,37.4566,677.2884],[37.1682,37.4861,925.0075],[37.1988,37.5327,1122.2542],[37.2019,37.5406,1171.7644],[37.2034,37.5553,1215.5336],[37.2038,37.6034,1007.1219],[37.2067,37.6146,1145.6667],[37.2168,37.6336,1330.0538],[37.2191,37.6722,1583.1718],[37.1897,37.6762,1795.2253],[37.1563,37.6888,1740.2675],[37.1316,37.7058,1533.5941],[37.1158,37.7212,1105.88],[37.1012,37.7447,1169.8625],[37.0988,37.7528,1273.4963],[37.0979,37.7642,1476.8723],[37.1005,37.7868,1806.161],[37.1101,37.8032,2497.1206],[37.1136,37.8136,2464.6733],[37.1,37.8162,2496.9521],[37.0789,37.8235,2566.7974],[37.0549,37.8277,2587.5151],[37.0247,37.8391,2389.438],[36.9836,37.8635,1220.3312],[36.9804,37.8685,1308.9812],[36.9783,37.8771,1291.9962],[36.9785,37.9189,898.2004],[36.9805,37.9348,1097.0592],[36.9911,37.9544,1017.9271],[36.994,37.9631,842.5983],[36.9945,37.9746,1026.5935],[36.9931,37.98,1142.2015],[36.9893,37.9848,1371.4138],[36.9832,37.9878,1608.0137],[36.969,37.9893,1620.907],[36.9421,37.9866,1583.7046],[36.9049,37.9746,1890.8685],[36.8573,37.956,1741.7031],[36.8302,37.9506,2360.6003],[36.8125,37.9442,2206.9399],[36.7986,37.9426,1682.9902],[36.7846,37.9442,1974.3948],[36.767,37.9506,1661.7013],[36.7398,37.9559,1374.8003],[36.7097,37.9674,1536.9827],[36.6982,37.974,1603.3297],[36.6715,37.9935,1876.9226],[36.6554,37.9996,1724.0464],[36.6298,38.0009,1821.1924],[36.6079,37.9992,1853.1979],[36.5745,37.9872,2084.1848],[36.5646,37.9804,2006.2136],[36.5597,37.9734,1900.213],[36.5572,37.9595,1623.7125],[36.5574,37.9481,1753.9106],[36.5601,37.9341,2130.2788],[36.565,37.9264,1811.9177],[36.5852,37.9061,1305.1494],[36.629,37.8388,980.6027],[36.6328,37.8282,1122.2585],[36.6337,37.8197,1236.0349],[36.6328,37.7998,1616.5468],[36.63,37.7917,1744.0542],[36.6105,37.7704,1510.8948],[36.5906,37.7433,1494.5588],[36.5593,37.6943,1391.5432],[36.5582,37.6833,1284.8773],[36.5606,37.6752,961.4582],[36.5711,37.6639,746.0985],[36.5963,37.6435,540.324],[36.6011,37.636,515.1272],[36.6023,37.6249,802.3447],[36.5998,37.6168,699.7375],[36.5962,37.6119,845.649],[36.5756,37.5918,1008.5892],[36.5606,37.5686,1282.0997],[36.5538,37.5475,1310.0698],[36.5447,37.531,938.2252],[36.5415,37.4972,872.0807],[36.538,37.4866,457.1646],[36.5227,37.4633,502.7693],[36.4908,37.4361,862.5857],[36.4839,37.4263,620.6522],[36.4814,37.4123,957.1674],[36.4819,37.3922,632.1874],[36.4839,37.3808,744.2095],[36.4889,37.368899999999996,860.3105]]]]}}