{"type": "Feature","bbox": [37.5582,37.8087,38.1811,38.1859],"geometry": {"type": "MultiPolygon","coordinates": [[[[38.1348,38.0894,2140.9556],[38.1362,38.107,2217.5493],[38.1353,38.1158,1950.6671],[38.1329,38.1211,1894.7607],[38.1277,38.1252,1907.5236],[38.1136,38.1279,1935.427],[38.0517,38.1269,1955.1808],[38.0321,38.1298,1747.491],[38.02,38.1376,1448.8658],[37.9952,38.1709,1091.1979],[37.9503,38.1838,1207.4042],[37.9218,38.1859,1280.6298],[37.884,38.1859,1586.4209],[37.8517,38.1829,1401.6821],[37.8338,38.1768,1370.2974],[37.8178,38.1744,1469.2368],[37.7452,38.1741,2393.896],[37.7417,38.1635,2403.5437],[37.7325,38.1468,2332.874],[37.7283,38.1228,2099.7832],[37.7175,38.1002,1837.8792],[37.7125,38.0733,1607.9344],[37.7033,38.0566,1500.1702],[37.6951,38.0331,1246.4873],[37.6731,37.9984,1192.6494],[37.6663,37.9773,1147.9773],[37.6429,37.9402,1721.1047],[37.6349,37.9168,1678.354],[37.5914,37.8491,1277.5339],[37.5667,37.8239,917.1763],[37.5582,37.8087,957.9552],[37.5778,37.8152,994.8257],[37.5942,37.8249,899.3051],[37.6307,37.8263,872.8317],[37.6635,37.8353,968.0472],[37.7053,37.8365,888.3881],[37.7373,37.8341,1090.9415],[37.7405,37.8416,1108.5997],[37.7461,37.8487,999.01],[37.7582,37.8592,789.1511],[37.7695,37.8663,795.4299],[37.7792,37.87,846.1498],[37.803,37.8743,857.7426],[37.8244,37.8815,907.5436],[37.8512,37.8834,1263.1379],[37.8862,37.882,1753.6775],[37.9145,37.8731,2309.0554],[37.9382,37.8683,2307.6465],[37.9557,37.8618,1830.5599],[37.9733,37.8602,1585.751],[37.9868,37.8627,1521.4908],[38.0646,37.8927,1276.3357],[38.0885,37.8971,1278.6052],[38.1101,37.9042,1183.9481],[38.1486,37.9087,1800.28],[38.1811,37.919,1748.7416],[38.1785,37.9462,1978.4653],[38.1678,37.9682,1815.0516],[38.1635,37.9922,1521.1722],[38.1528,38.0148,1915.4697],[38.1477,38.0417,1452.0615],[38.1378,38.061,1693.5542],[38.1348,38.0894,2140.9556]]]]}
,"properties": {"GID_2": "TUR.55.6_1","GID_0": "TUR","country": "Turkey","GID_1": "TUR.55_1","province": "Malatya","NL_NAME_1": "NA","county": "Doğanşehir","VARNAME_2": "NA","NL_NAME_2": "NA","TYPE_2": "District","ENGTYPE_2": "District","CC_2": "NA","HASC_2": "TR.ML.DS","name": "Doğanşehir.county","area_km2": 1365.892,"hist_schema_id": "Elevation0-9000","hist_area_km2": {"775": 0.335,"800": 2.913,"825": 5.558,"850": 8.906,"875": 9.526,"900": 9.274,"925": 9.876,"950": 9.155,"975": 10.125,"1000": 10.861,"1025": 11.929,"1050": 12.915,"1075": 12.392,"1100": 13.209,"1125": 13.858,"1150": 15.191,"1175": 20.192,"1200": 23.227,"1225": 29.619,"1250": 33.875,"1275": 43.472,"1300": 51.174,"1325": 50.229,"1350": 47.21,"1375": 45.58,"1400": 46.007,"1425": 43.466,"1450": 44.972,"1475": 40.914,"1500": 36.12,"1525": 34.367,"1550": 30.141,"1575": 29.021,"1600": 27.166,"1625": 25.713,"1650": 25.613,"1675": 26.666,"1700": 28.138,"1725": 27.168,"1750": 26.183,"1775": 24.461,"1800": 23.692,"1825": 21.819,"1850": 21.115,"1875": 21.665,"1900": 22.965,"1925": 22.53,"1950": 21.581,"1975": 19.894,"2000": 20.661,"2025": 18.49,"2050": 18.221,"2075": 16.836,"2100": 14.681,"2125": 11.776,"2150": 11.357,"2175": 9.805,"2200": 9.086,"2225": 8.42,"2250": 6.366,"2275": 5.999,"2300": 4.495,"2325": 3.376,"2350": 3.075,"2375": 2.456,"2400": 2.154,"2425": 1.753,"2450": 1.703,"2475": 1.536,"2500": 1.136,"2525": 0.384,"2550": 0.117,"2575": 0.033}}}