{"type":"Feature","properties":{"GID_2":"TUR.66.12_1","GID_0":"TUR","country":"Turkey","GID_1":"TUR.66_1","province":"Sakarya","NL_NAME_1":"NA","county":"Söğütlü","VARNAME_2":"NA","NL_NAME_2":"NA","TYPE_2":"District","ENGTYPE_2":"District","CC_2":"NA","HASC_2":"TR.SK.SO","name":"Söğütlü.county"},
"geometry":{"type": "MultiPolygon","coordinates": [[[[30.4775,40.9408,23.3148],[30.431,40.9307,23.512],[30.4261,40.916,16.2501],[30.4262,40.9112,15.76],[30.4283,40.9067,17.5384],[30.4712,40.8777,19.8176],[30.4879,40.8703,19.1029],[30.5075,40.8684,22.8969],[30.581,40.8683,21.6083],[30.6134,40.8639,23.2591],[30.6178,40.8898,24.8531],[30.6172,40.9338,322.6475],[30.5957,40.9214,16.3695],[30.5832,40.9167,44.8654],[30.5642,40.9147,89.1045],[30.533,40.9149,68.3706],[30.5109,40.919,84.3142],[30.4775,40.9408,23.3148]]]]}}