{"type":"Feature","properties":{"GID_2":"TUR.22.5_1","GID_0":"TUR","country":"Turkey","GID_1":"TUR.22_1","province":"Çanakkale","NL_NAME_1":"NA","county":"Çan","VARNAME_2":"NA","NL_NAME_2":"NA","TYPE_2":"District","ENGTYPE_2":"District","CC_2":"NA","HASC_2":"TR.CK.CA","name":"Çan.county"},
"geometry":{"type": "MultiPolygon","coordinates": [[[[26.9841,39.8639,307.0951],[27.0129,39.8797,291.1149],[27.0891,39.9082,698.0615],[27.1059,39.9197,803.9848],[27.1152,39.9319,699.7935],[27.1206,39.9504,534.7003],[27.1298,39.9665,318.6988],[27.1351,39.9855,218.2133],[27.1514,40.0112,331.5721],[27.1651,40.0238,522.438],[27.229,40.0737,434.9946],[27.252,40.1073,420.8512],[27.1937,40.1283,58.6008],[27.1643,40.146,283.5927],[27.1342,40.1577,167.7455],[27.0741,40.1721,125.4758],[26.9359,40.1728,249.0956],[26.8991,40.1712,210.565],[26.8897,40.1643,166.9524],[26.8637,40.1587,143.6179],[26.8121,40.1396,299.2764],[26.8171,40.1198,441.2968],[26.8159,40.0982,546.2738],[26.8121,40.0898,466.7195],[26.7946,40.0719,339.4853],[26.7886,40.063,359.6823],[26.7998,40.0414,358.1048],[26.8052,40.0109,303.5275],[26.8143,39.9974,243.7785],[26.8247,39.9772,173.6074],[26.8247,39.9728,173.7857],[26.8186,39.9599,227.1007],[26.8174,39.952,265.2643],[26.8177,39.9465,248.9208],[26.8209,39.9385,303.1886],[26.8318,39.9272,257.7285],[26.845,39.9171,299.5021],[26.8628,39.9074,288.9922],[26.877,39.9052,255.7965],[26.9249,39.9048,373.1086],[26.9387,39.9016,475.1618],[26.9503,39.8949,554.6616],[26.9634,39.8848,814.2472],[26.9841,39.8639,307.0951]]]]}}