{"type": "Feature","bbox": [34.9152,36.5385,35.4445,36.7947],"geometry": {"type": "MultiPolygon","coordinates": [[[[35.2793,36.6404,-0.3472],[35.2782,36.6407,-0.1811],[35.2829,36.6368,-0.8112],[35.2818,36.639,-0.1335],[35.2793,36.6404,-0.3472]]],
[[[35.2721,36.6443,-0.4356],[35.271,36.6449,-0.4356],[35.2713,36.6432,-0.0857],[35.274,36.6421,0.1329],[35.274,36.6432,0.1329],[35.2721,36.6443,-0.4356]]],
[[[35.214,36.6593,-1.0],[35.211,36.6599,-1.0],[35.2107,36.659,-1.0],[35.214,36.6587,-1.0],[35.214,36.6593,-1.0]]],
[[[35.2079,36.6501,-1.0],[35.2065,36.6507,-1.0],[35.206,36.6493,-1.0],[35.2096,36.6493,-1.0],[35.2079,36.6501,-1.0]]],
[[[35.2121,36.6549,-1.0],[35.2099,36.6554,-1.0],[35.2096,36.6543,-1.0],[35.2118,36.6529,-1.0],[35.2121,36.6549,-1.0]]],
[[[35.4426,36.658,1.831],[35.4445,36.6878,3.8144],[35.4434,36.715,3.1538],[35.4165,36.7203,2.8021],[35.3701,36.7203,3.9748],[35.3556,36.718,4.9671],[35.3306,36.7103,3.8133],[35.2764,36.708,2.6252],[35.2482,36.7005,2.1462],[35.2318,36.701,2.4709],[35.2174,36.7059,2.0315],[35.1905,36.7117,2.0762],[35.1608,36.7284,2.0757],[35.1423,36.7357,2.0903],[35.1213,36.7464,3.6326],[35.1152,36.7536,5.4571],[35.1059,36.7609,4.1436],[35.0771,36.7738,2.4197],[35.0474,36.7947,2.1363],[35.0425,36.7812,2.1564],[35.0348,36.771,3.0542],[35.0228,36.7675,2.1125],[34.9837,36.7657,1.1949],[34.9498,36.754,0.4912],[34.9379,36.7472,0.051],[34.9273,36.7389,0.0454],[34.9152,36.7249,0.0],[34.9574,36.724,0.9408],[34.994,36.7132,0.1076],[34.9979,36.7135,1.3251],[35.001,36.711,0.6565],[35.0418,36.6937,0.7452],[35.0782,36.6746,0.0],[35.0918,36.6701,1.2661],[35.0943,36.6668,0.0],[35.099,36.6643,0.0],[35.1029,36.666,-0.227],[35.1051,36.6613,0.278],[35.1082,36.6593,0.7383],[35.1082,36.6574,0.0],[35.1113,36.6582,0.684],[35.1232,36.6535,0.4104],[35.1329,36.6476,0.2589],[35.136,36.6476,1.5234],[35.1524,36.639,2.985],[35.2054,36.6168,2.7244],[35.2249,36.6057,0.3514],[35.236,36.6021,6.4344],[35.2665,36.586,1.068],[35.2979,36.5724,3.6616],[35.3063,36.5668,1.1662],[35.3151,36.564,3.1351],[35.3165,36.5615,1.2188],[35.3196,36.5615,2.157],[35.321,36.5588,1.3419],[35.3246,36.5588,1.1675],[35.3271,36.5657,0.0],[35.3224,36.5696,0.2425],[35.3204,36.5735,0.7866],[35.301,36.5812,4.1373],[35.2843,36.5932,2.1867],[35.2718,36.606,-0.3104],[35.2735,36.6087,-1.0],[35.2679,36.6087,2.2846],[35.2615,36.6154,-0.5743],[35.2376,36.6315,1.2751],[35.2263,36.6415,-1.0],[35.2182,36.646,-1.0],[35.2115,36.6485,0.2389],[35.2082,36.6476,-0.823],[35.1993,36.6496,-0.8271],[35.1821,36.6599,0.4073],[35.176,36.6615,1.3633],[35.1704,36.6657,-1.0],[35.1738,36.6662,-1.0],[35.1718,36.6682,-1.0],[35.1735,36.6699,-1.0],[35.1732,36.674,-1.0],[35.1701,36.6751,-1.0],[35.1699,36.6729,-0.852],[35.1654,36.6715,-1.0],[35.1649,36.6699,-1.0],[35.1646,36.6721,-1.0],[35.1696,36.6763,-0.7268],[35.1646,36.6729,-1.0],[35.1635,36.676,-0.0344],[35.1646,36.6813,-1.0],[35.1696,36.6876,-1.0],[35.1729,36.6896,0.0534],[35.1768,36.6885,-1.0],[35.1771,36.691,-0.7496],[35.1807,36.6929,-1.0],[35.1821,36.6904,-1.0],[35.1849,36.6907,-1.0],[35.1868,36.6929,0.0104],[35.1957,36.6885,-1.0],[35.2024,36.6899,-0.2988],[35.2043,36.6854,-0.6618],[35.2068,36.6888,0.8744],[35.2079,36.6846,-1.0],[35.2082,36.6874,0.2792],[35.2099,36.6876,0.7241],[35.2101,36.6846,-1.0],[35.2129,36.684,-0.4159],[35.2099,36.6821,-1.0],[35.2132,36.6818,-1.0],[35.2163,36.6854,-0.2231],[35.2185,36.6857,0.6667],[35.2204,36.6835,-0.0418],[35.2182,36.6818,-1.0],[35.2193,36.6779,-1.0],[35.2243,36.6782,-1.0],[35.2271,36.6818,0.1532],[35.2301,36.6793,0.7385],[35.2321,36.6749,-0.1721],[35.234,36.6771,1.3314],[35.2396,36.6771,0.5163],[35.2435,36.6796,0.3847],[35.251,36.6782,0.4985],[35.2535,36.6768,0.4012],[35.2535,36.671,0.1938],[35.2576,36.6657,0.2466],[35.2649,36.6624,0.8695],[35.2715,36.6618,0.1625],[35.2699,36.6601,0.0714],[35.2676,36.6607,0.0355],[35.2701,36.6579,0.1128],[35.2643,36.6529,0.0257],[35.2579,36.6529,0.0033],[35.2532,36.6549,-0.0129],[35.2521,36.6535,-0.218],[35.249,36.654,-0.1521],[35.251,36.6507,-0.7385],[35.2607,36.646,-0.1828],[35.264,36.6393,-1.0],[35.2676,36.6401,-1.0],[35.2668,36.6451,-0.3407],[35.2685,36.6471,0.2391],[35.2715,36.6465,-0.3667],[35.2699,36.6499,-0.8797],[35.271,36.6521,0.4069],[35.2768,36.6463,-0.8358],[35.2815,36.6443,0.053],[35.2826,36.6393,-0.1335],[35.2849,36.6435,-0.0944],[35.2879,36.6435,-0.0691],[35.2837,36.6332,-0.0518],[35.2818,36.6329,-0.501],[35.2815,36.6307,-0.6245],[35.2851,36.6268,-1.0],[35.2885,36.6299,-1.0],[35.2921,36.6301,-1.0],[35.3112,36.6251,-0.8291],[35.3243,36.619,-0.175],[35.3462,36.6035,-0.7885],[35.3471,36.599,-0.4461],[35.339,36.6001,-0.1049],[35.3363,36.5988,-1.0],[35.3363,36.5965,-1.0],[35.3376,36.5965,-0.0967],[35.3365,36.5896,-1.0],[35.3271,36.5893,-0.7679],[35.3276,36.5876,-1.0],[35.3376,36.5882,-0.5937],[35.3282,36.5857,-1.0],[35.3315,36.5824,-1.0],[35.3351,36.5838,-0.2573],[35.3335,36.5807,-0.4002],[35.3354,36.5776,-0.2351],[35.3221,36.5724,0.7866],[35.3238,36.5699,0.2425],[35.3296,36.5679,0.2709],[35.3257,36.5579,1.325],[35.3368,36.5468,0.0],[35.339,36.5435,38.5015],[35.339,36.5385,0.0],[35.3429,36.5396,0.0],[35.3474,36.5443,16.8886],[35.3543,36.5443,5.5649],[35.3596,36.5501,0.0],[35.3682,36.5524,6.5866],[35.3721,36.5515,0.4838],[35.376,36.5535,0.0],[35.3801,36.5588,10.2416],[35.3832,36.5579,0.0],[35.3851,36.5621,3.296],[35.3921,36.5671,18.7448],[35.4071,36.5732,0.7576],[35.4046,36.5799,0.0],[35.4076,36.5851,4.6588],[35.4143,36.5882,0.0],[35.4291,36.6041,29.3567],[35.4309,36.6321,1.1352],[35.4426,36.658,1.831]]],
[[[35.2101,36.6782,-1.0],[35.2085,36.6787,-1.0],[35.2124,36.6768,-1.0],[35.2124,36.6776,-1.0],[35.2101,36.6782,-1.0]]]]}
,"properties": {"GID_2": "TUR.1.6_1","GID_0": "TUR","country": "Turkey","GID_1": "TUR.1_1","province": "Adana","NL_NAME_1": "NA","county": "Karataş","VARNAME_2": "NA","NL_NAME_2": "NA","TYPE_2": "District","ENGTYPE_2": "District","CC_2": "NA","HASC_2": "TR.AA.KT","name": "Karataş.county","area_km2": 451.781,"hist_schema_id": "Elevation0-9000","hist_area_km2": {"0": 430.9415,"25": 17.7065,"50": 3.133}}}