{"type": "Feature","bbox": [27.6166,38.3329,27.9287,38.6352],"geometry": {"type": "MultiPolygon","coordinates": [[[[27.8213,38.3508,696.087],[27.8501,38.3347,1100.7683],[27.8607,38.3329,961.9847],[27.8714,38.3332,869.0075],[27.8875,38.3391,1064.8638],[27.9287,38.3676,1011.3839],[27.9051,38.4039,937.712],[27.8706,38.4339,743.8351],[27.8526,38.4617,276.2488],[27.8499,38.4737,211.7141],[27.8497,38.5115,76.544],[27.8475,38.5268,62.5186],[27.8243,38.5642,71.7047],[27.8205,38.5752,131.7501],[27.8196,38.6027,526.8055],[27.822,38.6302,424.0705],[27.7926,38.6352,714.8065],[27.7572,38.635,976.1579],[27.6768,38.6145,148.9003],[27.684,38.5976,122.6918],[27.6844,38.5892,85.0602],[27.6828,38.5808,55.0971],[27.676,38.5708,43.7661],[27.652,38.5475,40.7251],[27.6354,38.5377,42.4681],[27.6297,38.532,44.36],[27.6273,38.5223,47.7438],[27.6321,38.5098,49.0379],[27.6322,38.5056,50.5236],[27.6166,38.4701,98.2779],[27.6441,38.4625,125.3514],[27.6984,38.4588,231.5564],[27.7454,38.4457,527.9258],[27.7549,38.4387,378.7046],[27.7662,38.4227,561.2386],[27.7849,38.404,647.2154],[27.807,38.3686,978.5534],[27.8213,38.3508,696.087]]]]}
,"properties": {"GID_2": "TUR.56.16_1","GID_0": "TUR","country": "Turkey","GID_1": "TUR.56_1","province": "Manisa","NL_NAME_1": "NA","county": "Turgutlu","VARNAME_2": "NA","NL_NAME_2": "NA","TYPE_2": "District","ENGTYPE_2": "District","CC_2": "NA","HASC_2": "TR.MN.TU","name": "Turgutlu.county","area_km2": 434.405,"hist_schema_id": "Elevation0-9000","hist_area_km2": {"50": 98.5964,"75": 41.6692,"100": 30.0785,"125": 18.2151,"150": 14.2663,"175": 12.176,"200": 9.206,"225": 9.2564,"250": 8.5085,"275": 7.8621,"300": 6.7676,"325": 6.0881,"350": 5.7893,"375": 5.5747,"400": 5.3427,"425": 5.061,"450": 5.5259,"475": 6.9537,"500": 6.8876,"525": 6.921,"550": 7.1032,"575": 6.9877,"600": 6.6733,"625": 5.478,"650": 5.0296,"675": 4.6482,"700": 5.6448,"725": 5.3634,"750": 5.6116,"775": 6.4434,"800": 6.0123,"825": 5.0994,"850": 5.4492,"875": 6.8629,"900": 7.1285,"925": 6.2472,"950": 5.2679,"975": 5.0857,"1000": 4.4048,"1025": 4.5384,"1050": 4.0067,"1075": 2.2279,"1100": 0.8813,"1125": 0.6818,"1150": 0.3824,"1175": 0.2328,"1200": 0.1663}}}