{"type":"Feature","properties":{"GID_2":"TUR.79.1_1","GID_0":"TUR","country":"Turkey","GID_1":"TUR.79_1","province":"Yalova","NL_NAME_1":"NA","county":"Altınova","VARNAME_2":"NA","NL_NAME_2":"NA","TYPE_2":"District","ENGTYPE_2":"District","CC_2":"NA","HASC_2":"TR.YL.AL","name":"Altınova.county"},
"geometry":{"type": "MultiPolygon","coordinates": [[[[29.431,40.5603,374.4225],[29.4314,40.6734,124.0283],[29.4342,40.6823,24.8296],[29.4426,40.6921,0.0],[29.4385,40.6896,1.6226],[29.4351,40.6896,1.1137],[29.4354,40.6924,0.0],[29.4335,40.6926,0.0],[29.4312,40.6893,2.0304],[29.4246,40.6885,3.4514],[29.4132,40.6921,0.0],[29.4008,40.699,0.0],[29.4015,40.6709,229.9458],[29.3997,40.6553,132.9885],[29.389,40.6326,62.4684],[29.3825,40.6029,210.645],[29.3627,40.58,372.9667],[29.3996,40.576,568.4843],[29.431,40.5603,374.4225]]]]}}