{"type":"Feature","properties":{"GID_2":"TUR.18.4_1","GID_0":"TUR","country":"Turkey","GID_1":"TUR.18_1","province":"Bitlis","NL_NAME_1":"NA","county":"Hizan","VARNAME_2":"NA","NL_NAME_2":"NA","TYPE_2":"District","ENGTYPE_2":"District","CC_2":"NA","HASC_2":"TR.BT.HI","name":"Hizan.county"},
"geometry":{"type": "MultiPolygon","coordinates": [[[[42.2982,38.1878,2172.9407],[42.3135,38.1734,2315.6619],[42.3291,38.1618,2126.5798],[42.3717,38.1384,1175.9066],[42.3929,38.1332,1120.5345],[42.4077,38.1263,1359.5801],[42.4497,38.1224,1468.416],[42.4678,38.1149,1711.9683],[42.4981,38.11,1571.5953],[42.512,38.1024,1951.8296],[42.5403,38.0901,1566.6559],[42.5937,38.0692,2040.233],[42.6242,38.0633,1614.3472],[42.6543,38.0519,1935.3303],[42.6839,38.0342,2709.1016],[42.702,38.0268,2391.8813],[42.7276,38.0125,1353.2258],[42.7391,38.0135,1635.0916],[42.7624,38.022,1974.3051],[42.8012,38.0489,2410.5352],[42.8223,38.0575,1955.7184],[42.8357,38.0655,2169.3257],[42.812,38.0853,1754.9517],[42.8007,38.1016,1928.7061],[42.7817,38.1199,2262.7427],[42.7773,38.1272,1783.4412],[42.7761,38.1382,2042.2241],[42.7783,38.1463,2328.7107],[42.799,38.1684,2128.73],[42.769,38.171,2838.0483],[42.7557,38.1753,3102.6658],[42.7311,38.1923,3033.2231],[42.7185,38.2061,3014.8125],[42.7164,38.2143,2738.0708],[42.7176,38.2253,2798.6904],[42.7286,38.244,2811.3357],[42.7392,38.2729,2229.9595],[42.7392,38.2773,2090.9285],[42.7329,38.2932,2193.6768],[42.7311,38.3101,2286.6638],[42.675,38.3103,2607.4966],[42.654,38.3066,2763.4333],[42.6395,38.2978,2673.1492],[42.6049,38.2706,1914.2158],[42.5901,38.2577,1891.0792],[42.577,38.2436,1999.2834],[42.5682,38.2405,1992.2394],[42.558,38.2396,2204.8984],[42.5439,38.2406,2128.9253],[42.5336,38.2436,2184.7483],[42.4777,38.2834,1857.0771],[42.4591,38.2909,2316.825],[42.4326,38.306399999999996,2102.1711],[42.4091,38.311,1791.772],[42.3949,38.2951,1829.7261],[42.362,38.2672,1726.353],[42.3471,38.2466,1860.5945],[42.3167,38.2208,2225.542],[42.3119,38.2144,2277.533],[42.2982,38.1878,2172.9407]]]]}}