{"type":"Feature","properties":{"GID_2":"TUR.72.13_1","GID_0":"TUR","country":"Turkey","GID_1":"TUR.72_1","province":"Sivas","NL_NAME_1":"NA","county":"Şarkışla","VARNAME_2":"NA","NL_NAME_2":"NA","TYPE_2":"District","ENGTYPE_2":"District","CC_2":"NA","HASC_2":"TR.SV.SA","name":"Şarkışla.county"},
"geometry":{"type": "MultiPolygon","coordinates": [[[[36.6577,39.1758,1773.0355],[36.6784,39.2118,1586.0471],[36.6804,39.2254,1522.6151],[36.6771,39.2358,1505.8048],[36.6532,39.273,1631.2302],[36.6509,39.2849,1631.2966],[36.6511,39.3031,1630.2491],[36.6559,39.3172,1571.9175],[36.6742,39.3366,1458.3425],[36.6504,39.3515,1539.0695],[36.6431,39.3582,1497.9412],[36.6382,39.3661,1613.703],[36.6362,39.3807,1583.8354],[36.6368,39.4198,1385.9519],[36.6336,39.431,1349.6049],[36.6229,39.4406,1407.0519],[36.6046,39.4474,1353.5736],[36.5901,39.4561,1411.583],[36.583,39.4625,1491.7124],[36.5789,39.4703,1494.8774],[36.579,39.4757,1541.5161],[36.5831,39.4832,1579.6523],[36.613,39.5076,1548.2389],[36.6201,39.5173,1426.3699],[36.6221,39.5256,1327.7363],[36.6228,39.5399,1354.9415],[36.6194,39.5595,1290.6602],[36.6005,39.5866,1366.6201],[36.5933,39.5917,1383.2539],[36.5705,39.6022,1332.0864],[36.5536,39.6183,1238.4165],[36.5302,39.6151,1210.6914],[36.5002,39.6035,1208.5796],[36.4707,39.5855,1210.4934],[36.4476,39.5771,1217.6066],[36.4387,39.5765,1205.3452],[36.4231,39.5823,1222.1096],[36.4161,39.5867,1295.4125],[36.4127,39.5936,1335.8533],[36.41,39.6145,1302.7694],[36.4074,39.6194,1383.5599],[36.3982,39.6267,1397.7793],[36.3807,39.6305,1437.0522],[36.3419,39.6304,1579.6891],[36.3232,39.633,1650.4999],[36.3104,39.6395,1816.5618],[36.2789,39.6617,1896.5981],[36.2456,39.6747,1825.9648],[36.2221,39.6772,1821.9938],[36.1567,39.6771,1853.2301],[36.1416,39.6654,1761.2784],[36.1382,39.6549,1670.4707],[36.129,39.6382,1893.2439],[36.1251,39.6141,1589.5917],[36.122,39.6059,1524.9457],[36.1068,39.5824,1853.0536],[36.0841,39.5598,1917.5693],[36.0692,39.5365,1811.8235],[36.0665,39.5256,1752.1582],[36.0662,39.5025,2147.7285],[36.0951,39.5002,2019.5715],[36.1252,39.4894,2013.3689],[36.1351,39.4826,1894.6829],[36.1397,39.4755,1829.5139],[36.1408,39.4674,1861.5759],[36.1383,39.4567,1814.2371],[36.1295,39.4432,1678.3292],[36.1266,39.4345,1706.9797],[36.1261,39.4191,1696.075],[36.1302,39.4079,1618.4996],[36.1383,39.3994,1506.188],[36.1486,39.3922,1442.6152],[36.1727,39.3823,1347.1978],[36.1869,39.3736,1274.9095],[36.2399,39.3326,1558.4432],[36.2544,39.3198,1569.3547],[36.2658,39.3032,1295.9209],[36.2881,39.2802,1340.7274],[36.3178,39.2336,1569.3971],[36.3204,39.2226,1639.3311],[36.3206,39.1914,1667.153],[36.3215,39.1862,1602.7721],[36.3252,39.1793,1539.3324],[36.3629,39.1616,1734.6577],[36.374,39.1534,1800.7605],[36.3944,39.1504,1836.2673],[36.4418,39.132,1696.7311],[36.4594,39.1304,1644.949],[36.4698,39.1319,1620.2488],[36.4907,39.1391,1710.2253],[36.5146,39.1437,1638.1323],[36.5959,39.1746,1822.795],[36.6151,39.1763,1669.6941],[36.6577,39.1758,1773.0355]]]]}}