{"type":"Feature","properties":{"GID_2":"TUR.41.28_1","GID_0":"TUR","country":"Turkey","GID_1":"TUR.41_1","province":"Izmir","NL_NAME_1":"NA","county":"Urla","VARNAME_2":"NA","NL_NAME_2":"NA","TYPE_2":"District","ENGTYPE_2":"District","CC_2":"NA","HASC_2":"TR.IZ.UR","name":"Urla.county"},
"geometry":{"type": "MultiPolygon","coordinates": [[[[26.4716,38.2091,32.3843],[26.4596,38.1992,9.2088],[26.4596,38.1968,18.1019],[26.4565,38.1949,4.2579],[26.4582,38.1915,0.0],[26.4649,38.1949,0.4033],[26.4693,38.1901,0.0],[26.4737,38.1899,0.0],[26.4749,38.1915,0.6167],[26.4776,38.1915,0.3087],[26.4782,38.1901,0.0],[26.4871,38.1921,6.4244],[26.4885,38.1957,0.2864],[26.4907,38.1957,1.4502],[26.4924,38.1918,3.1747],[26.4863,38.1862,8.313],[26.4871,38.1829,0.0],[26.4965,38.1796,5.0388],[26.4974,38.1776,1.3129],[26.5012,38.1829,25.0028],[26.5021,38.1779,0.0],[26.5054,38.1751,0.0],[26.5135,38.1813,0.0],[26.5179,38.1871,14.973],[26.5185,38.184,5.6548],[26.521,38.1821,1.503],[26.5176,38.1801,17.5364],[26.516,38.1749,0.0],[26.5199,38.171,16.2239],[26.5199,38.1651,6.5884],[26.5156,38.1707,0.0],[26.5129,38.1701,0.0],[26.5115,38.1657,2.7149],[26.516,38.1601,0.0],[26.519,38.159,1.4826],[26.5215,38.1543,3.1239],[26.5204,38.1424,1.1727],[26.5224,38.1407,2.84],[26.531,38.139,3.4895],[26.5287,38.1374,0.0],[26.5304,38.1351,0.0],[26.5296,38.1304,0.0],[26.5313,38.1299,0.0],[26.5301,38.1276,0.0],[26.5351,38.1265,0.0],[26.5415,38.1293,7.3296],[26.5418,38.1271,0.0],[26.5443,38.1268,22.2501],[26.5424,38.1218,0.0],[26.5435,38.1196,0.0],[26.5524,38.1215,42.8102],[26.5526,38.1176,11.8856],[26.5604,38.1174,0.0],[26.561,38.1193,7.7408],[26.5646,38.1204,0.0],[26.5643,38.1229,19.2211],[26.5674,38.1263,0.7199],[26.566,38.1282,7.2827],[26.5668,38.1396,0.0],[26.5632,38.144,2.5759],[26.571,38.1426,18.9838],[26.5738,38.1379,0.0],[26.5774,38.136,0.0],[26.5812,38.1268,5.0272],[26.584,38.1254,0.0],[26.5832,38.1171,11.8799],[26.5846,38.1151,12.2933],[26.5818,38.1135,7.4329],[26.5812,38.1096,3.9416],[26.5915,38.1026,5.0895],[26.5985,38.1068,16.5112],[26.6046,38.1024,5.4725],[26.6065,38.1054,0.0],[26.6115,38.1071,21.5031],[26.6149,38.111,0.0],[26.6154,38.1146,0.0],[26.611,38.1271,4.2258],[26.6132,38.1354,4.0252],[26.6076,38.1354,12.6365],[26.6043,38.1385,24.9693],[26.6032,38.1435,31.4645],[26.6068,38.139,1.4227],[26.609,38.141,5.4286],[26.6093,38.1382,0.0],[26.6138,38.1385,0.0],[26.6168,38.1368,0.0],[26.6196,38.1385,2.5481],[26.6243,38.1385,0.0],[26.6293,38.1596,20.7667],[26.6315,38.1607,0.0],[26.6338,38.1674,0.0],[26.631,38.1682,14.7974],[26.6335,38.1732,0.0],[26.6324,38.1771,0.0],[26.6307,38.1779,0.0],[26.6315,38.184,0.0],[26.6293,38.1865,7.6814],[26.6315,38.1913,0.0],[26.631,38.1963,0.0],[26.6324,38.2004,5.0786],[26.6357,38.1979,0.0],[26.6396,38.2012,6.4472],[26.636,38.2074,19.8952],[26.6451,38.2015,0.0],[26.6493,38.2026,0.0],[26.6518,38.2051,0.0],[26.6507,38.2096,4.4855],[26.6535,38.2101,0.0],[26.6565,38.2071,0.0],[26.6612,38.2099,6.1779],[26.6657,38.209,24.2183],[26.6668,38.2065,0.0],[26.6707,38.2076,5.4327],[26.6749,38.2043,0.0],[26.6774,38.2082,0.0],[26.6774,38.2113,0.7768],[26.6804,38.2118,0.0],[26.6857,38.2085,0.0],[26.6863,38.2065,1.8253],[26.6832,38.2043,0.0],[26.6865,38.2024,0.24],[26.6885,38.2062,0.0],[26.6949,38.2057,0.0],[26.6943,38.2104,0.0],[26.6974,38.211,2.6346],[26.7026,38.2068,0.0],[26.706,38.2082,1.1945],[26.7062,38.211,5.6306],[26.7151,38.2099,0.0],[26.7162,38.2107,5.9434],[26.7152,38.2142,46.0567],[26.7326,38.2394,89.6191],[26.7393,38.2599,46.4307],[26.7422,38.2647,67.9243],[26.7515,38.272,43.6807],[26.7696,38.2759,180.2246],[26.7931,38.2742,197.1568],[26.8145,38.2666,42.4411],[26.8382,38.2618,56.0063],[26.8592,38.2546,214.2064],[26.8785,38.2521,213.5207],[26.9117,38.2508,330.9534],[26.9134,38.2631,367.1468],[26.9102,38.2729,367.8906],[26.8987,38.288,351.6845],[26.8868,38.2965,361.2256],[26.8565,38.3074,70.0719],[26.8307,38.3099,236.5194],[26.8181,38.3138,149.6707],[26.814,38.3204,114.9035],[26.814,38.3279,58.7899],[26.825,38.3488,87.6537],[26.8281,38.3676,0.8696],[26.824,38.3676,0.0],[26.8226,38.3657,0.0],[26.8176,38.3643,0.0],[26.8129,38.3582,0.0],[26.8085,38.3554,3.9361],[26.7946,38.3563,0.592],[26.7818,38.3618,0.7864],[26.7813,38.3635,0.0],[26.7738,38.3635,1.7533],[26.7715,38.3657,0.0],[26.7665,38.3668,3.3316],[26.7618,38.374,23.0819],[26.7632,38.3793,0.0],[26.7615,38.3818,8.7743],[26.7629,38.3843,0.0],[26.754,38.3885,0.0],[26.7524,38.3915,0.0],[26.7496,38.3924,1.5311],[26.7496,38.3946,1.0415],[26.7521,38.3949,0.0],[26.7515,38.3968,0.0],[26.749,38.3965,0.5637],[26.7479,38.3988,0.4796],[26.7554,38.3974,0.0],[26.7551,38.4007,0.0],[26.7504,38.4001,0.7604],[26.7424,38.4026,1.0584],[26.7349,38.4174,3.8955],[26.7354,38.419,0.0],[26.7404,38.421,0.5584],[26.7399,38.4235,0.0],[26.7349,38.4299,6.5296],[26.7329,38.4293,0.0],[26.731,38.4246,7.2831],[26.7296,38.4268,0.0],[26.7318,38.4304,0.0],[26.7274,38.4321,0.0],[26.7246,38.4362,5.4203],[26.7204,38.4371,0.0],[26.7193,38.436,7.3108],[26.7221,38.4324,6.6502],[26.7215,38.429,1.1404],[26.7237,38.4287,0.2201],[26.7224,38.4271,0.0],[26.7154,38.4274,0.0],[26.7112,38.4332,0.0],[26.7074,38.4346,1.5496],[26.7051,38.4296,3.0545],[26.7004,38.4282,7.4127],[26.6999,38.4257,0.0],[26.6965,38.426,0.0],[26.6929,38.4196,0.6393],[26.6882,38.4182,7.7831],[26.6832,38.4115,0.0],[26.6824,38.4087,0.0],[26.6857,38.4057,5.2065],[26.686,38.4029,19.4597],[26.684,38.3996,23.6891],[26.6779,38.3974,1.3217],[26.6785,38.3949,2.2091],[26.6754,38.3921,0.0],[26.6749,38.3824,0.0],[26.6821,38.3732,0.5129],[26.6818,38.3671,4.0319],[26.6799,38.366,0.0],[26.6821,38.3646,1.3227],[26.6815,38.3629,0.0],[26.6882,38.351,2.364],[26.6849,38.3504,3.3346],[26.6835,38.3563,14.5798],[26.6779,38.3604,2.3849],[26.6749,38.3579,0.0],[26.6768,38.3546,2.8253],[26.6751,38.3479,0.0],[26.6779,38.3493,2.4288],[26.6793,38.3476,0.1884],[26.6868,38.3468,0.0],[26.6915,38.3443,0.0878],[26.6951,38.3399,0.2359],[26.6935,38.3354,0.0],[26.7001,38.3324,0.1594],[26.7015,38.3276,0.4562],[26.6999,38.3226,0.0],[26.7032,38.3204,0.9724],[26.7015,38.3151,0.898],[26.6893,38.3112,0.2604],[26.6807,38.3104,1.0423],[26.6721,38.3129,0.2415],[26.6668,38.3174,0.0497],[26.6632,38.3243,0.6965],[26.6585,38.3246,0.0305],[26.6537,38.3304,2.63],[26.6521,38.3288,0.2563],[26.6524,38.3329,-0.0261],[26.6507,38.3346,1.1194],[26.6537,38.3349,-0.0123],[26.6524,38.3382,0.2909],[26.6443,38.3399,1.6506],[26.6413,38.3476,0.0],[26.6454,38.3571,0.0],[26.6454,38.3707,0.0],[26.6435,38.3757,0.0],[26.6401,38.3793,0.0],[26.6299,38.3815,4.0953],[26.6271,38.3901,0.0],[26.6235,38.3924,0.0],[26.6254,38.3946,0.0],[26.6243,38.4001,0.0],[26.6229,38.4015,0.0],[26.6201,38.4004,8.4935],[26.619,38.4026,0.0],[26.6171,38.4029,1.6525],[26.6179,38.4085,7.492],[26.6146,38.411,0.0],[26.6168,38.4126,0.0],[26.6162,38.4154,0.0],[26.6118,38.419,0.0],[26.6115,38.4224,0.0],[26.6046,38.4201,0.0],[26.6021,38.4165,3.1378],[26.5999,38.4162,0.7354],[26.5899,38.4215,0.6586],[26.5893,38.4238,0.0],[26.5868,38.424,0.3659],[26.5846,38.4265,1.8172],[26.5846,38.4285,1.4676],[26.5879,38.4318,0.0],[26.5918,38.4301,0.0],[26.5946,38.4332,6.0268],[26.5979,38.4321,1.3337],[26.5999,38.434,0.0],[26.6007,38.4385,2.9643],[26.6035,38.4401,2.9593],[26.599,38.4454,10.6763],[26.5996,38.4468,0.0],[26.6026,38.4468,0.0],[26.6026,38.4493,6.2493],[26.6049,38.4515,6.4677],[26.6015,38.4601,0.0],[26.5936,38.4574,9.6435],[26.5881,38.4501,214.3093],[26.5746,38.4529,223.7167],[26.5532,38.4603,309.5586],[26.534,38.4621,426.9222],[26.5104,38.4615,436.3932],[26.4809,38.4549,0.0],[26.4854,38.4529,2.0293],[26.4893,38.4488,1.6129],[26.4962,38.4474,2.1842],[26.4974,38.4449,0.0],[26.5018,38.4421,7.42],[26.5049,38.4365,1.3759],[26.5163,38.4307,0.6162],[26.5154,38.4274,0.2864],[26.5107,38.426,0.0],[26.5099,38.4221,11.5959],[26.5118,38.4201,4.5785],[26.5107,38.4185,12.9655],[26.5065,38.4146,0.0],[26.501,38.4151,3.5954],[26.5032,38.4107,12.2278],[26.5029,38.4063,23.1937],[26.4982,38.4046,0.0],[26.4962,38.4015,10.9522],[26.4874,38.4021,0.0],[26.4854,38.404,2.0079],[26.4863,38.409,0.0],[26.4835,38.4143,0.0],[26.4779,38.4176,2.8259],[26.4704,38.4263,0.4762],[26.4662,38.4271,0.0],[26.4629,38.424,2.8888],[26.4615,38.426,0.0],[26.4546,38.4279,1.7593],[26.4504,38.4271,0.4554],[26.4526,38.4199,0.0],[26.4557,38.4207,12.151],[26.4615,38.4179,0.0],[26.4621,38.4157,4.5759],[26.459,38.4096,0.0],[26.4621,38.4087,0.0],[26.4671,38.4124,7.6657],[26.4721,38.4068,0.0],[26.4726,38.4038,0.0],[26.4757,38.4015,0.0],[26.4743,38.396,5.3354],[26.4724,38.3943,0.0],[26.4743,38.3907,7.4867],[26.4729,38.3868,0.0],[26.4751,38.3812,0.2414],[26.4826,38.3768,1.5915],[26.479,38.3743,0.0],[26.4724,38.3732,0.1372],[26.4676,38.3649,0.7734],[26.4626,38.364,0.0],[26.4618,38.359,2.6688],[26.456,38.3565,1.1845],[26.4535,38.3452,10.0759],[26.4535,38.3371,63.8312],[26.4653,38.3215,113.6393],[26.4783,38.3003,134.295],[26.482,38.2895,201.0863],[26.4825,38.2297,191.5872],[26.4793,38.2184,45.4595],[26.4716,38.2091,32.3843]]],
[[[26.7901,38.3774,0.0],[26.7871,38.3776,1.7475],[26.7846,38.3757,0.0],[26.7854,38.3735,1.6051],[26.7829,38.371,4.4561],[26.7832,38.3674,2.5582],[26.7879,38.3704,0.0],[26.7899,38.3746,3.1579],[26.7921,38.3749,0.0],[26.7901,38.3774,0.0]]],
[[[26.791,38.3993,0.0],[26.7865,38.3985,0.0],[26.7838,38.3943,0.7693],[26.786,38.3929,0.0],[26.7921,38.3954,0.0],[26.791,38.3993,0.0]]],
[[[26.771,38.4101,13.9024],[26.7682,38.4104,12.1636],[26.7699,38.4043,0.0],[26.7738,38.4074,0.5074],[26.771,38.4101,13.9024]]],
[[[26.679,38.3329,3.8436],[26.6771,38.3338,0.0],[26.6743,38.3324,0.0],[26.6743,38.3293,0.0],[26.6787,38.3296,0.4849],[26.679,38.3329,3.8436]]],
[[[26.4546,38.3679,2.2217],[26.449,38.3674,0.0],[26.4463,38.3638,0.0],[26.4529,38.359,0.0],[26.4568,38.3599,0.0],[26.4579,38.3632,0.0],[26.4546,38.3679,2.2217]]],
[[[26.4668,38.3815,0.0],[26.465699999999998,38.3818,0.0],[26.4615,38.3743,0.0],[26.4668,38.3754,0.0],[26.4668,38.3815,0.0]]],
[[[26.4499,38.3899,0.0],[26.4476,38.3896,4.5172],[26.449,38.3857,2.0408],[26.451,38.3874,4.6344],[26.4499,38.3899,0.0]]],
[[[26.4496,38.3932,0.0],[26.4485,38.3949,1.3746],[26.4465,38.3913,0.0],[26.4482,38.3913,0.0],[26.4496,38.3932,0.0]]],
[[[26.4654,38.4021,0.0],[26.4626,38.4021,0.0],[26.4615,38.3968,0.0],[26.4646,38.3868,0.0],[26.4674,38.3874,3.3053],[26.4685,38.3904,0.0],[26.466,38.3954,0.0],[26.4654,38.4021,0.0]]],
[[[26.4693,38.3957,0.0],[26.4696,38.4004,2.7179],[26.4682,38.4004,2.7179],[26.4671,38.3968,0.0],[26.4693,38.3957,0.0]]],
[[[26.4929,38.4049,0.0],[26.4907,38.4054,0.4665],[26.4899,38.4043,0.0],[26.4918,38.4035,0.0],[26.4929,38.4049,0.0]]],
[[[26.7968,38.4146,13.6771],[26.7943,38.4149,2.0053],[26.7921,38.4107,0.0],[26.7932,38.4065,0.0],[26.7993,38.4074,0.0],[26.7968,38.4146,13.6771]]],
[[[26.7835,38.4174,0.0],[26.7815,38.4182,5.4239],[26.7804,38.416,0.0],[26.7851,38.4146,0.0],[26.7854,38.4162,0.0],[26.7835,38.4174,0.0]]],
[[[26.7679,38.4549,19.8861],[26.7615,38.4543,0.0],[26.7593,38.4526,0.0],[26.7582,38.4399,0.8913],[26.7643,38.4349,0.0],[26.7763,38.441,7.1674],[26.7749,38.4465,0.0],[26.7718,38.4482,7.345],[26.7732,38.4532,0.0],[26.7679,38.4549,19.8861]]],
[[[26.6999,38.5465,5.3325],[26.6974,38.5471,0.0],[26.7007,38.5404,0.0],[26.7032,38.5404,1.2104],[26.7062,38.5374,0.0],[26.7062,38.5354,0.6851],[26.7015,38.5324,0.0],[26.7024,38.5215,1.2598],[26.6988,38.519,0.0],[26.6949,38.5196,3.1615],[26.6954,38.516,0.9732],[26.6935,38.5115,0.0],[26.6954,38.5071,1.4024],[26.6926,38.4968,0.6696],[26.6949,38.4888,1.259],[26.6943,38.4796,7.7528],[26.701,38.4746,0.0],[26.7035,38.4754,0.0],[26.704,38.4785,0.3014],[26.7062,38.4785,0.0],[26.7115,38.4776,8.0462],[26.7118,38.4751,0.0],[26.714,38.4771,3.7974],[26.7149,38.4743,4.9323],[26.719,38.4724,8.0426],[26.7249,38.471,0.0],[26.7271,38.4721,8.4094],[26.7279,38.4699,6.6766],[26.7237,38.4618,4.7255],[26.7213,38.4618,0.0],[26.721,38.4604,0.0],[26.7332,38.4585,0.0],[26.7368,38.4604,0.0],[26.7393,38.4585,0.0],[26.7424,38.4588,2.333],[26.7449,38.4668,6.8736],[26.7468,38.4674,0.1086],[26.7479,38.4701,0.0],[26.7479,38.4774,0.7496],[26.7496,38.4818,4.133],[26.7451,38.4854,24.0697],[26.7426,38.4901,2.5063],[26.7432,38.4918,2.3864],[26.7451,38.4918,0.0],[26.7446,38.4932,4.9196],[26.7376,38.4921,0.0],[26.7343,38.4932,2.2486],[26.731,38.4968,6.7567],[26.731,38.5107,8.8372],[26.7351,38.5151,3.355],[26.7315,38.516,0.1994],[26.7313,38.5201,0.0],[26.7285,38.5218,0.3001],[26.7301,38.5268,0.0],[26.7293,38.5299,0.0],[26.7276,38.5324,0.0],[26.7215,38.5335,12.8349],[26.7218,38.5357,0.0],[26.7188,38.536,5.4003],[26.7154,38.5415,0.0],[26.7054,38.5432,0.8313],[26.7043,38.5412,1.3311],[26.701,38.5435,0.0],[26.6999,38.5465,5.3325]]]]}}