{"type":"Feature","properties":{"GID_2":"TUR.30.2_1","GID_0":"TUR","country":"Turkey","GID_1":"TUR.30_1","province":"Erzincan","NL_NAME_1":"NA","county":"İliç","VARNAME_2":"NA","NL_NAME_2":"NA","TYPE_2":"District","ENGTYPE_2":"District","CC_2":"NA","HASC_2":"TR.EN.IL","name":"İliç.county"},
"geometry":{"type": "MultiPolygon","coordinates": [[[[38.7929,39.28,2853.9434],[38.8092,39.3013,2660.3545],[38.8163,39.3134,2402.2041],[38.8241,39.322,2766.2773],[38.8423,39.3338,2899.3945],[38.859,39.3374,2604.3916],[38.8583,39.3517,2588.5845],[38.8561,39.3598,2813.4438],[38.8377,39.3871,2275.0923],[38.8303,39.3921,2196.4329],[38.8062,39.4025,1999.3024],[38.7908,39.415,1877.0394],[38.786,39.4226,1950.4941],[38.7809,39.4413,1697.0508],[38.7649,39.4667,1518.4373],[38.7528,39.4752,1384.49],[38.7077,39.4919,961.897],[38.6969,39.5016,1383.3271],[38.6935,39.5153,1712.5443],[38.6942,39.5325,1667.1875],[38.6964,39.5434,1713.8042],[38.7026,39.5565,1637.9954],[38.7027,39.5609,1633.8346],[38.6917,39.5811,1943.7065],[38.669,39.604,1712.5101],[38.6663,39.6092,1709.9053],[38.6644,39.6182,1730.7346],[38.6664,39.6364,1858.4338],[38.6758,39.653,1718.4307],[38.679,39.6647,1713.6504],[38.6796,39.6833,1913.0426],[38.6773,39.7048,1972.6951],[38.6332,39.7192,1486.7468],[38.606,39.7245,1541.5776],[38.5882,39.7309,1728.8724],[38.5611,39.7363,1734.2566],[38.5397,39.7434,1698.0857],[38.5248,39.745,1638.733],[38.4667,39.7458,1434.3165],[38.4528,39.7491,1506.7642],[38.4394,39.7569,1340.9232],[38.4295,39.7551,1378.3655],[38.4182,39.7499,1312.7292],[38.4103,39.7418,1249.4988],[38.3892,39.709,1394.6979],[38.3732,39.6934,1450.1039],[38.3663,39.6834,1429.2903],[38.3637,39.6666,1536.4904],[38.3664,39.6342,1796.9421],[38.3634,39.6065,1459.5591],[38.3592,39.5927,1472.6682],[38.3523,39.5812,1214.2424],[38.3487,39.5638,1145.3501],[38.3501,39.5307,1356.7748],[38.3602,39.5112,1505.5583],[38.3672,39.4903,1391.3026],[38.3752,39.4764,1351.7502],[38.3812,39.4466,1104.6865],[38.3914,39.4272,1025.1412],[38.3964,39.4112,915.287],[38.4224,39.4053,1542.3818],[38.4526,39.394,1468.5969],[38.4856,39.3806,1879.8906],[38.5147,39.3631,2087.9087],[38.5482,39.3507,2174.4507],[38.5663,39.349,2105.0859],[38.5998,39.3493,1715.7231],[38.6141,39.3511,1697.8883],[38.6416,39.36,2512.5447],[38.6522,39.3604,2524.479],[38.6627,39.3587,2406.2727],[38.6779,39.3505,2502.4224],[38.7458,39.2978,2974.8408],[38.7549,39.2929,2650.0327],[38.7929,39.28,2853.9434]]]]}}