{"type":"Feature","properties":{"GID_2":"TUR.72.2_1","GID_0":"TUR","country":"Turkey","GID_1":"TUR.72_1","province":"Sivas","NL_NAME_1":"NA","county":"Altınyayla","VARNAME_2":"NA","NL_NAME_2":"NA","TYPE_2":"District","ENGTYPE_2":"District","CC_2":"NA","HASC_2":"TR.SV.AL","name":"Altınyayla.county"},
"geometry":{"type": "MultiPolygon","coordinates": [[[[36.8387,39.1498,1768.0858],[36.866,39.1889,1654.9918],[36.8866,39.2097,1723.6323],[36.8975,39.2261,1696.0579],[36.9089,39.236,1725.1978],[36.9229,39.2434,1732.3809],[36.9501,39.2485,1659.3854],[36.9713,39.2564,1712.0769],[36.9891,39.2605,1662.9409],[36.9694,39.2815,1840.4497],[36.9194,39.3614,1546.2333],[36.9138,39.3679,1596.5344],[36.9019,39.3775,1676.3247],[36.8909,39.3836,1674.8242],[36.8606,39.3947,1644.7699],[36.8468,39.3971,1534.819],[36.8334,39.3891,1773.876],[36.8119,39.3801,1849.765],[36.7887,39.3658,1726.7662],[36.7584,39.354,1622.2059],[36.7281,39.3479,1697.5916],[36.7069,39.3407,1611.3179],[36.6742,39.3366,1458.3425],[36.6559,39.3172,1571.9175],[36.6511,39.3031,1630.2491],[36.6509,39.2849,1631.2966],[36.6532,39.273,1631.2302],[36.6771,39.2358,1505.8048],[36.6804,39.2254,1522.6151],[36.6784,39.2118,1586.0471],[36.6577,39.1758,1773.0355],[36.7528,39.1763,1887.0853],[36.7773,39.1751,1789.5833],[36.7888,39.1724,1789.4491],[36.8153,39.1623,1744.7971],[36.8387,39.1498,1768.0858]]]]}}