{"type": "Feature","bbox": [43.946,37.6264,44.5746,38.3113],"geometry": {"type": "MultiPolygon","coordinates": [[[[44.4108,37.8553,2880.4939],[44.3771,37.8626,2799.2183],[44.339,37.8741,2541.5178],[44.3341,37.8731,2614.8931],[44.3143,37.8636,2438.5415],[44.2975,37.868,2488.6541],[44.2763,37.8663,2503.5518],[44.2596,37.8805,2684.199],[44.2389,37.8871,3025.2764],[44.2405,37.9036,2741.4551],[44.2455,37.913,2608.4932],[44.266,37.9385,2764.3828],[44.2654,37.9427,2846.2742],[44.2564,37.9554,2641.0],[44.2569,37.9595,2579.6472],[44.2681,37.9751,2614.7937],[44.2796,37.9871,2719.4482],[44.2799,38.0001,2835.3225],[44.2815,38.0033,2833.3252],[44.3135,38.0299,2739.2373],[44.3168,38.036,2763.6721],[44.3167,38.0475,2739.344],[44.3256,38.0549,2742.6577],[44.3211,38.0661,2753.4236],[44.3225,38.0697,2770.8628],[44.3311,38.0765,2739.4558],[44.3383,38.0766,2723.0242],[44.3431,38.0867,2778.0786],[44.3526,38.0992,2912.4272],[44.3583,38.1008,2845.104],[44.3792,38.0976,2668.8091],[44.3774,38.1053,2678.9673],[44.3641,38.1271,2784.6104],[44.3663,38.1303,2757.719],[44.3778,38.1319,2693.2749],[44.3932,38.1367,2673.1182],[44.4013,38.141,2625.5852],[44.4048,38.1449,2486.0034],[44.4068,38.1494,2483.4915],[44.406,38.1548,2458.6492],[44.4171,38.2103,2772.1938],[44.4156,38.2222,2942.4004],[44.4077,38.2391,3169.6311],[44.4082,38.2512,3285.8682],[44.4161,38.261,3291.1846],[44.4222,38.2736,2913.4548],[44.4269,38.2782,2728.8582],[44.4616,38.2877,2496.6887],[44.4915,38.3087,2650.2012],[44.4761,38.3113,2482.9534],[44.4398,38.3082,2414.6238],[44.4232,38.303,2416.5488],[44.4033,38.2912,2567.0195],[44.3902,38.2882,2654.6531],[44.3807,38.2895,2547.7498],[44.3634,38.2951,2428.6091],[44.353,38.296,2326.5405],[44.3392,38.2945,2251.9951],[44.318,38.2874,2213.0371],[44.2948,38.2854,2316.3008],[44.2678,38.2873,2328.813],[44.2465,38.2946,2393.3721],[44.2316,38.297,2449.6362],[44.2,38.2974,2440.6121],[44.1754,38.2956,2413.5134],[44.1531,38.2825,2731.0249],[44.1347,38.2666,2825.5476],[44.129,38.2554,2729.6582],[44.1246,38.2285,2818.6597],[44.1143,38.2134,2489.9607],[44.1083,38.2079,2813.4304],[44.0953,38.2044,2973.0398],[44.065,38.2035,3021.626],[44.0505,38.2011,2635.4023],[44.0266,38.1924,2717.9136],[44.0138,38.1843,2814.5212],[44.0089,38.177,2429.5618],[44.0065,38.1616,2562.063],[44.0073,38.0355,2251.0608],[44.0063,38.0164,2155.4668],[44.0024,38.005,2133.6614],[43.9802,37.9704,2139.9946],[43.973,37.9495,2054.9624],[43.9639,37.9327,2186.4165],[43.9619,37.9206,2258.5288],[43.9605,37.8767,2215.2771],[43.958,37.8679,2101.9956],[43.9489,37.8512,2346.95],[43.9467,37.8389,2275.0894],[43.946,37.7877,2942.2249],[43.9476,37.7689,2928.1431],[43.9507,37.7606,2824.9751],[43.9697,37.7268,2299.9275],[43.9864,37.725,2050.3618],[44.0075,37.7178,1931.1934],[44.0179,37.7158,1700.5642],[44.04,37.7149,1705.3882],[44.0583,37.7161,1806.8983],[44.0954,37.7289,1995.2411],[44.1724,37.7603,2087.4351],[44.1928,37.7674,2347.8459],[44.2047,37.7685,2247.2896],[44.2135,37.7647,2107.0],[44.2211,37.7589,2378.8801],[44.229,37.7494,2531.8745],[44.2345,37.7307,2831.7417],[44.2438,37.7143,2589.8665],[44.2465,37.7034,2290.0415],[44.2465,37.6921,2351.5779],[44.2447,37.6837,2487.1106],[44.2203,37.6478,2339.8108],[44.2188,37.6407,2477.7432],[44.2229,37.6342,2338.3594],[44.2432,37.6264,2168.5593],[44.2521,37.6272,2324.1904],[44.3195,37.6538,2550.3772],[44.3367,37.6569,2461.3679],[44.3584,37.656,2160.3401],[44.3896,37.6461,2105.8374],[44.4076,37.645,2195.4429],[44.422,37.6466,2225.9333],[44.4349,37.652,2297.5254],[44.455,37.6644,2647.4126],[44.4796,37.6754,2592.4143],[44.5102,37.6979,1967.6489],[44.5251,37.7111,1908.9376],[44.5368,37.728,2295.938],[44.558,37.7483,2192.4861],[44.5746,37.7671,2715.3223],[44.5637,37.7744,2786.7568],[44.5519,37.774,2851.2773],[44.5413,37.7767,2864.2554],[44.5327,37.7766,2842.3086],[44.5193,37.771,2912.6768],[44.4985,37.7671,2864.855],[44.4767,37.7655,3167.6829],[44.463,37.7684,3179.8472],[44.4597,37.7706,3083.822],[44.4593,37.774,2937.4666],[44.4698,37.792,2760.8464],[44.4702,37.7979,2815.229],[44.4681,37.8003,2888.8904],[44.4638,37.8012,2772.9155],[44.4517,37.7985,3054.4163],[44.4431,37.7984,3117.2354],[44.4386,37.8004,2954.7031],[44.4342,37.8093,2668.2432],[44.4301,37.8129,2585.6128],[44.4137,37.8216,2656.3511],[44.4121,37.8244,2709.269],[44.4133,37.8285,2612.6819],[44.4219,37.8403,2595.4463],[44.422,37.8463,2637.4177],[44.4164,37.8541,2817.8926],[44.4108,37.8553,2880.4939]]]]}
,"properties": {"GID_2": "TUR.78.2_1","GID_0": "TUR","country": "Turkey","GID_1": "TUR.78_1","province": "Van","NL_NAME_1": "NA","county": "Başkale","VARNAME_2": "NA","NL_NAME_2": "NA","TYPE_2": "District","ENGTYPE_2": "District","CC_2": "NA","HASC_2": "TR.VA.BK","name": "Başkale.county","area_km2": 2213.03,"hist_schema_id": "Elevation0-9000","hist_area_km2": {"1675": 0.05,"1700": 0.486,"1725": 1.408,"1750": 1.911,"1775": 2.632,"1800": 3.838,"1825": 9.615,"1850": 12.443,"1875": 18.583,"1900": 25.055,"1925": 31.659,"1950": 35.604,"1975": 38.291,"2000": 45.104,"2025": 50.965,"2050": 57.951,"2075": 64.076,"2100": 67.684,"2125": 67.261,"2150": 65.885,"2175": 61.572,"2200": 65.477,"2225": 61.663,"2250": 59.716,"2275": 63.544,"2300": 65.662,"2325": 64.41,"2350": 60.433,"2375": 56.712,"2400": 62.292,"2425": 61.692,"2450": 59.086,"2475": 54.789,"2500": 50.435,"2525": 48.45,"2550": 45.041,"2575": 45.059,"2600": 45.735,"2625": 46.506,"2650": 43.333,"2675": 41.376,"2700": 39.843,"2725": 39.907,"2750": 37.822,"2775": 35.182,"2800": 30.742,"2825": 29.373,"2850": 27.884,"2875": 25.861,"2900": 21.349,"2925": 18.138,"2950": 15.446,"2975": 12.836,"3000": 11.481,"3025": 9.522,"3050": 9.304,"3075": 7.901,"3100": 7.581,"3125": 7.529,"3150": 6.644,"3175": 6.644,"3200": 6.277,"3225": 5.305,"3250": 5.003,"3275": 4.568,"3300": 4.1,"3325": 3.833,"3350": 3.098,"3375": 2.646,"3400": 2.295,"3425": 1.911,"3450": 1.643,"3475": 1.643,"3500": 1.408,"3525": 1.257,"3550": 1.039,"3575": 0.972,"3600": 0.536,"3625": 0.335,"3650": 0.201,"3675": 0.168,"3700": 0.117,"3725": 0.084,"3750": 0.084,"3775": 0.034}}}