{"type": "Feature","bbox": [26.8762,38.7175,27.1682,38.9146],"geometry": {"type": "MultiPolygon","coordinates": [[[[27.1206,38.7704,222.282],[27.1275,38.7878,170.015],[27.132,38.8069,105.5858],[27.142,38.8262,127.9828],[27.1481,38.8561,272.8153],[27.1682,38.8917,489.5523],[27.1103,38.9141,261.2623],[27.0927,38.9146,125.7723],[27.0857,38.9132,93.4108],[27.0743,38.9079,71.7641],[27.051,38.8935,0.0],[27.0596,38.8896,0.6025],[27.0618,38.8874,2.3955],[27.0635,38.8815,0.2692],[27.0663,38.8799,0.088],[27.0657,38.8763,0.6552],[27.064,38.876,0.8515],[27.0632,38.8785,0.1937],[27.061,38.8776,2.1156],[27.0601,38.8757,0.0],[27.0635,38.874,1.0786],[27.0632,38.8696,7.1261],[27.0585,38.8657,0.9049],[27.0563,38.8663,0.4066],[27.0557,38.869,2.1049],[27.0532,38.8693,2.1692],[27.0515,38.8676,0.6281],[27.0446,38.8685,14.0663],[27.0388,38.8618,3.7203],[27.036,38.8621,0.0],[27.0346,38.856,0.5664],[27.0315,38.8554,0.3079],[27.0276,38.8582,0.0],[27.0224,38.8585,0.1713],[27.0193,38.8626,0.0],[27.0201,38.8663,0.9854],[27.0265,38.8699,0.0],[27.0265,38.8724,0.0],[27.0243,38.8724,0.0],[27.0121,38.8657,2.1193],[27.0076,38.8668,4.3485],[27.0057,38.8587,25.339],[27.0012,38.8565,19.5696],[26.9901,38.8563,0.0],[26.9871,38.8532,0.0],[26.9882,38.8482,0.0],[26.9863,38.8468,8.7188],[26.9788,38.849,0.0],[26.976,38.8449,0.0537],[26.9713,38.846,0.0],[26.9624,38.831,0.0],[26.9796,38.8293,0.9019],[26.9837,38.826,2.5633],[26.9843,38.8226,16.5978],[26.9768,38.8085,4.6263],[26.969,38.804,1.2983],[26.9651,38.8049,0.4696],[26.9604,38.8029,0.8936],[26.9532,38.8032,6.9558],[26.949,38.8085,2.0923],[26.9426,38.8121,0.9255],[26.9432,38.821,0.5496],[26.9463,38.8251,1.7661],[26.9443,38.8365,0.0],[26.9368,38.8343,0.0],[26.9293,38.8288,0.8498],[26.9285,38.8301,0.0],[26.9251,38.8293,0.0],[26.914,38.8174,0.578],[26.8993,38.8213,12.6503],[26.8963,38.8254,2.119],[26.8926,38.8251,0.0],[26.8915,38.8213,0.0],[26.8943,38.8138,30.0757],[26.8985,38.8085,0.0],[26.9037,38.8074,5.9269],[26.9054,38.8026,0.0],[26.9112,38.7965,0.0],[26.9101,38.794,0.0],[26.9149,38.7904,50.0356],[26.9171,38.7857,23.9554],[26.9251,38.7804,0.3021],[26.9243,38.7779,0.0],[26.926,38.7774,0.2286],[26.9265,38.7804,0.3021],[26.929,38.7793,0.0],[26.9296,38.781,0.4085],[26.9321,38.781,0.3328],[26.9301,38.7729,0.3611],[26.9338,38.7718,0.9751],[26.9387,38.7668,1.5159],[26.9387,38.7629,0.5356],[26.9354,38.7585,5.3906],[26.9301,38.756,1.9985],[26.9235,38.7576,0.1263],[26.9179,38.7629,2.5621],[26.9118,38.7649,28.3431],[26.9112,38.7665,5.8322],[26.9071,38.7665,3.7586],[26.9071,38.764,7.1808],[26.9051,38.7635,0.0],[26.9074,38.7601,21.944],[26.9043,38.7601,12.0679],[26.904,38.7568,16.5596],[26.9068,38.7551,7.1684],[26.9068,38.7526,3.1005],[26.9054,38.7515,13.6311],[26.8996,38.7524,0.0],[26.8968,38.749,0.642],[26.9001,38.7474,6.2335],[26.9004,38.744,0.0],[26.9183,38.7291,85.5772],[26.9263,38.7179,96.2568],[26.9565,38.7175,151.0975],[26.9745,38.7192,56.0204],[27.0558,38.7498,355.3086],[27.104,38.7537,405.5049],[27.1101,38.7562,323.6176],[27.1141,38.7599,238.4111],[27.1206,38.7704,222.282]]],
[[[26.8835,38.8563,0.0],[26.8762,38.8521,0.0],[26.8762,38.8474,0.0],[26.8793,38.8465,0.0],[26.8799,38.8482,0.0],[26.8824,38.8479,2.1201],[26.8824,38.8462,0.0],[26.8846,38.8457,2.9066],[26.8876,38.8476,0.0],[26.8879,38.8535,0.0],[26.8835,38.8563,0.0]]],
[[[26.8932,38.8662,1.6785],[26.8913,38.8643,0.0],[26.8918,38.8621,7.6136],[26.8932,38.8629,7.6136],[26.8932,38.8662,1.6785]]],
[[[27.0382,38.8851,1.2552],[27.0413,38.8846,1.3874],[27.0413,38.8865,0.3486],[27.0399,38.8854,1.3874],[27.0382,38.8851,1.2552]]]]}
,"properties": {"GID_2": "TUR.41.1_1","GID_0": "TUR","country": "Turkey","GID_1": "TUR.41_1","province": "Izmir","NL_NAME_1": "NA","county": "Aliağa","VARNAME_2": "NA","NL_NAME_2": "NA","TYPE_2": "District","ENGTYPE_2": "District","CC_2": "NA","HASC_2": "TR.IZ.AL","name": "Aliağa.county","area_km2": 282.6815,"hist_schema_id": "Elevation0-9000","hist_area_km2": {"0": 36.2262,"25": 56.4802,"50": 37.5562,"75": 24.7965,"100": 25.2769,"125": 20.833,"150": 20.1078,"175": 14.522,"200": 9.8139,"225": 8.7559,"250": 6.6906,"275": 4.9893,"300": 4.8401,"325": 4.493,"350": 3.1379,"375": 2.3779,"400": 0.9909,"425": 0.4461,"450": 0.2149,"475": 0.1156,"525": 0.0165}}}