{"type":"Feature","properties":{"GID_2":"TUR.41.14_1","GID_0":"TUR","country":"Turkey","GID_1":"TUR.41_1","province":"Izmir","NL_NAME_1":"NA","county":"Karaburun","VARNAME_2":"NA","NL_NAME_2":"NA","TYPE_2":"District","ENGTYPE_2":"District","CC_2":"NA","HASC_2":"TR.IZ.KB","name":"Karaburun.county"},
"geometry":{"type": "MultiPolygon","coordinates": [[[[26.3087,38.4221,2.2312],[26.3079,38.4235,2.2312],[26.3099,38.4151,0.0],[26.3143,38.4149,0.4636],[26.3151,38.4179,10.7105],[26.3096,38.4182,4.9476],[26.3087,38.4221,2.2312]]],
[[[26.3865,38.4357,0.0],[26.3838,38.4362,0.0],[26.3815,38.4351,10.9765],[26.3818,38.4332,19.5999],[26.3735,38.4318,10.1693],[26.3729,38.4271,0.0],[26.3757,38.4274,9.8374],[26.3762,38.4249,0.0],[26.3796,38.4257,27.2955],[26.3813,38.4235,0.0],[26.3854,38.4221,2.3872],[26.3896,38.4221,0.0],[26.3896,38.4254,0.0],[26.3854,38.4307,47.7695],[26.3882,38.4329,0.0],[26.3865,38.4357,0.0]]],
[[[26.3699,38.4368,12.9517],[26.3696,38.4379,0.0],[26.3674,38.4374,3.4554],[26.3665,38.4296,0.0],[26.3682,38.4271,1.8505],[26.374,38.434,0.0],[26.3699,38.4368,12.9517]]],
[[[26.3601,38.4557,1.2389],[26.3493,38.4549,0.0],[26.3415,38.4474,0.0],[26.3368,38.4454,42.4546],[26.3315,38.4457,0.0],[26.3285,38.444,1.3435],[26.3276,38.4415,5.745],[26.3251,38.4413,0.8365],[26.3254,38.4376,1.6831],[26.3276,38.4374,6.8781],[26.3293,38.4343,0.0],[26.3268,38.4285,1.5052],[26.3315,38.4226,0.0],[26.3357,38.4229,1.1384],[26.3346,38.4285,0.0],[26.3371,38.4276,2.1117],[26.339,38.4229,0.0],[26.3412,38.4307,18.5888],[26.3457,38.4271,8.123],[26.3476,38.4304,10.4407],[26.3493,38.4299,0.0],[26.3513,38.4318,15.8168],[26.349,38.4276,0.0],[26.3532,38.4249,0.0],[26.3574,38.4282,0.9146],[26.3579,38.4304,17.1101],[26.3557,38.4335,14.3588],[26.3587,38.4346,0.0],[26.3574,38.4371,12.123],[26.3582,38.4407,36.7763],[26.3613,38.4396,0.0],[26.3635,38.4443,0.0],[26.3621,38.4485,4.3411],[26.3601,38.4485,33.3328],[26.3615,38.4529,0.0],[26.3601,38.4557,1.2389]]],
[[[26.597,38.459,0.4774],[26.6013,38.4607,0.0],[26.5976,38.4618,0.3056],[26.596,38.459,0.4774],[26.5896,38.4618,0.0],[26.5976,38.4663,0.0],[26.5979,38.4679,0.0],[26.5912,38.4685,5.0416],[26.5879,38.4704,0.0],[26.6046,38.4704,0.0],[26.6087,38.469,0.0],[26.609,38.4707,4.2285],[26.6115,38.4715,0.6595],[26.6207,38.4724,9.7504],[26.6279,38.4685,0.0],[26.6304,38.4629,0.0],[26.6399,38.4665,0.2834],[26.6413,38.4693,0.0],[26.6404,38.4765,12.1893],[26.6321,38.4993,0.3871],[26.6332,38.5115,0.0],[26.6299,38.5174,0.0],[26.626,38.516,4.296],[26.6279,38.5182,0.1165],[26.6249,38.5201,1.2507],[26.6238,38.5246,6.4705],[26.6254,38.5276,0.0],[26.6249,38.5315,0.0],[26.6201,38.5304,20.8828],[26.6188,38.5321,0.0],[26.6176,38.5296,1.0814],[26.6132,38.5296,4.1735],[26.6074,38.5318,30.9077],[26.6029,38.5351,15.6902],[26.6018,38.539,0.0],[26.5999,38.5385,10.0932],[26.5996,38.5412,0.0],[26.5954,38.5412,3.406],[26.5921,38.5465,2.8939],[26.5854,38.5488,0.0],[26.579,38.5551,0.0],[26.5693,38.5596,4.141],[26.5679,38.5657,21.0309],[26.5699,38.5679,8.2901],[26.5668,38.5693,0.8638],[26.5676,38.5715,7.3238],[26.5657,38.5735,9.3495],[26.5671,38.5743,1.0864],[26.5679,38.581,0.6576],[26.5663,38.5815,3.834],[26.5674,38.5832,0.0],[26.5649,38.589,0.0],[26.5654,38.5921,0.0],[26.5624,38.5938,0.0],[26.5624,38.6026,0.0],[26.5593,38.6015,4.5327],[26.5571,38.6049,3.7146],[26.5507,38.6015,14.5743],[26.546,38.6074,0.0],[26.5451,38.6113,0.0],[26.5404,38.6149,16.7454],[26.5362,38.6232,0.0],[26.5324,38.6224,0.0],[26.5307,38.6238,11.87],[26.5332,38.6249,4.3383],[26.5326,38.6268,3.9844],[26.5232,38.6307,4.1321],[26.5254,38.634,0.0],[26.5218,38.6401,0.0],[26.5232,38.6418,1.3897],[26.5274,38.641,0.0],[26.5285,38.6421,0.0],[26.528199999999998,38.6443,0.0],[26.524,38.6471,2.842],[26.5235,38.6501,1.3161],[26.5204,38.651,0.0],[26.5187,38.6499,15.8914],[26.5171,38.6518,0.0],[26.5157,38.6479,0.3583],[26.5126,38.6474,6.1809],[26.509,38.6507,0.0],[26.5001,38.6543,0.7932],[26.4999,38.6576,0.0],[26.4926,38.6604,6.2466],[26.4915,38.664,0.0],[26.4893,38.6621,7.0461],[26.4893,38.664,0.0],[26.4854,38.6651,19.5893],[26.4854,38.6676,0.0],[26.4813,38.6688,13.1349],[26.4796,38.6718,20.4757],[26.4743,38.6751,12.8255],[26.465699999999998,38.6696,15.6227],[26.4549,38.6729,0.0],[26.4476,38.6718,9.8087],[26.4424,38.6738,0.0],[26.4379,38.6724,0.0],[26.4376,38.671,0.5049],[26.4321,38.6726,0.9589],[26.4268,38.6793,0.0],[26.4168,38.681,0.0],[26.3974,38.6674,0.0],[26.3937,38.6679,1.3854],[26.3868,38.6654,7.5166],[26.3832,38.6671,0.0],[26.3793,38.664,21.9101],[26.369,38.6649,0.0],[26.3682,38.6624,1.8144],[26.3607,38.6599,0.0],[26.3585,38.6515,0.0],[26.3543,38.6468,0.0],[26.3529,38.6387,14.0416],[26.3563,38.6318,0.0],[26.3563,38.6251,0.0],[26.3579,38.6218,0.1746],[26.3568,38.6188,1.229],[26.3538,38.6168,0.0],[26.3563,38.6096,0.0],[26.3587,38.609,2.6992],[26.3599,38.6065,15.4329],[26.3596,38.5976,18.5133],[26.3621,38.5901,1.6833],[26.3624,38.5851,17.3013],[26.3607,38.5846,0.0],[26.3613,38.5824,18.0106],[26.3593,38.5812,8.4447],[26.359,38.5782,2.2695],[26.3604,38.5774,2.2695],[26.3604,38.5699,0.0],[26.3624,38.5674,0.065],[26.3599,38.5671,0.0],[26.3635,38.5621,5.4154],[26.3654,38.5626,8.1144],[26.3701,38.5604,0.4348],[26.371,38.5576,1.2564],[26.3685,38.5568,0.0],[26.3685,38.5554,0.0],[26.3749,38.5504,0.0],[26.3738,38.5474,0.0],[26.3807,38.544,3.1505],[26.3807,38.5235,3.24],[26.3785,38.5296,1.3086],[26.3796,38.5326,0.0],[26.3774,38.534,0.0],[26.3774,38.5368,0.0],[26.3757,38.5371,5.7048],[26.3768,38.5401,13.2545],[26.3751,38.5418,0.0],[26.3732,38.5393,2.8652],[26.3715,38.5299,0.0],[26.3757,38.5288,3.9257],[26.3771,38.5235,0.0],[26.3813,38.519,1.7642],[26.3849,38.5226,11.748],[26.3899,38.5218,4.0487],[26.3918,38.5193,8.765],[26.3896,38.5163,7.15],[26.3935,38.514,0.0],[26.3924,38.5096,0.0],[26.3946,38.5076,15.8788],[26.389,38.5065,0.0],[26.389,38.5051,0.0],[26.3963,38.5035,0.0],[26.4007,38.5054,0.0],[26.4015,38.5018,0.0],[26.404,38.5015,34.7573],[26.403199999999998,38.4968,0.0],[26.4068,38.4982,5.6258],[26.4093,38.4949,0.0],[26.4121,38.4943,4.3338],[26.4118,38.4921,0.0],[26.4099,38.4921,0.0],[26.4046,38.4868,22.0158],[26.403199999999998,38.4821,0.0],[26.4043,38.4782,30.0547],[26.3988,38.4735,0.0],[26.3957,38.4668,7.339],[26.3921,38.4657,0.0],[26.391,38.4632,0.0],[26.3904,38.4576,0.0],[26.3929,38.4465,0.0],[26.4001,38.4454,0.0],[26.404,38.4504,0.0],[26.4049,38.4562,2.9294],[26.4093,38.4551,0.0],[26.4129,38.4568,0.0],[26.4143,38.4615,0.0],[26.416,38.4618,0.0],[26.4138,38.4646,11.8209],[26.4138,38.4688,12.5979],[26.416,38.4718,0.0],[26.4188,38.4726,1.7356],[26.4196,38.476,1.1204],[26.4299,38.4776,0.106],[26.4424,38.4754,2.1456],[26.4482,38.4701,0.0],[26.4538,38.4688,16.7428],[26.4599,38.4635,0.0],[26.464,38.4635,13.1212],[26.4693,38.4576,0.0],[26.4757,38.459,0.8597],[26.4799,38.4549,0.0],[26.5027,38.4606,306.2039],[26.534,38.4621,426.9222],[26.5532,38.4603,309.5586],[26.5746,38.4529,223.7167],[26.5881,38.4501,214.3093],[26.5917,38.4558,30.8007],[26.597,38.459,0.4774]]],
[[[26.5224,38.6535,0.6575],[26.5213,38.654,0.0],[26.5268,38.6499,0.0],[26.5249,38.6524,0.9495],[26.5224,38.6535,0.6575]]],
[[[26.519,38.661,1.758],[26.5187,38.6635,1.4727],[26.516,38.6632,0.0],[26.5104,38.6576,0.0],[26.5132,38.6563,2.3439],[26.5182,38.6568,0.0],[26.5199,38.6579,0.0],[26.519,38.661,1.758]]]]}}