{"type":"Feature","properties":{"GID_2":"TUR.63.13_1","GID_0":"TUR","country":"Turkey","GID_1":"TUR.63_1","province":"Ordu","NL_NAME_1":"NA","county":"Kumru","VARNAME_2":"NA","NL_NAME_2":"NA","TYPE_2":"District","ENGTYPE_2":"District","CC_2":"NA","HASC_2":"TR.OR.KU","name":"Kumru.county"},
"geometry":{"type": "MultiPolygon","coordinates": [[[[37.1873,40.7042,1548.2512],[37.2088,40.6984,1525.4702],[37.2265,40.6916,1356.4482],[37.2592,40.6834,1349.0242],[37.2557,40.6981,1237.3276],[37.2552,40.7093,1004.3801],[37.2572,40.7204,1284.4115],[37.2619,40.7281,1157.1865],[37.2802,40.746,868.3443],[37.2917,40.7621,916.88],[37.3095,40.7792,875.6033],[37.3198,40.795,1141.2943],[37.3394,40.814,885.4544],[37.3536,40.8341,686.4646],[37.4208,40.8869,460.0927],[37.4104,40.8973,357.6085],[37.3996,40.9135,191.1097],[37.3532,40.9506,298.3166],[37.3446,40.9546,421.3226],[37.3341,40.9568,506.0038],[37.3047,40.9573,425.1634],[37.2902,40.9557,524.6152],[37.2569,40.9435,551.3854],[37.2473,40.9366,578.1489],[37.2439,40.9322,623.0884],[37.2385,40.9141,851.6641],[37.2341,40.9071,981.5187],[37.2226,40.898,1113.7021],[37.2083,40.8926,1111.3396],[37.1995,40.8769,1072.5806],[37.1968,40.8688,1050.3601],[37.1952,40.8327,1027.6166],[37.1932,40.821,1068.2019],[37.1684,40.7813,1199.0852],[37.1664,40.776,1217.1079],[37.1645,40.743,1474.9531],[37.1671,40.7279,1500.7357],[37.1732,40.7183,1397.3821],[37.1873,40.7042,1548.2512]]]]}}