{"type": "Feature","bbox": [34.6089,39.1084,34.9776,39.4866],"geometry": {"type": "MultiPolygon","coordinates": [[[[34.6092,39.3272,1179.707],[34.6223,39.3205,1165.2419],[34.6322,39.3178,1155.1619],[34.6486,39.3167,1110.8275],[34.6618,39.3178,1134.6454],[34.6713,39.3205,1027.6833],[34.6799,39.3254,1024.7778],[34.7157,39.3541,1008.5419],[34.7266,39.3609,1008.3677],[34.7407,39.3629,965.077],[34.7463,39.3613,953.2847],[34.7528,39.3562,963.2402],[34.7546,39.3516,981.2178],[34.7535,39.347,991.1552],[34.7405,39.3274,1026.757],[34.7053,39.2975,985.4294],[34.688,39.2723,1038.641],[34.6853,39.2651,1028.071],[34.6852,39.2553,994.6417],[34.6874,39.2483,993.5671],[34.6956,39.2353,1012.2909],[34.6962,39.2269,1013.5636],[34.689,39.2162,1034.39],[34.666,39.1982,1129.0573],[34.6842,39.1887,1060.6207],[34.7058,39.1715,1144.4775],[34.7186,39.153,1147.5861],[34.7371,39.1341,1145.4673],[34.7479,39.1181,1124.948],[34.7575,39.1113,1114.6326],[34.7633,39.1094,1133.1807],[34.7805,39.1084,1121.0032],[34.805,39.1169,1161.225],[34.8292,39.1211,1156.4724],[34.8504,39.1282,1156.881],[34.8776,39.1334,1152.2322],[34.9287,39.1525,1150.7258],[34.9467,39.1541,1158.6189],[34.9776,39.1533,1063.1614],[34.9582,39.1739,1080.3767],[34.9049,39.2153,1090.8823],[34.8959,39.2275,1110.0079],[34.8954,39.2412,983.6016],[34.9075,39.2653,981.4053],[34.9114,39.2991,1082.2014],[34.9236,39.3229,1063.6423],[34.9237,39.3306,1026.2875],[34.9219,39.3354,1023.8884],[34.9156,39.3407,1041.3882],[34.8996,39.348,1055.3888],[34.8172,39.3781,948.5314],[34.7966,39.3881,962.1978],[34.7935,39.392,941.9219],[34.7935,39.3988,960.6817],[34.8009,39.4107,972.1948],[34.8017,39.4183,960.3981],[34.798,39.4253,972.7169],[34.7912,39.4306,965.0197],[34.6857,39.4707,1047.7859],[34.6566,39.4866,1071.0435],[34.6522,39.4606,1180.2227],[34.643,39.4442,1155.9775],[34.6359,39.4231,1089.8097],[34.6138,39.3886,1120.2311],[34.6106,39.3805,1096.809],[34.6089,39.3655,1045.2411],[34.6092,39.3272,1179.707]]]]}
,"properties": {"GID_2": "TUR.61.6_1","GID_0": "TUR","country": "Turkey","GID_1": "TUR.61_1","province": "Nevsehir","NL_NAME_1": "NA","county": "Kozaklı","VARNAME_2": "NA","NL_NAME_2": "NA","TYPE_2": "District","ENGTYPE_2": "District","CC_2": "NA","HASC_2": "TR.NV.KO","name": "Kozaklı.county","area_km2": 672.0007,"hist_schema_id": "Elevation0-9000","hist_area_km2": {"925": 6.8468,"950": 44.8673,"975": 57.4994,"1000": 74.2759,"1025": 81.2073,"1050": 80.9085,"1075": 72.9171,"1100": 50.9961,"1125": 55.2297,"1150": 118.8524,"1175": 21.0609,"1200": 5.1767,"1225": 1.9989,"1250": 0.1638}}}