{"type":"Feature","properties":{"GID_2":"TUR.44.6_1","GID_0":"TUR","country":"Turkey","GID_1":"TUR.44_1","province":"Karaman","NL_NAME_1":"NA","county":"Sarıveliler","VARNAME_2":"NA","NL_NAME_2":"NA","TYPE_2":"District","ENGTYPE_2":"District","CC_2":"NA","HASC_2":"TR.KR.SA","name":"Sarıveliler.county"},
"geometry":{"type": "MultiPolygon","coordinates": [[[[32.4987,36.5762,1463.5825],[32.5025,36.5636,1047.6235],[32.5073,36.5566,1507.5844],[32.5167,36.5491,1740.9397],[32.5305,36.5415,1563.1243],[32.5621,36.557,897.5765],[32.6006,36.5617,843.6088],[32.6259,36.5693,1080.637],[32.6607,36.5732,1104.7639],[32.6861,36.5809,967.7205],[32.7209,36.5846,1044.4077],[32.7509,36.5957,1208.2922],[32.7627,36.6021,1288.1365],[32.7545,36.6173,1296.698],[32.7392,36.636,1343.1532],[32.7307,36.6387,1305.0591],[32.7115,36.6346,1576.8546],[32.7031,36.6368,1641.5049],[32.6901,36.645,1590.7471],[32.6415,36.6833,2022.7794],[32.6255,36.698,1592.3494],[32.6164,36.7123,1976.5226],[32.5977,36.731,1893.9709],[32.5846,36.749,1894.3562],[32.5776,36.7542,1908.267],[32.5628,36.7614,1983.2437],[32.5528,36.7699,1921.0449],[32.5138,36.7688,2019.9004],[32.4952,36.7639,1883.0773],[32.4706,36.7511,1536.2753],[32.4682,36.7382,1577.3391],[32.4592,36.7217,1321.1144],[32.4557,36.7043,1357.4426],[32.4555,36.683,1405.996],[32.459,36.6655,1725.6941],[32.4683,36.6491,1918.3977],[32.4741,36.6307,1958.6125],[32.4823,36.6168,1766.5405],[32.489,36.5957,1322.3584],[32.4987,36.5762,1463.5825]]]]}}