{"type": "Feature","bbox": [34.6134,41.1958,34.9371,41.3778],"geometry": {"type": "MultiPolygon","coordinates": [[[[34.8449,41.1958,328.9745],[34.8521,41.1977,503.8845],[34.8792,41.2248,365.3759],[34.889,41.2442,447.2086],[34.8921,41.2537,343.905],[34.9076,41.2694,425.9025],[34.9183,41.2858,437.6753],[34.9371,41.3076,315.0],[34.9317,41.3203,315.0],[34.9292,41.3328,560.5905],[34.9299,41.3761,367.4479],[34.8974,41.3778,353.0661],[34.8738,41.3761,405.789],[34.8524,41.368899999999996,472.2656],[34.8252,41.3636,388.2233],[34.8074,41.3572,383.9055],[34.7769,41.3511,407.2369],[34.7475,41.3393,548.5133],[34.7383,41.3324,514.5888],[34.7296,41.3229,645.2127],[34.7083,41.3126,636.6323],[34.6954,41.3093,559.8492],[34.6671,41.307,933.7362],[34.6547,41.3027,1064.209],[34.6478,41.2973,1038.2755],[34.6362,41.2821,1015.8903],[34.6185,41.2696,1205.4398],[34.6134,41.2615,1326.5664],[34.63,41.2524,1143.5861],[34.657,41.2471,1167.5226],[34.6781,41.24,1093.525],[34.7021,41.2356,1239.0369],[34.7498,41.2174,1538.9803],[34.777,41.2121,1248.4152],[34.7982,41.2049,891.5232],[34.8449,41.1958,328.9745]]]]}
,"properties": {"GID_2": "TUR.70.8_1","GID_0": "TUR","country": "Turkey","GID_1": "TUR.70_1","province": "Sinop","NL_NAME_1": "NA","county": "Saraydüzü","VARNAME_2": "NA","NL_NAME_2": "NA","TYPE_2": "District","ENGTYPE_2": "District","CC_2": "NA","HASC_2": "TR.SP.SA","name": "Saraydüzü.county","area_km2": 320.3538,"hist_schema_id": "Elevation0-9000","hist_area_km2": {"275": 0.1591,"300": 0.891,"325": 24.0618,"350": 6.7836,"375": 8.9802,"400": 10.3975,"425": 11.8304,"450": 13.9009,"475": 14.0923,"500": 13.3918,"525": 12.7558,"550": 10.3521,"575": 9.4926,"600": 8.5533,"625": 8.5381,"650": 8.0442,"675": 7.1049,"700": 6.5797,"725": 6.0063,"750": 5.8316,"775": 5.7677,"800": 6.2457,"825": 6.4851,"850": 5.6251,"875": 4.9399,"900": 5.1792,"925": 5.4979,"950": 5.3546,"975": 5.514,"1000": 5.4821,"1025": 5.6098,"1050": 5.7533,"1075": 6.1839,"1100": 4.9889,"1125": 5.1324,"1150": 4.8137,"1175": 4.5268,"1200": 3.6344,"1225": 3.6663,"1250": 3.9056,"1275": 3.7781,"1300": 3.2203,"1325": 2.9973,"1350": 2.9974,"1375": 2.9815,"1400": 2.822,"1425": 2.8062,"1450": 2.2962,"1475": 1.9295,"1500": 1.1163,"1525": 0.606,"1550": 0.5262,"1575": 0.1754,"1600": 0.0478}}}