{"type":"Feature","properties":{"GID_2":"TUR.72.12_1","GID_0":"TUR","country":"Turkey","GID_1":"TUR.72_1","province":"Sivas","NL_NAME_1":"NA","county":"Merkez","VARNAME_2":"SivasMerkezi","NL_NAME_2":"NA","TYPE_2":"District","ENGTYPE_2":"District","CC_2":"NA","HASC_2":"TR.SV.SV","name":"Merkez.county"},
"geometry":{"type": "MultiPolygon","coordinates": [[[[36.8468,39.3971,1534.819],[36.8513,39.4101,1504.1656],[36.8664,39.4336,1471.4116],[36.9107,39.4702,1489.619],[36.9194,39.4795,1598.8759],[36.9476,39.5239,1548.6091],[36.9552,39.5475,1396.66],[36.969,39.567,1382.5677],[36.9759,39.5718,1385.3311],[37.0019,39.582,1438.4192],[37.0207,39.5835,1393.3306],[37.0981,39.5835,1350.7817],[37.1128,39.5852,1341.0851],[37.1367,39.5926,1348.6733],[37.1499,39.5914,1339.7344],[37.1827,39.5782,1340.4965],[37.2239,39.5473,1368.5471],[37.2386,39.5385,1392.531],[37.2723,39.5265,1461.4659],[37.3159,39.5245,1618.0581],[37.333,39.5199,1739.7201],[37.3417,39.5144,1783.7061],[37.3511,39.5055,1947.7756],[37.3556,39.4979,1973.3182],[37.3576,39.4899,1938.5601],[37.3743,39.4934,1973.9602],[37.4221,39.512,2087.4763],[37.4519,39.519,1903.1473],[37.447,39.5417,1854.7329],[37.4432,39.5495,1752.4009],[37.4096,39.5793,1660.4199],[37.3982,39.5959,1657.1846],[37.3774,39.6166,1547.9258],[37.3255,39.6986,1619.3967],[37.3196,39.7056,1516.2191],[37.3046,39.7182,1618.6091],[37.288,39.7295,1517.799],[37.206,39.7608,1398.2102],[37.1927,39.7691,1471.5221],[37.182,39.7794,1332.7654],[37.1776,39.7929,1269.2812],[37.1788,39.8098,1269.6355],[37.1822,39.8175,1274.8896],[37.2066,39.8544,1435.9106],[37.2086,39.8712,1508.4094],[37.2057,39.885,1575.5129],[37.172,39.9363,2049.426],[37.1518,39.953,1691.2255],[37.1249,39.9686,1626.532],[37.1212,39.9724,1644.5415],[37.1193,39.9797,1688.2255],[37.1205,39.9874,1819.7312],[37.1306,40.0052,1892.5649],[37.1299,40.0132,1919.5392],[37.127,40.0181,1775.9731],[37.0954,40.0453,1614.7594],[37.084,40.0619,1545.6259],[37.0776,40.0685,1528.9869],[37.0421,40.0971,1625.3092],[37.0252,40.1131,1657.6063],[37.0051,40.0987,1811.3228],[36.9935,40.0826,1656.5206],[36.9732,40.0621,1460.6365],[36.9508,40.0266,1621.1332],[36.9445,40.0195,1559.5533],[36.9282,40.0077,1470.7067],[36.9063,39.9989,1366.6825],[36.8919,39.9898,1389.9111],[36.8805,39.9785,1405.0587],[36.8673,39.9574,1326.1221],[36.8639,39.9468,1407.574],[36.8612,39.9158,1396.4601],[36.85,39.8941,1360.9729],[36.8477,39.8801,1365.6417],[36.8489,39.8602,1410.3524],[36.8515,39.8523,1451.7489],[36.8593,39.8391,1407.6158],[36.8592,39.8286,1448.8809],[36.8491,39.8167,1417.7258],[36.8043,39.7827,1393.6205],[36.7901,39.7689,1348.8076],[36.7745,39.7428,1282.2103],[36.7728,39.7316,1244.428],[36.7724,39.7007,1241.4821],[36.7681,39.6912,1267.3627],[36.7413,39.6787,1326.1873],[36.7021,39.6747,1272.1399],[36.6774,39.667,1277.7865],[36.6453,39.664,1286.5273],[36.6353,39.6617,1311.1511],[36.6057,39.6499,1286.3619],[36.5855,39.632,1224.4965],[36.5536,39.6183,1238.4165],[36.5705,39.6022,1332.0864],[36.5933,39.5917,1383.2539],[36.6005,39.5866,1366.6201],[36.6194,39.5595,1290.6602],[36.6228,39.5399,1354.9415],[36.6221,39.5256,1327.7363],[36.6201,39.5173,1426.3699],[36.613,39.5076,1548.2389],[36.5831,39.4832,1579.6523],[36.579,39.4757,1541.5161],[36.5789,39.4703,1494.8774],[36.583,39.4625,1491.7124],[36.5901,39.4561,1411.583],[36.6046,39.4474,1353.5736],[36.6229,39.4406,1407.0519],[36.6336,39.431,1349.6049],[36.6368,39.4198,1385.9519],[36.6368,39.3718,1647.3915],[36.6395,39.3633,1580.0603],[36.6504,39.3515,1539.0695],[36.6742,39.3366,1458.3425],[36.7069,39.3407,1611.3179],[36.7281,39.3479,1697.5916],[36.7584,39.354,1622.2059],[36.7824,39.3632,1831.8914],[36.8119,39.3801,1849.765],[36.8334,39.3891,1773.876],[36.8468,39.3971,1534.819]]]]}}