{"type": "Feature","bbox": [36.1483,35.9435,36.4031,36.2087],"geometry": {"type": "MultiPolygon","coordinates": [[[[36.3993,36.2087,90.124],[36.3848,36.2026,90.2292],[36.3742,36.196,90.5995],[36.3592,36.196,95.3179],[36.3487,36.1896,132.8116],[36.3357,36.1854,217.4467],[36.2971,36.1839,163.1837],[36.2698,36.185,298.7516],[36.2589,36.1867,309.6356],[36.2367,36.1935,255.9582],[36.2309,36.1927,299.5674],[36.2262,36.1898,315.6829],[36.2182,36.1718,278.7776],[36.1989,36.151,463.0258],[36.1739,36.1135,495.9737],[36.1535,36.0931,547.2458],[36.149,36.0823,651.3033],[36.1483,36.071,592.8336],[36.1503,36.0599,640.2035],[36.1755,36.0204,540.3205],[36.1828,35.9994,530.5399],[36.1779,35.9792,432.6969],[36.1778,35.9695,468.4636],[36.1799,35.9606,475.8094],[36.1841,35.9556,494.3931],[36.1904,35.9529,476.2719],[36.2085,35.9516,359.3063],[36.206,35.9435,446.9165],[36.2127,35.9515,320.7982],[36.2288,35.9604,429.142],[36.2444,35.9635,670.4055],[36.2546,35.9638,524.4713],[36.2634,35.9617,460.7715],[36.2789,35.9548,489.5311],[36.2897,35.9539,447.2129],[36.3025,35.9574,385.8677],[36.3061,35.9607,302.1564],[36.2946,35.9802,452.5306],[36.2979,35.9917,496.5135],[36.3028,35.9964,384.4626],[36.3172,36.0041,413.3493],[36.3442,35.9924,285.6889],[36.3569,35.992,216.0689],[36.3684,35.9948,152.3696],[36.3786,36.001,100.9225],[36.3823,36.0099,107.1602],[36.3808,36.026,99.8498],[36.3834,36.0314,98.6567],[36.3925,36.0398,109.5377],[36.3951,36.046,120.0019],[36.3946,36.0525,214.501],[36.3887,36.0682,148.1532],[36.3978,36.0838,157.1425],[36.3942,36.0906,100.8765],[36.3887,36.0948,98.0678],[36.386,36.0994,95.0244],[36.3852,36.1078,95.8111],[36.3812,36.1188,94.6366],[36.392,36.1426,118.9163],[36.3883,36.1515,129.187],[36.3767,36.1694,102.0369],[36.3817,36.1807,110.9795],[36.3888,36.1885,90.628],[36.3987,36.1898,91.0271],[36.4006,36.1915,92.4956],[36.4031,36.1996,89.664],[36.3993,36.2087,90.124]]]]}
,"properties": {"GID_2": "TUR.37.1_1","GID_0": "TUR","country": "Turkey","GID_1": "TUR.37_1","province": "Hatay","NL_NAME_1": "NA","county": "Altınözü","VARNAME_2": "NA","NL_NAME_2": "NA","TYPE_2": "District","ENGTYPE_2": "District","CC_2": "NA","HASC_2": "TR.HT.AL","name": "Altınözü.county","area_km2": 451.7924,"hist_schema_id": "Elevation0-9000","hist_area_km2": {"100": 41.1455,"125": 12.2645,"150": 12.196,"175": 14.0282,"200": 16.0829,"225": 18.8405,"250": 20.433,"275": 22.6255,"300": 23.687,"325": 22.9357,"350": 22.9057,"375": 23.3033,"400": 21.8517,"425": 22.6255,"450": 23.7577,"475": 22.3731,"500": 21.3972,"525": 19.7347,"550": 16.461,"575": 13.7184,"600": 10.5976,"625": 9.0203,"650": 7.7514,"675": 5.848,"700": 4.2187,"725": 1.5434,"750": 0.4459}}}