{"type":"Feature","properties":{"GID_1":"TUR.36_1","GID_0":"TUR","country":"Turkey","province":"Hakkari","VARNAME_1":"NA","NL_NAME_1":"NA","TYPE_1":"Il","ENGTYPE_1":"Province","CC_1":"NA","HASC_1":"TR.HK","ISO_1":"TR-30","name":"Hakkari.province"},
"geometry":{"type": "MultiPolygon","coordinates": [[[[44.6245,37.4817,2952.8066],[44.6228,37.4912,2519.6802],[44.6116,37.5117,2177.1624],[44.612,37.5215,2149.7388],[44.6216,37.5436,2063.5767],[44.6167,37.5525,2054.1147],[44.6178,37.5559,2190.2402],[44.6334,37.569,2207.5522],[44.6388,37.5756,1993.1941],[44.6385,37.6036,2184.0776],[44.6353,37.6084,2309.6731],[44.6298,37.612,2346.1677],[44.6132,37.6174,2553.4062],[44.5965,37.6353,2686.1843],[44.587,37.6389,2813.175],[44.5809,37.6465,2737.5898],[44.5827,37.6563,2636.5342],[44.5912,37.6672,2314.2324],[44.6045,37.6747,2343.8774],[44.6122,37.6812,2239.5415],[44.6327,37.7028,1868.0502],[44.6383,37.7163,1696.1935],[44.6347,37.7263,1716.8718],[44.6301,37.7318,1696.2445],[44.6143,37.7412,1811.7117],[44.6106,37.7542,1957.0798],[44.6011,37.7627,2530.4897],[44.5971,37.7638,2519.5466],[44.5836,37.7611,2566.5066],[44.5746,37.7671,2715.3223],[44.558,37.7483,2192.4861],[44.5368,37.728,2295.938],[44.5251,37.7111,1908.9376],[44.5102,37.6979,1967.6489],[44.4796,37.6754,2592.4143],[44.455,37.6644,2647.4126],[44.4287,37.6488,2223.9893],[44.4149,37.6454,2273.655],[44.3967,37.6453,2158.2385],[44.3828,37.6476,2026.082],[44.3584,37.656,2160.3401],[44.3295,37.6562,2499.5632],[44.3195,37.6538,2550.3772],[44.2754,37.6354,2753.8855],[44.2462,37.6262,2202.7625],[44.2377,37.6278,2295.0144],[44.2229,37.6342,2338.3594],[44.2188,37.6407,2477.7432],[44.2203,37.6478,2339.8108],[44.2447,37.6837,2487.1106],[44.2467,37.6977,2278.0886],[44.2456,37.709,2445.6289],[44.2345,37.7307,2831.7417],[44.229,37.7494,2531.8745],[44.2211,37.7589,2378.8801],[44.2135,37.7647,2107.0],[44.2047,37.7685,2247.2896],[44.1928,37.7674,2347.8459],[44.1724,37.7603,2087.4351],[44.0652,37.7176,1946.5135],[44.04,37.7149,1705.3882],[44.0179,37.7158,1700.5642],[44.0075,37.7178,1931.1934],[43.9864,37.725,2050.3618],[43.9697,37.7268,2299.9275],[43.9148,37.7058,1903.6292],[43.8927,37.7004,1725.9944],[43.8459,37.7057,1780.4431],[43.7986,37.7236,1811.759],[43.7846,37.7262,2009.105],[43.7706,37.7254,2459.9021],[43.7495,37.7185,3037.6072],[43.738,37.7165,3073.6399],[43.6758,37.7153,3282.416],[43.6391,37.717,2985.647],[43.6144,37.7246,2617.5308],[43.5825,37.7275,2724.2354],[43.5408,37.7274,2922.9504],[43.5366,37.7206,2831.4741],[43.5284,37.7188,2989.9397],[43.5202,37.7212,3015.2476],[43.5107,37.7274,3082.4756],[43.4957,37.7274,3052.1494],[43.4959,37.7026,2770.8291],[43.4942,37.6875,2803.4092],[43.4907,37.679,2638.0283],[43.4677,37.642,2588.5432],[43.4656,37.6299,2498.1187],[43.4639,37.5829,2280.1523],[43.4366,37.5225,2084.7222],[43.4349,37.5034,1347.3972],[43.4353,37.3407,1731.6157],[43.4378,37.3326,1840.1866],[43.4413,37.3277,2042.8468],[43.4729,37.3003,1486.7388],[43.4843,37.2837,1913.9376],[43.501,37.2684,1321.7456],[43.5209,37.2608,1496.7194],[43.5559,37.2528,1027.3213],[43.5768,37.2581,880.8622],[43.5869,37.2533,1029.8844],[43.5925,37.2443,1219.627],[43.627,37.2364,1601.5316],[43.6666,37.2309,1816.7351],[43.697,37.2306,1859.8997],[43.7051,37.2349,1867.51],[43.7094,37.2354,1869.251],[43.7167,37.2304,1879.157],[43.7308,37.2341,1735.4191],[43.7366,37.2341,1702.9038],[43.7473,37.2301,1566.5109],[43.7546,37.23,1604.318],[43.7654,37.2329,1416.9473],[43.8012,37.2296,1284.7036],[43.8464,37.2292,1549.7035],[43.8962,37.2346,1732.6554],[43.9316,37.2454,1240.6128],[43.9513,37.2554,1693.6703],[43.967,37.2753,1709.3822],[43.9706,37.2867,1698.2212],[43.9786,37.2924,1823.6521],[44.0044,37.2996,1656.3203],[44.0298,37.3247,1038.6827],[44.033,37.325,929.7321],[44.0367,37.3213,1062.2214],[44.0615,37.3221,955.956],[44.075,37.3165,1006.1855],[44.0941,37.3131,1196.8513],[44.112,37.3125,1390.059],[44.1418,37.3157,1498.9587],[44.1563,37.306,1690.0973],[44.1683,37.3007,1561.4302],[44.1799,37.2995,1784.9399],[44.1945,37.2914,1784.4493],[44.2156,37.2842,2458.644],[44.2374,37.2791,1947.434],[44.2678,37.2515,1587.3729],[44.2789,37.2363,1537.4364],[44.2821,37.2267,1610.886],[44.2791,37.2039,1424.8534],[44.2903,37.1844,973.5555],[44.2901,37.175,1194.1696],[44.2817,37.1622,1765.2065],[44.2686,37.1552,1644.7404],[44.2563,37.1539,1693.2184],[44.2423,37.1567,1789.6313],[44.2335,37.1398,2046.743],[44.2173,37.1252,2197.0469],[44.2085,37.115,2305.3423],[44.2027,37.1048,2362.6768],[44.2023,37.0981,2394.542],[44.2056,37.087,1714.0079],[44.2149,37.0733,1387.7889],[44.2241,37.0655,1349.3481],[44.2423,37.055,1114.5402],[44.2469,37.0501,1215.8929],[44.2482,37.046,1335.8701],[44.2427,37.0341,1794.9813],[44.2435,37.0267,1674.0114],[44.2604,37.0033,1196.9055],[44.2688,36.983,1041.3374],[44.2771,36.9768,924.699],[44.2819,36.9753,758.8485],[44.3033,36.9749,682.4161],[44.32,36.9671,624.3445],[44.3235,36.9825,849.9489],[44.3428,37.0053,727.9665],[44.3613,37.0203,721.0061],[44.3651,37.0264,686.2347],[44.3648,37.0308,713.6493],[44.3486,37.0434,696.2048],[44.3482,37.046,718.1821],[44.3507,37.0493,750.327],[44.3578,37.0531,708.6931],[44.3709,37.0566,725.6682],[44.4058,37.0558,853.6919],[44.4261,37.0633,841.4097],[44.4566,37.07,932.697],[44.5114,37.0935,1186.5642],[44.5197,37.0999,1257.9341],[44.5221,37.1099,1381.604],[44.5277,37.1161,1263.3977],[44.5381,37.1211,1310.637],[44.554,37.1231,1514.0159],[44.5639,37.1375,1771.6736],[44.5771,37.1526,2117.4348],[44.5862,37.1604,1960.4124],[44.6035,37.1658,1992.8158],[44.6265,37.1815,2081.3059],[44.6377,37.1867,2149.3613],[44.645,37.1875,2069.6995],[44.6523,37.1856,2095.1951],[44.6785,37.1752,2210.5605],[44.7185,37.1744,2251.6836],[44.7338,37.1709,2344.3232],[44.7547,37.1632,2377.8943],[44.7633,37.1674,2571.377],[44.7711,37.1675,2716.3237],[44.805,37.1481,2781.4885],[44.8071,37.1545,2797.4658],[44.8067,37.161,2824.7268],[44.805,37.1656,2897.6904],[44.7899,37.1792,2706.5808],[44.7877,37.1836,2647.4219],[44.7782,37.224,2627.7432],[44.7791,37.2281,2508.5193],[44.7855,37.2372,2457.2136],[44.7974,37.2468,2014.2842],[44.8171,37.258,2164.6484],[44.8297,37.2692,2154.4497],[44.8338,37.2745,2064.4119],[44.8348,37.2793,2192.856],[44.835,37.2864,2263.1921],[44.8317,37.2927,2335.8936],[44.8233,37.3076,2405.374],[44.8026,37.3237,2663.8838],[44.7566,37.3482,2754.3694],[44.7403,37.3733,2484.916],[44.7334,37.3777,2414.8184],[44.7188,37.383,2430.1367],[44.6958,37.3833,2892.3696],[44.6893,37.385,3041.5327],[44.683,37.4018,2918.9521],[44.6745,37.4111,3107.0708],[44.6686,37.4215,2789.3777],[44.6624,37.4275,2611.6982],[44.654,37.4304,2720.1934],[44.6229,37.435,2797.8616],[44.6075,37.4407,2738.4231],[44.6026,37.4443,2789.4077],[44.6103,37.4732,2589.1812],[44.6216,37.4779,2831.0596],[44.6245,37.4817,2952.8066]]]]}}