{"type": "Feature","id": "3047","bbox": [43.35966,36.96917,44.80159,37.91298],"geometry": {"type": "Polygon","coordinates": [[[44.20501,37.90477,2709.2019],[44.20446,37.90482,2709.2019],[44.11693,37.91298,2124.2146],[44.04427,37.9012,2165.9399],[44.00365,37.84518,2168.3833],[43.97781,37.79129,2872.668],[43.92304,37.76444,3093.9546],[43.85885,37.75403,2668.1135],[43.79436,37.7547,2316.1416],[43.75333,37.76788,2950.647],[43.71137,37.77299,3061.3596],[43.68253,37.76395,3122.6748],[43.65483,37.75168,3009.6816],[43.5212,37.73467,2917.2603],[43.38684,37.73364,2337.3687],[43.38033,37.64248,2799.5454],[43.35966,37.58463,2791.4321],[43.3762,37.53091,1831.8535],[43.40927,37.46479,2703.1062],[43.401,37.378,2638.2329],[43.37599,37.32475,1652.2651],[43.36251,37.30391,1891.7648],[43.37604,37.29553,1644.6567],[43.41676,37.27917,2203.0066],[43.46327,37.24868,1926.7705],[43.4796,37.24336,1715.3379],[43.49241,37.24476,1871.4011],[43.51712,37.2523,1530.0342],[43.52952,37.2539,1404.3],[43.54244,37.2523,1198.5541],[43.5506,37.24874,1146.6145],[43.5689,37.2377,923.8763],[43.59422,37.22946,1523.5818],[43.6183,37.22698,1666.891],[43.72082,37.23261,1796.5861],[43.74692,37.23065,1588.0436],[43.77064,37.22584,1448.6365],[43.78056,37.22036,1596.5011],[43.80206,37.20357,1331.3575],[43.8094,37.19969,1375.7219],[43.82201,37.20238,1051.1654],[43.83999,37.21711,1273.6849],[43.89363,37.22491,2097.3213],[43.92417,37.25308,1434.5237],[43.95378,37.28747,2070.2434],[43.99037,37.3125,1824.0588],[44.03559,37.31824,1280.7279],[44.06902,37.31373,946.5719],[44.08804,37.31116,1285.8026],[44.18447,37.27917,2370.2458],[44.20689,37.26752,2658.4048],[44.22317,37.25406,2123.5356],[44.235,37.23677,1989.795],[44.24353,37.21383,1319.8765],[44.24854,37.19192,854.5435],[44.24963,37.17944,1011.152],[44.24834,37.16967,1184.0552],[44.24012,37.15797,1819.6243],[44.2302,37.15432,2074.0391],[44.21878,37.15262,2017.6226],[44.20596,37.14662,1477.739],[44.18922,37.12921,1571.2983],[44.18064,37.10892,2096.5271],[44.18002,37.08761,2001.0021],[44.18746,37.06694,1855.3613],[44.22777,36.99413,706.6144],[44.23428,36.98366,645.0763],[44.24327,36.97777,873.3555],[44.28482,36.96917,565.5491],[44.29722,36.96994,589.5604],[44.30663,36.97723,700.8802],[44.31588,36.99397,811.8276],[44.31598,36.99397,811.8276],[44.31614,36.99402,811.8276],[44.31614,36.99413,811.8276],[44.33164,37.01547,795.2416],[44.33515,37.03115,897.2577],[44.34311,37.04244,708.9457],[44.42807,37.06477,805.6116],[44.45442,37.07634,965.0515],[44.47923,37.092,1107.3538],[44.50341,37.11662,1839.2212],[44.53938,37.14368,2137.6807],[44.57824,37.16641,1822.7874],[44.61028,37.17835,1906.4292],[44.62893,37.17902,2151.0864],[44.73379,37.16724,2289.6321],[44.75384,37.15915,2440.9546],[44.76614,37.14192,2890.1367],[44.77234,37.16125,2751.2837],[44.76614,37.17815,2762.1963],[44.75673,37.1952,2648.5723],[44.75353,37.21533,2704.3635],[44.7605,37.23323,3203.2031],[44.77296,37.24168,2754.5571],[44.78675,37.24812,2167.3467],[44.79848,37.26031,2110.2827],[44.80159,37.29269,2655.3142],[44.77895,37.3138,2698.3557],[44.72138,37.34328,2564.4246],[44.71301,37.35679,2546.5664],[44.70712,37.37095,2348.0938],[44.69803,37.38005,2672.1692],[44.66165,37.37565,2783.4468],[44.65224,37.38402,3003.0452],[44.63818,37.4126,3146.9871],[44.62278,37.4219,2695.4253],[44.58558,37.42467,2590.6387],[44.57214,37.43079,2501.6326],[44.56594,37.44717,2557.8469],[44.57927,37.47696,2417.6687],[44.57524,37.49384,2399.3838],[44.57524,37.49399,2399.3838],[44.56992,37.5144,2425.6431],[44.57183,37.53921,1905.3674],[44.57834,37.56391,2525.8655],[44.58744,37.58401,1976.9744],[44.58351,37.60109,2561.4084],[44.56098,37.61466,2415.0229],[44.54088,37.63272,2833.8154],[44.54527,37.66303,2148.0391],[44.55354,37.67181,2165.5906],[44.58816,37.69398,2055.1023],[44.59839,37.70703,1745.9124],[44.59612,37.71638,1704.0056],[44.55938,37.75201,2232.4673],[44.53442,37.76919,2808.6299],[44.50646,37.77935,2840.9741],[44.47923,37.77687,3060.4717],[44.46652,37.77113,3060.6235],[44.4505,37.76664,3302.7546],[44.43644,37.7678,3385.0688],[44.4291,37.77914,2972.6274],[44.42977,37.78514,3141.9517],[44.43375,37.8011,2787.447],[44.43303,37.80612,2656.9209],[44.42548,37.81077,2621.5007],[44.41897,37.80968,2764.9976],[44.4121,37.80772,2757.0759],[44.4044,37.80973,2637.2329],[44.39324,37.82108,2858.3442],[44.38755,37.8334,2835.2742],[44.38383,37.84498,2911.6528],[44.37794,37.85412,2866.748],[44.36714,37.86022,2709.7268],[44.33123,37.87397,2601.3022],[44.31924,37.87686,2558.2629],[44.25444,37.87084,2655.2317],[44.21961,37.87531,2704.6917],[44.20209,37.89717,2807.5491],[44.20501,37.90477,2709.2019]]]}
,"properties": {"ISO3166-1-Alpha-3": "TUR","country": "Turkey","fill": "#F0F","name": "Hakkari","area_km2": 7465.816,"hist_schema_id": "Elevation0-9000","hist_area_km2": {"575": 0.22,"600": 0.237,"625": 0.237,"650": 0.271,"675": 0.305,"700": 1.642,"725": 3.994,"750": 5.601,"775": 7.443,"800": 8.22,"825": 8.777,"850": 9.604,"875": 10.481,"900": 11.678,"925": 12.437,"950": 13.805,"975": 14.732,"1000": 16.453,"1025": 18.514,"1050": 21.739,"1075": 23.895,"1100": 26.185,"1125": 26.521,"1150": 29.319,"1175": 30.396,"1200": 32.742,"1225": 35.2,"1250": 37.168,"1275": 38.026,"1300": 42.222,"1325": 45.555,"1350": 47.684,"1375": 52.316,"1400": 57.176,"1425": 56.135,"1450": 59.434,"1475": 61.456,"1500": 63.591,"1525": 66.404,"1550": 67.932,"1575": 67.591,"1600": 71.036,"1625": 74.052,"1650": 74.776,"1675": 80.268,"1700": 85.157,"1725": 87.318,"1750": 88.187,"1775": 91.346,"1800": 93.135,"1825": 99.463,"1850": 255.909,"1875": 169.276,"1900": 143.663,"1925": 139.758,"1950": 133.214,"1975": 134.293,"2000": 130.415,"2025": 131.11,"2050": 130.962,"2075": 134.891,"2100": 132.187,"2125": 135.978,"2150": 131.892,"2175": 134.081,"2200": 131.742,"2225": 129.802,"2250": 128.569,"2275": 125.574,"2300": 123.753,"2325": 124.555,"2350": 121.408,"2375": 120.513,"2400": 115.736,"2425": 115.576,"2450": 112.84,"2475": 109.839,"2500": 107.863,"2525": 107.092,"2550": 104.159,"2575": 102.36,"2600": 98.638,"2625": 96.031,"2650": 87.981,"2675": 85.126,"2700": 82.647,"2725": 79.775,"2750": 76.787,"2775": 71.662,"2800": 66.789,"2825": 64.119,"2850": 59.717,"2875": 57.768,"2900": 54.058,"2925": 53.049,"2950": 47.473,"2975": 43.076,"3000": 39.161,"3025": 37.533,"3050": 36.118,"3075": 32.251,"3100": 31.985,"3125": 29.481,"3150": 27.06,"3175": 26.69,"3200": 23.748,"3225": 20.741,"3250": 18.301,"3275": 16.909,"3300": 15.024,"3325": 13.63,"3350": 10.84,"3375": 9.579,"3400": 8.84,"3425": 7.26,"3450": 6.503,"3475": 5.948,"3500": 5.04,"3525": 4.419,"3550": 3.393,"3575": 3.193,"3600": 2.303,"3625": 1.664,"3650": 0.975,"3675": 1.11,"3700": 0.959,"3725": 0.504,"3750": 0.723,"3775": 0.505,"3800": 0.336,"3825": 0.336,"3850": 0.236,"3875": 0.067,"3900": 0.185,"3925": 0.118,"3950": 0.067,"3975": 0.135,"4025": 0.101}}}