{"type": "Feature","bbox": [26.4226,39.6958,26.9841,40.063],"geometry": {"type": "MultiPolygon","coordinates": [[[[26.9803,39.7822,1069.4636],[26.9691,39.801,932.7809],[26.9664,39.8193,792.5651],[26.9695,39.8343,549.3367],[26.9781,39.848,565.7791],[26.9841,39.8639,307.0951],[26.9634,39.8848,814.2472],[26.9503,39.8949,554.6616],[26.9387,39.9016,475.1618],[26.9249,39.9048,373.1086],[26.877,39.9052,255.7965],[26.8628,39.9074,288.9922],[26.845,39.9171,299.5021],[26.8248,39.9337,286.1099],[26.8194,39.941,309.6572],[26.8174,39.952,265.2643],[26.8186,39.9599,227.1007],[26.8247,39.9728,173.7857],[26.8247,39.9772,173.6074],[26.8143,39.9974,243.7785],[26.8052,40.0109,303.5275],[26.7998,40.0414,358.1048],[26.7886,40.063,359.6823],[26.7658,40.0498,493.4862],[26.7522,40.0322,454.8217],[26.7457,40.0265,427.4856],[26.7375,40.0221,450.2017],[26.7175,40.0154,611.1083],[26.7059,40.0156,515.2702],[26.6624,40.0323,432.4454],[26.6482,40.0336,207.4124],[26.6378,40.0318,194.2355],[26.6277,40.0252,353.0866],[26.6241,40.018,265.1339],[26.6252,40.0105,231.84],[26.6333,39.9969,301.3238],[26.6326,39.9924,296.574],[26.6286,39.9886,404.729],[26.6162,39.9861,543.6242],[26.5548,39.9861,384.7772],[26.5443,39.9838,417.4472],[26.5206,39.9747,471.6144],[26.5124,39.9703,433.5433],[26.5062,39.9644,416.8188],[26.4978,39.9418,433.9069],[26.4901,39.9337,448.8258],[26.4581,39.9201,414.8098],[26.4415,39.9158,396.3298],[26.4421,39.8804,344.2],[26.4447,39.8716,308.8225],[26.4547,39.8521,209.0768],[26.4562,39.828,108.0123],[26.4528,39.8133,88.382],[26.4307,39.7793,50.7696],[26.4271,39.7703,54.1336],[26.4256,39.7575,59.9559],[26.4252,39.7147,172.4401],[26.4226,39.6984,172.4154],[26.4772,39.6958,182.4994],[26.6696,39.6964,726.8762],[26.6889,39.6979,714.2617],[26.698,39.705,501.6758],[26.724,39.7158,639.6777],[26.7496,39.7193,833.4994],[26.8003,39.7184,1058.027],[26.8147,39.716,1087.8711],[26.8317,39.7099,1580.8734],[26.8453,39.7101,1634.7375],[26.8576,39.7158,1530.1682],[26.8899,39.741,1346.8591],[26.9044,39.7502,1091.8441],[26.9534,39.7687,1297.9122],[26.9803,39.7822,1069.4636]]]]}
,"properties": {"GID_2": "TUR.22.2_1","GID_0": "TUR","country": "Turkey","GID_1": "TUR.22_1","province": "Çanakkale","NL_NAME_1": "NA","county": "Bayramiç","VARNAME_2": "NA","NL_NAME_2": "NA","TYPE_2": "District","ENGTYPE_2": "District","CC_2": "NA","HASC_2": "TR.CK.BA","name": "Bayramiç.county","area_km2": 1303.49,"hist_schema_id": "Elevation0-9000","hist_area_km2": {"50": 17.188,"75": 42.958,"100": 53.951,"125": 60.982,"150": 65.546,"175": 57.863,"200": 58.1,"225": 60.666,"250": 67.252,"275": 70.795,"300": 73.555,"325": 67.203,"350": 61.407,"375": 59.724,"400": 56.843,"425": 55.735,"450": 46.109,"475": 39.017,"500": 36.577,"525": 32.674,"550": 29.0,"575": 23.081,"600": 18.853,"625": 16.983,"650": 14.021,"675": 13.517,"700": 11.842,"725": 10.803,"750": 8.931,"775": 7.806,"800": 5.621,"825": 4.97,"850": 5.231,"875": 5.003,"900": 4.269,"925": 3.83,"950": 3.569,"975": 2.738,"1000": 3.015,"1025": 2.722,"1050": 2.82,"1075": 2.249,"1100": 2.005,"1125": 1.858,"1150": 1.809,"1175": 1.728,"1200": 1.337,"1225": 1.434,"1250": 1.255,"1275": 1.19,"1300": 1.141,"1325": 0.881,"1350": 0.636,"1375": 0.457,"1400": 0.571,"1425": 0.375,"1450": 0.359,"1475": 0.261,"1500": 0.228,"1525": 0.31,"1550": 0.212,"1575": 0.245,"1600": 0.082,"1625": 0.082,"1650": 0.016}}}