{"type":"Feature","properties":{"GID_2":"TUR.7.18_1","GID_0":"TUR","country":"Turkey","GID_1":"TUR.7_1","province":"Ankara","NL_NAME_1":"NA","county":"Kızılcahamam","VARNAME_2":"NA","NL_NAME_2":"NA","TYPE_2":"District","ENGTYPE_2":"District","CC_2":"NA","HASC_2":"TR.AN.KI","name":"Kızılcahamam.county"},
"geometry":{"type": "MultiPolygon","coordinates": [[[[32.5474,40.2126,1258.2118],[32.5599,40.2309,1258.4016],[32.57,40.2396,1281.6897],[32.5819,40.2466,1258.6823],[32.6123,40.2532,1222.1008],[32.6338,40.2604,1237.9241],[32.661,40.2625,1118.7209],[32.6803,40.2612,1003.6084],[32.6904,40.258,927.2989],[32.6997,40.251,901.2994],[32.7108,40.2357,935.1506],[32.7234,40.2276,903.5107],[32.7501,40.2173,914.3725],[32.7861,40.2115,971.2108],[32.7806,40.224,927.4657],[32.7789,40.2382,1001.8315],[32.7817,40.2492,990.0482],[32.7899,40.2589,1043.9073],[32.8101,40.2715,1127.9543],[32.886,40.2994,1410.0392],[32.8968,40.3091,1345.8739],[32.8994,40.3199,1274.9653],[32.897,40.3307,1531.3811],[32.8739,40.3649,1519.1603],[32.8701,40.3754,1571.5045],[32.869,40.4186,1877.7864],[32.8713,40.4326,1512.2148],[32.8803,40.4447,1495.9231],[32.8985,40.4589,1469.3335],[32.9128,40.4676,1472.6228],[32.9375,40.4779,1728.7865],[32.9539,40.4893,1689.2339],[32.9724,40.5068,1754.9698],[32.9874,40.5301,1720.1847],[32.9984,40.5566,1538.9238],[32.9867,40.5728,1405.2219],[32.9665,40.5925,1728.2466],[32.9557,40.5983,1611.1091],[32.9288,40.6084,1601.911],[32.9068,40.6131,1823.6781],[32.8932,40.6202,1688.4308],[32.8727,40.6258,1834.2233],[32.8621,40.632,1959.0747],[32.8413,40.6367,1718.17],[32.7936,40.6549,1574.137],[32.7718,40.6598,1755.4449],[32.7582,40.6668,1852.6595],[32.7334,40.6727,1656.5193],[32.6549,40.7026,1620.7557],[32.6305,40.7044,1787.588],[32.5013,40.7043,1498.0011],[32.4823,40.6944,1461.9978],[32.4449,40.6655,1437.9277],[32.4304,40.6518,1455.7583],[32.561,40.5994,1515.4282],[32.5681,40.5947,1462.8589],[32.5804,40.578,1119.6774],[32.582,40.573,1157.0381],[32.5813,40.5651,1162.0199],[32.5723,40.5491,1295.6718],[32.5658,40.5308,1109.3958],[32.5574,40.5171,1406.403],[32.5553,40.5063,1361.4171],[32.5574,40.4955,1422.9095],[32.5657,40.4818,1500.7388],[32.572,40.4635,1656.5333],[32.5808,40.4475,1743.0945],[32.5816,40.4422,1609.8768],[32.5798,40.4346,1527.3505],[32.5642,40.4093,1434.7078],[32.5522,40.3951,1279.5203],[32.5446,40.391,1257.8206],[32.5258,40.3868,1121.3785],[32.508,40.3806,1412.4028],[32.4928,40.3785,1251.402],[32.3721,40.3787,974.4411],[32.3526,40.3775,1144.5616],[32.3387,40.3731,1221.3334],[32.3155,40.3591,1131.8069],[32.28,40.3431,1327.5673],[32.297,40.3331,1257.0662],[32.3131,40.3212,1608.5829],[32.3257,40.3076,1336.95],[32.3288,40.2959,1027.2075],[32.3292,40.2868,884.4613],[32.3279,40.2311,1242.0919],[32.3291,40.2222,1399.8787],[32.3329,40.2143,1261.4438],[32.3448,40.2055,1250.5591],[32.3807,40.1956,1215.0608],[32.3937,40.2017,1226.1936],[32.4171,40.2064,1250.1908],[32.4349,40.2128,1163.0813],[32.4588,40.2173,1113.1365],[32.4798,40.2248,1102.8014],[32.4903,40.2266,1111.4374],[32.5048,40.2271,1077.1097],[32.5192,40.2255,1128.1931],[32.5474,40.2126,1258.2118]]]]}}