{"type":"Feature","properties":{"GID_2":"TUR.10.5_1","GID_0":"TUR","country":"Turkey","GID_1":"TUR.10_1","province":"Artvin","NL_NAME_1":"NA","county":"Merkez","VARNAME_2":"Artvin","NL_NAME_2":"NA","TYPE_2":"District","ENGTYPE_2":"District","CC_2":"NA","HASC_2":"TR.AV.AV","name":"Merkez.county"},
"geometry":{"type": "MultiPolygon","coordinates": [[[[42.1454,41.2566,579.5388],[42.1342,41.2646,1178.1942],[42.0934,41.2813,1688.8621],[42.0834,41.2878,1426.1021],[42.066,41.3128,1166.5165],[42.0581,41.3273,1626.3374],[42.0432,41.3461,2027.6328],[42.0161,41.3593,2485.7441],[41.9963,41.3656,2889.7112],[41.9821,41.36,2995.9756],[41.9755,41.355,2930.3367],[41.9725,41.3473,2819.7817],[41.9694,41.3301,2489.9758],[41.96,41.3171,2572.5586],[41.924,41.2878,2216.1812],[41.9078,41.2707,2379.1277],[41.8838,41.2591,1389.3762],[41.8738,41.257,1581.0371],[41.8597,41.2572,1753.701],[41.8315,41.2658,946.9199],[41.8075,41.2679,583.5433],[41.7077,41.2678,1117.8408],[41.6765,41.2646,1392.1094],[41.6611,41.2459,1269.6263],[41.6517,41.22,2548.0425],[41.5936,41.1291,2092.218],[41.588,41.1225,2223.3],[41.576,41.1129,2297.9819],[41.565,41.1068,2237.1252],[41.5349,41.0953,2798.302],[41.5012,41.0872,2632.0498],[41.5193,41.0714,2558.2],[41.5338,41.0619,2133.0942],[41.597,41.0375,2535.6204],[41.6112,41.0354,2775.7363],[41.6592,41.0342,1994.3359],[41.6942,41.0248,1465.8562],[41.7378,41.0223,1873.369],[41.7753,41.0101,384.1202],[41.8013,40.9967,1679.9781],[41.8125,40.9729,1436.2249],[41.8219,40.964,1151.6501],[41.8305,40.9585,1183.6797],[41.8477,40.9538,1405.5248],[41.8913,40.9518,2438.4399],[41.925,40.9398,2053.9907],[41.9426,40.929,2784.2209],[41.992,40.8905,1595.47],[42.0025,40.9156,1722.6663],[42.0127,40.9307,1977.641],[41.9973,40.9445,1913.7533],[41.9545,40.9776,2478.6431],[41.9442,40.9893,2344.1025],[41.9414,41.0003,2399.8755],[41.9395,41.0285,2238.3062],[41.9295,41.0475,1857.8198],[41.9267,41.0584,1872.2356],[41.926,41.0988,1306.3542],[41.9293,41.1155,1042.1678],[41.9458,41.141,610.9722],[41.9667,41.1618,282.7109],[41.9778,41.1781,318.3594],[41.9918,41.1897,370.8105],[42.021,41.203,549.8853],[42.048,41.2188,512.3107],[42.1454,41.2566,579.5388]]]]}}