{"type":"Feature","properties":{"GID_2":"TUR.32.4_1","GID_0":"TUR","country":"Turkey","GID_1":"TUR.32_1","province":"Eskisehir","NL_NAME_1":"NA","county":"Günyüzü","VARNAME_2":"NA","NL_NAME_2":"NA","TYPE_2":"District","ENGTYPE_2":"District","CC_2":"NA","HASC_2":"TR.ES.GU","name":"Günyüzü.county"},
"geometry":{"type": "MultiPolygon","coordinates": [[[[31.8473,39.7683,920.212],[31.8036,39.7419,811.9971],[31.7333,39.7155,789.8348],[31.7445,39.6973,745.035],[31.7649,39.6832,689.3206],[31.7769,39.6675,692.4512],[31.7951,39.6495,729.3137],[31.7999,39.6418,758.2815],[31.8018,39.6335,783.507],[31.8018,39.6222,814.5173],[31.7989,39.6113,812.0052],[31.7608,39.5537,781.2437],[31.7575,39.5453,806.9799],[31.7561,39.536,840.5352],[31.7558,39.5167,904.511],[31.7577,39.501,856.2228],[31.7689,39.4784,888.0427],[31.771,39.4659,890.2184],[31.7705,39.3222,1174.4535],[31.7721,39.3031,1243.7809],[31.7754,39.2947,1374.6174],[31.7985,39.2572,1267.8076],[31.8005,39.2448,1148.8254],[31.8012,39.2129,968.5161],[31.8062,39.1991,915.442],[31.8156,39.1864,826.1704],[31.8219,39.181,806.3561],[31.844,39.1714,773.1896],[31.8607,39.168,938.2194],[31.8832,39.1738,831.0115],[31.907,39.189,910.1893],[31.9795,39.2162,791.2246],[31.9912,39.2251,748.7854],[31.9956,39.2359,793.0789],[31.998,39.2658,803.225],[32.0077,39.2853,798.8153],[32.0106,39.2971,775.9806],[32.0113,39.3818,750.1099],[32.009,39.3968,735.4769],[31.9998,39.4134,729.0906],[31.9973,39.422,701.3646],[31.9967,39.4868,695.3792],[31.9934,39.5046,693.1096],[31.9637,39.5511,688.0916],[31.9416,39.574,688.1945],[31.9295,39.5909,756.2276],[31.9112,39.609,770.299],[31.8962,39.6323,775.8897],[31.8883,39.6558,784.119],[31.8651,39.6929,740.8857],[31.8582,39.714,835.6705],[31.8491,39.7304,799.429],[31.8469,39.7444,796.9843],[31.8473,39.7683,920.212]]]]}}