{"type": "Feature","bbox": [33.4601,41.6903,33.9358,41.9205],"geometry": {"type": "MultiPolygon","coordinates": [[[[33.6463,41.6945,1195.4058],[33.7184,41.6924,1139.2617],[33.7381,41.6903,1141.3507],[33.7687,41.7106,1237.5242],[33.794,41.7174,1388.6907],[33.8017,41.7213,1284.1742],[33.8149,41.7402,1335.7471],[33.8153,41.7477,1438.7107],[33.8099,41.7619,1301.1182],[33.8117,41.7662,1369.389],[33.8178,41.7712,1351.1832],[33.8305,41.7744,1418.8477],[33.8739,41.7761,1225.5593],[33.8834,41.7791,1368.1615],[33.9004,41.787,1310.2573],[33.9141,41.805,1223.8385],[33.9333,41.812,1435.032],[33.9358,41.8162,1494.7107],[33.9355,41.8211,1598.9784],[33.9285,41.8301,1297.642],[33.9116,41.841,1037.01],[33.8737,41.8506,1362.7692],[33.827,41.8156,1467.3186],[33.8152,41.8112,1030.1318],[33.8042,41.8116,959.0245],[33.742,41.8361,872.2498],[33.7125,41.8537,815.4204],[33.5798,41.9046,705.4419],[33.5493,41.9205,956.542],[33.5198,41.9121,863.9444],[33.4898,41.9006,895.7463],[33.4771,41.8922,677.9144],[33.4651,41.8798,1130.1061],[33.4864,41.8553,1072.5803],[33.4966,41.8374,1132.6504],[33.4975,41.8329,1150.7354],[33.4925,41.8245,983.4067],[33.4709,41.808,1131.6583],[33.4627,41.7999,1183.7109],[33.4601,41.791,1104.8527],[33.464,41.7822,906.2825],[33.49,41.7621,1127.29],[33.518,41.7628,1138.1819],[33.5287,41.7614,1175.2913],[33.5408,41.7565,1264.0044],[33.5618,41.7433,1108.5559],[33.6072,41.7259,1291.2458],[33.6216,41.7176,1226.2273],[33.6321,41.7095,1221.0564],[33.6463,41.6945,1195.4058]]]]}
,"properties": {"GID_2": "TUR.46.14_1","GID_0": "TUR","country": "Turkey","GID_1": "TUR.46_1","province": "Kastamonu","NL_NAME_1": "NA","county": "Küre","VARNAME_2": "NA","NL_NAME_2": "NA","TYPE_2": "District","ENGTYPE_2": "District","CC_2": "NA","HASC_2": "TR.KS.KU","name": "Küre.county","area_km2": 526.4576,"hist_schema_id": "Elevation0-9000","hist_area_km2": {"350": 0.0158,"375": 0.0631,"400": 0.0631,"425": 0.2684,"450": 0.4894,"475": 0.9789,"500": 1.5157,"525": 1.8631,"550": 2.479,"575": 2.8107,"600": 3.3159,"625": 3.9159,"650": 4.1845,"675": 4.3582,"700": 4.9109,"725": 5.3055,"750": 5.732,"775": 5.89,"800": 6.6321,"825": 6.7273,"850": 6.6325,"875": 6.9804,"900": 7.3599,"925": 8.3075,"950": 8.8137,"975": 10.1257,"1000": 11.564,"1025": 12.6079,"1050": 14.0467,"1075": 15.9756,"1100": 18.4435,"1125": 22.5394,"1150": 25.7835,"1175": 29.3914,"1200": 33.2362,"1225": 34.4397,"1250": 34.1866,"1275": 30.6426,"1300": 28.7941,"1325": 25.4736,"1350": 22.1689,"1375": 19.1328,"1400": 12.5389,"1425": 9.8818,"1450": 7.3361,"1475": 4.7736,"1500": 2.3867,"1525": 0.8534,"1550": 0.3318,"1575": 0.158,"1600": 0.0316}}}