{"type":"Feature","properties":{"GID_2":"TUR.61.5_1","GID_0":"TUR","country":"Turkey","GID_1":"TUR.61_1","province":"Nevsehir","NL_NAME_1":"NA","county":"Hacıbektaş","VARNAME_2":"NA","NL_NAME_2":"NA","TYPE_2":"District","ENGTYPE_2":"District","CC_2":"NA","HASC_2":"TR.NV.HA","name":"Hacıbektaş.county"},
"geometry":{"type": "MultiPolygon","coordinates": [[[[34.473,38.8867,1081.7043],[34.4895,38.878,1146.1865],[34.5056,38.8752,1234.6124],[34.6216,38.8748,1174.4542],[34.6331,38.8765,1156.9818],[34.642,38.8804,1132.7469],[34.6487,38.8858,1076.5999],[34.6598,38.9008,1108.7798],[34.67,38.9071,1126.4229],[34.6885,38.9101,1105.1699],[34.7284,38.9097,1170.0887],[34.7399,38.9225,1315.2528],[34.7458,38.941,1446.1042],[34.755,38.9574,1353.7489],[34.7596,38.9732,1303.9185],[34.7635,38.9809,1303.6387],[34.7925,39.0063,1219.8176],[34.8004,39.0156,1198.016],[34.8068,39.0456,1179.0099],[34.8154,39.0615,1165.3342],[34.8152,39.072,1165.4255],[34.8078,39.0815,1149.7131],[34.7805,39.1084,1121.0032],[34.7633,39.1094,1133.1807],[34.7575,39.1113,1114.6326],[34.7479,39.1181,1124.948],[34.7371,39.1341,1145.4673],[34.7186,39.153,1147.5861],[34.7058,39.1715,1144.4775],[34.6842,39.1887,1060.6207],[34.666,39.1982,1129.0573],[34.6401,39.1875,1140.3489],[34.6282,39.1786,1189.0908],[34.6243,39.1708,1186.2725],[34.6229,39.1589,1178.4498],[34.6252,39.1377,1155.9],[34.6379,39.1133,1147.1903],[34.6385,39.1051,1142.5596],[34.6362,39.0971,1136.5845],[34.6303,39.0907,1135.1294],[34.6219,39.0864,1145.901],[34.6107,39.0846,1151.6021],[34.5778,39.0844,1140.0896],[34.5718,39.0828,1153.4019],[34.5676,39.0791,1168.0408],[34.567,39.0722,1251.7479],[34.5748,39.0601,1240.7515],[34.5782,39.0496,1188.887],[34.5787,39.0383,1174.1799],[34.5768,39.0301,1197.1542],[34.5739,39.0252,1223.4426],[34.5673,39.0195,1214.7075],[34.5407,39.0076,1234.8826],[34.5297,38.9998,1199.4307],[34.5208,38.9906,1182.3687],[34.5065,38.9671,1144.8005],[34.4994,38.9461,1125.9331],[34.4801,38.9255,1176.0275],[34.4754,38.9179,1190.0927],[34.4731,38.9068,1163.3776],[34.473,38.8867,1081.7043]]]]}}