{"type":"Feature","properties":{"GID_2":"TUR.19.7_1","GID_0":"TUR","country":"Turkey","GID_1":"TUR.19_1","province":"Bolu","NL_NAME_1":"NA","county":"Mudurnu","VARNAME_2":"NA","NL_NAME_2":"NA","TYPE_2":"District","ENGTYPE_2":"District","CC_2":"NA","HASC_2":"TR.BL.MU","name":"Mudurnu.county"},
"geometry":{"type": "MultiPolygon","coordinates": [[[[31.4578,40.3208,911.5671],[31.456,40.3377,995.0687],[31.4454,40.3598,1127.7812],[31.4402,40.3867,1186.8136],[31.4298,40.4062,1498.6615],[31.4281,40.4152,1384.7271],[31.4284,40.4275,1204.4496],[31.4322,40.4388,1082.8527],[31.4559,40.476,1101.5485],[31.4579,40.4877,1090.7908],[31.4586,40.5179,1500.3759],[31.4614,40.5294,1239.6418],[31.4758,40.553,1500.9141],[31.4861,40.5656,1640.8357],[31.4521,40.594,1333.2423],[31.4331,40.6069,1008.1135],[31.42,40.6108,1175.517],[31.3882,40.6132,1491.1357],[31.3767,40.6185,1201.4297],[31.3696,40.6273,1247.63],[31.3609,40.6615,1352.0355],[31.3166,40.6572,1440.9995],[31.2884,40.6483,1486.7231],[31.2649,40.6468,1469.0271],[31.2461,40.6507,1527.8053],[31.2086,40.6765,1296.1447],[31.1908,40.6818,1201.0369],[31.1556,40.6816,1101.1079],[31.12,40.6717,1513.7502],[31.0649,40.6693,1367.0544],[31.0266,40.6595,1474.8293],[31.0159,40.6598,1483.7493],[31.006,40.662,1459.9473],[30.9546,40.6823,1077.0851],[30.9497,40.6698,1283.5972],[30.948,40.657,1393.8937],[30.9484,40.5886,576.1646],[30.9468,40.5728,541.0498],[30.9428,40.5641,774.5778],[30.9363,40.557,1113.0945],[30.9108,40.5386,1503.2986],[30.921,40.5295,1352.4022],[30.9313,40.5231,1137.6704],[30.9612,40.5167,1261.9135],[30.979,40.5065,1472.9919],[30.9896,40.4948,1440.475],[30.9959,40.4736,822.0588],[31.0085,40.4527,844.1842],[31.0163,40.4444,874.4606],[31.044,40.4307,1207.3246],[31.0607,40.4158,1008.1071],[31.0929,40.4125,1284.7021],[31.1141,40.4054,1217.9011],[31.1443,40.3991,1088.7371],[31.2013,40.3769,1246.9624],[31.2306,40.3596,960.8792],[31.2639,40.3468,1201.2883],[31.3027,40.3421,1072.7615],[31.3311,40.3338,933.9013],[31.4005,40.3318,891.6643],[31.4114,40.3299,864.0104],[31.4326,40.3229,927.7862],[31.4578,40.3208,911.5671]]]]}}