{"type":"Feature","properties":{"GID_2":"TUR.43.2_1","GID_0":"TUR","country":"Turkey","GID_1":"TUR.43_1","province":"Karabük","NL_NAME_1":"NA","county":"Eskipazar","VARNAME_2":"NA","NL_NAME_2":"NA","TYPE_2":"District","ENGTYPE_2":"District","CC_2":"NA","HASC_2":"TR.KB.ES","name":"Eskipazar.county"},
"geometry":{"type": "MultiPolygon","coordinates": [[[[32.5193,40.8392,1248.0756],[32.5875,40.8919,1060.2552],[32.5986,40.8985,1002.51],[32.6141,40.9043,993.9075],[32.6255,40.9105,1011.1086],[32.6748,40.9483,1280.7003],[32.6888,40.9566,1300.8433],[32.7191,40.9631,1299.7902],[32.7437,40.9708,1344.6055],[32.8028,40.9727,1457.4713],[32.8457,40.9803,1479.1945],[32.7826,41.0268,850.3321],[32.7578,41.0191,1292.074],[32.7323,41.0188,1226.9961],[32.6528,41.0407,724.7206],[32.6386,41.0406,491.106],[32.6073,41.0315,680.4237],[32.5789,41.0286,905.1361],[32.5556,41.0235,1077.0359],[32.5267,41.0323,1203.6218],[32.4944,41.0512,1299.465],[32.473,41.054,1395.134],[32.4517,41.0513,1315.285],[32.4192,41.0325,1149.9319],[32.3924,41.0218,1551.8748],[32.3823,41.0194,1628.3447],[32.357,41.0192,1552.656],[32.3466,41.0211,1573.1055],[32.3221,41.0291,1328.5886],[32.2803,41.0311,1339.9082],[32.2852,41.0083,1150.7167],[32.2849,40.9635,985.2354],[32.282,40.9411,873.9999],[32.3136,40.9346,1245.046],[32.3465,40.9163,1723.4271],[32.3765,40.9047,1422.3513],[32.3983,40.8998,1345.0085],[32.4123,40.8929,1338.4856],[32.4429,40.8883,1198.5813],[32.457,40.8814,1421.4749],[32.4848,40.8746,1268.1149],[32.5011,40.8672,1317.5642],[32.508,40.8623,1288.6523],[32.5157,40.8492,1291.6348],[32.5193,40.8392,1248.0756]]]]}}