{"type":"Feature","properties":{"GID_2":"TUR.21.15_1","GID_0":"TUR","country":"Turkey","GID_1":"TUR.21_1","province":"Bursa","NL_NAME_1":"NA","county":"Osmangazi","VARNAME_2":"NA","NL_NAME_2":"NA","TYPE_2":"District","ENGTYPE_2":"District","CC_2":"NA","HASC_2":"TR.BU.BO","name":"Osmangazi.county"},
"geometry":{"type": "MultiPolygon","coordinates": [[[[29.3098,40.1012,1490.0266],[29.2811,40.0987,1739.1235],[29.2301,40.0794,2169.7258],[29.201,40.0775,2421.9377],[29.1793,40.0797,2344.4365],[29.1727,40.0819,2171.4482],[29.1524,40.0941,1924.6863],[29.1397,40.0993,1813.1475],[29.108,40.1025,1864.485],[29.0977,40.1053,1658.7128],[29.0703,40.1236,1304.4182],[29.0573,40.1372,1138.8732],[29.0438,40.1581,819.7331],[29.0397,40.1724,621.0038],[29.0408,40.1973,132.3441],[29.0448,40.2115,98.1046],[29.0254,40.2138,98.2646],[29.0168,40.2111,104.3822],[29.0026,40.2005,117.278],[28.9883,40.1795,172.6123],[28.9748,40.1673,200.2316],[28.9567,40.1546,421.6307],[28.9359,40.146,547.1984],[28.9259,40.1395,493.8305],[28.9129,40.1215,485.9552],[28.893,40.1031,756.9516],[28.8809,40.0894,863.8391],[28.9239,40.0735,647.827],[28.9994,40.0164,1114.882],[29.0104,40.0104,1085.3601],[29.0259,40.0048,1039.2528],[29.0393,39.9967,1013.6284],[29.0819,40.0076,793.533],[29.1501,40.0079,824.5002],[29.1695,40.0098,983.0327],[29.1829,40.0155,974.4367],[29.2142,40.0377,1428.7819],[29.2284,40.0424,1534.6759],[29.2561,40.043,2170.2739],[29.282,40.0374,2338.0918],[29.2929,40.0471,1948.4436],[29.3067,40.0672,2086.5979],[29.3095,40.0792,2016.562],[29.3098,40.1012,1490.0266]]]]}}