{"type":"Feature","properties":{"GID_2":"TUR.58.2_1","GID_0":"TUR","country":"Turkey","GID_1":"TUR.58_1","province":"Mersin","NL_NAME_1":"NA","county":"Aydıncık","VARNAME_2":"NA","NL_NAME_2":"NA","TYPE_2":"District","ENGTYPE_2":"District","CC_2":"NA","HASC_2":"TR.IC.AY","name":"Aydıncık.county"},
"geometry":{"type": "MultiPolygon","coordinates": [[[[33.2213,36.129,15.3489],[33.2254,36.1299,23.12],[33.2318,36.1265,0.0],[33.2349,36.1307,120.8664],[33.2418,36.1282,0.0],[33.2465,36.131,6.7157],[33.2521,36.131,0.0],[33.2535,36.1324,33.1488],[33.2651,36.1324,62.7824],[33.2665,36.1315,0.0],[33.2663,36.1293,0.0],[33.2704,36.1282,0.0],[33.2782,36.1304,0.0],[33.2893,36.129,0.0],[33.2904,36.1326,5.0706],[33.2921,36.1321,3.4018],[33.2951,36.1346,14.3511],[33.2974,36.1343,24.6325],[33.2951,36.1312,0.0],[33.296,36.1301,0.0],[33.3029,36.1307,2.5501],[33.326,36.1426,0.0],[33.3268,36.1468,0.0],[33.331,36.149,5.2392],[33.3357,36.1507,6.6424],[33.3424,36.1496,0.0],[33.3443,36.1524,1.7636],[33.3482,36.151,0.0],[33.3507,36.1543,2.1615],[33.3524,36.1543,1.2786],[33.3601,36.1474,1.7436],[33.3596,36.1457,10.3426],[33.3571,36.1451,25.1839],[33.3576,36.141,8.9325],[33.3632,36.1396,0.0],[33.3649,36.1376,0.0],[33.3679,36.141,5.2768],[33.3732,36.1413,1.5443],[33.3751,36.1385,0.0],[33.3843,36.1396,1.9616],[33.3885,36.1371,3.4129],[33.391,36.1329,0.0],[33.3899,36.1312,0.0],[33.3926,36.1249,0.0],[33.3946,36.1249,0.0],[33.3976,36.129,8.5111],[33.3982,36.1271,3.3781],[33.4029,36.1254,0.0],[33.4057,36.1324,21.9987],[33.4049,36.1362,4.5035],[33.4087,36.1357,23.5374],[33.4154,36.1407,44.9924],[33.4207,36.141,0.0],[33.4215,36.1443,0.0],[33.4293,36.1496,10.2285],[33.4321,36.1454,0.0],[33.4379,36.149,60.5907],[33.4421,36.1485,0.0],[33.4437,36.1524,0.0],[33.4421,36.1546,2.0008],[33.4455,36.1538,1.947],[33.4591,36.1783,144.047],[33.4601,36.1837,108.2971],[33.4591,36.1947,86.921],[33.4439,36.2208,101.1369],[33.4291,36.2398,173.3068],[33.4247,36.2432,491.6332],[33.4001,36.2545,719.6182],[33.2829,36.2997,914.6774],[33.2688,36.3026,932.8807],[33.2535,36.3034,1168.7913],[33.2068,36.3029,1199.5325],[33.1956,36.3015,1244.947],[33.1742,36.2944,1253.2078],[33.1539,36.2905,1419.8223],[33.1414,36.2862,1404.0905],[33.1307,36.2799,1398.1099],[33.1444,36.2721,1365.7092],[33.162,36.2648,1311.8792],[33.169,36.2595,1303.1864],[33.1747,36.2501,996.4797],[33.1806,36.2321,654.1747],[33.2162,36.1765,687.5082],[33.2199,36.1654,298.1668],[33.2213,36.129,15.3489]]]]}}