{"type":"Feature","properties":{"GID_1":"TUR.43_1","GID_0":"TUR","country":"Turkey","province":"Karabük","VARNAME_1":"NA","NL_NAME_1":"NA","TYPE_1":"Il","ENGTYPE_1":"Province","CC_1":"NA","HASC_1":"TR.KB","ISO_1":"NA","name":"Karabük.province"},
"geometry":{"type": "MultiPolygon","coordinates": [[[[32.511,40.8579,1335.8872],[32.5193,40.8392,1248.0756],[32.5875,40.8919,1060.2552],[32.5986,40.8985,1002.51],[32.6141,40.9043,993.9075],[32.6255,40.9105,1011.1086],[32.6748,40.9483,1280.7003],[32.6919,40.9579,1317.4365],[32.7191,40.9631,1299.7902],[32.7437,40.9708,1344.6055],[32.8098,40.9737,1491.8918],[32.8694,40.9859,1400.7338],[32.891,40.9931,1023.4548],[32.9258,40.997,1408.0725],[32.9511,41.0047,1086.014],[32.9859,41.0086,1112.6525],[33.0107,41.0158,907.3862],[33.0279,41.0165,928.1813],[33.0485,41.0423,922.2196],[33.0636,41.0656,559.5767],[33.0771,41.0889,1150.7039],[33.0426,41.1196,493.2218],[33.0319,41.1359,488.1956],[33.0259,41.1423,508.428],[32.9837,41.1749,771.498],[32.9452,41.191,623.0178],[32.9276,41.1952,442.3586],[32.9201,41.2056,407.3394],[32.9173,41.2146,508.1896],[32.9158,41.2592,891.2758],[32.9138,41.2755,968.8947],[32.9189,41.2851,914.9556],[32.9511,41.3336,992.1132],[32.9604,41.3407,968.7756],[32.9872,41.3528,1063.3844],[33.0109,41.3708,1027.4288],[33.0192,41.3799,968.3649],[33.0264,41.3921,924.2853],[33.0448,41.4165,1016.0037],[33.0247,41.4382,974.1374],[32.9604,41.5394,851.3737],[32.9525,41.5464,874.8036],[32.945,41.5506,1079.0178],[32.9256,41.554,1178.1385],[32.8581,41.5285,735.0881],[32.8232,41.5131,853.3044],[32.8091,41.527,1082.6434],[32.8001,41.5286,1073.6293],[32.7907,41.5258,1029.0955],[32.7755,41.5138,1068.3962],[32.764,41.497,891.9042],[32.7556,41.4892,862.946],[32.7081,41.4705,584.0116],[32.6979,41.464,420.5912],[32.6795,41.4366,532.8766],[32.6743,41.4179,880.6027],[32.6651,41.4016,1332.9158],[32.6605,41.3857,1491.4347],[32.6567,41.3779,1534.8293],[32.6452,41.3664,1517.9026],[32.6093,41.3397,1405.856],[32.4919,41.2923,1211.5889],[32.4673,41.2782,1050.8105],[32.4487,41.2716,597.3107],[32.4311,41.2632,799.7675],[32.4273,41.2587,644.4011],[32.4285,41.2543,571.7532],[32.3956,41.2497,702.2394],[32.3743,41.2425,495.3385],[32.354,41.2385,240.6819],[32.3197,41.2399,691.4412],[32.3019,41.2376,377.2555],[32.2149,41.2042,477.0326],[32.2026,41.1982,584.8381],[32.1805,41.1818,783.7463],[32.1669,41.174,1102.1476],[32.1424,41.1634,973.429],[32.1341,41.1575,1048.5225],[32.1227,41.1462,1065.7308],[32.1096,41.1251,773.0078],[32.1066,41.1173,872.5591],[32.1025,41.0925,814.1094],[32.0934,41.0761,969.8949],[32.0909,41.0675,1008.7827],[32.0898,41.0431,1005.5311],[32.092,41.0184,915.55],[32.1665,41.0181,1175.082],[32.1787,41.016,1225.0984],[32.2005,41.0091,1540.6954],[32.2172,41.0073,1284.7039],[32.2852,41.0083,1150.7167],[32.2849,40.9635,985.2354],[32.282,40.9411,873.9999],[32.3136,40.9346,1245.046],[32.3465,40.9163,1723.4271],[32.3765,40.9047,1422.3513],[32.3983,40.8998,1345.0085],[32.4123,40.8929,1338.4856],[32.4429,40.8883,1198.5813],[32.457,40.8814,1421.4749],[32.4848,40.8746,1268.1149],[32.506,40.8642,1298.9351],[32.511,40.8579,1335.8872]]]]}}