{"type":"Feature","properties":{"GID_2":"TUR.7.15_1","GID_0":"TUR","country":"Turkey","GID_1":"TUR.7_1","province":"Ankara","NL_NAME_1":"NA","county":"Kalecik","VARNAME_2":"NA","NL_NAME_2":"NA","TYPE_2":"District","ENGTYPE_2":"District","CC_2":"NA","HASC_2":"TR.AN.KC","name":"Kalecik.county"},
"geometry":{"type": "MultiPolygon","coordinates": [[[[33.2825,40.0056,1376.2737],[33.3059,40.0017,1472.1169],[33.513,39.9214,1090.6932],[33.5247,39.9149,1110.0903],[33.5544,39.8937,1029.892],[33.5717,39.8857,885.0206],[33.5824,39.8785,815.1159],[33.5954,39.884,922.9269],[33.6033,39.8919,949.9251],[33.6164,39.9126,952.7228],[33.6195,39.9274,941.692],[33.6194,39.9583,1094.5847],[33.6149,39.9713,1180.5293],[33.5785,40.0266,1095.4958],[33.5757,40.0344,1083.4277],[33.5765,40.0481,1061.3837],[33.5869,40.0669,1102.2258],[33.592,40.0944,1117.8691],[33.6013,40.1108,931.4781],[33.6093,40.1343,865.285],[33.6527,40.2019,974.8031],[33.6611,40.2109,935.11],[33.6861,40.2318,900.7503],[33.7015,40.2527,780.7562],[33.7291,40.2784,643.9974],[33.6964,40.2865,649.6929],[33.664,40.3053,616.6973],[33.577,40.3391,1086.2593],[33.567,40.3414,1022.3455],[33.5315,40.3451,833.347],[33.4982,40.3572,731.9723],[33.4769,40.3675,841.9762],[33.427,40.3857,974.2443],[33.4099,40.389,984.0569],[33.3737,40.3909,883.0799],[33.3641,40.3859,910.712],[33.3539,40.3761,808.0217],[33.3457,40.353,774.5503],[33.3308,40.3347,781.2946],[33.3176,40.3311,811.0587],[33.2803,40.3284,808.4224],[33.2714,40.309,883.4041],[33.2628,40.2953,999.238],[33.2595,40.2806,1043.3066],[33.2604,40.2593,1201.5264],[33.2631,40.2507,1298.2959],[33.2725,40.2345,1427.9938],[33.2738,40.2264,1437.4844],[33.2718,40.2155,1387.5669],[33.2549,40.1898,1535.2317],[33.2213,40.1608,1381.3042],[33.2156,40.1504,1373.4156],[33.2147,40.1339,1355.4613],[33.2163,40.1217,1414.032],[33.2569,40.1221,1167.575],[33.2667,40.1198,1168.8474],[33.2717,40.1156,1277.5083],[33.2737,40.1102,1280.4199],[33.2729,40.1017,1354.9364],[33.2634,40.0856,1569.1781],[33.2598,40.0736,1583.115],[33.2591,40.0417,1699.7203],[33.2641,40.0266,1498.6082],[33.2825,40.0056,1376.2737]]]]}}