{"type": "Feature","bbox": [37.1898,37.8087,39.1422,39.1398],"geometry": {"type": "MultiPolygon","coordinates": [[[[38.1454,38.0469,1479.3787],[38.1378,38.061,1693.5542],[38.1348,38.0894,2140.9556],[38.1642,38.0946,1806.8345],[38.2244,38.1177,1819.4705],[38.2569,38.1365,2167.1104],[38.3625,38.177,1545.5488],[38.3986,38.1996,2030.4103],[38.4495,38.2111,2050.106],[38.4712,38.2182,1806.1851],[38.5062,38.2223,1759.0793],[38.5307,38.23,1666.7797],[38.5458,38.23,1607.561],[38.5524,38.2259,1625.2354],[38.5849,38.2177,1651.9355],[38.6345,38.1992,1447.9298],[38.6303,38.1798,1533.6156],[38.6243,38.1692,1576.1458],[38.6144,38.1599,1500.7336],[38.5968,38.1476,1243.9563],[38.5678,38.1348,1561.9929],[38.563,38.1293,1686.8237],[38.5629,38.1245,1726.3396],[38.5676,38.1188,1568.6218],[38.5724,38.1161,1538.3914],[38.629,38.0953,1775.0267],[38.6553,38.0917,1823.7784],[38.8589,38.0924,1874.604],[38.8699,38.0943,1753.7369],[38.8913,38.1014,2058.0103],[38.9376,38.1046,1877.2864],[38.9663,38.1129,1490.157],[39.0051,38.1175,1448.4222],[39.0655,38.1401,1476.4136],[39.0746,38.145,1502.4529],[39.0901,38.1575,1522.0337],[39.1016,38.1742,1434.5248],[39.1198,38.1929,754.5847],[39.1243,38.2003,1120.281],[39.1288,38.2361,1251.0438],[39.1398,38.2584,683.0],[39.1413,38.2642,683.0],[39.1422,38.2854,898.7007],[39.1401,38.2973,952.8256],[39.1191,38.3383,862.7004],[39.0607,38.3348,699.2014],[39.0317,38.3266,740.8926],[38.9971,38.3227,687.0],[38.9874,38.3194,687.0],[38.9686,38.309,697.7717],[38.9362,38.3313,935.8329],[38.9152,38.3398,1217.3582],[38.8887,38.3565,703.9937],[38.8694,38.3658,1347.3899],[38.8649,38.3748,1186.7361],[38.8494,38.3914,1062.4331],[38.8292,38.4021,957.7871],[38.8138,38.4056,1147.3961],[38.7388,38.4068,688.5],[38.7269,38.4082,688.5],[38.7024,38.4147,688.5],[38.6927,38.4143,688.5],[38.6842,38.412,688.5],[38.67,38.4221,688.5],[38.6602,38.4266,688.5],[38.6491,38.4288,692.0024],[38.6031,38.4322,735.7494],[38.5254,38.462,688.5],[38.4753,38.4659,688.5],[38.4468,38.474,688.5],[38.4299,38.475,691.2405],[38.4129,38.4926,688.5],[38.3904,38.5032,688.5],[38.3832,38.5082,688.5],[38.3646,38.5354,688.5],[38.3581,38.5566,688.5],[38.3492,38.5731,701.007],[38.3473,38.5862,688.5],[38.3814,38.6406,688.5],[38.4022,38.6613,688.5],[38.4137,38.6778,688.5],[38.4453,38.7055,738.2386],[38.4563,38.7222,759.9958],[38.467,38.7324,759.8271],[38.4834,38.7418,779.8075],[38.4956,38.7441,781.4398],[38.548,38.7456,917.3285],[38.5968,38.743,1002.3973],[38.6171,38.743899999999996,789.2036],[38.6273,38.7478,765.5459],[38.6324,38.7557,927.017],[38.6336,38.7648,873.6061],[38.6313,38.8765,1057.1727],[38.6215,38.8965,1010.8947],[38.6144,38.9174,1060.4252],[38.5895,38.9573,1193.6803],[38.5877,38.9787,1257.6055],[38.5901,38.9877,1272.0812],[38.6025,39.0047,835.5],[38.6132,39.0108,1124.6748],[38.6279,39.0124,1265.3328],[38.6518,39.0117,1128.7478],[38.6674,39.0091,974.4692],[38.6819,39.0046,1013.4285],[38.6619,39.0432,1113.9829],[38.6565,39.0507,967.9351],[38.6353,39.0686,944.4456],[38.617,39.0795,1186.248],[38.5234,39.1149,1415.021],[38.5048,39.1166,1467.6621],[38.4163,39.1175,1489.542],[38.4061,39.1199,1437.2804],[38.3545,39.1398,1744.4666],[38.3182,39.1397,1693.2095],[38.3009,39.1367,1751.7797],[38.2738,39.1265,1633.4419],[38.2592,39.1176,1666.97],[38.2418,39.0999,1667.774],[38.2117,39.0838,2024.0859],[38.1814,39.0726,1824.4952],[38.1492,39.0699,2102.4861],[38.027,39.0702,2481.7322],[38.0038,39.0675,2161.8777],[37.986,39.0614,2005.7517],[37.9742,39.0595,2322.9512],[37.9395,39.0591,2496.2427],[37.8983,39.045,2143.5334],[37.7909,39.003,1346.3818],[37.7657,39.0004,1340.8613],[37.7249,39.0021,1403.1508],[37.6904,39.0005,1583.3837],[37.6474,39.001,1591.5469],[37.6317,39.0029,1677.0635],[37.6075,39.011,1917.196],[37.5943,39.0114,1912.3779],[37.5881,39.0099,1881.6354],[37.5831,39.0069,1862.6447],[37.5649,38.9841,1516.63],[37.5588,38.9811,1479.5303],[37.5536,38.9684,1479.2079],[37.5519,38.9594,1489.599],[37.5511,38.941,1319.5454],[37.5527,38.9259,1384.2549],[37.556,38.9178,1429.4414],[37.5782,38.8833,1553.0037],[37.5854,38.8623,1646.353],[37.5935,38.8485,1873.3667],[37.5963,38.8366,1841.4166],[37.5946,38.8183,1594.7722],[37.5849,38.8017,1773.573],[37.5739,38.7764,1658.3713],[37.5614,38.7741,1786.1665],[37.541,38.7605,1490.0276],[37.5274,38.7483,1580.2484],[37.5129,38.7274,1623.7355],[37.486,38.7062,1615.8887],[37.4566,38.6932,1530.7141],[37.4203,38.6683,1339.5347],[37.3936,38.6568,1354.9373],[37.3328,38.6115,1778.6895],[37.3212,38.6067,1882.2488],[37.3033,38.6037,2071.5635],[37.2931,38.5997,2042.2935],[37.2884,38.5959,2070.3567],[37.2894,38.58,2224.2773],[37.2797,38.5618,1912.7246],[37.2741,38.5544,1887.7719],[37.2465,38.5328,1802.7189],[37.2139,38.517,1694.2732],[37.2076,38.5111,1677.7734],[37.1921,38.4881,1651.6066],[37.1898,38.48,1669.9719],[37.1908,38.4693,1757.6873],[37.1978,38.4611,1762.4233],[37.206,38.4584,1877.1177],[37.2252,38.4632,1891.1995],[37.2437,38.4651,1702.7651],[37.3617,38.4654,1605.2272],[37.3805,38.4636,1647.7325],[37.4091,38.4551,1719.432],[37.4441,38.4533,1731.5055],[37.4623,38.4502,1827.5707],[37.6394,38.3815,2018.8281],[37.6632,38.3688,2021.9414],[37.6993,38.3581,1668.1729],[37.7289,38.3411,1689.0732],[37.7507,38.3322,1652.302],[37.7593,38.3266,1693.1377],[37.771,38.3155,1791.2349],[37.7738,38.3101,1861.2534],[37.7761,38.2927,1945.6564],[37.7756,38.2416,1992.2336],[37.7741,38.2271,2221.1633],[37.7709,38.2192,2313.8315],[37.7486,38.1846,2204.9839],[37.7417,38.1635,2403.5437],[37.7325,38.1468,2332.874],[37.7283,38.1228,2099.7832],[37.7175,38.1002,1837.8792],[37.7125,38.0733,1607.9344],[37.7033,38.0566,1500.1702],[37.6951,38.0331,1246.4873],[37.6731,37.9984,1192.6494],[37.6663,37.9773,1147.9773],[37.6429,37.9402,1721.1047],[37.6349,37.9168,1678.354],[37.5914,37.8491,1277.5339],[37.5667,37.8239,917.1763],[37.5582,37.8087,957.9552],[37.5778,37.8152,994.8257],[37.5942,37.8249,899.3051],[37.6307,37.8263,872.8317],[37.6635,37.8353,968.0472],[37.7053,37.8365,888.3881],[37.7373,37.8341,1090.9415],[37.7405,37.8416,1108.5997],[37.7461,37.8487,999.01],[37.7582,37.8592,789.1511],[37.7695,37.8663,795.4299],[37.7792,37.87,846.1498],[37.803,37.8743,857.7426],[37.8244,37.8815,907.5436],[37.8512,37.8834,1263.1379],[37.8862,37.882,1753.6775],[37.9145,37.8731,2309.0554],[37.9382,37.8683,2307.6465],[37.9557,37.8618,1830.5599],[37.9733,37.8602,1585.751],[37.9868,37.8627,1521.4908],[38.0646,37.8927,1276.3357],[38.0885,37.8971,1278.6052],[38.1101,37.9042,1183.9481],[38.1486,37.9087,1800.28],[38.1811,37.919,1748.7416],[38.1785,37.9462,1978.4653],[38.1678,37.9682,1815.0516],[38.1635,37.9922,1521.1722],[38.1528,38.0148,1915.4697],[38.1491,38.0358,1492.8856],[38.1454,38.0469,1479.3787]]]]}
,"properties": {"GID_1": "TUR.55_1","GID_0": "TUR","country": "Turkey","province": "Malatya","VARNAME_1": "NA","NL_NAME_1": "NA","TYPE_1": "Il","ENGTYPE_1": "Province","CC_1": "NA","HASC_1": "TR.ML","ISO_1": "TR-44","name": "Malatya.province","area_km2": 11489.803,"hist_schema_id": "Elevation0-9000","hist_area_km2": {"550": 0.55,"575": 0.267,"600": 0.45,"625": 0.383,"650": 0.4,"675": 4.343,"700": 200.162,"725": 160.601,"750": 165.286,"775": 164.759,"800": 176.085,"825": 184.068,"850": 181.419,"875": 170.874,"900": 187.937,"925": 196.369,"950": 207.166,"975": 203.394,"1000": 203.924,"1025": 196.976,"1050": 197.728,"1075": 201.165,"1100": 205.066,"1125": 207.314,"1150": 207.983,"1175": 216.634,"1200": 224.803,"1225": 238.915,"1250": 231.794,"1275": 240.656,"1300": 249.707,"1325": 251.402,"1350": 249.475,"1375": 254.144,"1400": 265.076,"1425": 272.111,"1450": 291.304,"1475": 288.606,"1500": 283.379,"1525": 285.378,"1550": 272.318,"1575": 272.827,"1600": 272.842,"1625": 265.009,"1650": 258.413,"1675": 245.929,"1700": 234.876,"1725": 215.824,"1750": 197.965,"1775": 181.578,"1800": 177.09,"1825": 163.486,"1850": 146.179,"1875": 133.915,"1900": 127.279,"1925": 113.951,"1950": 97.484,"1975": 86.0,"2000": 77.478,"2025": 66.618,"2050": 61.208,"2075": 54.833,"2100": 47.66,"2125": 40.696,"2150": 34.719,"2175": 30.395,"2200": 26.845,"2225": 23.397,"2250": 18.956,"2275": 15.9,"2300": 12.537,"2325": 10.193,"2350": 8.747,"2375": 7.333,"2400": 6.087,"2425": 4.758,"2450": 3.894,"2475": 3.115,"2500": 2.3,"2525": 0.899,"2550": 0.183}}}