{"type": "Feature","id": "2284","bbox": [37.22587,37.82048,39.14855,39.15027],"geometry": {"type": "Polygon","coordinates": [[[38.6879,39.02297,877.4195],[38.62362,39.08216,1132.5657],[38.58093,39.10195,1053.9839],[38.53556,39.11591,1412.9888],[38.44089,39.11952,1578.199],[38.36172,39.15027,1916.894],[38.2839,39.1297,1660.7898],[38.21227,39.08756,1870.1017],[38.14768,39.07258,2314.522],[38.08019,39.08017,2322.3003],[38.04432,39.0749,2473.0933],[38.01001,39.06369,2030.615],[37.93198,39.06234,2503.085],[37.89488,39.04811,2296.353],[37.85943,39.0294,1764.7554],[37.8216,39.01695,1552.8529],[37.78584,38.99834,1341.8127],[37.70223,38.98431,1532.5732],[37.61758,39.017,1937.7534],[37.57355,39.00821,1731.125],[37.55164,38.96943,1490.2473],[37.56136,38.92217,1300.4861],[37.57955,38.87745,1523.8873],[37.59112,38.85665,1736.604],[37.59691,38.83432,1831.3739],[37.58048,38.79683,1726.4116],[37.50978,38.73663,1595.3489],[37.46689,38.71441,1677.4269],[37.44467,38.70823,1468.2817],[37.39361,38.66131,1422.8708],[37.34287,38.62493,1739.374],[37.28437,38.60359,1919.4449],[37.22587,38.52633,1737.9524],[37.23714,38.46716,1888.6143],[37.25512,38.46652,1826.5972],[37.29171,38.47349,1620.7462],[37.31073,38.47491,1527.916],[37.45966,38.44957,1860.5372],[37.58719,38.38998,1447.5415],[37.6552,38.37466,1974.415],[37.73365,38.34621,1649.3007],[37.78232,38.27836,2096.6423],[37.77623,38.23718,2001.4833],[37.72135,38.12263,2533.7959],[37.71525,38.09269,1881.9421],[37.69685,38.06936,1393.5979],[37.68176,38.05675,1378.62],[37.6582,38.0267,1339.3209],[37.60693,37.87955,1305.0526],[37.56528,37.82048,906.5016],[37.7076,37.84203,803.4014],[37.79597,37.87118,762.4579],[37.88795,37.88097,1753.6775],[37.93053,37.87045,2345.2617],[37.97353,37.8657,1695.243],[38.00949,37.87503,1813.755],[38.04443,37.88875,1629.4376],[38.12763,37.90497,1515.9586],[38.18922,37.94851,1938.8499],[38.19088,38.00081,1295.9056],[38.21734,38.04047,1674.4475],[38.29495,38.07383,1411.7905],[38.3579,38.14902,1639.8079],[38.43086,38.21413,1951.4012],[38.50094,38.21462,1830.0615],[38.56088,38.22844,1575.8688],[38.61866,38.21906,1663.866],[38.62279,38.18658,1593.7319],[38.58445,38.15765,1294.8142],[38.56388,38.14672,1187.0134],[38.57142,38.12594,1498.8853],[38.58755,38.11953,1452.2687],[38.60346,38.11044,1520.5992],[38.6631,38.09817,1705.9886],[38.73338,38.09842,1439.5244],[38.80324,38.09034,1268.3973],[38.87662,38.10243,1704.432],[38.90515,38.10284,1976.8411],[38.93202,38.10729,1953.6606],[38.97274,38.12313,1661.5624],[39.01563,38.1308,1494.2068],[39.06948,38.1515,1460.4747],[39.11485,38.19271,551.4889],[39.14855,38.28418,683.0],[39.14503,38.30784,683.0],[39.13242,38.32965,854.8646],[39.11485,38.34353,717.4103],[39.07341,38.34794,725.3285],[38.99217,38.32603,767.1967],[38.95724,38.33048,796.1829],[38.92789,38.35234,774.931],[38.91114,38.36066,817.213],[38.88551,38.36402,687.5],[38.88386,38.36898,687.5],[38.86102,38.39877,688.0],[38.85285,38.40466,769.6292],[38.82691,38.41864,767.9395],[38.83435,38.42608,688.5],[38.81048,38.44029,688.5],[38.77896,38.43693,688.5],[38.71767,38.41864,688.5],[38.68894,38.42073,688.5],[38.6078,38.45339,701.3595],[38.60057,38.45308,688.5],[38.59457,38.45021,688.5],[38.58765,38.44985,688.5],[38.57142,38.46228,688.5],[38.56667,38.4646,688.5],[38.5398,38.47042,688.5],[38.48171,38.47595,688.5],[38.46869,38.4792,688.5],[38.4566,38.48494,688.5],[38.44327,38.49434,688.5],[38.42559,38.51243,688.5],[38.41422,38.51677,688.5],[38.40296,38.50801,688.5],[38.38663,38.51868,688.5],[38.3735,38.53651,688.5],[38.36461,38.55641,688.5],[38.36141,38.57318,688.5],[38.35769,38.58255,688.5],[38.35128,38.58863,688.5],[38.34891,38.59563,688.5],[38.36379,38.6163,688.5],[38.3704,38.63452,688.5],[38.37567,38.64519,688.5],[38.38704,38.66033,688.5],[38.40244,38.67343,688.5],[38.42208,38.68265,688.5],[38.44668,38.68617,688.5],[38.46042,38.69242,688.5],[38.47262,38.70746,688.5],[38.4781,38.72544,688.5],[38.47127,38.74076,744.4091],[38.48357,38.75304,688.5],[38.5089,38.75681,806.9094],[38.61866,38.74823,688.5],[38.63168,38.75226,935.6954],[38.63302,38.76241,935.3961],[38.63158,38.77572,920.8764],[38.63571,38.78172,699.0085],[38.62393,38.81262,1105.3444],[38.62434,38.83448,1131.8579],[38.61938,38.89595,1021.9354],[38.60677,38.92478,991.977],[38.58992,38.95078,1112.8448],[38.5893,38.99219,1253.0947],[38.6168,39.02031,1219.3651],[38.6879,39.02297,877.4195]]]}
,"properties": {"ISO3166-1-Alpha-3": "TUR","country": "Turkey","fill": "#F00","name": "Malatya","area_km2": 11823.19,"hist_schema_id": "Elevation0-9000","hist_area_km2": {"550": 0.417,"575": 0.217,"600": 0.383,"625": 0.333,"650": 0.3,"675": 15.27,"700": 269.258,"725": 166.799,"750": 171.381,"775": 167.467,"800": 178.064,"825": 185.529,"850": 182.012,"875": 171.001,"900": 188.269,"925": 196.403,"950": 206.838,"975": 203.301,"1000": 203.582,"1025": 197.218,"1050": 199.572,"1075": 204.219,"1100": 207.035,"1125": 208.387,"1150": 208.928,"1175": 217.636,"1200": 227.476,"1225": 242.664,"1250": 235.843,"1275": 245.793,"1300": 255.402,"1325": 255.629,"1350": 252.772,"1375": 257.322,"1400": 280.087,"1425": 279.582,"1450": 298.649,"1475": 293.887,"1500": 287.274,"1525": 290.066,"1550": 279.382,"1575": 281.268,"1600": 282.778,"1625": 275.152,"1650": 265.682,"1675": 250.751,"1700": 237.77,"1725": 219.101,"1750": 202.487,"1775": 186.509,"1800": 182.956,"1825": 168.808,"1850": 151.45,"1875": 140.032,"1900": 132.469,"1925": 118.545,"1950": 102.076,"1975": 90.739,"2000": 81.752,"2025": 70.475,"2050": 64.798,"2075": 59.536,"2100": 51.683,"2125": 44.085,"2150": 37.977,"2175": 33.122,"2200": 29.336,"2225": 25.259,"2250": 20.818,"2275": 17.162,"2300": 13.698,"2325": 11.038,"2350": 9.474,"2375": 8.191,"2400": 6.864,"2425": 5.517,"2450": 4.323,"2475": 3.577,"2500": 2.63,"2525": 1.262,"2550": 0.315}}}