{"type":"Feature","properties":{"GID_2":"TUR.66.1_1","GID_0":"TUR","country":"Turkey","GID_1":"TUR.66_1","province":"Sakarya","NL_NAME_1":"NA","county":"Akyazı","VARNAME_2":"NA","NL_NAME_2":"NA","TYPE_2":"District","ENGTYPE_2":"District","CC_2":"NA","HASC_2":"TR.SK.AK","name":"Akyazı.county"},
"geometry":{"type": "MultiPolygon","coordinates": [[[[30.9108,40.5386,1503.2986],[30.9363,40.557,1113.0945],[30.9428,40.5641,774.5778],[30.9468,40.5728,541.0498],[30.9484,40.5886,576.1646],[30.948,40.657,1393.8937],[30.9497,40.6698,1283.5972],[30.9546,40.6823,1077.0851],[30.8252,40.6828,811.7215],[30.814,40.6846,720.7826],[30.793,40.6917,1227.4617],[30.7726,40.6955,691.3262],[30.7627,40.6994,416.1428],[30.7277,40.7232,67.428],[30.7058,40.7325,54.0359],[30.6944,40.7397,42.3569],[30.6825,40.7507,43.2689],[30.6748,40.7627,53.4737],[30.6669,40.7715,46.9933],[30.6246,40.8063,38.3669],[30.621,40.8114,24.4819],[30.6183,40.8199,22.2476],[30.6134,40.8639,23.2591],[30.5917,40.8351,33.5876],[30.5619,40.7888,22.6134],[30.5587,40.7755,23.0385],[30.5599,40.7673,23.5845],[30.5688,40.7512,26.4157],[30.5715,40.7425,28.4594],[30.5746,40.7103,36.8133],[30.5902,40.6833,45.4002],[30.6029,40.6703,52.2472],[30.6624,40.6251,137.6801],[30.671,40.6148,199.4345],[30.6709,40.6101,274.496],[30.6684,40.6059,284.937],[30.6544,40.5926,350.8723],[30.6499,40.5859,551.8115],[30.6362,40.5424,973.0126],[30.6458,40.5399,1172.1925],[30.6552,40.5354,1079.6345],[30.6762,40.5183,1318.1909],[30.8293,40.5199,1243.2632],[30.8996,40.5376,1451.5432],[30.9108,40.5386,1503.2986]]]]}}