{"type":"Feature","properties":{"GID_2":"TUR.75.17_1","GID_0":"TUR","country":"Turkey","GID_1":"TUR.75_1","province":"Trabzon","NL_NAME_1":"NA","county":"Vakfıkebir","VARNAME_2":"NA","NL_NAME_2":"NA","TYPE_2":"District","ENGTYPE_2":"District","CC_2":"NA","HASC_2":"TR.TB.VA","name":"Vakfıkebir.county"},
"geometry":{"type": "MultiPolygon","coordinates": [[[[39.4033,40.972,1414.8335],[39.3862,40.9812,992.14],[39.3681,40.994,851.9375],[39.3235,41.0291,172.0342],[39.298,41.0532,4.9049],[39.2901,41.0507,3.0664],[39.2701,41.0499,1.4645],[39.2588,41.0474,2.4092],[39.2518,41.0474,2.3619],[39.2479,41.0496,0.4507],[39.2382,41.0513,3.424],[39.2364,41.0205,333.7052],[39.2266,41.0009,427.1328],[39.2235,40.9885,619.4278],[39.2229,40.9657,820.476],[39.2254,40.9459,1019.278],[39.2483,40.9422,865.8862],[39.2696,40.9351,850.516],[39.2992,40.9285,603.7639],[39.3106,40.9193,962.8188],[39.3254,40.8909,1426.3981],[39.3476,40.9014,1412.4474],[39.3641,40.9148,1605.5942],[39.3737,40.9269,1615.2145],[39.4033,40.972,1414.8335]]]]}}