{"type": "Feature","bbox": [38.2892,38.3712,38.6842,38.4764],"geometry": {"type": "MultiPolygon","coordinates": [[[[38.4299,38.475,691.2405],[38.372,38.4764,707.8044],[38.3478,38.4738,708.3774],[38.3247,38.4661,723.7766],[38.2958,38.4539,756.2278],[38.29,38.4485,764.6567],[38.2892,38.4436,770.975],[38.2926,38.4367,781.9692],[38.2968,38.4325,790.5142],[38.3362,38.4011,860.6546],[38.3422,38.3935,889.3015],[38.3467,38.3817,915.2346],[38.3512,38.3756,913.798],[38.3605,38.372,921.2481],[38.3677,38.3712,920.1794],[38.4947,38.3718,1193.15],[38.5101,38.3741,1264.9143],[38.5356,38.3818,996.2384],[38.6186,38.3837,842.2477],[38.6303,38.3857,827.9335],[38.6515,38.3925,759.3442],[38.6767,38.3946,705.2838],[38.6842,38.412,688.5],[38.67,38.4221,688.5],[38.6602,38.4266,688.5],[38.6491,38.4288,692.0024],[38.6031,38.4322,735.7494],[38.5254,38.462,688.5],[38.4753,38.4659,688.5],[38.4468,38.474,688.5],[38.4299,38.475,691.2405]]]]}
,"properties": {"GID_2": "TUR.55.4_1","GID_0": "TUR","country": "Turkey","GID_1": "TUR.55_1","province": "Malatya","NL_NAME_1": "NA","county": "Battalgazi","VARNAME_2": "NA","NL_NAME_2": "NA","TYPE_2": "District","ENGTYPE_2": "District","CC_2": "NA","HASC_2": "TR.ML.BA","name": "Battalgazi.county","area_km2": 275.5973,"hist_schema_id": "Elevation0-9000","hist_area_km2": {"700": 38.1397,"725": 34.772,"750": 29.9609,"775": 30.3966,"800": 28.8393,"825": 26.5994,"850": 21.7325,"875": 15.0371,"900": 11.7315,"925": 9.3227,"950": 5.8825,"975": 4.3537,"1000": 4.2873,"1025": 2.9746,"1050": 2.6424,"1075": 2.31,"1100": 1.7949,"1125": 1.4127,"1150": 1.2632,"1175": 1.0471,"1200": 0.4654,"1225": 0.2659,"1250": 0.1828,"1275": 0.1662,"1300": 0.0166}}}