{"type":"Feature","properties":{"GID_2":"TUR.3.17_1","GID_0":"TUR","country":"Turkey","GID_1":"TUR.3_1","province":"Afyon","NL_NAME_1":"NA","county":"Şuhut","VARNAME_2":"NA","NL_NAME_2":"NA","TYPE_2":"District","ENGTYPE_2":"District","CC_2":"NA","HASC_2":"TR.AF.SH","name":"Şuhut.county"},
"geometry":{"type": "MultiPolygon","coordinates": [[[[30.8607,38.5545,1005.6859],[30.8371,38.5611,1100.6869],[30.8095,38.566,1173.7998],[30.7917,38.5724,1187.6379],[30.7646,38.5778,1336.2494],[30.7434,38.5851,1668.2089],[30.7009,38.5911,1397.2305],[30.6569,38.6075,1265.665],[30.6453,38.6095,1267.0208],[30.5218,38.6099,1578.3241],[30.4979,38.6117,1418.0256],[30.4639,38.6238,1635.735],[30.4312,38.6399,1554.4365],[30.4152,38.6111,1531.9526],[30.3966,38.5834,1571.0187],[30.3677,38.56,1480.0691],[30.3413,38.5456,1593.5723],[30.3458,38.5299,1614.3345],[30.3691,38.4928,1962.9216],[30.3769,38.4692,1738.1299],[30.3919,38.446,1882.9385],[30.4147,38.423,1878.2458],[30.427,38.4024,2082.4216],[30.4286,38.3949,2003.4493],[30.4483,38.3768,1738.2292],[30.5064,38.3315,1567.329],[30.5206,38.3228,1588.9048],[30.5446,38.3127,1533.4191],[30.5547,38.3056,1251.4229],[30.565,38.2951,1293.9066],[30.5803,38.2689,1229.5043],[30.5838,38.2323,1706.8423],[30.5896,38.2201,1820.8854],[30.6101,38.2339,1504.3894],[30.6405,38.2458,1506.8901],[30.6708,38.252,1559.5073],[30.6921,38.2588,1610.677],[30.7309,38.2635,1627.2523],[30.7544,38.2743,1614.8596],[30.7889,38.285,1462.8054],[30.8077,38.2956,1284.8098],[30.8219,38.3092,1208.0369],[30.8303,38.3216,1342.3833],[30.7876,38.3355,1630.5964],[30.7608,38.355,1232.458],[30.75,38.3663,1018.2727],[30.7343,38.3923,1028.0122],[30.732,38.4064,1051.4553],[30.7324,38.4235,1183.6296],[30.737,38.4369,1242.5735],[30.7499,38.4494,1238.3989],[30.7734,38.4654,1207.0372],[30.8002,38.4767,1222.4224],[30.8169,38.49,1159.1124],[30.8279,38.5063,1215.0676],[30.8485,38.5271,1063.4055],[30.8607,38.5545,1005.6859]]]]}}