{"type":"Feature","properties":{"GID_2":"TUR.13.3_1","GID_0":"TUR","country":"Turkey","GID_1":"TUR.13_1","province":"Bartın","NL_NAME_1":"NA","county":"Merkez","VARNAME_2":"Bartin","NL_NAME_2":"NA","TYPE_2":"District","ENGTYPE_2":"District","CC_2":"NA","HASC_2":"TR.BR.BR","name":"Merkez.county"},
"geometry":{"type": "MultiPolygon","coordinates": [[[[32.2296,41.674,23.7606],[32.2287,41.6707,3.6768],[32.216,41.6601,8.9809],[32.2082,41.6585,5.3513],[32.2018,41.654,22.3927],[32.1951,41.6543,0.0],[32.1929,41.6529,32.499],[32.1937,41.6488,7.6061],[32.191,41.6465,71.121],[32.1735,41.6407,0.0],[32.174,41.6393,4.0306],[32.1782,41.6399,2.0058],[32.1818,41.6368,0.0],[32.1799,41.6321,0.0],[32.1765,41.6301,12.2157],[32.1757,41.6276,11.3472],[32.1712,41.6268,1.7377],[32.1696,41.6232,4.0994],[32.161,41.6207,0.0],[32.1604,41.6174,14.3175],[32.154,41.6138,0.0],[32.1551,41.6113,0.0],[32.1493,41.6068,6.8919],[32.1451,41.6076,0.0],[32.1429,41.604,0.0],[32.1218,41.5954,13.8506],[32.1096,41.5951,13.2476],[32.1046,41.5924,15.5993],[32.0843,41.5879,0.7845],[32.0774,41.5846,22.622],[32.0657,41.5838,0.3303],[32.0646,41.5821,0.0],[32.0624,41.5824,1.1517],[32.0626,41.5804,3.6711],[32.0607,41.5796,3.6711],[32.054,41.5796,2.9394],[32.0521,41.5815,0.621],[32.054,41.574,0.4896],[32.0621,41.5701,1.2923],[32.0576,41.5707,0.0995],[32.0529,41.5729,0.2355],[32.0499,41.5793,0.1625],[32.044,41.5771,0.9406],[32.0435,41.574,1.2748],[32.041,41.5771,0.0],[32.0288,41.5746,3.5205],[32.0293,41.5701,1.9156],[32.0274,41.5674,2.6193],[32.0254,41.5654,5.3123],[32.021,41.5668,0.0],[32.0238,41.5649,5.3123],[32.021,41.5629,1.7712],[32.0219,41.5592,22.0105],[32.0324,41.534,252.065],[32.0412,41.5235,405.8379],[32.2111,41.3912,183.2602],[32.2217,41.381,233.4709],[32.2301,41.367,379.3469],[32.2463,41.349,458.1541],[32.2743,41.3306,697.6617],[32.3051,41.3062,622.7269],[32.3133,41.2972,659.8307],[32.3351,41.2618,366.9315],[32.354,41.2385,240.6819],[32.3743,41.2425,495.3385],[32.3956,41.2497,702.2394],[32.4285,41.2543,571.7532],[32.4273,41.2587,644.4011],[32.4311,41.2632,799.7675],[32.4487,41.2716,597.3107],[32.4673,41.2782,1050.8105],[32.4919,41.2923,1211.5889],[32.4798,41.3185,1247.2997],[32.4709,41.3292,1081.7488],[32.446,41.3481,1018.3835],[32.4197,41.3596,603.4187],[32.4084,41.3688,732.6505],[32.3925,41.3942,373.2904],[32.3915,41.4065,287.8515],[32.3952,41.4162,220.9409],[32.4035,41.4246,261.9104],[32.4317,41.4446,275.4372],[32.4474,41.4525,418.1682],[32.4751,41.4806,519.0939],[32.4801,41.4902,632.3284],[32.4837,41.5158,736.384],[32.5008,41.544,223.9825],[32.5146,41.5566,593.8617],[32.5616,41.5922,388.5551],[32.5943,41.6073,544.7721],[32.6546,41.6522,1199.9906],[32.6787,41.6624,1090.9806],[32.7055,41.6784,1117.3267],[32.721,41.6842,1184.9312],[32.732,41.6902,1189.7578],[32.7633,41.711,1098.2822],[32.7649,41.7198,1018.3341],[32.7612,41.7323,1081.9058],[32.7457,41.7531,980.1862],[32.7243,41.7432,914.0213],[32.691,41.731,985.9622],[32.6761,41.729,964.2546],[32.6372,41.7286,827.2468],[32.6222,41.7268,871.1338],[32.6122,41.7231,925.9127],[32.5856,41.7083,659.8564],[32.5571,41.7054,701.9993],[32.5403,41.697,553.5233],[32.5139,41.6911,131.1686],[32.5017,41.6829,208.5217],[32.4922,41.6691,448.5476],[32.4807,41.658,219.3115],[32.469,41.6509,129.6047],[32.4543,41.6474,141.4307],[32.3743,41.648,76.6932],[32.3381,41.6577,111.408],[32.2763,41.6606,74.3681],[32.2296,41.674,23.7606]]]]}}