{"type": "Feature","bbox": [34.2142,40.5518,34.6953,41.0176],"geometry": {"type": "MultiPolygon","coordinates": [[[[34.4163,40.5518,515.8018],[34.4301,40.5598,513.9189],[34.46,40.5712,511.0909],[34.4935,40.5786,517.5131],[34.5261,40.6011,507.5],[34.538,40.6073,507.5],[34.5594,40.6093,508.6207],[34.5813,40.6045,538.5508],[34.6135,40.6185,541.1462],[34.6405,40.6237,712.592],[34.6953,40.6427,1110.9684],[34.6765,40.6664,625.2614],[34.6676,40.6807,830.291],[34.6469,40.7014,1161.5757],[34.6357,40.7177,1021.663],[34.6167,40.7363,1033.3241],[34.5855,40.7851,1242.9963],[34.5828,40.7967,1452.4078],[34.582,40.8299,1309.5225],[34.5793,40.8415,1008.869],[34.5417,40.8991,843.3608],[34.5385,40.9069,954.5927],[34.5373,40.9181,922.887],[34.5384,40.9294,747.3992],[34.5487,40.9513,867.4192],[34.5217,40.9681,1051.1617],[34.4973,40.9721,1190.4684],[34.4762,40.9795,1428.9712],[34.4489,40.9846,1282.0985],[34.4158,40.9977,2055.2744],[34.3864,41.0149,1748.382],[34.3687,41.0176,1689.4269],[34.3541,41.0172,1589.0938],[34.3436,41.0153,1589.0867],[34.3135,41.0038,1503.6099],[34.296,40.9927,1547.2534],[34.2791,40.9763,1496.9762],[34.2821,40.964,1496.2118],[34.2832,40.9459,1650.613],[34.2819,40.9346,1624.7029],[34.2778,40.9272,1600.7148],[34.2544,40.9153,1568.2878],[34.2142,40.9029,1532.4795],[34.2324,40.8788,1568.9493],[34.2406,40.8554,1651.8531],[34.2637,40.8183,1409.2532],[34.2663,40.8067,1671.0182],[34.2681,40.7795,1727.3302],[34.2748,40.767,1595.3911],[34.2959,40.7491,1497.7239],[34.3092,40.743,1662.2261],[34.3179,40.7442,1778.6968],[34.3358,40.755,1438.7396],[34.3414,40.7561,1519.5909],[34.3471,40.755,1553.239],[34.3556,40.7485,1468.8193],[34.3679,40.7278,1074.8005],[34.3706,40.7204,1012.4947],[34.375,40.6922,831.4159],[34.3895,40.6687,745.3259],[34.3996,40.6555,708.0488],[34.4105,40.6352,610.4015],[34.4096,40.6286,601.7407],[34.3912,40.5999,604.6461],[34.389,40.5912,584.5991],[34.3908,40.5846,572.144],[34.4041,40.564,533.1985],[34.4163,40.5518,515.8018]]]]}
,"properties": {"GID_2": "TUR.24.5_1","GID_0": "TUR","country": "Turkey","GID_1": "TUR.24_1","province": "Çorum","NL_NAME_1": "NA","county": "İskilip","VARNAME_2": "NA","NL_NAME_2": "NA","TYPE_2": "District","ENGTYPE_2": "District","CC_2": "NA","HASC_2": "TR.CM.IS","name": "İskilip.county","area_km2": 1084.0669,"hist_schema_id": "Elevation0-9000","hist_area_km2": {"500": 40.2697,"525": 28.6202,"550": 17.7335,"575": 23.4619,"600": 23.5072,"625": 20.8163,"650": 14.5544,"675": 14.3268,"700": 13.3908,"725": 14.0941,"750": 16.3394,"775": 19.0335,"800": 21.261,"825": 23.5838,"850": 25.7487,"875": 27.5616,"900": 29.1334,"925": 32.2774,"950": 34.7491,"975": 35.8866,"1000": 35.0669,"1025": 36.0292,"1050": 32.3826,"1075": 28.4958,"1100": 26.393,"1125": 24.3705,"1150": 24.0312,"1175": 23.7265,"1200": 23.437,"1225": 23.8052,"1250": 22.2973,"1275": 21.59,"1300": 21.0759,"1325": 19.2796,"1350": 18.3004,"1375": 17.625,"1400": 16.8869,"1425": 16.839,"1450": 16.4208,"1475": 16.4819,"1500": 16.9312,"1525": 16.0627,"1550": 14.0565,"1575": 12.5969,"1600": 10.8809,"1625": 9.8061,"1650": 8.5239,"1675": 7.065,"1700": 6.6953,"1725": 5.7811,"1750": 4.9156,"1775": 5.6518,"1800": 4.4503,"1825": 4.3539,"1850": 3.441,"1875": 2.7047,"1900": 1.7604,"1925": 1.6003,"1950": 1.7444,"1975": 1.7123,"2000": 1.4562,"2025": 0.6721,"2050": 0.272,"2075": 0.048}}}