{"type": "Feature","bbox": [39.9878,40.6381,40.214,40.956],"geometry": {"type": "MultiPolygon","coordinates": [[[[40.0403,40.6381,2342.1941],[40.0583,40.6619,2269.1377],[40.0627,40.674,2260.6611],[40.0632,40.7592,755.1766],[40.0639,40.7682,934.042],[40.0679,40.7816,1070.4565],[40.0959,40.8256,759.19],[40.1073,40.8347,429.7049],[40.1215,40.8382,541.8466],[40.1374,40.8389,719.4464],[40.1988,40.8382,1012.5258],[40.2015,40.8573,668.0319],[40.2105,40.8742,481.3893],[40.2135,40.8866,412.3791],[40.214,40.9127,183.0955],[40.2126,40.9249,7.7846],[40.2079,40.9224,2.8394],[40.2024,40.9221,0.3588],[40.2046,40.9232,0.0],[40.204,40.9254,0.0],[40.1987,40.9204,4.5851],[40.1879,40.916,1.2381],[40.1893,40.9188,0.0],[40.1854,40.9149,8.3052],[40.1721,40.9137,27.5409],[40.1654,40.9151,2.824],[40.1549,40.9126,1.9826],[40.1535,40.9132,2.2043],[40.1554,40.9146,0.0],[40.1488,40.9126,1.302],[40.1201,40.9121,2.0776],[40.119,40.9137,2.0776],[40.1101,40.9149,9.4603],[40.1065,40.9171,0.0],[40.094,40.9174,2.6325],[40.0774,40.9249,4.4612],[40.0682,40.9329,0.8601],[40.066,40.9382,0.0],[40.0546,40.9415,6.5506],[40.0529,40.9432,13.4876],[40.0535,40.9454,0.0],[40.0518,40.9449,4.7982],[40.0518,40.9463,0.0],[40.056,40.9457,0.0],[40.0521,40.9479,0.6108],[40.0501,40.9526,0.0],[40.0455,40.956,5.1404],[40.049,40.8987,128.7719],[40.0472,40.8683,384.7493],[40.0355,40.8432,383.1259],[40.0313,40.8073,616.781],[40.0159,40.781,897.2123],[39.9927,40.7467,1044.3368],[39.9888,40.7353,1182.3781],[39.9878,40.7258,1765.3127],[39.9895,40.694,2071.1533],[40.0008,40.6717,2250.2319],[40.0049,40.6585,2534.5569],[40.0403,40.6381,2342.1941]]]]}
,"properties": {"GID_2": "TUR.75.15_1","GID_0": "TUR","country": "Turkey","GID_1": "TUR.75_1","province": "Trabzon","NL_NAME_1": "NA","county": "Sürmene","VARNAME_2": "NA","NL_NAME_2": "NA","TYPE_2": "District","ENGTYPE_2": "District","CC_2": "NA","HASC_2": "TR.TB.SU","name": "Sürmene.county","area_km2": 238.2894,"hist_schema_id": "Elevation0-9000","hist_area_km2": {"0": 4.4214,"25": 3.3966,"50": 3.7334,"75": 3.9419,"100": 3.9581,"125": 4.1987,"150": 4.6157,"175": 4.664,"200": 5.177,"225": 5.4017,"250": 5.8346,"275": 5.2579,"300": 4.8735,"325": 4.9859,"350": 5.4191,"375": 4.5536,"400": 5.0989,"425": 5.0993,"450": 4.9711,"475": 4.9392,"500": 4.4743,"525": 4.8593,"550": 4.4424,"575": 4.7795,"600": 4.09,"625": 4.6679,"650": 4.2989,"675": 3.7056,"700": 4.1227,"725": 4.3636,"750": 3.8988,"775": 3.4177,"800": 2.9685,"825": 3.1611,"850": 2.4554,"875": 2.4877,"900": 2.0385,"925": 1.8139,"950": 1.6054,"975": 1.75,"1000": 1.75,"1025": 1.6539,"1050": 1.4451,"1075": 1.3009,"1100": 1.6381,"1125": 1.5739,"1150": 1.6383,"1175": 1.6544,"1200": 1.3332,"1225": 1.2048,"1250": 1.221,"1275": 1.4459,"1300": 1.0603,"1325": 1.3977,"1350": 1.1246,"1375": 1.1086,"1400": 0.9639,"1425": 1.2372,"1450": 1.2532,"1475": 0.7712,"1500": 0.8355,"1525": 0.8195,"1550": 0.7874,"1575": 0.8195,"1600": 0.8356,"1625": 0.9481,"1650": 0.8517,"1675": 0.8196,"1700": 0.8678,"1725": 1.0446,"1750": 1.2375,"1775": 1.0285,"1800": 1.1571,"1825": 1.35,"1850": 0.9965,"1875": 1.3662,"1900": 1.3019,"1925": 1.3502,"1950": 1.2699,"1975": 1.3664,"2000": 1.5432,"2025": 1.5433,"2050": 1.5112,"2075": 1.7363,"2100": 1.6078,"2125": 2.1063,"2150": 2.2671,"2175": 1.2864,"2200": 0.8523,"2225": 0.9649,"2250": 0.7076,"2275": 0.7237,"2300": 0.6594,"2325": 0.6272,"2350": 0.7398,"2375": 0.6755,"2400": 0.8686,"2425": 0.6755,"2450": 0.7077,"2475": 0.8203,"2500": 0.8364,"2525": 0.8042,"2550": 0.6273,"2575": 0.6595,"2600": 0.5469,"2625": 0.2252,"2650": 0.1126,"2675": 0.0322,"2700": 0.0483}}}