{"type":"Feature","properties":{"GID_2":"TUR.41.12_1","GID_0":"TUR","country":"Turkey","GID_1":"TUR.41_1","province":"Izmir","NL_NAME_1":"NA","county":"Gaziemir","VARNAME_2":"NA","NL_NAME_2":"NA","TYPE_2":"District","ENGTYPE_2":"District","CC_2":"NA","HASC_2":"TR.IZ.GA","name":"Gaziemir.county"},
"geometry":{"type": "MultiPolygon","coordinates": [[[[27.1548,38.3536,162.2587],[27.1245,38.3366,125.8911],[27.1113,38.3273,224.9828],[27.0675,38.3273,467.4396],[27.0651,38.3244,402.494],[27.0934,38.3046,357.4301],[27.1086,38.2998,368.3144],[27.1607,38.2981,125.3041],[27.1784,38.2989,147.2506],[27.2045,38.3037,171.8964],[27.2333,38.2955,231.6329],[27.2234,38.3104,193.7131],[27.2134,38.3191,229.0024],[27.2021,38.3273,247.8389],[27.1839,38.336,221.8202],[27.1548,38.3536,162.2587]]]]}}