{"type":"Feature","properties":{"GID_2":"TUR.29.11_1","GID_0":"TUR","country":"Turkey","GID_1":"TUR.29_1","province":"Elazığ","NL_NAME_1":"NA","county":"Sivrice","VARNAME_2":"NA","NL_NAME_2":"NA","TYPE_2":"District","ENGTYPE_2":"District","CC_2":"NA","HASC_2":"TR.EG.SI","name":"Sivrice.county"},
"geometry":{"type": "MultiPolygon","coordinates": [[[[39.2832,38.367,1828.0476],[39.3124,38.3899,1899.0349],[39.3381,38.3952,1847.5248],[39.3468,38.3986,1854.2098],[39.3505,38.4029,1764.9552],[39.3565,38.4157,1845.5413],[39.3662,38.4248,1805.3763],[39.408,38.4416,1657.9171],[39.4183,38.4474,1618.6522],[39.4231,38.4532,1610.4756],[39.4246,38.4578,1623.1443],[39.4193,38.4693,1320.9434],[39.4108,38.4818,1237.5],[39.3993,38.4866,1237.5],[39.3578,38.4874,1237.5],[39.3427,38.4891,1275.9224],[39.3327,38.4928,1328.9592],[39.3061,38.5076,1625.4784],[39.2675,38.5129,1140.5466],[39.2465,38.5198,980.8568],[39.2326,38.5214,949.0322],[39.2187,38.5199,956.9403],[39.201,38.5135,971.8093],[39.1773,38.5088,1017.0623],[39.1493,38.5002,1088.0016],[39.095,38.4982,1112.2429],[39.0838,38.4963,1141.4746],[39.0587,38.4887,1178.1774],[38.9972,38.4857,1382.6283],[38.9871,38.4821,1314.2375],[38.9608,38.4667,1368.7836],[38.9118,38.4475,1283.6949],[38.9058,38.4397,1148.1686],[38.9004,38.4252,1474.7814],[38.8974,38.4211,1547.1338],[38.8494,38.3914,1062.4331],[38.8649,38.3748,1186.7361],[38.8694,38.3658,1347.3899],[38.8887,38.3565,703.9937],[38.9152,38.3398,1217.3582],[38.9362,38.3313,935.8329],[38.9686,38.309,697.7717],[38.9934,38.3217,687.0],[39.0317,38.3266,740.8926],[39.0607,38.3348,699.2014],[39.1191,38.3383,862.7004],[39.1433,38.3452,1460.6554],[39.182,38.3496,1916.7751],[39.2074,38.3573,2022.3513],[39.2422,38.3613,2051.3467],[39.2634,38.3676,1682.9913],[39.2741,38.3683,2087.4929],[39.2832,38.367,1828.0476]]]]}}