{"type": "Feature","bbox": [34.2339,38.2814,34.3944,38.4734],"geometry": {"type": "MultiPolygon","coordinates": [[[[34.3632,38.2909,1468.2955],[34.366,38.3081,1448.3088],[34.3666,38.3523,1212.6969],[34.3683,38.3677,1181.0166],[34.3791,38.3902,1182.3149],[34.384,38.4172,1190.2339],[34.3944,38.4389,1202.5884],[34.3901,38.448,1207.4291],[34.3795,38.4579,1218.7792],[34.3661,38.4663,1222.7219],[34.348,38.4734,1277.3446],[34.34,38.4551,1260.2018],[34.3338,38.4338,1250.022],[34.3283,38.4266,1225.0051],[34.305,38.4082,1157.0758],[34.2934,38.4016,1168.3622],[34.2754,38.3945,1137.2926],[34.2649,38.3849,1122.0759],[34.2577,38.3525,1161.0271],[34.2378,38.3321,1137.3817],[34.234,38.3249,1133.2688],[34.2339,38.3195,1141.1376],[34.2376,38.3121,1165.6223],[34.2439,38.3062,1161.277],[34.2715,38.2895,1237.7065],[34.2765,38.2814,1244.4238],[34.3016,38.2836,1292.55],[34.3306,38.2917,1353.2618],[34.3469,38.2923,1381.811],[34.3632,38.2909,1468.2955]]]]}
,"properties": {"GID_2": "TUR.5.3_1","GID_0": "TUR","country": "Turkey","GID_1": "TUR.5_1","province": "Aksaray","NL_NAME_1": "NA","county": "Gülağaç","VARNAME_2": "NA","NL_NAME_2": "NA","TYPE_2": "District","ENGTYPE_2": "District","CC_2": "NA","HASC_2": "TR.AK.GL","name": "Gülağaç.county","area_km2": 162.7373,"hist_schema_id": "Elevation0-9000","hist_area_km2": {"1125": 6.019,"1150": 27.6308,"1175": 48.222,"1200": 28.5188,"1225": 10.5886,"1250": 9.8385,"1275": 13.186,"1300": 6.6716,"1325": 3.2609,"1350": 5.0908,"1375": 2.2461,"1400": 0.8486,"1425": 0.4659,"1450": 0.1165,"1475": 0.0333}}}