{"type":"Feature","properties":{"GID_2":"TUR.41.8_1","GID_0":"TUR","country":"Turkey","GID_1":"TUR.41_1","province":"Izmir","NL_NAME_1":"NA","county":"Çeşme","VARNAME_2":"NA","NL_NAME_2":"NA","TYPE_2":"District","ENGTYPE_2":"District","CC_2":"NA","HASC_2":"TR.IZ.CE","name":"Çeşme.county"},
"geometry":{"type": "MultiPolygon","coordinates": [[[[26.4385,38.1882,-0.1551],[26.4374,38.1885,-0.1551],[26.436,38.1851,0.0],[26.4371,38.1829,1.7011],[26.4396,38.1826,0.0],[26.4404,38.1862,0.0],[26.4385,38.1882,-0.1551]]],
[[[26.4524,38.201,0.7255],[26.4429,38.2004,2.5311],[26.4418,38.1982,0.0],[26.4451,38.1985,0.0],[26.4463,38.1963,0.0],[26.4482,38.196,0.0],[26.4524,38.201,0.7255]]],
[[[26.4338,38.1985,0.7088],[26.4321,38.1988,0.0],[26.4279,38.1943,0.0],[26.434,38.1932,0.0],[26.4338,38.1985,0.7088]]],
[[[26.4539,38.3478,5.3388],[26.4554,38.354,2.6386],[26.4504,38.3521,0.0],[26.4518,38.3485,1.6826],[26.4504,38.3471,0.0],[26.4432,38.3482,1.5153],[26.4418,38.3443,1.3903],[26.4396,38.3432,8.9213],[26.4346,38.346,0.0],[26.4299,38.3407,2.0874],[26.4271,38.3418,3.0323],[26.4224,38.3379,0.8791],[26.4199,38.3393,0.0],[26.419,38.3357,1.0373],[26.4251,38.3363,1.2471],[26.4243,38.3335,2.442],[26.419,38.3307,1.1536],[26.4174,38.3335,1.8268],[26.4093,38.3321,0.0],[26.4079,38.3276,0.3143],[26.4046,38.3276,1.3772],[26.4018,38.3235,2.6265],[26.3979,38.3246,0.3667],[26.3946,38.3218,1.1574],[26.3951,38.329,17.7746],[26.4021,38.3326,0.6075],[26.401,38.3365,11.2777],[26.3985,38.3385,8.1033],[26.3979,38.3413,0.0],[26.3949,38.3429,0.7873],[26.3924,38.3424,0.0],[26.3874,38.3368,4.6692],[26.3887,38.3451,0.0],[26.3876,38.3482,0.0],[26.3843,38.3488,0.0],[26.3826,38.3363,0.0],[26.384,38.3321,0.0],[26.3882,38.3315,7.5903],[26.3857,38.3282,17.1631],[26.3854,38.3221,0.0],[26.3829,38.3201,0.0],[26.3849,38.3171,0.0],[26.3843,38.3146,3.0003],[26.3785,38.309,1.5876],[26.3637,38.3079,0.6628],[26.3585,38.3107,6.8574],[26.3618,38.3132,0.0],[26.3579,38.3146,0.0],[26.3532,38.314,0.4628],[26.3443,38.3199,0.3176],[26.346,38.3226,0.1888],[26.3449,38.3343,0.0],[26.3415,38.3324,0.0],[26.3404,38.3251,2.821],[26.3332,38.324,1.6804],[26.3257,38.3257,1.9536],[26.3188,38.3301,4.5679],[26.3168,38.3368,1.9959],[26.3118,38.3387,2.1424],[26.3137,38.3404,0.0],[26.3163,38.3393,0.0],[26.3182,38.3407,0.0],[26.3157,38.3462,0.0],[26.3185,38.3476,8.5163],[26.3226,38.346,2.1643],[26.3215,38.3513,18.7611],[26.3249,38.3529,0.0],[26.3232,38.3574,0.0],[26.3171,38.3579,1.7294],[26.3165,38.3601,0.0],[26.3185,38.3599,0.0],[26.319,38.3624,0.6259],[26.3171,38.3646,0.0],[26.3146,38.3643,3.0874],[26.3157,38.3662,0.0],[26.3149,38.3699,12.3307],[26.3168,38.3737,0.0],[26.316,38.3763,0.0],[26.3126,38.3771,0.0],[26.3093,38.3751,6.4083],[26.3107,38.3704,9.8244],[26.3082,38.3671,5.6184],[26.3054,38.3676,0.9043],[26.3049,38.3643,0.8543],[26.3021,38.364,0.0],[26.3046,38.3574,0.0],[26.3026,38.3551,0.8197],[26.3001,38.3551,6.8965],[26.2968,38.3568,13.0728],[26.2965,38.3607,6.0981],[26.2885,38.3671,11.0052],[26.2846,38.3765,0.5734],[26.2843,38.3746,2.9714],[26.2826,38.3743,2.9714],[26.2843,38.361,1.9155],[26.2824,38.3513,0.0],[26.2851,38.3421,1.7314],[26.291,38.3382,13.7549],[26.2949,38.3288,8.2354],[26.3015,38.3249,1.6394],[26.3007,38.3226,0.0],[26.3026,38.3207,0.0],[26.301,38.3201,7.6713],[26.2999,38.3235,0.0],[26.2982,38.3224,0.0],[26.2965,38.3235,0.9108],[26.2862,38.3171,2.4391],[26.2837,38.3246,0.0],[26.281,38.3238,0.0],[26.279,38.3193,0.0],[26.2793,38.3118,0.0],[26.2826,38.3013,16.0856],[26.2796,38.2951,1.6897],[26.2718,38.2901,1.3683],[26.2596,38.2868,13.7081],[26.2554,38.2876,0.0],[26.2501,38.2846,2.3205],[26.2435,38.2893,0.0],[26.2451,38.2938,0.0],[26.2396,38.2954,5.6765],[26.2385,38.2932,4.6734],[26.2335,38.2943,0.0],[26.2318,38.2832,0.0],[26.2329,38.2776,0.0],[26.2315,38.2749,31.3884],[26.2301,38.2751,3.6367],[26.2301,38.2696,1.5298],[26.2315,38.2663,0.0],[26.2346,38.2643,0.0],[26.2415,38.2626,0.0],[26.2438,38.2629,0.0],[26.2457,38.2668,0.0],[26.2493,38.2682,1.8521],[26.2538,38.2676,0.0],[26.2571,38.2696,0.7903],[26.2726,38.2693,5.0672],[26.2754,38.2671,1.8694],[26.2854,38.2651,0.0],[26.2935,38.259,1.4119],[26.2979,38.2593,7.1545],[26.301,38.2571,10.2233],[26.3026,38.2549,0.0],[26.3015,38.2485,1.9203],[26.306,38.2471,3.3414],[26.3068,38.2401,0.0],[26.3126,38.2388,6.6182],[26.3238,38.2304,0.0],[26.3293,38.231,8.6034],[26.3312,38.2276,0.0],[26.3349,38.2257,2.8142],[26.3388,38.226,1.0038],[26.3426,38.2287,0.0],[26.3479,38.229,4.8412],[26.3546,38.2268,0.0],[26.3554,38.2293,0.6575],[26.3593,38.2276,0.0],[26.3613,38.2296,3.5082],[26.3632,38.2271,8.9619],[26.3668,38.2271,3.7277],[26.3685,38.2332,0.0],[26.374,38.2368,0.0],[26.374,38.2399,1.0466],[26.3782,38.241,0.0],[26.3796,38.2449,0.0],[26.3874,38.2474,0.0],[26.3857,38.2501,0.0],[26.3865,38.254,0.0],[26.3824,38.2568,0.8748],[26.3785,38.2629,0.1606],[26.3818,38.2601,0.0],[26.391,38.261,-0.014],[26.3921,38.2585,0.0],[26.4001,38.2524,8.1891],[26.4018,38.2449,0.0],[26.3996,38.2426,0.0],[26.4004,38.2396,0.1439],[26.3957,38.2418,3.689],[26.3899,38.2376,2.0442],[26.3915,38.2287,0.0],[26.389,38.2229,0.0],[26.3937,38.2215,1.3463],[26.4001,38.2165,0.0],[26.4024,38.2168,0.0],[26.4096,38.2132,0.0],[26.4112,38.2088,0.0],[26.4143,38.2101,2.7114],[26.4176,38.2057,0.0],[26.4215,38.2046,11.1606],[26.4229,38.2018,0.0],[26.4299,38.1982,0.0],[26.4313,38.199,0.0],[26.4299,38.2007,0.0],[26.4293,38.2082,0.0],[26.4246,38.2115,0.8384],[26.4196,38.2212,0.0155],[26.4296,38.2218,0.4416],[26.4324,38.219,0.0],[26.4418,38.2188,7.434],[26.444,38.2168,1.2702],[26.4393,38.2143,1.8702],[26.439,38.2124,7.7903],[26.4446,38.2096,0.0],[26.4507,38.2093,1.0079],[26.4513,38.2024,4.2177],[26.4526,38.201,0.7255],[26.456,38.2021,0.0],[26.4585,38.2051,0.0],[26.4607,38.2051,0.0206],[26.4618,38.2032,2.6655],[26.4596,38.1992,9.2088],[26.4757,38.2133,23.4499],[26.4814,38.2239,147.1877],[26.4832,38.2475,103.4705],[26.4828,38.2807,271.9953],[26.482,38.2895,201.0863],[26.4783,38.3003,134.295],[26.4653,38.3215,113.6393],[26.4535,38.3371,63.8312],[26.4539,38.3478,5.3388]]],
[[[26.209,38.2971,4.4285],[26.2071,38.2979,0.0],[26.2074,38.2949,0.0],[26.2088,38.2912,0.0],[26.2107,38.2904,0.0],[26.2113,38.2929,0.0],[26.209,38.2971,4.4285]]]]}}