{"type":"Feature","properties":{"featurecla":"Alkaline Lake","scalerank":4,"name":"Lake Van","name_abb":"L. Van","name_alt":null,"note":null,"delta":null,"dam_name":null,"year":-99,"admin":null,"min_zoom":4.0,"min_label":5.0},
"geometry":{"type": "Polygon","coordinates": [[[43.131266193653971,38.316903478547204,1647.5],[43.150694226044664,38.322202032835577,1649.1035],[43.153049139061693,38.32661749474255,1651.12],[43.148044948900463,38.335154054429381,1647.5],[43.145101307629147,38.351049717294472,1647.5],[43.147456220646205,38.365473559523934,1647.5],[43.153343503188836,38.376070668100681,1647.5],[43.162468791129925,38.382841043024712,1647.5],[43.175715176850844,38.385195956041741,1647.5],[43.184251736537675,38.389022689694457,1647.5],[43.213099420996571,38.408156357958035,1650.6677],[43.219575431793459,38.415515461136323,1647.5],[43.226640170844632,38.418164738280495,1647.5],[43.267262420388789,38.44024204781536,1647.5],[43.306412849297317,38.4396533195611,1647.5],[43.325252153433723,38.486457215775033,1650.2356],[43.316126865492663,38.542386399930052,1647.5],[43.271089154041505,38.569467899626176,1666.0872],[43.258725860701986,38.570939720261833,1652.1326],[43.242535833709724,38.575060818041692,1647.5],[43.226934534971747,38.58065373645718,1647.5],[43.216631790522143,38.586835383126953,1648.0],[43.200147399402766,38.611267605678876,1695.6187],[43.190727747334563,38.620687257747079,1692.1399],[43.175715176850844,38.624808355526937,1653.8958],[43.123907090475683,38.619509801238564,1658.7944],[43.100652324432275,38.613328154568791,1647.5],[43.089760851728386,38.6042028666277,1647.5],[43.082990476804355,38.6042028666277,1647.5],[43.082990476804355,38.611856333933133,1647.5],[43.133032378416743,38.624808355526937,1670.7953],[43.155992780333008,38.6374660129936,1798.1908],[43.16541243240124,38.655716588875748,1706.4363],[43.16865043779967,38.671612251740868,1691.9016],[43.1763039051051,38.685741729843187,1649.0597],[43.192788296224478,38.707230311123794,1647.5],[43.198969942894252,38.712234501285025,1647.5],[43.205445953691139,38.715766870810626,1702.8048],[43.211038872106656,38.720771060971856,1746.6028],[43.213099420996571,38.73107380542146,1746.5579],[43.213688149250828,38.739904729235406,1872.1769],[43.214276877505085,38.745792011778036,1748.5486],[43.216337426395,38.750501837812152,1733.8518],[43.219575431793459,38.754917299719125,1699.5139],[43.229878176243062,38.763453859405956,1647.5],[43.244596382599667,38.769929870202844,1647.5],[43.261375137846159,38.774050967982674,1647.5],[43.277859528965536,38.775522788618332,1650.8376],[43.291989007067855,38.779055158143933,1693.5735],[43.296698833101971,38.787297353703622,1712.3867],[43.295227012466313,38.806725386094314,1705.4261],[43.308767762314346,38.83557307055321,1676.0122],[43.339087267408928,38.845875815002813,1651.092],[43.369701136630624,38.840871624841583,1647.5],[43.3844193429872,38.822621048959405,1647.5],[43.390012261402688,38.822621048959405,1647.5],[43.39943191347092,38.837044891188867,1647.5],[43.412678299191839,38.850291276909786,1647.5],[43.428868326184073,38.858827836596618,1648.4189],[43.446530173811993,38.858239108342332,1821.9022],[43.457127282388711,38.867070032156306,1711.0784],[43.469784939855373,38.868836216919078,1647.5],[43.484503146211978,38.868247488664821,1647.6772],[43.501281901458469,38.871191129936136,1669.1055],[43.521298662103419,38.885320608038455,1651.8302],[43.531307042425908,38.90828100995472,1647.5],[43.534839411951481,38.913285200115979,1662.5369],[43.547497069418142,38.917995026150066,1647.5],[43.596950242776273,38.919761210912867,1676.3379],[43.640516133591746,38.930947047743871,1647.5],[43.659061073601038,38.932713232506643,1652.4883],[43.644637231371604,38.94007233568496,1649.5115],[43.648169600897177,38.943899069337647,1647.9133],[43.651407606295635,38.94507652584619,1648.095],[43.654939975821208,38.945665254100447,1649.8174],[43.659061073601038,38.946842710608991,1652.7889],[43.641399225973146,38.959794732202766,1670.0989],[43.632273938032057,38.963915829982625,1660.2087],[43.624620470726626,38.960383460457024,1647.5],[43.613140269768508,38.96509328649114,1678.5833],[43.59665587864913,38.977456579830658,1675.99],[43.590179867852243,38.980988949356259,1662.0978],[43.578994031021239,38.982460769991917,1664.2961],[43.542198515129769,38.980988949356259,1671.1814],[43.477732771287947,38.993057878568635,1647.5],[43.412089570937582,38.996001519839979,1647.5],[43.407674109030609,38.998356432857008,1651.821],[43.404730467759293,39.000416981746952,1684.0472],[43.401492462360835,39.001594438255466,1683.6846],[43.392955902674004,38.999828253492666,1659.0411],[43.388246076639916,38.995707155712836,1647.5],[43.383830614732943,38.991291693805863,1647.5],[43.377060239808912,38.98775932428029,1647.5],[43.373527870283311,38.987170596026004,1650.8958],[43.359987120435278,38.98775932428029,1651.8682],[43.353511109638362,38.984815683008975,1647.5],[43.351156196621332,38.9777509439578,1647.5],[43.350567468367046,38.9674481995082,1647.5],[43.33761544677327,38.9665651071268,1647.5],[43.327312702323667,38.9683312918896,1647.5],[43.319659235018236,38.972746753796571,1647.5],[43.315538137238377,38.980988949356259,1648.8839],[43.308767762314346,38.980988949356259,1649.448],[43.31082831120429,38.974512938559343,1647.5],[43.313477588348462,38.96097218871131,1647.5],[43.315538137238377,38.954201813787279,1647.5],[43.287573545160882,38.96097218871131,1803.3165],[43.271089154041505,38.962444009346967,1715.2048],[43.254310398795013,38.960383460457024,1671.4601],[43.242241469582609,38.955673634422936,1647.5],[43.231644361005863,38.948903259498906,1647.5],[43.219575431793459,38.942721612829132,1647.5],[43.203385404801224,38.94007233568496,1647.5],[43.161880062875667,38.948020167117505,1788.6306],[43.145101307629147,38.946842710608991,1727.0735],[43.130677465399685,38.942132884574875,1647.5],[43.120963449204339,38.937423058540759,1647.5],[43.110660704754736,38.933890689015186,1648.4055],[43.072099004100494,38.930947047743871,1647.5],[43.06591735743072,38.9256484934555,1647.5],[43.069155362829179,38.902688091539233,1647.5],[43.072099004100494,38.892974075343886,1647.5],[43.079163743151668,38.879727689622968,1647.5],[43.088289031092728,38.866775668029163,1647.5],[43.097119954906674,38.858239108342332,1647.5],[43.129500008891171,38.851763097545444,1649.083],[43.147750584773348,38.865303847393506,1647.5],[43.143923851120633,38.880316417877225,1647.5],[43.110071976500478,38.877961504860167,1647.7457],[43.123907090475683,38.889736069945428,1678.0377],[43.131266193653971,38.893562803598144,1658.4783],[43.133326742543886,38.902688091539233,1649.78],[43.137447840323716,38.905926096937662,1647.5],[43.142157666357832,38.905926096937662,1647.5],[43.14451257937489,38.903571183920633,1647.5],[43.14539567175629,38.900627542649318,1647.5],[43.145101307629147,38.89915572201366,1647.5],[43.177775725740759,38.900333178522175,1647.5],[43.193965752732993,38.897683901377974,1647.5],[43.2069177743268,38.891796618835343,1647.5],[43.195143209241536,38.880610782004339,1647.5],[43.183663008283389,38.850585641036929,1647.5],[43.175715176850844,38.844403994367156,1647.5],[43.162174427002782,38.8411659889687,1647.5],[43.123907090475683,38.81643940228966,1647.5],[43.092410128872586,38.804076108950113,1647.8235],[42.95641390213774,38.784353712432306,1662.3921],[42.941695695781164,38.785236804813678,1673.4014],[42.928743674187359,38.792595907991995,1667.9501],[42.916380380847841,38.796717005771825,1665.2673],[42.898129804965691,38.795833913390425,1649.9772],[42.828365506835468,38.784648076559421,1664.2787],[42.809820566826176,38.785531168940821,1661.2568],[42.80187273539363,38.792595907991995,1684.9714],[42.747415371874268,38.79966064704314,1655.6335],[42.733285893771949,38.803487380695856,1674.1611],[42.709148035347141,38.793184636246252,1732.9231],[42.647625932776634,38.782881891796649,1647.5],[42.620544433080511,38.781704435288106,1651.08],[42.600822036562704,38.778466429889676,1647.5],[42.467769451099173,38.736666723836976,1668.6575],[42.43833303838602,38.720771060971856,1647.5],[42.435389397114704,38.703697941598222,1647.5],[42.44422032092865,38.692217740640075,1647.5],[42.457172342522426,38.67014043110521,1647.5],[42.4660032663364,38.658954594274206,1647.5],[42.4727736412604,38.638349105375,1647.5],[42.476011646658861,38.636288556485056,1647.5],[42.482193293328635,38.633933643468,1647.5],[42.488669304125523,38.630401273942425,1647.5],[42.493967858413896,38.624808355526937,1647.5],[42.423909196156558,38.622747806637022,1699.0044],[42.410662810435639,38.618037980602907,1647.5],[42.408013533291438,38.60744087202616,1647.5],[42.413606451706954,38.598609948212214,1647.5],[42.421259919012385,38.59154520916104,1647.5],[42.425086652665073,38.586835383126953,1647.5],[42.420082462503842,38.581242464711437,1647.5],[42.409485353927096,38.578887551694379,1742.74],[42.390940413917804,38.577121366931607,1647.5],[42.379460212959685,38.56652425835486,1649.2422],[42.361798365331765,38.537970938023079,1647.5],[42.349729436119389,38.528551285954876,1647.5],[42.309695914829462,38.51795417737813,1647.5],[42.299687534507,38.507651432928526,1647.5],[42.308224094193804,38.487634672283576,1647.5],[42.327946490711639,38.487340308156433,1654.2756],[42.349729436119389,38.490872677682034,1827.3164],[42.369746196764339,38.497643052606037,1819.6611],[42.384170038993773,38.507945797055669,1647.5],[42.39565023995192,38.495876867843265,1647.5],[42.409779718054239,38.496171231970379,1695.0856],[42.438627402513134,38.507945797055669,1649.2593],[42.448635782835623,38.514127443725414,1647.5],[42.457172342522426,38.516776720869615,1647.5],[42.4660032663364,38.515010536106814,1647.5],[42.469829999989088,38.508828889437041,1647.5],[42.470124364116231,38.501175422131638,1647.5],[42.468652543480573,38.494993775461865,1647.5],[42.4660032663364,38.494405047207607,1647.5],[42.474834190150347,38.484102302758004,1647.5],[42.486314391108465,38.475271378944029,1647.5],[42.501326961592184,38.4711502811642,1647.5],[42.520754993982877,38.474093922435515,1771.0145],[42.528702825415422,38.478215020215345,1647.5],[42.533118287322395,38.484102302758004,1647.5],[42.536650656847996,38.489695221173491,1685.9537],[42.541654847009227,38.494405047207607,1647.5],[42.550191406696058,38.497643052606037,1647.5],[42.567264526069692,38.502647242767296,1647.5],[42.575801085756495,38.507945797055669,1647.5],[42.58374891718907,38.493521954826207,1647.5],[42.59876148767276,38.485574123393661,1647.5],[42.651747030556464,38.47880374846963,1647.5],[42.663227231514611,38.472327737672714,1675.4822],[42.687070725812276,38.442302596705304,1647.5],[42.691780551846392,38.4387702271797,1647.5],[42.7644884912479,38.444068781468076,1647.5],[42.773908143316106,38.44024204781536,1777.1116],[42.791275626816883,38.446718058612277,1841.9404],[42.798046001740914,38.456432074807623,1815.3916],[42.80187273539363,38.4814530256138,1647.5],[42.818945854767264,38.474093922435515,1647.5],[42.839256979539357,38.469678460528542,1694.5863],[42.856624463040106,38.473799558308372,1805.5131],[42.868399028125367,38.504707791657211,1647.5],[42.876346859557941,38.505885248165725,1647.5],[42.879879229083514,38.500586693877352,1647.5],[42.870165212888168,38.494405047207607,1716.2117],[42.873991946540883,38.486751579902176,1647.5],[42.878996136702114,38.480864297359545,1647.5],[42.88458905511763,38.476743199579687,1647.5],[42.891065065914518,38.474093922435515,1647.5],[42.879290500829256,38.473505194181257,1659.9774],[42.872225761778083,38.471739009418457,1732.7913],[42.871048305269568,38.467617911638627,1647.5],[42.877524316066456,38.460847536714596,1647.5],[42.870165212888168,38.453488433536307,1647.5],[42.884883419244744,38.451133520519249,1647.5],[42.897835440838548,38.447601150993677,1647.5],[42.910787462432353,38.446718058612277,1649.9424],[42.925211304661786,38.453488433536307,1647.5],[42.928449310060245,38.447601150993677,1647.5],[42.939046418636991,38.432882944637072,1647.5],[42.93227604371296,38.4311167598743,1647.5],[42.926977489424587,38.430528031620042,1675.822],[42.924328212280386,38.427878754475842,1647.5],[42.925211304661786,38.418753466534753,1647.5],[42.920795842754814,38.423463292568869,1647.5],[42.91461419608504,38.428761846857242,1773.4552],[42.911670554813725,38.432882944637072,1822.3674],[42.904900179889694,38.432882944637072,1710.7953],[42.897835440838548,38.405801444940977,1647.5],[42.906960728779637,38.403740896051033,1767.1348],[42.91137619068661,38.401680347161118,1647.5],[42.914319831957926,38.398442341762689,1651.5623],[42.918440929737756,38.391966330965772,1720.6162],[42.928449310060245,38.396381792872745,1647.5],[42.936102777365676,38.392849423347172,1647.5],[42.943167516416821,38.385195956041741,1647.5],[42.95317589673931,38.377542488736339,1647.5],[42.95317589673931,38.371655206193708,1647.5],[42.945228065306736,38.360763733489819,1647.5],[42.936985869747048,38.35163844554873,1716.4294],[42.935219684984276,38.343984978243327,1647.5],[42.945522429433879,38.336625875065039,1647.5],[42.9605349999176,38.335448418556496,1647.5],[42.979079939926891,38.336625875065039,1647.5],[42.994386874537724,38.335448418556496,1647.5],[43.000862885334641,38.326911858869693,1647.5],[43.01911346121679,38.316609114420061,1647.5],[43.104184693957848,38.314254201403031,1752.5983],[43.131266193653971,38.316903478547204,1647.5]]]}}