{"type":"Feature","properties":{"GID_2":"TUR.1.2_1","GID_0":"TUR","country":"Turkey","GID_1":"TUR.1_1","province":"Adana","NL_NAME_1":"NA","county":"Ceyhan","VARNAME_2":"NA","NL_NAME_2":"NA","TYPE_2":"District","ENGTYPE_2":"District","CC_2":"NA","HASC_2":"TR.AA.CE","name":"Ceyhan.county"},
"geometry":{"type": "MultiPolygon","coordinates": [[[[35.934,36.8799,0.5337],[35.9188,36.889,113.4628],[35.9136,36.8955,67.9139],[35.9126,36.9035,87.3544],[35.9143,36.9085,170.1857],[35.943,36.9521,133.1222],[35.9542,36.9637,117.5266],[35.9786,36.9828,185.7419],[35.9956,36.9944,179.8536],[36.0118,37.0024,200.9411],[36.0416,37.0256,216.2116],[36.0475,37.0625,33.4647],[36.0576,37.082,37.9486],[36.0603,37.0906,38.1332],[36.0614,37.1089,37.5806],[36.0607,37.118,40.6141],[36.057,37.1292,40.5026],[36.0396,37.1539,37.3581],[36.0323,37.1591,36.3595],[36.0146,37.1664,32.1829],[36.001,37.1742,32.9344],[35.9907,37.1723,31.7495],[35.9788,37.1675,32.1353],[35.9575,37.1545,31.025],[35.8948,37.1291,26.8674],[35.8665,37.12,26.2715],[35.8606,37.1214,27.2121],[35.8542,37.1264,28.0391],[35.852,37.1313,27.0131],[35.853,37.1391,27.6555],[35.8851,37.1873,28.604],[35.9043,37.2083,29.4948],[35.8706,37.2109,29.4156],[35.8256,37.2277,34.5406],[35.8094,37.2309,36.1591],[35.7989,37.2306,37.7906],[35.767,37.222,41.648],[35.736,37.2188,48.4154],[35.7144,37.212,49.2583],[35.7027,37.21,52.1872],[35.5598,37.2103,244.7867],[35.5692,37.1872,219.7874],[35.5792,37.1707,198.1361],[35.5814,37.1588,153.8461],[35.5794,37.1477,183.775],[35.5755,37.143,199.3538],[35.5694,37.1405,181.1816],[35.538,37.14,243.5834],[35.5287,37.1386,252.4339],[35.5241,37.1348,258.2571],[35.5236,37.1274,259.4179],[35.5266,37.1233,244.8208],[35.5335,37.1187,248.7868],[35.5854,37.0995,230.7011],[35.6038,37.0853,204.902],[35.6371,37.0337,133.1149],[35.643,37.0152,124.9606],[35.6531,36.9963,66.5237],[35.6536,36.9827,58.6078],[35.642,36.9581,44.1302],[35.6379,36.922,81.9257],[35.6222,36.8891,64.7904],[35.6173,36.8858,52.3326],[35.6109,36.8841,26.4373],[35.5776,36.8829,13.049],[35.5637,36.8795,12.5966],[35.5528,36.8703,12.0679],[35.5469,36.8566,9.4677],[35.5439,36.853,10.6057],[35.527,36.8463,11.0397],[35.5229,36.8427,11.3634],[35.5201,36.835,15.0031],[35.5204,36.8233,36.5628],[35.5285,36.8022,49.0498],[35.5236,36.7928,22.9839],[35.5138,36.7858,37.7637],[35.5042,36.7838,18.9941],[35.4954,36.7866,18.4325],[35.4755,36.7988,8.044],[35.4665,36.7988,7.8405],[35.4614,36.7956,7.8769],[35.4591,36.7909,7.8166],[35.4563,36.7714,6.8922],[35.4459,36.7494,4.9124],[35.4434,36.715,3.1538],[35.4945,36.7303,5.2723],[35.5406,36.7329,14.5766],[35.5478,36.7347,23.8881],[35.5559,36.739,24.5419],[35.562,36.7449,11.6904],[35.5697,36.7567,37.0489],[35.5791,36.7655,78.7842],[35.5933,36.7746,101.0443],[35.6104,36.7814,74.7557],[35.616,36.7865,86.8514],[35.6174,36.7909,86.113],[35.6159,36.7955,107.6508],[35.6017,36.8085,115.2638],[35.5979,36.815,146.3112],[35.6001,36.8221,122.8074],[35.6056,36.8251,176.31],[35.6192,36.8264,198.0342],[35.6421,36.825,330.8365],[35.6533,36.8228,219.4683],[35.6711,36.8162,223.1201],[35.6859,36.8137,90.7304],[35.7211,36.8131,77.9287],[35.7401,36.8149,77.8683],[35.8036,36.8391,64.4628],[35.8299,36.8546,36.4402],[35.84,36.8583,23.962],[35.8749,36.8603,9.835],[35.9101,36.858,1.3331],[35.9124,36.8643,4.9771],[35.9185,36.8679,5.9564],[35.9176,36.8715,9.607],[35.9224,36.8763,11.1553],[35.934,36.8799,0.5337]]]]}}