{"type": "Feature","bbox": [41.6794,39.3811,42.5236,39.8598],"geometry": {"type": "MultiPolygon","coordinates": [[[[42.2573,39.8503,2370.6228],[42.2298,39.8472,2617.8857],[42.1962,39.8474,2193.2393],[42.184,39.8489,2173.2708],[42.1623,39.856,2321.7085],[42.1422,39.8598,2412.574],[42.0874,39.8382,2583.6833],[42.0603,39.8327,2531.2449],[42.0424,39.8265,2388.1372],[42.0266,39.8243,2199.4312],[41.9516,39.8248,2353.3887],[41.94,39.8268,2351.9194],[41.9185,39.8339,2328.8638],[41.903,39.8356,2092.9766],[41.7574,39.8361,1927.3842],[41.7372,39.8349,2118.7297],[41.7265,39.8324,2204.3413],[41.6794,39.8159,2616.9521],[41.727,39.7791,2408.7659],[41.7401,39.765,2343.7271],[41.743,39.7541,2327.4446],[41.7449,39.7259,2074.0134],[41.7564,39.7014,2194.1875],[41.7601,39.6649,2036.592],[41.7754,39.6387,1807.1128],[41.8297,39.5555,2183.6228],[41.8328,39.5405,2188.6523],[41.8324,39.5164,2528.2334],[41.8612,39.5018,2633.5059],[41.8946,39.4946,2250.6165],[41.9209,39.4841,2463.5176],[41.9302,39.4778,2447.8872],[41.9597,39.474,2146.436],[41.9967,39.461,2329.2744],[42.0261,39.4437,2139.8987],[42.0448,39.4367,2187.6375],[42.0688,39.425,1932.9868],[42.0833,39.4062,1819.6957],[42.0918,39.3923,1689.5309],[42.1041,39.3839,1634.5314],[42.1254,39.3811,1612.7878],[42.1929,39.3815,2002.7996],[42.1963,39.392,1798.8088],[42.2017,39.3992,1758.8711],[42.2273,39.4197,1743.4974],[42.2391,39.4261,1738.6964],[42.2992,39.4494,1789.8813],[42.3329,39.4612,1812.9276],[42.365,39.4643,1851.4974],[42.3931,39.4726,1938.3676],[42.4286,39.4763,1983.2349],[42.4498,39.4835,1929.0934],[42.4715,39.4886,1907.0117],[42.476,39.4915,1891.0801],[42.4911,39.51,1847.3481],[42.5193,39.5544,1711.6453],[42.5236,39.5686,1863.8966],[42.5236,39.5995,1950.1344],[42.5213,39.6104,1995.0996],[42.5124,39.6268,2100.7996],[42.5098,39.6358,2119.0564],[42.5079,39.7243,2160.6704],[42.5062,39.7297,2191.792],[42.4879,39.7571,2584.5308],[42.4748,39.765,2663.6018],[42.4479,39.7749,2373.5127],[42.3903,39.7798,2825.5117],[42.3425,39.7979,2331.249],[42.3152,39.8029,2247.8596],[42.2883,39.8128,2188.2861],[42.2799,39.8171,2170.5342],[42.2733,39.8228,2248.0657],[42.2573,39.8503,2370.6228]]]]}
,"properties": {"GID_2": "TUR.31.8_1","GID_0": "TUR","country": "Turkey","GID_1": "TUR.31_1","province": "Erzurum","NL_NAME_1": "NA","county": "Karayazı","VARNAME_2": "NA","NL_NAME_2": "NA","TYPE_2": "District","ENGTYPE_2": "District","CC_2": "NA","HASC_2": "TR.EM.KR","name": "Karayazı.county","area_km2": 2580.028,"hist_schema_id": "Elevation0-9000","hist_area_km2": {"1600": 0.049,"1625": 0.574,"1650": 1.933,"1675": 4.549,"1700": 12.535,"1725": 19.619,"1750": 41.722,"1775": 43.102,"1800": 49.028,"1825": 54.612,"1850": 61.121,"1875": 70.61,"1900": 76.947,"1925": 78.507,"1950": 81.39,"1975": 89.494,"2000": 94.843,"2025": 99.572,"2050": 100.523,"2075": 108.238,"2100": 115.492,"2125": 121.351,"2150": 110.53,"2175": 94.082,"2200": 91.26,"2225": 91.23,"2250": 83.959,"2275": 96.707,"2300": 80.275,"2325": 68.373,"2350": 58.286,"2375": 52.968,"2400": 47.888,"2425": 43.516,"2450": 37.022,"2475": 36.741,"2500": 32.91,"2525": 29.942,"2550": 27.22,"2575": 24.219,"2600": 22.491,"2625": 20.698,"2650": 19.214,"2675": 18.35,"2700": 15.858,"2725": 12.844,"2750": 9.845,"2775": 6.667,"2800": 5.542,"2825": 4.434,"2850": 3.195,"2875": 2.021,"2900": 1.646,"2925": 1.434,"2950": 1.059,"2975": 0.864,"3000": 0.668,"3025": 0.261}}}