{"type": "Feature","bbox": [29.0703,40.0775,29.3975,40.3574],"geometry": {"type": "MultiPolygon","coordinates": [[[[29.2661,40.3402,609.5281],[29.2764,40.3244,715.6399],[29.2776,40.3136,708.765],[29.2739,40.3069,677.3007],[29.254,40.2864,648.652],[29.248,40.2677,621.5193],[29.2419,40.2586,356.3723],[29.2255,40.2446,91.1326],[29.2097,40.2341,94.6808],[29.1611,40.2156,105.0593],[29.1449,40.2061,106.3325],[29.1442,40.1919,153.3828],[29.142,40.1837,208.4007],[29.1279,40.1644,727.9261],[29.099,40.1472,1332.5945],[29.0703,40.1236,1304.4182],[29.0915,40.1085,1607.4688],[29.1011,40.1041,1687.6638],[29.1397,40.0993,1813.1475],[29.1524,40.0941,1924.6863],[29.1727,40.0819,2171.4482],[29.1793,40.0797,2344.4365],[29.201,40.0775,2421.9377],[29.2301,40.0794,2169.7258],[29.2811,40.0987,1739.1235],[29.3155,40.1025,1371.4039],[29.3207,40.1044,1310.2794],[29.3384,40.1175,797.3571],[29.3517,40.137,500.5743],[29.3602,40.1607,542.5204],[29.3801,40.1813,589.9299],[29.3975,40.2073,388.3478],[29.3684,40.2304,512.0681],[29.3584,40.242,453.3824],[29.3555,40.2529,439.5],[29.3528,40.2838,631.0405],[29.3429,40.3029,722.723],[29.338,40.3304,565.7822],[29.3288,40.3468,772.8792],[29.3254,40.3574,636.5302],[29.3118,40.3548,784.1459],[29.2942,40.3479,674.4145],[29.2661,40.3402,609.5281]]]]}
,"properties": {"GID_2": "TUR.21.9_1","GID_0": "TUR","country": "Turkey","GID_1": "TUR.21_1","province": "Bursa","NL_NAME_1": "NA","county": "Kestel","VARNAME_2": "NA","NL_NAME_2": "NA","TYPE_2": "District","ENGTYPE_2": "District","CC_2": "NA","HASC_2": "TR.BU.KT","name": "Kestel.county","area_km2": 421.26,"hist_schema_id": "Elevation0-9000","hist_area_km2": {"100": 31.5997,"125": 21.0806,"150": 7.5621,"175": 5.6676,"200": 5.7003,"225": 5.1334,"250": 6.2022,"275": 7.1742,"300": 6.7527,"325": 10.2826,"350": 13.5699,"375": 11.2064,"400": 11.4978,"425": 10.8818,"450": 10.1685,"475": 9.8288,"500": 11.2685,"525": 11.754,"550": 12.6115,"575": 11.7852,"600": 11.5741,"625": 10.5533,"650": 8.9177,"675": 8.0769,"700": 6.3278,"725": 6.4737,"750": 6.28,"775": 6.1506,"800": 5.4069,"825": 5.1324,"850": 3.9509,"875": 3.1745,"900": 2.7704,"925": 2.2038,"950": 1.8802,"975": 1.8154,"1000": 1.8803,"1025": 1.6533,"1050": 1.9614,"1075": 1.8804,"1100": 1.8156,"1125": 1.9128,"1150": 1.6858,"1175": 1.5724,"1200": 1.6048,"1225": 1.5885,"1250": 1.3617,"1275": 1.7345,"1300": 1.7022,"1325": 1.4266,"1350": 1.4915,"1375": 1.4589,"1400": 1.7346,"1425": 1.7995,"1450": 1.7671,"1475": 2.0752,"1500": 1.8482,"1525": 1.6537,"1550": 2.0265,"1575": 2.1563,"1600": 2.3994,"1625": 3.21,"1650": 3.1614,"1675": 3.0966,"1700": 3.5668,"1725": 3.0804,"1750": 2.8212,"1775": 3.0482,"1800": 2.8538,"1825": 2.8375,"1850": 2.8863,"1875": 2.8539,"1900": 2.4486,"1925": 2.6108,"1950": 2.3027,"1975": 2.3351,"2000": 2.3027,"2025": 2.319,"2050": 2.1731,"2075": 1.4596,"2100": 1.6056,"2125": 1.3137,"2150": 0.9407,"2175": 1.1516,"2200": 1.1679,"2225": 0.811,"2250": 0.9732,"2275": 0.8597,"2300": 0.7624,"2325": 0.5353,"2350": 0.4542,"2375": 0.4542,"2400": 0.5678,"2425": 1.022,"2450": 0.5029,"2475": 0.1298,"2500": 0.0324}}}