{"type":"Feature","properties":{"GID_2":"TUR.81.1_1","GID_0":"TUR","country":"Turkey","GID_1":"TUR.81_1","province":"Zinguldak","NL_NAME_1":"NA","county":"Alaplı","VARNAME_2":"NA","NL_NAME_2":"NA","TYPE_2":"District","ENGTYPE_2":"District","CC_2":"NA","HASC_2":"TR.ZO.AL","name":"Alaplı.county"},
"geometry":{"type": "MultiPolygon","coordinates": [[[[31.439,41.0563,387.9266],[31.4979,41.0542,841.2513],[31.4787,41.0761,297.0171],[31.4745,41.0894,424.637],[31.4747,41.1007,198.2733],[31.4766,41.1089,251.8645],[31.4863,41.1251,102.8579],[31.4889,41.1332,84.391],[31.4893,41.1501,186.6035],[31.4859,41.1607,196.4687],[31.4684,41.1855,136.3365],[31.4584,41.192,85.6761],[31.409,41.213,0.0],[31.401,41.2029,3.2762],[31.3935,41.1982,6.2027],[31.3868,41.1915,13.7748],[31.3846,41.1932,0.1886],[31.386,41.1951,0.0],[31.3835,41.194,0.0],[31.3846,41.1893,7.7815],[31.3824,41.1829,1.2852],[31.3835,41.1807,0.0],[31.3779,41.176,17.3213],[31.3643,41.169,0.0],[31.359,41.1629,50.517],[31.3454,41.1546,2.5925],[31.3451,41.1457,5.3928],[31.3418,41.1387,25.435],[31.3382,41.1368,0.0],[31.42,41.0732,275.4526],[31.439,41.0563,387.9266]]]]}}