{"type":"Feature","properties":{"GID_2":"TUR.36.3_1","GID_0":"TUR","country":"Turkey","GID_1":"TUR.36_1","province":"Hakkari","NL_NAME_1":"NA","county":"Şemdinli","VARNAME_2":"NA","NL_NAME_2":"NA","TYPE_2":"District","ENGTYPE_2":"District","CC_2":"NA","HASC_2":"TR.HK.SE","name":"Şemdinli.county"},
"geometry":{"type": "MultiPolygon","coordinates": [[[[44.6117,37.5115,2177.1624],[44.5937,37.5154,2101.1357],[44.5467,37.5167,2400.4922],[44.5327,37.5145,2589.3643],[44.5078,37.5067,2514.8352],[44.4575,37.5054,2299.6689],[44.4426,37.5031,2096.0244],[44.4273,37.4949,2097.8447],[44.3889,37.4661,1879.342],[44.3673,37.4567,1852.7694],[44.3467,37.4443,1853.7113],[44.3151,37.4185,2258.1807],[44.3095,37.4112,2508.1892],[44.3041,37.3967,2644.0146],[44.3011,37.3926,2734.675],[44.2777,37.3808,2579.6973],[44.2557,37.3727,3011.7185],[44.2444,37.3651,2863.0005],[44.2337,37.3533,2906.6836],[44.2312,37.3452,3166.5767],[44.2283,37.3114,3157.3579],[44.2141,37.2847,2458.644],[44.2374,37.2791,1947.434],[44.2678,37.2515,1587.3729],[44.2789,37.2363,1537.4364],[44.2821,37.2267,1610.886],[44.2791,37.2039,1424.8534],[44.2903,37.1844,973.5555],[44.2901,37.175,1194.1696],[44.2817,37.1622,1765.2065],[44.2686,37.1552,1644.7404],[44.2563,37.1539,1693.2184],[44.2423,37.1567,1789.6313],[44.2335,37.1398,2046.743],[44.2173,37.1252,2197.0469],[44.2085,37.115,2305.3423],[44.2027,37.1048,2362.6768],[44.2023,37.0981,2394.542],[44.2056,37.087,1714.0079],[44.2149,37.0733,1387.7889],[44.2241,37.0655,1349.3481],[44.2423,37.055,1114.5402],[44.2469,37.0501,1215.8929],[44.2482,37.046,1335.8701],[44.2427,37.0341,1794.9813],[44.2435,37.0267,1674.0114],[44.2604,37.0033,1196.9055],[44.2688,36.983,1041.3374],[44.2771,36.9768,924.699],[44.2822,36.9752,758.8485],[44.3033,36.9749,682.4161],[44.32,36.9671,624.3445],[44.3235,36.9825,849.9489],[44.3428,37.0053,727.9665],[44.3613,37.0203,721.0061],[44.3651,37.0264,686.2347],[44.3648,37.0308,713.6493],[44.3486,37.0434,696.2048],[44.3482,37.046,718.1821],[44.3507,37.0493,750.327],[44.3578,37.0531,708.6931],[44.3709,37.0566,725.6682],[44.4058,37.0558,853.6919],[44.4261,37.0633,841.4097],[44.4566,37.07,932.697],[44.5114,37.0935,1186.5642],[44.5197,37.0999,1257.9341],[44.5221,37.1099,1381.604],[44.5277,37.1161,1263.3977],[44.5381,37.1211,1310.637],[44.554,37.1231,1514.0159],[44.5639,37.1375,1771.6736],[44.5771,37.1526,2117.4348],[44.5862,37.1604,1960.4124],[44.6035,37.1658,1992.8158],[44.6265,37.1815,2081.3059],[44.6377,37.1867,2149.3613],[44.645,37.1875,2069.6995],[44.6523,37.1856,2095.1951],[44.6785,37.1752,2210.5605],[44.7185,37.1744,2251.6836],[44.7338,37.1709,2344.3232],[44.7547,37.1632,2377.8943],[44.7633,37.1674,2571.377],[44.7711,37.1675,2716.3237],[44.805,37.1481,2781.4885],[44.8071,37.1545,2797.4658],[44.8067,37.161,2824.7268],[44.805,37.1656,2897.6904],[44.7899,37.1792,2706.5808],[44.7877,37.1836,2647.4219],[44.7782,37.224,2627.7432],[44.7791,37.2281,2508.5193],[44.7855,37.2372,2457.2136],[44.7974,37.2468,2014.2842],[44.8171,37.258,2164.6484],[44.8297,37.2692,2154.4497],[44.8338,37.2745,2064.4119],[44.8348,37.2793,2192.856],[44.835,37.2864,2263.1921],[44.8317,37.2927,2335.8936],[44.8233,37.3076,2405.374],[44.8026,37.3237,2663.8838],[44.7566,37.3482,2754.3694],[44.7403,37.3733,2484.916],[44.7334,37.3777,2414.8184],[44.7188,37.383,2430.1367],[44.6958,37.3833,2892.3696],[44.6893,37.385,3041.5327],[44.683,37.4018,2918.9521],[44.6745,37.4111,3107.0708],[44.6686,37.4215,2789.3777],[44.6624,37.4275,2611.6982],[44.654,37.4304,2720.1934],[44.6229,37.435,2797.8616],[44.6075,37.4407,2738.4231],[44.6026,37.4443,2789.4077],[44.6103,37.4732,2589.1812],[44.6216,37.4779,2831.0596],[44.6245,37.4817,2952.8066],[44.6228,37.4912,2519.6802],[44.6117,37.5115,2177.1624]]]]}}