{"type":"Feature","properties":{"GID_1":"TUR.44_1","GID_0":"TUR","country":"Turkey","province":"Karaman","VARNAME_1":"NA","NL_NAME_1":"NA","TYPE_1":"Il","ENGTYPE_1":"Province","CC_1":"NA","HASC_1":"TR.KR","ISO_1":"TR-70","name":"Karaman.province"},
"geometry":{"type": "MultiPolygon","coordinates": [[[[32.489,36.5957,1322.3584],[32.4957,36.5845,1452.792],[32.5038,36.561,1174.9187],[32.5117,36.5526,1754.855],[32.5305,36.5415,1563.1243],[32.5482,36.5142,1803.6641],[32.5542,36.5082,1751.9343],[32.583,36.4944,1734.5315],[32.6159,36.4718,1771.2299],[32.6397,36.4614,1797.6522],[32.6581,36.4461,1884.9352],[32.6791,36.4436,1898.4128],[32.7424,36.4424,1802.6146],[32.7542,36.4403,1769.4802],[32.7797,36.4326,1798.4722],[32.8165,36.4311,1659.2828],[32.8407,36.4331,1684.113],[32.866,36.4409,1551.7745],[32.9006,36.4452,1504.6226],[32.926,36.4528,1400.8363],[32.9419,36.4536,1376.4968],[32.9594,36.4508,1489.6995],[32.9913,36.4563,1386.6985],[33.0159,36.4642,1171.2109],[33.0547,36.4688,1390.5188],[33.1895,36.5207,365.68],[33.1994,36.5227,395.1366],[33.2132,36.5226,428.4204],[33.2196,36.5334,500.4865],[33.2306,36.5592,783.7112],[33.2286,36.5658,891.0192],[33.2176,36.5837,1136.1907],[33.2081,36.5908,1144.2975],[33.1902,36.598,1469.5076],[33.1604,36.6153,1613.0811],[33.1302,36.6266,1636.5758],[33.1063,36.6307,1436.1018],[33.0966,36.6343,1586.8622],[33.0798,36.6456,1614.2183],[33.04,36.677,1843.3317],[33.0291,36.6883,1804.9816],[32.971,36.7792,1928.8882],[32.9618,36.8092,1856.6277],[33.0105,36.818,2022.5499],[33.0583,36.8361,1405.9592],[33.0856,36.8411,646.9574],[33.1158,36.8524,280.4538],[33.1574,36.8799,860.8856],[33.1847,36.8922,945.8555],[33.2176,36.9148,1584.8291],[33.2448,36.9271,1660.7487],[33.2777,36.9498,1587.5344],[33.2992,36.9588,1605.4485],[33.3287,36.976,1614.9125],[33.3888,36.9991,1532.9694],[33.407,37.0015,1465.4944],[33.4995,37.0014,1564.5098],[33.5296,37.003,1605.5768],[33.5696,37.0165,1643.9495],[33.6211,37.046,1723.4829],[33.6325,37.0473,1739.3815],[33.6795,37.0469,1797.3408],[33.6899,37.0443,1772.7649],[33.7308,37.0282,2055.8379],[33.7406,37.0267,2123.6077],[33.7504,37.028,2150.4351],[33.7647,37.0331,2002.7288],[33.7884,37.0377,1905.2703],[33.8096,37.0451,1909.7739],[33.8369,37.0503,1912.1096],[33.8674,37.0611,1938.8213],[33.8942,37.0742,2030.9048],[33.9098,37.0908,1988.7776],[33.9264,37.1023,1998.2983],[33.9898,37.1267,2145.8379],[34.0082,37.1291,2123.6912],[34.0664,37.1289,2259.2827],[34.0925,37.1315,2285.3701],[34.1136,37.1386,2249.7371],[34.1374,37.1432,2311.1016],[34.1662,37.1551,2355.791],[34.1834,37.1643,2406.9214],[34.1976,37.1783,2812.1074],[34.1288,37.229,2361.2629],[34.0988,37.241,2139.8037],[34.0893,37.2439,2155.6924],[34.0536,37.2472,1886.6257],[34.0258,37.256,1629.5861],[33.9936,37.2591,1531.9783],[33.9721,37.2657,1557.9938],[33.9426,37.2693,1645.1036],[33.931,37.2741,1622.9397],[33.918,37.2907,1559.3599],[33.9119,37.3117,1606.2502],[33.905,37.3216,1639.5042],[33.889,37.3336,1555.0662],[33.861,37.3457,1596.5848],[33.8501,37.3536,1468.252],[33.8432,37.3603,1351.9835],[33.8297,37.3816,1434.9675],[33.8248,37.3944,1203.427],[33.8216,37.4166,1102.9927],[33.8125,37.433,1175.6852],[33.8058,37.4541,1215.0238],[33.7975,37.4679,1139.0406],[33.7909,37.4891,996.7104],[33.7675,37.5261,996.7846],[33.7619,37.5447,998.2109],[33.7527,37.5611,1000.4071],[33.7461,37.5822,1000.6721],[33.7261,37.6081,1007.8977],[33.6641,37.6066,998.8224],[33.6454,37.6043,998.2132],[33.4951,37.5465,1000.001],[33.4861,37.5419,997.9649],[33.4575,37.5197,1007.5223],[33.4437,37.5007,1005.1843],[33.4215,37.4779,1005.461],[33.4067,37.4545,1003.1838],[33.4,37.4334,1002.7922],[33.3918,37.4196,1002.6749],[33.3896,37.4115,1004.0477],[33.3885,37.3973,1038.6119],[33.3781,37.3935,1048.8757],[33.3652,37.3807,1007.8767],[33.3538,37.3753,1004.2783],[33.3248,37.3732,1008.4966],[33.3101,37.374,1004.0469],[33.2963,37.3774,1004.0251],[33.2822,37.3861,1003.4198],[33.2172,37.4373,1129.8646],[33.2013,37.4533,1170.0464],[33.1475,37.4563,1122.2661],[33.1311,37.4557,1138.761],[33.1201,37.4534,1140.0798],[33.1072,37.4451,1342.8918],[33.0979,37.4312,1254.3589],[33.0784,37.4104,1230.8552],[33.0709,37.3985,1241.14],[33.0623,37.3909,1308.2838],[33.0566,37.3882,1185.452],[33.0422,37.3857,1083.8557],[32.9803,37.3862,1025.0491],[32.9541,37.3838,1031.0509],[32.9176,37.3695,1042.5704],[32.9091,37.3638,1048.884],[32.8972,37.3528,1067.5004],[32.8792,37.3214,1048.0873],[32.8752,37.3083,1040.8438],[32.8669,37.2943,1055.7225],[32.8638,37.2866,1077.569],[32.8625,37.2756,1097.0432],[32.8635,37.2642,1103.3192],[32.8666,37.2564,1093.7186],[32.88,37.2355,1126.4269],[32.9,37.2138,1609.7764],[32.869,37.2113,1631.0332],[32.8412,37.2124,1356.4811],[32.8306,37.2149,1408.9875],[32.7894,37.2314,1525.3331],[32.7689,37.234,1275.4865],[32.7553,37.2316,1279.3135],[32.7373,37.2256,1500.4117],[32.7134,37.2212,1526.4014],[32.6868,37.2085,1298.5725],[32.6836,37.2037,1334.8655],[32.6816,37.1956,1312.0083],[32.6829,37.1686,1509.3547],[32.6859,37.1575,1372.166],[32.6792,37.1428,1206.7715],[32.6671,37.1301,1328.1156],[32.6637,37.1194,1332.0405],[32.648,37.0935,1862.9062],[32.6354,37.0781,1494.9703],[32.6291,37.0753,1439.7881],[32.6155,37.0563,1200.3632],[32.5679,37.018,1530.5608],[32.5642,37.013,1758.9282],[32.5618,37.0049,1914.0083],[32.5642,36.9911,1796.7437],[32.5724,36.9815,1862.4104],[32.5855,36.9709,1900.2949],[32.6076,36.9543,1728.0953],[32.6229,36.9462,1739.4016],[32.6335,36.9443,1798.922],[32.677,36.9419,1714.5081],[32.7015,36.9341,1620.9905],[32.7404,36.9295,1470.0502],[32.7581,36.9231,1483.7891],[32.7857,36.9182,1575.1013],[32.8097,36.9109,1638.3698],[32.7959,36.8936,1573.5355],[32.7623,36.8658,1807.9152],[32.7481,36.8509,1643.6676],[32.7306,36.8472,1693.2825],[32.6915,36.8347,1759.2654],[32.6711,36.8239,1765.7109],[32.6664,36.8157,1793.7987],[32.6466,36.8104,1868.3917],[32.608,36.7846,1839.9132],[32.5774,36.7784,1929.9487],[32.5528,36.7699,1921.0449],[32.5061,36.7676,2080.6099],[32.4952,36.7639,1883.0773],[32.4706,36.7511,1536.2753],[32.4682,36.7382,1577.3391],[32.4592,36.7217,1321.1144],[32.4567,36.7132,1254.6633],[32.4553,36.6952,1290.6667],[32.4565,36.6741,1536.6055],[32.459,36.6655,1725.6941],[32.4683,36.6491,1918.3977],[32.4741,36.6307,1958.6125],[32.4823,36.6168,1766.5405],[32.489,36.5957,1322.3584]]]]}}