{"type": "Feature","id": "3012","bbox": [32.45624,36.43163,34.14895,37.64703],"geometry": {"type": "Polygon","coordinates": [[[34.14895,37.15502,2307.7002],[34.12508,37.19473,2625.324],[34.05728,37.28517,1882.8123],[33.99847,37.33599,1902.5835],[33.91775,37.40578,1377.313],[33.80469,37.50381,997.3389],[33.78216,37.56789,1003.8486],[33.78588,37.58295,1006.1207],[33.77833,37.63197,1012.2231],[33.73689,37.64326,1024.2816],[33.63891,37.64703,1066.7396],[33.59364,37.62442,1002.5286],[33.56346,37.59424,1022.298],[33.51447,37.54148,999.7939],[33.41267,37.51133,1007.8151],[33.25816,37.50381,1042.9968],[33.10736,37.48872,1047.752],[33.01321,37.45857,1007.2614],[32.96143,37.4126,1031.3447],[32.84361,37.3078,1048.0337],[32.72289,37.17587,1323.1008],[32.62874,37.07787,1469.1624],[32.6029,37.01105,1455.9149],[32.60982,36.97609,1969.5262],[32.67018,36.95348,1801.6792],[32.73044,36.94971,1715.6179],[32.74553,36.92333,1542.149],[32.74181,36.89317,2095.5659],[32.71163,36.85548,1646.4695],[32.56838,36.74241,2059.4397],[32.45624,36.67339,1461.4653],[32.49055,36.60156,1368.9674],[32.53159,36.53379,1819.9196],[32.55866,36.5062,1786.829],[32.59225,36.48744,1702.9976],[32.63204,36.47031,1802.0698],[32.65168,36.43803,1868.9575],[32.71731,36.44499,1821.2035],[32.78242,36.43163,1781.2318],[32.84247,36.43282,1684.113],[32.89942,36.45328,1592.5269],[32.95823,36.46444,1461.2476],[33.01941,36.46248,1245.1515],[33.05238,36.46661,1377.3129],[33.07615,36.48553,1512.2],[33.08814,36.52162,1478.8068],[33.1022,36.55353,988.3873],[33.11636,36.55852,1007.7749],[33.13176,36.56126,599.0886],[33.16638,36.54604,335.293],[33.20483,36.53439,636.7586],[33.23097,36.56066,797.2352],[33.20679,36.59087,1240.0455],[33.16121,36.61854,1600.7891],[33.1084,36.6296,1472.2163],[33.0869,36.64389,1543.782],[33.0684,36.66319,1744.7482],[33.04349,36.6727,1858.6079],[33.0284,36.699,1826.947],[33.01931,36.7283,1681.0042],[33.00277,36.7514,1796.6879],[32.982,36.77155,1801.8737],[32.97952,36.8038,1840.8682],[33.01724,36.80967,1990.4937],[33.03357,36.81408,1985.5807],[33.07863,36.83687,855.1923],[33.10788,36.84638,365.7789],[33.12121,36.84044,271.3266],[33.12369,36.83336,288.4682],[33.13124,36.82114,283.7893],[33.16731,36.81339,255.1611],[33.18881,36.84264,649.4138],[33.20069,36.88705,1239.78],[33.23273,36.91801,1682.4873],[33.27004,36.92795,1572.1965],[33.30363,36.94694,1638.7863],[33.33588,36.97046,1598.217],[33.37195,36.988,1575.5267],[33.41319,36.9972,1472.5674],[33.54,37.00658,1589.3011],[33.61937,37.0318,1710.298],[33.70206,37.03725,1820.2791],[33.73658,37.0287,2063.4619],[33.76117,37.03144,1994.9524],[33.79745,37.04714,1885.3064],[33.87063,37.05774,2015.7338],[33.96685,37.11618,2012.735],[34.00271,37.12882,2137.4106],[34.07857,37.13303,2281.2588],[34.14895,37.15502,2307.7002]]]}
,"properties": {"ISO3166-1-Alpha-3": "TUR","country": "Turkey","fill": "#FF0","name": "Karaman","area_km2": 8983.936,"hist_schema_id": "Elevation0-9000","hist_area_km2": {"250": 1.052,"275": 5.26,"300": 6.158,"325": 8.675,"350": 8.608,"375": 8.166,"400": 9.22,"425": 9.846,"450": 10.086,"475": 9.865,"500": 10.289,"525": 9.713,"550": 9.951,"575": 10.595,"600": 11.171,"625": 12.526,"650": 13.169,"675": 70.935,"700": 25.586,"725": 27.061,"750": 27.638,"775": 29.204,"800": 30.052,"825": 35.106,"850": 36.295,"875": 38.483,"900": 40.234,"925": 39.976,"950": 42.237,"975": 45.378,"1000": 1045.677,"1025": 621.178,"1050": 368.027,"1075": 275.491,"1100": 261.451,"1125": 246.402,"1150": 228.575,"1175": 208.27,"1200": 194.794,"1225": 191.965,"1250": 187.864,"1275": 183.717,"1300": 175.497,"1325": 177.709,"1350": 183.676,"1375": 189.96,"1400": 193.89,"1425": 198.605,"1450": 187.275,"1475": 184.841,"1500": 186.075,"1525": 186.687,"1550": 172.864,"1575": 161.1,"1600": 160.129,"1625": 145.168,"1650": 129.392,"1675": 123.074,"1700": 131.469,"1725": 132.942,"1750": 137.053,"1775": 134.167,"1800": 140.427,"1825": 129.391,"1850": 117.897,"1875": 109.987,"1900": 88.643,"1925": 73.211,"1950": 55.212,"1975": 45.021,"2000": 38.848,"2025": 30.804,"2050": 24.425,"2075": 18.911,"2100": 16.349,"2125": 15.16,"2150": 14.461,"2175": 15.927,"2200": 14.506,"2225": 12.473,"2250": 12.22,"2275": 9.091,"2300": 6.117,"2325": 4.985,"2350": 4.393,"2375": 3.954,"2400": 4.021,"2425": 3.97,"2450": 3.294,"2475": 2.804,"2500": 2.466,"2525": 2.264,"2550": 2.331,"2575": 2.145,"2600": 2.247,"2625": 1.841,"2650": 1.672,"2675": 1.638,"2700": 1.689,"2725": 0.811,"2750": 0.659,"2775": 0.152}}}