{"type": "Feature","bbox": [34.46,39.9919,34.6995,40.1674],"geometry": {"type": "MultiPolygon","coordinates": [[[[34.6491,40.1673,1086.6367],[34.6298,40.1423,1199.074],[34.623,40.1147,1055.3733],[34.6141,40.1077,999.5167],[34.5909,40.0987,938.8126],[34.5561,40.0952,892.2221],[34.5269,40.0873,969.0337],[34.4847,40.0853,1033.99],[34.4739,40.0821,1145.5544],[34.4679,40.078,1296.4094],[34.462,40.07,1349.1792],[34.46,40.0612,1313.5027],[34.4603,39.9919,1449.6677],[34.6874,39.9925,1289.3542],[34.6858,40.0107,1314.0443],[34.6869,40.0293,1385.907],[34.6895,40.038,1335.0731],[34.6974,40.0516,1236.627],[34.6995,40.0623,1270.6844],[34.6975,40.073,1369.8209],[34.6875,40.0926,1277.4712],[34.6859,40.1213,1127.4556],[34.6881,40.1369,1092.6277],[34.6965,40.1522,1032.8245],[34.6977,40.1593,1069.2732],[34.6952,40.1637,1089.6403],[34.6862,40.1674,1129.3597],[34.6491,40.1673,1086.6367]]]]}
,"properties": {"GID_2": "TUR.24.3_1","GID_0": "TUR","country": "Turkey","GID_1": "TUR.24_1","province": "Çorum","NL_NAME_1": "NA","county": "Boğazkale","VARNAME_2": "NA","NL_NAME_2": "NA","TYPE_2": "District","ENGTYPE_2": "District","CC_2": "NA","HASC_2": "TR.CM.BO","name": "Boğazkale.county","area_km2": 261.5033,"hist_schema_id": "Elevation0-9000","hist_area_km2": {"875": 0.0487,"900": 5.0612,"925": 11.1946,"950": 14.506,"975": 11.9758,"1000": 10.3051,"1025": 10.1429,"1050": 10.5627,"1075": 12.8979,"1100": 13.3675,"1125": 15.2192,"1150": 16.0965,"1175": 17.8493,"1200": 18.5649,"1225": 17.9828,"1250": 15.8427,"1275": 16.2819,"1300": 13.8952,"1325": 10.5675,"1350": 7.6626,"1375": 4.8545,"1400": 3.6854,"1425": 1.7858,"1450": 0.8604,"1475": 0.2922}}}