{"type":"Feature","properties":{"GID_2":"TUR.56.5_1","GID_0":"TUR","country":"Turkey","GID_1":"TUR.56_1","province":"Manisa","NL_NAME_1":"NA","county":"Gölmarmara","VARNAME_2":"NA","NL_NAME_2":"NA","TYPE_2":"District","ENGTYPE_2":"District","CC_2":"NA","HASC_2":"TR.MN.GM","name":"Gölmarmara.county"},
"geometry":{"type": "MultiPolygon","coordinates": [[[[27.9747,38.6152,76.5],[27.9998,38.6122,76.5],[28.0105,38.6133,76.5],[28.0205,38.6169,76.5],[28.0366,38.629,76.5],[28.0519,38.6506,77.5797],[28.0663,38.6635,346.0771],[28.0857,38.6765,432.5945],[28.104,38.6837,494.6616],[28.1117,38.6883,531.108],[28.1174,38.6946,566.5928],[28.1202,38.7026,563.7867],[28.1204,38.7167,587.3086],[28.1179,38.7304,613.8888],[28.1042,38.7378,451.3661],[28.0744,38.7487,251.9531],[28.0351,38.7536,357.5591],[28.0139,38.7607,341.7083],[27.9902,38.7655,189.6239],[27.9624,38.7738,158.4914],[27.9449,38.7732,119.2608],[27.924,38.7663,135.4701],[27.9136,38.7645,164.439],[27.8954,38.7643,97.0297],[27.877,38.767,93.7187],[27.88,38.749,95.5015],[27.8777,38.7322,183.2409],[27.8728,38.7247,133.8],[27.8553,38.7071,159.3031],[27.8527,38.6966,352.4865],[27.8555,38.6894,678.1541],[27.8666,38.675,505.9418],[27.886,38.6634,546.2973],[27.8993,38.6459,542.173],[27.9085,38.6388,323.1021],[27.941,38.6257,76.5],[27.9747,38.6152,76.5]]]]}}