{"type":"Feature","properties":{"GID_2":"TUR.12.3_1","GID_0":"TUR","country":"Turkey","GID_1":"TUR.12_1","province":"Balikesir","NL_NAME_1":"NA","county":"Bandırma","VARNAME_2":"NA","NL_NAME_2":"NA","TYPE_2":"District","ENGTYPE_2":"District","CC_2":"NA","HASC_2":"TR.BK.BD","name":"Bandırma.county"},
"geometry":{"type": "MultiPolygon","coordinates": [[[[28.1912,40.3736,660.4407],[28.2157,40.3982,9.4181],[28.1865,40.399,0.0],[28.1701,40.3951,52.7761],[28.1582,40.3963,4.4933],[28.151,40.3943,3.7425],[28.1457,40.3957,0.0],[28.1421,40.3924,0.7622],[28.1318,40.389,0.0],[28.1243,40.3907,0.1497],[28.1218,40.3868,3.7219],[28.1162,40.3896,1.794],[28.1126,40.3893,0.0],[28.1124,40.3879,1.9753],[28.1074,40.3887,8.6034],[28.0957,40.3851,57.9197],[28.0896,40.3857,0.0],[28.0812,40.3826,0.7125],[28.0801,40.3807,0.524],[28.0743,40.3815,0.0],[28.0738,40.3796,9.2064],[28.0685,40.3799,33.1312],[28.0671,40.3821,0.0],[28.0607,40.3824,0.0],[28.0551,40.3768,30.0961],[28.0515,40.3771,0.0],[28.0507,40.3743,2.7216],[28.0451,40.376,0.0],[28.044,40.3746,3.6828],[28.0424,40.3751,5.1977],[28.0415,40.3729,9.4433],[28.0399,40.3746,0.0],[28.0299,40.3712,18.6938],[28.0265,40.3726,0.0],[28.0179,40.3724,0.0],[28.0165,40.3701,46.2964],[28.0085,40.371,0.0],[28.0054,40.3682,29.4487],[28.0012,40.3693,0.0],[27.9979,40.3665,6.7778],[27.9868,40.3662,7.9881],[27.9835,40.3621,0.0],[27.9785,40.3629,0.0],[27.9782,40.3613,5.8354],[27.9701,40.3585,2.9032],[27.9662,40.3526,1.0041],[27.9632,40.3546,0.0],[27.9604,40.3532,0.6777],[27.9579,40.3551,0.0],[27.9546,40.3529,7.8415],[27.9515,40.3563,0.0],[27.9479,40.3568,6.7427],[27.9471,40.3596,0.0],[27.9368,40.3624,0.0],[27.9313,40.3615,10.1614],[27.9246,40.3662,2.894],[27.9215,40.3718,0.0],[27.9196,40.3718,12.33],[27.9168,40.3749,1.3335],[27.9146,40.3796,0.0],[27.9107,40.3807,0.7397],[27.9132,40.384,0.0],[27.9082,40.3821,0.0],[27.9093,40.3807,0.0],[27.9024,40.379,0.0],[27.8965,40.3846,0.3471],[27.8963,40.3872,0.0],[27.8772,40.3822,2.3158],[27.8761,40.381,0.0],[27.879,40.3785,0.2607],[27.8799,40.3743,1.946],[27.8738,40.3699,0.6836],[27.8729,40.3668,11.1394],[27.8635,40.3668,0.0],[27.8638,40.3638,1.0052],[27.8613,40.3599,24.7666],[27.854,40.3596,0.7566],[27.8501,40.3557,0.0],[27.8424,40.3537,13.0771],[27.8351,40.3485,46.3922],[27.8243,40.3468,17.6157],[27.8143,40.3374,1.6523],[27.8024,40.3307,0.0],[27.8001,40.3271,4.7187],[27.7938,40.3232,24.0209],[27.7901,40.3229,5.1434],[27.789,40.319,45.6151],[27.7818,40.3124,10.5056],[27.7774,40.3129,0.0],[27.7585,40.306,2.1865],[27.7529,40.3063,16.0933],[27.7457,40.309,0.0],[27.7313,40.3076,1.6695],[27.7276,40.3096,0.0],[27.7233,40.3096,3.1257],[27.7128,40.3055,134.4097],[27.716,40.2963,115.2487],[27.7215,40.2919,81.7066],[27.7307,40.2893,171.8259],[27.7549,40.2874,179.3538],[27.7652,40.2847,134.3139],[27.7772,40.2779,94.4142],[27.8187,40.2476,117.7627],[27.8285,40.244,126.8901],[27.8485,40.2407,137.5142],[27.8597,40.2353,122.0597],[27.8666,40.2265,91.4259],[27.8723,40.1967,24.7818],[27.8834,40.1838,14.5],[27.8969,40.1811,14.5],[27.9182,40.1738,14.5],[27.98,40.171,14.5],[28.0083,40.1626,14.5],[28.0287,40.1588,14.5],[28.0417,40.1531,14.5],[28.0764,40.1291,30.1888],[28.1068,40.1172,37.4966],[28.1235,40.1138,25.391],[28.1239,40.2257,139.937],[28.1261,40.2379,80.5733],[28.1353,40.2545,23.4051],[28.1378,40.2633,26.2308],[28.1395,40.3134,80.5692],[28.144,40.3249,110.0822],[28.1768,40.3544,431.0649],[28.1912,40.3736,660.4407]]],
[[[28.0921,40.4524,0.0],[28.0926,40.4554,0.0],[28.086,40.4529,0.0],[28.0865,40.4512,0.0],[28.094,40.4496,0.2089],[28.0921,40.4524,0.0]]],
[[[28.0671,40.4624,0.0],[28.0646,40.4618,19.9658],[28.0629,40.4576,13.0468],[28.0804,40.4518,0.0],[28.079,40.4543,0.0],[28.0749,40.4554,9.7672],[28.0774,40.4582,2.7286],[28.0749,40.461,0.0],[28.0721,40.4615,0.0],[28.0696,40.459,0.0],[28.0671,40.4624,0.0]]],
[[[28.0993,40.469,0.0],[28.0974,40.469,0.0],[28.0982,40.466,5.779],[28.104,40.4657,0.0],[28.1054,40.4679,0.0],[28.1054,40.4688,0.0],[28.0993,40.469,0.0]]]]}}