{"type": "Feature","bbox": [26.7284,40.5907,28.2317,41.5805],"geometry": {"type": "MultiPolygon","coordinates": [[[[27.0311,40.7158,95.1001],[27.0286,40.6995,77.311],[27.0294,40.5907,11.5669],[27.0343,40.594,2.5756],[27.0376,40.5938,1.4427],[27.0424,40.5982,5.2411],[27.061,40.6021,0.8534],[27.0657,40.6054,0.9538],[27.0824,40.6049,0.0],[27.109,40.6099,0.6322],[27.1118,40.6096,0.4575],[27.111,40.6074,0.0],[27.1124,40.6074,0.118],[27.1135,40.6101,0.4575],[27.1274,40.6107,1.2221],[27.131,40.6129,0.743],[27.146,40.6149,0.0],[27.1582,40.6207,0.2287],[27.1612,40.6237,0.0857],[27.179,40.6276,0.907],[27.1874,40.6396,1.1585],[27.2029,40.6451,0.0],[27.2113,40.6521,10.5233],[27.215699999999998,40.6524,2.1542],[27.2185,40.6551,7.2581],[27.2249,40.6565,0.0],[27.2296,40.6596,1.6745],[27.2368,40.6593,0.3105],[27.2418,40.661,1.034],[27.2515,40.6724,12.2926],[27.2649,40.6771,0.8768],[27.2793,40.6868,1.4263],[27.2976,40.6949,0.0],[27.3004,40.6985,1.3406],[27.3093,40.7024,2.1322],[27.3107,40.709,8.9146],[27.3135,40.7107,3.4114],[27.3157,40.7101,0.0],[27.3188,40.7143,0.3047],[27.319,40.7204,1.48],[27.324,40.7285,0.0],[27.3315,40.7346,1.0186],[27.3318,40.7415,19.0317],[27.3357,40.749,1.3157],[27.3354,40.7565,13.2098],[27.3446,40.7668,2.2886],[27.351,40.7696,0.0],[27.3565,40.7732,5.0619],[27.3576,40.7765,33.4988],[27.3635,40.779,12.5934],[27.366,40.7832,48.3409],[27.376,40.7907,41.7757],[27.3821,40.7993,33.8087],[27.3904,40.8026,4.376],[27.3924,40.8071,77.0011],[27.4201,40.8201,9.0295],[27.4235,40.8235,3.783],[27.4357,40.8301,1.0819],[27.4393,40.8346,10.0095],[27.4429,40.8354,0.0],[27.4499,40.8432,0.0],[27.4543,40.8443,18.0837],[27.4554,40.8482,91.1977],[27.4568,40.8479,0.0],[27.4613,40.8651,4.1812],[27.4601,40.8746,0.6284],[27.4626,40.8957,3.9083],[27.4665,40.899,3.1732],[27.4704,40.9135,0.9349],[27.4754,40.9207,27.5308],[27.4801,40.9229,15.2115],[27.4943,40.9562,6.5237],[27.4985,40.9596,3.0702],[27.499,40.9621,2.0056],[27.5032,40.9626,0.0],[27.5046,40.9685,7.3426],[27.5112,40.9743,6.0859],[27.5163,40.9743,0.2653],[27.5196,40.9765,0.9664],[27.5268,40.9779,2.116],[27.5524,40.9771,3.7631],[27.5604,40.981,4.954],[27.5688,40.9807,0.0],[27.5771,40.9843,2.4184],[27.5863,40.9824,14.8417],[27.5951,40.986,18.416],[27.6054,40.986,1.671],[27.6143,40.9901,0.0],[27.6249,40.9904,0.0],[27.6471,40.9968,1.4121],[27.6535,40.9963,0.0],[27.6688,40.999,4.6854],[27.6779,41.0046,1.7617],[27.7024,41.0026,0.0],[27.711,41.0049,0.0],[27.726,41.0118,0.8863],[27.7635,41.014,8.5107],[27.7976,41.0049,3.8234],[27.8065,41.0004,0.0],[27.8201,40.9985,0.0],[27.840699999999998,40.9924,4.4404],[27.8551,40.9829,1.9923],[27.8582,40.9768,0.0],[27.8626,40.9735,0.0],[27.8649,40.9696,0.0],[27.874,40.9679,0.8825],[27.8779,40.9654,0.0],[27.8843,40.9665,2.399],[27.8937,40.9649,0.0],[27.904,40.9688,29.244],[27.9226,40.9701,0.0],[27.9301,40.9674,4.4047],[27.9335,40.9635,0.0],[27.939,40.9649,3.4262],[27.9443,40.964,2.1883],[27.9449,40.9651,2.1883],[27.9557,40.9637,0.0],[27.9638,40.9654,0.0],[27.9679,40.969,0.0],[27.9671,40.9707,0.0],[27.961,40.969,2.116],[27.9574,40.9707,0.0],[27.9568,40.9768,0.8199],[27.9593,40.9796,6.6438],[27.9629,40.9801,0.0],[27.9671,40.9832,0.4554],[27.9704,40.9815,0.0],[27.9762,40.9821,3.3072],[27.9813,40.9865,1.6257],[27.9821,40.9901,29.6577],[27.9871,40.9913,0.0],[27.9865,40.9938,0.0],[27.9843,40.9935,0.0],[27.9829,41.0026,0.0],[27.9865,41.014,0.6509],[27.9929,41.0204,0.0],[27.9963,41.021,10.3744],[28.0018,41.0268,0.0],[28.0138,41.0343,5.3576],[28.0168,41.0343,1.5064],[28.0304,41.0412,9.3847],[28.0451,41.0418,0.0],[28.0713,41.0563,1.2098],[28.1099,41.061,0.44],[28.1233,41.0599,0.0],[28.0984,41.0926,16.9094],[28.0764,41.128,111.2704],[28.0573,41.1508,149.5328],[28.0771,41.1861,125.2303],[28.0827,41.2043,158.963],[28.0876,41.2111,166.0161],[28.0974,41.2178,153.6412],[28.1422,41.2349,192.9785],[28.151,41.2423,233.263],[28.1596,41.2652,213.506],[28.1687,41.2819,220.3956],[28.1747,41.3117,191.2099],[28.1828,41.3256,194.5112],[28.1888,41.344,203.2053],[28.1991,41.3633,229.7013],[28.2012,41.3754,202.8446],[28.2025,41.4194,307.2916],[28.205,41.4282,321.0357],[28.2148,41.4473,309.7252],[28.2204,41.4846,170.4553],[28.2225,41.489,181.3308],[28.2317,41.4991,147.327],[28.2084,41.5158,148.3856],[28.1852,41.5247,64.3319],[28.1791,41.5296,82.104],[28.1774,41.534,82.872],[28.1791,41.5385,146.4173],[28.1879,41.5446,109.5857],[28.1993,41.5482,13.4589],[28.1926,41.5479,41.7397],[28.1932,41.5524,0.0],[28.1882,41.5526,9.5615],[28.1849,41.556,2.283],[28.1882,41.5588,0.0],[28.1812,41.5632,57.8521],[28.1812,41.5651,30.9516],[28.186,41.5674,0.0],[28.1835,41.5687,41.9281],[28.1826,41.5718,2.4306],[28.1676,41.5737,90.8194],[28.1654,41.5793,0.0],[28.1588,41.5801,9.1237],[28.1507,41.5788,15.8331],[28.1496,41.5805,0.1604],[28.1317,41.5786,60.1216],[28.1104,41.5716,115.5302],[28.0831,41.5664,149.8441],[28.0653,41.5601,126.8725],[28.0263,41.5556,202.1257],[28.0051,41.5486,187.6351],[27.9778,41.5433,252.1705],[27.8665,41.5008,128.3437],[27.8474,41.499,123.1049],[27.8161,41.4995,140.8656],[27.8011,41.5014,163.2733],[27.7771,41.5087,185.468],[27.7703,41.5088,185.2588],[27.7639,41.5076,194.0478],[27.7308,41.4944,169.9005],[27.6962,41.4696,149.559],[27.6746,41.4578,141.7019],[27.6821,41.4412,132.8768],[27.6736,41.4099,124.5565],[27.6643,41.3936,114.9951],[27.6575,41.3725,110.2341],[27.6431,41.349,101.7136],[27.608,41.2987,124.5265],[27.59,41.2796,103.0555],[27.579,41.2632,115.0657],[27.5536,41.2366,99.8045],[27.5467,41.2318,74.8801],[27.5209,41.2211,84.9756],[27.4919,41.2202,62.0943],[27.4814,41.2224,111.8564],[27.4727,41.2265,111.7102],[27.4361,41.2501,120.8559],[27.4103,41.2771,108.3345],[27.3987,41.2941,102.4715],[27.3889,41.3028,92.3805],[27.3774,41.3101,96.3367],[27.314,41.3343,47.2753],[27.2868,41.3396,43.7163],[27.2622,41.3474,51.4997],[27.1205,41.3481,42.2809],[27.1063,41.346,44.7572],[27.0884,41.3397,29.8446],[27.0683,41.336,28.499],[27.0012,41.3365,59.94],[26.9863,41.3342,56.8896],[26.9649,41.3269,82.7645],[26.9533,41.3255,90.0969],[26.9415,41.3254,87.9596],[26.923,41.3289,90.1775],[26.8983,41.343,19.5953],[26.8945,41.3167,73.871],[26.8966,41.294,101.3817],[26.9126,41.2682,109.8088],[26.9347,41.2455,107.0498],[26.9386,41.2373,143.5408],[26.9405,41.2102,166.892],[26.9376,41.1895,212.9537],[26.9306,41.1793,174.7737],[26.9146,41.1637,205.0352],[26.9047,41.1498,227.0752],[26.892,41.1386,329.394],[26.8761,41.1383,250.4474],[26.8625,41.1357,221.5534],[26.7727,41.101,167.4],[26.7633,41.0939,121.7336],[26.7481,41.071,75.6814],[26.7446,41.0604,166.0235],[26.744,41.0345,120.0062],[26.7573,41.0319,127.4502],[26.7679,41.026,133.417],[26.775,41.0172,158.4132],[26.7811,41.0063,172.7212],[26.783,40.9996,194.6087],[26.7819,40.9951,207.5674],[26.7717,40.977,177.4401],[26.747,40.9403,193.1262],[26.7401,40.9193,181.1127],[26.7308,40.9027,205.1959],[26.7284,40.8849,237.7101],[26.7286,40.8142,274.1889],[26.7305,40.8054,167.9469],[26.7353,40.7976,106.2826],[26.7532,40.7797,48.925],[26.7609,40.7677,66.9028],[26.771,40.7572,119.9119],[26.7838,40.7462,214.2646],[26.8038,40.7438,273.5981],[26.8433,40.7431,259.2172],[26.8586,40.7448,295.441],[26.8715,40.7502,396.9086],[26.8987,40.7697,420.8563],[26.9098,40.776,387.9346],[26.9637,40.7973,192.6799],[26.9767,40.801,166.1904],[26.9876,40.8021,154.8421],[27.009,40.8005,101.0582],[27.0154,40.7982,93.7577],[27.0249,40.7911,88.8521],[27.0415,40.7602,116.8971],[27.0417,40.7387,92.0201],[27.0311,40.7158,95.1001]]]]}
,"properties": {"GID_1": "TUR.73_1","GID_0": "TUR","country": "Turkey","province": "Tekirdag","VARNAME_1": "Tekirdağ","NL_NAME_1": "NA","TYPE_1": "Il","ENGTYPE_1": "Province","CC_1": "NA","HASC_1": "TR.TG","ISO_1": "TR-59","name": "Tekirdag.province","area_km2": 6599.449,"hist_schema_id": "Elevation0-9000","hist_area_km2": {"0": 59.738,"25": 144.026,"50": 367.618,"75": 591.5,"100": 828.485,"125": 1002.082,"150": 979.418,"175": 797.852,"200": 608.758,"225": 413.124,"250": 224.741,"275": 160.318,"300": 113.903,"325": 79.305,"350": 49.281,"375": 29.97,"400": 21.438,"425": 15.986,"450": 14.232,"475": 11.752,"500": 9.812,"525": 8.913,"550": 8.527,"575": 7.386,"600": 8.334,"625": 8.238,"650": 6.327,"675": 4.961,"700": 5.17,"725": 5.748,"750": 3.837,"775": 2.119,"800": 1.926,"825": 1.525,"850": 1.268,"875": 1.076,"900": 0.706}}}