{"type":"Feature","properties":{"ISO3166-1-Alpha-3":"TUR","country":"Turkey","fill":"#F00","id":"2242","name":"Tekirdag"},
"geometry":{"type": "Polygon","coordinates": [[[28.17473,41.08084,43.179],[28.16296,41.13646,50.4054],[28.14932,41.21304,188.4168],[28.16296,41.27324,230.9596],[28.19304,41.35531,228.5736],[28.18208,41.42096,201.2123],[28.15573,41.4922,261.5252],[27.98044,41.47814,205.3331],[27.80743,41.46145,113.4344],[27.69891,41.44194,133.4079],[27.60145,41.41969,135.29],[27.55411,41.36678,108.0954],[27.51794,41.31112,85.6833],[27.45965,41.27815,58.4845],[27.39598,41.26456,106.9158],[27.34027,41.29242,74.024],[27.29552,41.33693,42.9421],[27.23982,41.36476,35.9418],[27.12344,41.36476,30.379],[26.96035,41.35531,24.6052],[26.80976,41.33027,17.1599],[26.82155,41.31236,59.6229],[26.8293,41.17284,171.6021],[26.8139,41.11351,333.7914],[26.76501,41.06535,100.3442],[26.73411,41.00556,118.0988],[26.71633,40.93505,105.3976],[26.72305,40.85373,220.618],[26.76098,40.791,95.0389],[26.78641,40.72583,316.6844],[26.93244,40.71488,158.5499],[26.93193,40.63581,29.1997],[26.96354,40.56102,30.7328],[26.96355,40.56102,30.7328],[26.98976,40.56379,34.4084],[27.00148,40.5703,5.042],[27.03061,40.60155,68.151],[27.04754,40.61221,122.297],[27.06861,40.61441,68.6928],[27.11524,40.61371,8.9615],[27.14283,40.62739,28.6592],[27.167,40.62987,2.2095],[27.17774,40.63264,7.5784],[27.1823,40.63638,6.7977],[27.19272,40.64834,28.1379],[27.19825,40.65314,61.9889],[27.28793,40.70356,132.5137],[27.33082,40.76097,200.1624],[27.42482,40.83128,313.2709],[27.44654,40.86172,96.524],[27.47169,40.94184,49.4214],[27.49317,40.97529,84.8657],[27.52418,40.9892,92.6061],[27.7378,41.01264,4.1677],[27.77613,41.01097,4.87],[27.81528,41.00263,6.6146],[27.83155,40.9951,0.0],[27.84571,40.98607,0.0],[27.86069,40.97846,11.2018],[27.94125,40.9711,4.9628],[27.95924,40.97529,0.0],[27.95777,40.9833,29.9943],[27.96437,40.99628,29.4535],[27.98658,41.02367,27.5835],[27.99733,41.03205,76.4025],[28.01303,41.04072,48.2145],[28.03012,41.04759,95.0088],[28.04493,41.05044,38.9535],[28.10027,41.06782,3.1729],[28.11004,41.06778,13.9294],[28.11744,41.07123,20.5506],[28.16529,41.08515,73.1776],[28.17473,41.08084,43.179]]]}}