{"type": "Feature","bbox": [36.9481,40.9888,37.1718,41.1147],"geometry": {"type": "MultiPolygon","coordinates": [[[[37.1718,41.0547,228.6773],[37.159,41.0675,255.7835],[37.153,41.077,201.1808],[37.1508,41.0909,281.6728],[37.1525,41.1147,35.35],[37.1198,41.0987,165.0641],[37.011,41.0571,511.604],[36.9918,41.0421,616.9924],[36.9808,41.0257,690.1245],[36.9576,41.0027,547.4381],[36.9481,40.9888,739.715],[36.9842,40.9944,602.913],[37.032,41.0126,513.7908],[37.0623,41.0188,564.6912],[37.1371,41.0477,522.6508],[37.1718,41.0547,228.6773]]]]}
,"properties": {"GID_2": "TUR.63.9_1","GID_0": "TUR","country": "Turkey","GID_1": "TUR.63_1","province": "Ordu","NL_NAME_1": "NA","county": "İkizce","VARNAME_2": "NA","NL_NAME_2": "NA","TYPE_2": "District","ENGTYPE_2": "District","CC_2": "NA","HASC_2": "TR.OR.IK","name": "İkizce.county","area_km2": 95.20207,"hist_schema_id": "Elevation0-9000","hist_area_km2": {"25": 0.09585,"50": 0.57514,"75": 1.47006,"100": 1.99773,"125": 2.60523,"150": 3.30882,"175": 3.62874,"200": 4.46003,"225": 5.1316,"250": 5.22759,"275": 5.83521,"300": 5.93151,"325": 5.08431,"350": 5.40414,"375": 4.87681,"400": 4.90894,"425": 4.26944,"450": 3.74216,"475": 3.80638,"500": 3.50272,"525": 3.82291,"550": 3.5191,"575": 3.18329,"600": 2.76742,"625": 2.35158,"650": 1.40777,"675": 1.02389,"700": 0.70389,"725": 0.28792,"750": 0.19193,"775": 0.07996}}}