{"type":"Feature","properties":{"GID_2":"TUR.57.3_1","GID_0":"TUR","country":"Turkey","GID_1":"TUR.57_1","province":"Mardin","NL_NAME_1":"NA","county":"Kızıltepe","VARNAME_2":"NA","NL_NAME_2":"NA","TYPE_2":"District","ENGTYPE_2":"District","CC_2":"NA","HASC_2":"TR.MR.KI","name":"Kızıltepe.county"},
"geometry":{"type": "MultiPolygon","coordinates": [[[[40.8904,37.1246,488.308],[40.8699,37.1279,490.9443],[40.8541,37.1481,512.5209],[40.8396,37.1716,536.6584],[40.833,37.1927,566.7216],[40.824,37.2092,606.4561],[40.8207,37.2313,602.9504],[40.8157,37.2441,606.2698],[40.8003,37.2672,670.3027],[40.7814,37.2858,790.0798],[40.7718,37.3001,966.9451],[40.75,37.3231,953.9627],[40.7425,37.3353,878.1378],[40.7333,37.3443,822.8101],[40.7189,37.3534,865.8611],[40.7051,37.3567,881.2479],[40.683,37.3574,960.8386],[40.553,37.3568,1089.5051],[40.5414,37.3554,1094.2031],[40.5199,37.3484,1041.1797],[40.4929,37.3429,1042.8894],[40.4611,37.3273,1077.6097],[40.4626,37.297,743.8223],[40.4652,37.2884,683.5283],[40.4724,37.275,635.9773],[40.4725,37.2646,578.4125],[40.4591,37.2414,515.9929],[40.4417,37.2158,486.3696],[40.4323,37.2069,481.7578],[40.4211,37.1993,480.9174],[40.3961,37.1886,471.2689],[40.358,37.1628,465.9226],[40.3246,37.15,464.9086],[40.274,37.1463,459.4896],[40.2494,37.1387,450.8229],[40.2385,37.1368,454.5209],[40.1691,37.135,433.0909],[40.1409,37.1264,449.1475],[40.118,37.1232,436.5188],[40.1204,37.1133,450.1462],[40.1274,37.1003,436.969],[40.1297,37.0919,435.7775],[40.1302,37.0379,452.1891],[40.1323,37.0234,447.719],[40.1762,36.9533,417.0573],[40.1816,36.9468,422.1431],[40.1916,36.9402,417.5113],[40.2552,36.9161,370.9883],[40.2602,36.92,368.9903],[40.2784,36.9261,379.3016],[40.3259,36.952,405.8755],[40.3696,36.9674,395.4304],[40.386,36.9747,402.2865],[40.3975,36.9813,402.0872],[40.4191,36.9992,407.262],[40.4381,37.0088,428.335],[40.4618,37.0149,438.866],[40.5326,37.0238,462.7578],[40.5463,37.0267,472.1411],[40.5824,37.0412,486.7491],[40.6022,37.0541,474.3512],[40.6352,37.0629,471.0393],[40.6748,37.0784,487.907],[40.6884,37.0876,490.3229],[40.7078,37.0977,499.8391],[40.7208,37.1011,491.1506],[40.7406,37.1024,492.6214],[40.7527,37.1059,498.7675],[40.7817,37.1206,501.0972],[40.8225,37.1197,494.1361],[40.8282,37.1161,497.0948],[40.8341,37.1094,491.9637],[40.8505,37.1066,468.893],[40.8581,37.1084,473.3958],[40.8705,37.118,483.4733],[40.8859,37.1243,487.046],[40.8904,37.1246,488.308]]]]}}