{"type": "Feature","bbox": [42.1663,37.7864,43.0391,38.0901],"geometry": {"type": "MultiPolygon","coordinates": [[[[42.5403,38.0901,1566.6559],[42.5336,38.0694,1796.8076],[42.5286,38.0618,2001.4857],[42.4946,38.0338,1765.1479],[42.474,38.0213,1921.8228],[42.4168,37.9995,1347.9243],[42.3899,37.994,1215.2244],[42.3688,37.9868,1121.8706],[42.3577,37.985,1275.9303],[42.2434,37.9834,1371.1814],[42.215,37.9749,956.3262],[42.1909,37.9704,1132.1687],[42.1663,37.9606,957.7833],[42.1909,37.952,731.932],[42.2299,37.9475,967.1184],[42.2582,37.939,1145.4929],[42.2809,37.9378,1466.5321],[42.339,37.9383,1421.9197],[42.35,37.937,1462.4216],[42.3593,37.9332,1488.7952],[42.3674,37.925,1620.5217],[42.3695,37.917,1502.4155],[42.3678,37.9062,1469.9036],[42.3578,37.8883,1455.0052],[42.3579,37.8832,1288.7816],[42.3601,37.8783,1356.4017],[42.3685,37.8711,1645.3043],[42.3855,37.8641,1948.3505],[42.3949,37.8572,1993.7925],[42.4326,37.799,2153.3918],[42.4446,37.7864,2130.9536],[42.4548,37.7968,2210.5449],[42.4688,37.8161,2468.1831],[42.4848,37.8295,2071.2729],[42.4995,37.8394,1786.7515],[42.5931,37.8761,1957.532],[42.6148,37.8795,2044.2476],[42.6615,37.8797,2065.4319],[42.6838,37.8768,2027.8916],[42.7134,37.86,1851.3976],[42.7318,37.8521,1532.1448],[42.7549,37.838,1563.9573],[42.7649,37.8343,1584.1901],[42.7835,37.8325,1875.9814],[42.8682,37.832,2637.4412],[42.879,37.8301,2634.0813],[42.9001,37.823,2583.9385],[42.9392,37.8186,2539.262],[42.9636,37.8105,2509.3181],[42.9853,37.8093,2503.145],[42.9854,37.8402,2309.7219],[42.9886,37.8549,2067.9116],[43.0119,37.8919,1475.8408],[43.0204,37.9152,2155.2722],[43.0391,37.9368,2784.0198],[43.0199,37.9592,1740.9889],[43.0053,37.9826,1646.7034],[42.9976,38.0062,2449.8196],[42.9836,38.0298,2842.219],[42.975,38.0391,3059.6655],[42.9642,38.0471,2950.1809],[42.9473,38.0531,3167.5657],[42.8931,38.0547,2638.8372],[42.8821,38.0565,2947.3945],[42.8609,38.0635,2672.3726],[42.8357,38.0655,2169.3257],[42.8223,38.0575,1955.7184],[42.8012,38.0489,2410.5352],[42.7624,38.022,1974.3051],[42.7391,38.0135,1635.0916],[42.7306,38.0121,1508.6194],[42.7222,38.0144,1505.9827],[42.702,38.0268,2391.8813],[42.6839,38.0342,2709.1016],[42.6543,38.0519,1935.3303],[42.6242,38.0633,1614.3472],[42.5937,38.0692,2040.233],[42.5403,38.0901,1566.6559]]]]}
,"properties": {"GID_2": "TUR.69.6_1","GID_0": "TUR","country": "Turkey","GID_1": "TUR.69_1","province": "Siirt","NL_NAME_1": "NA","county": "Pervari","VARNAME_2": "NA","NL_NAME_2": "NA","TYPE_2": "District","ENGTYPE_2": "District","CC_2": "NA","HASC_2": "TR.SI.PE","name": "Pervari.county","area_km2": 1315.976,"hist_schema_id": "Elevation0-9000","hist_area_km2": {"625": 0.351,"650": 0.652,"675": 1.153,"700": 2.056,"725": 2.39,"750": 2.842,"775": 3.36,"800": 3.627,"825": 4.246,"850": 4.58,"875": 5.082,"900": 5.499,"925": 5.633,"950": 6.636,"975": 6.586,"1000": 6.82,"1025": 6.954,"1050": 7.789,"1075": 8.358,"1100": 8.859,"1125": 9.461,"1150": 10.515,"1175": 11.685,"1200": 11.284,"1225": 12.22,"1250": 12.822,"1275": 12.806,"1300": 13.291,"1325": 13.859,"1350": 15.314,"1375": 18.458,"1400": 18.777,"1425": 19.647,"1450": 21.27,"1475": 22.508,"1500": 20.935,"1525": 21.622,"1550": 22.006,"1575": 24.065,"1600": 31.527,"1625": 35.357,"1650": 38.235,"1675": 34.856,"1700": 32.447,"1725": 31.677,"1750": 29.369,"1775": 26.607,"1800": 25.751,"1825": 25.314,"1850": 22.841,"1875": 23.043,"1900": 22.007,"1925": 22.273,"1950": 20.567,"1975": 19.16,"2000": 18.492,"2025": 17.873,"2050": 16.936,"2075": 16.52,"2100": 16.537,"2125": 16.086,"2150": 16.454,"2175": 15.017,"2200": 15.551,"2225": 14.564,"2250": 14.431,"2275": 15.065,"2300": 14.664,"2325": 13.326,"2350": 14.012,"2375": 12.941,"2400": 12.221,"2425": 12.238,"2450": 11.569,"2475": 12.021,"2500": 10.917,"2525": 11.703,"2550": 10.868,"2575": 11.536,"2600": 10.584,"2625": 11.02,"2650": 11.456,"2675": 12.728,"2700": 10.972,"2725": 9.448,"2750": 7.423,"2775": 6.418,"2800": 5.899,"2825": 4.779,"2850": 4.327,"2875": 3.977,"2900": 3.709,"2925": 3.526,"2950": 3.392,"2975": 2.824,"3000": 2.607,"3025": 2.373,"3050": 2.139,"3075": 1.638,"3100": 1.404,"3125": 1.186,"3150": 0.785,"3175": 0.484,"3200": 0.384,"3225": 0.434,"3250": 0.15,"3275": 0.184,"3300": 0.117,"3325": 0.234,"3350": 0.1,"3375": 0.084,"3400": 0.15,"3425": 0.1,"3450": 0.134,"3475": 0.1,"3500": 0.033,"3525": 0.084}}}