{"type":"Feature","properties":{"GID_2":"TUR.34.14_1","GID_0":"TUR","country":"Turkey","GID_1":"TUR.34_1","province":"Giresun","NL_NAME_1":"NA","county":"ŞultanKarahisar","VARNAME_2":"NA","NL_NAME_2":"NA","TYPE_2":"District","ENGTYPE_2":"District","CC_2":"NA","HASC_2":"TR.GI.SK","name":"Şultan_Karahisar.county"},
"geometry":{"type": "MultiPolygon","coordinates": [[[[38.5656,40.5311,1949.873],[38.5361,40.5389,1774.8638],[38.5159,40.546,1868.0679],[38.5057,40.5464,1773.4363],[38.4994,40.5446,1811.5046],[38.4882,40.5359,1898.6851],[38.4807,40.5241,2167.4194],[38.461,40.5033,2053.3579],[38.4523,40.4887,2442.8618],[38.4393,40.4723,2508.3313],[38.431,40.4681,2421.3745],[38.413,40.4665,2452.1428],[38.3298,40.4669,2134.7866],[38.307,40.4695,2122.9746],[38.2471,40.4927,2511.3662],[38.2178,40.5101,2507.3184],[38.1876,40.5221,2478.1724],[38.1554,40.5283,2896.1348],[38.1557,40.5087,2612.1479],[38.1825,40.4662,2237.4595],[38.1848,40.4581,2134.3562],[38.1857,40.4439,2100.2109],[38.1891,40.4334,1779.2979],[38.1982,40.4167,1720.3622],[38.2031,40.3897,2052.0232],[38.2131,40.3701,2098.4485],[38.2181,40.3431,1424.5906],[38.2288,40.3208,1081.3265],[38.232,40.2759,1171.7135],[38.2418,40.2565,1018.2601],[38.2441,40.248,929.9915],[38.2456,40.2091,1487.6285],[38.2471,40.2034,1516.4738],[38.2519,40.1963,1321.9689],[38.2616,40.1896,1168.5364],[38.2827,40.1804,1072.2402],[38.3052,40.1644,914.5064],[38.3214,40.155,845.0],[38.3668,40.1375,965.5779],[38.3964,40.12,1097.7754],[38.453,40.0978,1071.8755],[38.4628,40.0963,1066.204],[38.4695,40.097,1087.2118],[38.4922,40.1042,1235.8777],[38.5165,40.1152,1415.6243],[38.5372,40.1193,1551.7219],[38.5536,40.1355,975.8907],[38.5745,40.152,1466.4232],[38.5889,40.1604,1735.0577],[38.6163,40.1679,2004.2607],[38.6357,40.1875,2045.9264],[38.6145,40.2043,2031.1089],[38.6073,40.2144,1902.3123],[38.6045,40.2341,1772.3964],[38.6072,40.2538,1562.7334],[38.6121,40.2615,1508.6018],[38.6249,40.2721,1697.1052],[38.6338,40.2771,1642.0562],[38.6559,40.2858,1847.0471],[38.6726,40.2975,1953.54],[38.6807,40.3069,1596.1467],[38.6882,40.3201,1561.9559],[38.6896,40.3267,1648.3756],[38.6839,40.3344,1780.8625],[38.6627,40.3438,1675.6608],[38.6562,40.3494,1722.0516],[38.6533,40.3542,1674.7014],[38.6512,40.3624,1445.2302],[38.6492,40.3905,1544.0845],[38.6387,40.4124,1475.8497],[38.6357,40.4461,1942.8286],[38.6331,40.4541,2156.439],[38.6297,40.4586,2080.8086],[38.6231,40.464,2110.3262],[38.6022,40.4753,2183.364],[38.5629,40.4805,2119.656],[38.5545,40.4848,2117.634],[38.5485,40.4911,2053.832],[38.546,40.4992,1884.0247],[38.5475,40.5102,1813.1698],[38.5519,40.5174,1991.4335],[38.5656,40.5311,1949.873]]]]}}