{"type": "Feature","bbox": [28.0573,41.0393,28.4348,41.3035],"geometry": {"type": "MultiPolygon","coordinates": [[[[28.4313,41.068,203.8763],[28.4321,41.0929,108.7389],[28.4348,41.107,138.6903],[28.4341,41.1272,144.2025],[28.4308,41.1366,208.4522],[28.4227,41.1399,268.6566],[28.4194,41.1466,230.0135],[28.4207,41.1554,263.2137],[28.4247,41.1601,163.5836],[28.4261,41.1769,79.2069],[28.4179,41.1826,78.9853],[28.4134,41.1879,34.3488],[28.409,41.1942,70.7024],[28.409,41.2005,85.7597],[28.4045,41.2041,90.4588],[28.3848,41.2041,45.126],[28.3731,41.2229,81.2204],[28.3705,41.2327,106.8251],[28.3758,41.2417,148.1922],[28.3893,41.2578,137.2931],[28.3893,41.2641,214.2359],[28.3499,41.2667,147.2307],[28.3463,41.2703,181.5636],[28.3472,41.2829,223.1474],[28.3508,41.2864,261.1015],[28.3642,41.2927,279.3585],[28.3642,41.2963,269.9149],[28.357,41.3035,230.6346],[28.3454,41.3035,272.7988],[28.34,41.2963,257.7087],[28.3293,41.2927,236.2899],[28.2988,41.2918,206.3975],[28.2872,41.2927,219.168],[28.2585,41.3008,185.8521],[28.2317,41.3008,190.418],[28.2272,41.2954,168.2601],[28.2263,41.2891,170.72],[28.2227,41.2829,195.8892],[28.2227,41.2721,181.7111],[28.2272,41.2667,214.2655],[28.2057,41.2461,190.0538],[28.1977,41.2444,205.0489],[28.1517,41.2435,233.263],[28.1422,41.2349,192.9785],[28.0974,41.2178,153.6412],[28.0876,41.2111,166.0161],[28.0827,41.2043,158.963],[28.0771,41.1861,125.2303],[28.0573,41.1508,149.5328],[28.0764,41.128,111.2704],[28.0984,41.0926,16.9094],[28.1233,41.0599,0.0],[28.1271,41.0643,5.737],[28.1321,41.0668,0.9785],[28.1435,41.069,5.7092],[28.1557,41.069,1.5791],[28.1632,41.0724,4.192],[28.1807,41.0735,0.0],[28.2115,41.0699,0.0],[28.2201,41.0768,0.0],[28.2335,41.0776,0.732],[28.2412,41.0754,0.0],[28.2426,41.0735,0.0],[28.2415,41.0707,0.2719],[28.2501,41.0682,8.2373],[28.2596,41.0624,8.1521],[28.281,41.0635,0.0],[28.3101,41.059,14.2006],[28.3121,41.0571,3.173],[28.3363,41.0565,0.0],[28.3401,41.0588,13.3474],[28.3496,41.0568,0.0],[28.3537,41.0535,0.0],[28.3657,41.051,0.0],[28.3688,41.0529,1.7597],[28.3793,41.0518,0.3664],[28.3899,41.0479,1.3898],[28.3974,41.0479,2.0104],[28.426,41.0393,1.0518],[28.4288,41.0466,43.426],[28.4313,41.068,203.8763]]]]}
,"properties": {"GID_2": "TUR.40.39_1","GID_0": "TUR","country": "Turkey","GID_1": "TUR.40_1","province": "Istanbul","NL_NAME_1": "NA","county": "Silivri","VARNAME_2": "NA","NL_NAME_2": "NA","TYPE_2": "District","ENGTYPE_2": "District","CC_2": "NA","HASC_2": "TR.IB.US","name": "Silivri.county","area_km2": 622.6262,"hist_schema_id": "Elevation0-9000","hist_area_km2": {"0": 14.7524,"25": 45.8122,"50": 68.8601,"75": 79.0644,"100": 76.0041,"125": 69.4173,"150": 74.7109,"175": 82.8068,"200": 68.9999,"225": 34.5773,"250": 6.1867,"275": 1.4341}}}