{"type": "Feature","bbox": [34.9206,41.2491,35.4529,41.596],"geometry": {"type": "MultiPolygon","coordinates": [[[[35.4176,41.4698,1185.1603],[35.4023,41.4775,1246.0518],[35.3731,41.4988,1266.9712],[35.3606,41.5034,1042.8567],[35.3472,41.5021,886.3135],[35.3066,41.4856,946.5095],[35.2966,41.483,1076.7698],[35.2635,41.4819,1228.0693],[35.2425,41.4853,1334.2988],[35.2108,41.499,1025.7029],[35.2044,41.5047,1216.9537],[35.1933,41.5201,1092.4625],[35.1829,41.5262,1367.8984],[35.1691,41.5286,1172.9658],[35.1408,41.5292,998.2499],[35.1287,41.5325,1345.4211],[35.1151,41.5484,1207.3474],[35.1029,41.5675,1121.666],[35.0797,41.5871,1185.0914],[35.0434,41.5886,1245.752],[35.0187,41.5956,1147.1102],[35.0087,41.596,1082.2625],[34.9806,41.589,907.2479],[34.935,41.5865,1218.9938],[34.9243,41.5812,1062.9803],[34.9206,41.5748,869.5664],[34.9214,41.5704,788.3043],[34.9411,41.5398,741.1143],[34.9443,41.5248,512.6438],[34.9423,41.5096,382.3789],[34.9329,41.493,454.4568],[34.9295,41.4781,546.1122],[34.9299,41.3761,367.4479],[34.9288,41.3524,852.1821],[34.9292,41.3328,560.5905],[34.9317,41.3203,315.0],[34.9371,41.3076,315.0],[35.1037,41.3735,595.2787],[35.113,41.3759,431.2098],[35.1198,41.3757,330.5222],[35.1289,41.3726,180.5],[35.1356,41.3672,198.8991],[35.1445,41.3531,382.1075],[35.1643,41.3324,411.4254],[35.1739,41.3179,185.0245],[35.205,41.29,429.0328],[35.2166,41.2737,258.7264],[35.2251,41.2662,179.5],[35.2375,41.2618,179.5],[35.2692,41.2589,334.4174],[35.2973,41.2503,238.5561],[35.3303,41.2491,206.6292],[35.3481,41.2515,200.5656],[35.3814,41.2638,336.3447],[35.4055,41.2755,385.001],[35.4204,41.2943,279.7325],[35.4285,41.3088,358.3499],[35.441,41.3255,398.8902],[35.4427,41.3387,420.4917],[35.4523,41.3575,543.6117],[35.4529,41.3711,741.7369],[35.4425,41.393,1166.4965],[35.4373,41.4199,1186.8992],[35.4273,41.4392,1111.5864],[35.4227,41.4583,1302.5782],[35.4176,41.4698,1185.1603]]]]}
,"properties": {"GID_2": "TUR.70.4_1","GID_0": "TUR","country": "Turkey","GID_1": "TUR.70_1","province": "Sinop","NL_NAME_1": "NA","county": "Durağan","VARNAME_2": "NA","NL_NAME_2": "NA","TYPE_2": "District","ENGTYPE_2": "District","CC_2": "NA","HASC_2": "TR.SP.DU","name": "Durağan.county","area_km2": 1058.2971,"hist_schema_id": "Elevation0-9000","hist_area_km2": {"175": 11.4078,"200": 14.1087,"225": 18.6564,"250": 17.7044,"275": 17.1659,"300": 17.6599,"325": 26.3529,"350": 19.6961,"375": 19.9024,"400": 20.6964,"425": 20.7587,"450": 22.6501,"475": 23.6201,"500": 24.8432,"525": 26.3856,"550": 25.7646,"575": 27.2745,"600": 25.7946,"625": 26.6362,"650": 25.9191,"675": 25.5847,"700": 26.7448,"725": 25.4411,"750": 24.2794,"775": 23.9447,"800": 21.5276,"825": 21.5428,"850": 20.5871,"875": 19.7127,"900": 19.2981,"925": 19.3956,"950": 20.2351,"975": 21.8431,"1000": 25.6283,"1025": 27.4399,"1050": 28.9512,"1075": 30.4626,"1100": 30.2798,"1125": 27.3824,"1150": 26.9993,"1175": 25.0572,"1200": 24.0199,"1225": 21.3508,"1250": 17.761,"1275": 14.8542,"1300": 12.2005,"1325": 8.9755,"1350": 5.8764,"1375": 3.5889,"1400": 1.9371,"1425": 1.3021,"1450": 1.0957}}}