{"type":"Feature","properties":{"id":140163.0,"fillOpacity":1,"fill":"#F0F","name":"413","title":"413","lge_id":null,"pfafstette":6811.0,"lke_type":null,"altitude":837,"objectid":87585,"scalerank":10,"featurecla":"Lake","note":"_untitled_87585","funkyname":0,"min_zoom":6.0,"min_label":7.0},
"geometry":{"type": "Polygon","coordinates": [[[29.744639519146233,37.803290106244077,836.0],[29.744639519146233,37.803290106244077,836.0],[29.753550651958733,37.800055242962827,836.567],[29.772959831646233,37.790228582806577,836.4606],[29.811289909771233,37.791388250775327,836.5],[29.842784050396233,37.793219305462827,836.0],[29.885752800396233,37.802374578900327,836.0],[29.914927605083733,37.817877508587827,836.0],[29.955699089458733,37.842291571087827,836.6371],[29.994395378521233,37.877325750775327,837.7662],[29.977061394146233,37.896002508587827,838.5668],[29.945323112896233,37.904669500775327,840.4244],[29.921763542583733,37.898443914837827,838.111],[29.895640495708733,37.882086492962827,841.1482],[29.874034050396233,37.866339422650327,840.7947],[29.857310417583733,37.859808660931577,838.5],[29.839732292583733,37.865729071087827,837.5],[29.827525261333733,37.865423895306577,835.9055],[29.804331901958733,37.858587957806577,840.162],[29.768687370708733,37.845221258587827,843.2361],[29.727061394146233,37.831549383587827,986.6455],[29.704112175396233,37.825323797650327,844.0156],[29.717784050396233,37.811651922650327,836.0],[29.744639519146233,37.803290106244077,836.0]]]}}