{"type":"Feature","properties":{"featurecla":"River","scalerank":8,"rivernum":867,"dissolve":"867River","name":"Byk1","name_alt":null,"note":null,"min_zoom":7.0,"strokeweig":0.15,"name_en":"Byk Menderes","min_label":8.0},
"geometry":{"type": "LineString","coordinates": [[30.480371093750023,38.35871002811912,1495.988],[30.484082031250011,38.318963934369116,1260.308],[30.481054687500006,38.285516668744116,1166.9109],[30.46875,38.26117584843162,1141.2969],[30.453857421875,38.24408600468162,1132.6831],[30.434814453125,38.215204168744116,1121.2751],[30.417236328125,38.204461981244116,1120.8105],[30.395263671875,38.198993231244117,1121.4434],[30.374414062500023,38.198602606244116,1122.1848],[30.35546875,38.19403717655662,1121.6382],[30.337988281250006,38.177752996869117,1127.1877]]}}