{"type":"Feature","properties":{"featurecla":"River","scalerank":8,"rivernum":867,"dissolve":"867River","name":"Byk","name_alt":null,"note":null,"min_zoom":7.0,"strokeweig":0.2,"name_en":"Byk Menderes","min_label":8.0},
"geometry":{"type": "LineString","coordinates": [[30.337988281250006,38.177752996869117,1127.1877],[30.318359375,38.159295965619116,1199.532],[30.292724609375,38.146112371869116,1276.1616],[30.267675781250006,38.140497137494116,1252.7006],[30.249267578125,38.139764715619116,1157.3739],[30.238183593750023,38.13483307499412,1035.307],[30.223046875000023,38.103143621869116,1013.5775],[30.211181640625,38.097430731244117,1012.1506],[30.1953125,38.095575262494116,1029.0164],[30.16357421875,38.084979559369117,862.6412],[30.15380859375,38.089471746869116,849.7742],[30.144628906250006,38.098163153119117,856.6881],[30.114160156250023,38.112665106244116,869.2704],[30.094482421875,38.127069403119116,838.6399],[30.076562500000023,38.146844793744116,836.7321],[30.052441406250011,38.186297918744117,820.6602],[30.041015625,38.197040106244117,820.8842],[30.026123046875,38.199481512494117,820.4718],[29.987060546875,38.19415924686912,822.7352],[29.9677734375,38.195428778119116,820.3004],[29.949804687500006,38.20343659061912,819.2127],[29.932861328125,38.217792059369117,818.0],[29.89990234375,38.22870514530662,818.0],[29.843017578125,38.236200262494116,818.5127],[29.783593750000023,38.228045965619117,817.3331],[29.740966796875,38.21454498905662,816.5006],[29.716552734375,38.204120184369117,813.5959],[29.688867187500023,38.20783112186912,811.9011],[29.6513671875,38.17865631718162,809.467],[29.586181640625,38.146258856244117,813.0159],[29.569042968750011,38.129754949994116,818.7126],[29.557226562500006,38.115252996869117,813.4798],[29.48388671875,38.076190496869117,790.1249],[29.457763671875,38.06964752811912,860.6774],[29.438232421875,38.08148834843162,778.6854],[29.429296875,38.10529205936912,688.7775],[29.425537109375,38.15082428593162,668.4719],[29.41015625,38.176874090619116,659.0573],[29.39111328125,38.19672272343162,718.1243],[29.348242187500006,38.219842840619116,727.6263],[29.336035156250006,38.218036199994117,734.0812],[29.311914062500023,38.231317449994116,462.0368],[29.298730468750023,38.22687409061912,440.5],[29.284912109375,38.22077057499412,493.3837],[29.252197265625,38.212176824994117,442.5146],[29.223535156250023,38.21320221561912,440.5],[29.216699218750023,38.205926824994116,494.3441],[29.2046875,38.17096588749412,475.1196],[29.1982421875,38.15900299686912,585.3357],[29.182031250000023,38.15045807499412,759.3276],[29.16455078125,38.149530340619116,594.1731],[29.129150390625,38.15289948124412,807.653],[29.08837890625,38.15058014530662,850.7974],[29.069042968750011,38.14411041874412,657.028],[29.05859375,38.12995026249412,415.6551],[29.0361328125,38.118280340619116,263.0]]}}