{"type": "Feature","id": "2272","bbox": [29.66406,37.75935,31.72357,39.28194],"geometry": {"type": "Polygon","coordinates": [[[31.45279,39.09121,931.8131],[31.37827,39.13573,906.2908],[31.32814,39.22386,839.2807],[31.25766,39.28194,842.3104],[31.21652,39.27251,854.5823],[31.18138,39.24841,883.9343],[31.14624,39.22996,921.8434],[31.10718,39.22257,917.335],[31.03504,39.17913,1098.7625],[30.96217,39.15459,1331.0273],[30.91856,39.1926,1114.1382],[30.86853,39.21086,1191.4193],[30.83298,39.18916,1226.838],[30.76983,39.1412,1690.3125],[30.70327,39.10604,1300.9882],[30.66803,39.09299,1380.6538],[30.62121,39.08692,1514.9939],[30.57646,39.10661,1336.2314],[30.56065,39.11632,1425.8477],[30.5437,39.12412,1305.9812],[30.52096,39.14665,1289.6271],[30.50494,39.17838,1374.1891],[30.47724,39.1996,1289.5601],[30.44179,39.20629,1304.1205],[30.37213,39.12242,1122.7646],[30.25348,39.08066,1070.1656],[30.23436,39.04028,1028.9043],[30.21834,38.99493,1049.0227],[30.1924,38.95297,1230.4291],[30.16491,38.88584,1127.635],[30.12429,38.83267,1265.894],[30.09566,38.8042,1207.0281],[29.88813,38.70686,1229.0918],[29.88317,38.66544,1113.0327],[29.86808,38.62772,1123.6086],[29.8071,38.58119,1360.4611],[29.79315,38.54168,1738.4987],[29.77392,38.50067,1567.7256],[29.75077,38.4777,1405.2498],[29.75325,38.45016,1767.7322],[29.89154,38.42484,952.5971],[29.99851,38.2833,1871.356],[30.02549,38.25818,2048.7307],[30.04089,38.19152,821.0872],[30.01319,38.16661,826.6641],[29.74385,38.00745,1168.2411],[29.71243,37.99448,1253.1343],[29.67987,37.98435,1333.7928],[29.66478,37.95577,1393.9792],[29.66406,37.85368,1248.8739],[29.68845,37.84606,1069.2249],[29.73372,37.84637,1555.6559],[29.74757,37.84226,1264.906],[29.77454,37.83128,836.0],[29.78891,37.82798,836.548],[29.8008,37.82115,836.0],[29.84555,37.75935,1150.9949],[29.92637,37.78193,1657.8423],[30.01525,37.77651,1423.9866],[30.09339,37.77924,1671.7532],[30.16532,37.81041,1036.7777],[30.19767,37.85841,1379.7994],[30.21111,37.9619,1004.4559],[30.23219,37.99319,1330.7242],[30.29999,38.0244,1276.5479],[30.39032,38.09463,1536.0575],[30.42898,38.1122,1330.3669],[30.48117,38.14948,1316.1057],[30.53016,38.19302,1677.825],[30.56654,38.20563,1699.475],[30.6055,38.21369,1443.8339],[30.66235,38.25004,1514.2568],[30.68312,38.25394,1528.8662],[30.70513,38.25451,1454.254],[30.7811,38.27774,1443.9832],[30.84466,38.3249,1265.4019],[30.90564,38.3805,1354.7188],[31.03039,38.4598,1747.7415],[31.07968,38.50189,2555.5425],[31.09963,38.51519,1920.2101],[31.12382,38.51243,1513.0237],[31.14418,38.50328,1938.1465],[31.16216,38.49078,1616.7156],[31.20702,38.43962,2210.9316],[31.22955,38.42902,1993.4868],[31.25435,38.42298,2002.8281],[31.43077,38.51411,951.8911],[31.50715,38.57708,953.5352],[31.5948,38.66637,1227.7964],[31.59831,38.68901,1078.0925],[31.59345,38.70865,1093.7408],[31.59221,38.72882,1026.7069],[31.60802,38.78208,1052.9446],[31.63831,38.8291,1188.3918],[31.71489,38.92765,1015.0717],[31.72357,38.96747,930.7524],[31.70476,38.97638,957.3409],[31.67469,39.00049,959.511],[31.67903,39.01286,937.0182],[31.68523,39.02599,926.676],[31.69784,39.09263,893.9176],[31.6596,39.10028,926.8136],[31.58188,39.1019,887.4951],[31.45279,39.09121,931.8131]]]}
,"properties": {"ISO3166-1-Alpha-3": "TUR","country": "Turkey","fill": "#F0F","name": "Afyonkarahisar","area_km2": 14747.28,"hist_schema_id": "Elevation0-9000","hist_area_km2": {"825": 162.08,"850": 194.84,"875": 202.94,"900": 409.97,"925": 390.63,"950": 554.53,"975": 946.89,"1000": 768.63,"1025": 636.64,"1050": 579.34,"1075": 699.06,"1100": 613.77,"1125": 763.97,"1150": 662.11,"1175": 600.63,"1200": 567.6,"1225": 523.03,"1250": 467.48,"1275": 433.58,"1300": 413.52,"1325": 395.95,"1350": 378.79,"1375": 362.83,"1400": 330.02,"1425": 291.75,"1450": 268.68,"1475": 237.81,"1500": 216.08,"1525": 203.04,"1550": 187.74,"1575": 166.53,"1600": 146.48,"1625": 131.45,"1650": 118.11,"1675": 102.7,"1700": 86.92,"1725": 74.21,"1750": 64.15,"1775": 53.67,"1800": 45.51,"1825": 39.46,"1850": 33.66,"1875": 32.02,"1900": 28.51,"1925": 25.51,"1950": 22.56,"1975": 20.59,"2000": 15.91,"2025": 15.31,"2050": 12.26,"2075": 8.79,"2100": 7.21,"2125": 5.51,"2150": 4.88,"2175": 4.35,"2200": 3.47,"2225": 3.4,"2250": 2.8,"2275": 1.94,"2300": 1.03,"2325": 0.78,"2350": 0.75,"2375": 0.63,"2400": 0.61,"2425": 0.4,"2450": 0.58,"2475": 0.33,"2500": 0.18,"2525": 0.12}}}