{"type": "Feature","bbox": [29.3878,36.919,30.9159,37.84],"geometry": {"type": "MultiPolygon","coordinates": [[[[29.6769,36.9326,1262.3442],[29.6843,36.919,1246.9854],[29.7243,36.9234,1268.5576],[29.7372,36.9272,1286.3129],[29.7522,36.9354,1317.7761],[29.7618,36.9428,1387.725],[29.7754,36.9611,1367.5635],[29.8091,36.991,1478.8606],[29.8267,37.0195,1425.6564],[29.8302,37.0673,1394.5917],[29.8412,37.0894,1396.8545],[29.846,37.1168,1733.1084],[29.8629,37.1452,2157.3337],[29.8774,37.1614,1912.8864],[29.9203,37.1882,1815.0115],[30.0262,37.2282,1673.7467],[30.0477,37.2378,1790.6862],[30.068,37.2395,1614.2632],[30.1159,37.2574,1948.0974],[30.1431,37.2627,2125.55],[30.1643,37.2698,1590.7555],[30.1882,37.2742,1336.855],[30.233,37.2913,1174.9657],[30.2632,37.2976,880.9662],[30.281,37.304,861.8031],[30.2959,37.3064,847.0701],[30.3349,37.307,811.8026],[30.3534,37.3041,813.0016],[30.366,37.2959,925.8174],[30.3815,37.2704,1079.5905],[30.3866,37.252,807.443],[30.3935,37.2432,807.7137],[30.4041,37.2371,809.2415],[30.431,37.2268,969.767],[30.4441,37.2236,984.458],[30.4827,37.2248,776.4078],[30.6734,37.2247,700.0022],[30.6946,37.2266,636.829],[30.7165,37.2335,850.5413],[30.7288,37.2355,626.1184],[30.7504,37.2364,429.728],[30.7902,37.2362,164.6047],[30.8052,37.2246,84.9117],[30.8177,37.2373,310.2317],[30.8318,37.2607,290.7152],[30.8387,37.2817,657.7917],[30.8471,37.2955,926.4343],[30.8526,37.3141,763.8275],[30.8617,37.3305,472.3167],[30.8662,37.3462,355.1396],[30.8701,37.3536,344.0273],[30.8819,37.3624,375.0118],[30.9159,37.3725,895.2529],[30.9099,37.3929,732.694],[30.9051,37.4029,602.2206],[30.8898,37.4261,273.8396],[30.873,37.4393,270.4951],[30.8459,37.4508,304.8507],[30.8266,37.4639,381.8144],[30.8106,37.4793,485.2567],[30.8058,37.4923,313.2711],[30.7931,37.4976,490.0289],[30.7653,37.5256,372.1407],[30.749,37.5516,434.6938],[30.7425,37.5728,498.5197],[30.7332,37.5892,447.4435],[30.7275,37.6077,625.264],[30.7193,37.6216,883.102],[30.7153,37.6372,913.9838],[30.715,37.6607,737.3844],[30.7096,37.6712,932.3947],[30.7026,37.678,1055.2891],[30.6853,37.6887,1403.674],[30.6513,37.7006,876.9188],[30.624,37.7023,1364.3342],[30.5483,37.7025,1564.302],[30.534,37.7054,1549.7596],[30.5042,37.717,1571.6931],[30.4771,37.7335,1574.2869],[30.4537,37.7434,1311.9766],[30.4136,37.7739,1303.6],[30.4035,37.7846,1270.1951],[30.3815,37.8199,870.4661],[30.371,37.8303,850.0162],[30.3575,37.8331,851.4188],[30.3378,37.84,855.2143],[30.3237,37.8384,862.1181],[30.2974,37.8226,971.3379],[30.2737,37.8123,886.9104],[30.2306,37.7804,841.0],[30.2013,37.7672,841.0],[30.1651,37.7422,841.0],[30.144,37.7337,841.0],[30.1144,37.716,841.0],[30.0877,37.7053,841.0],[30.0741,37.7026,893.7919],[30.0633,37.7029,985.9883],[30.053,37.7057,1003.6831],[30.0339,37.7193,1180.3029],[30.0187,37.7407,1224.6296],[30.0029,37.7549,1587.5316],[30.0105,37.7723,1452.4971],[29.9942,37.7814,1671.5178],[29.9789,37.784,1697.2588],[29.967,37.784,1744.545],[29.9517,37.7817,1478.0106],[29.9268,37.7738,1376.5347],[29.8804,37.7723,1413.5385],[29.8587,37.7684,1277.6865],[29.8319,37.7527,1038.1774],[29.8108,37.7442,923.853],[29.7868,37.7295,865.4208],[29.7656,37.721,857.8235],[29.7321,37.6976,1270.4332],[29.7055,37.6861,1226.564],[29.672,37.6627,1447.4407],[29.6454,37.6512,1209.6648],[29.6092,37.6263,1424.6284],[29.6006,37.6231,1465.9854],[29.5897,37.6213,1546.3872],[29.5733,37.6116,1535.6128],[29.5535,37.6051,1462.0505],[29.5524,37.6008,1422.4545],[29.5489,37.5983,1406.822],[29.5268,37.5914,1606.7354],[29.5295,37.5611,1467.9766],[29.5286,37.4783,977.4426],[29.531,37.4626,1000.5934],[29.5344,37.4569,1170.2463],[29.5425,37.4502,1253.2507],[29.5795,37.4354,1442.2446],[29.5774,37.4233,1478.719],[29.5792,37.4102,1382.5529],[29.5627,37.3873,1099.2677],[29.5542,37.364,943.7639],[29.5379,37.3465,885.8375],[29.5274,37.3215,892.4244],[29.5233,37.3152,920.1968],[29.5166,37.3072,924.2787],[29.492,37.2892,885.9231],[29.477,37.2685,946.8508],[29.4498,37.2453,1051.5548],[29.4414,37.2363,1129.6469],[29.4117,37.1897,1401.9744],[29.405,37.1685,1461.9255],[29.3979,37.1571,1441.0298],[29.394,37.1469,1525.1362],[29.3926,37.1387,1610.947],[29.3929,37.0967,1254.615],[29.3878,37.0761,1530.646],[29.3954,37.0547,1276.3052],[29.4062,37.0357,1262.9531],[29.4083,37.0246,1334.4189],[29.4067,36.999,1086.8801],[29.3956,36.9801,1079.5099],[29.3923,36.9694,1221.8972],[29.3923,36.9566,1127.6558],[29.3967,36.95,1191.0206],[29.4027,36.948,1241.8365],[29.4117,36.949,1315.6556],[29.4461,36.9644,1171.3604],[29.4842,36.9939,1116.1211],[29.4931,37.0031,1151.4045],[29.5023,37.0171,1325.818],[29.5118,37.0242,1413.6982],[29.525,37.0277,1285.7903],[29.5467,37.0276,1357.5273],[29.5572,37.0256,1501.6263],[29.5875,37.0142,1889.1799],[29.6169,37.0022,1774.7324],[29.6246,36.9975,1837.838],[29.6307,36.9915,1883.3057],[29.6405,36.9774,1654.2111],[29.6586,36.9592,1378.5919],[29.6769,36.9326,1262.3442]]]]}
,"properties": {"GID_1": "TUR.20_1","GID_0": "TUR","country": "Turkey","province": "Burdur","VARNAME_1": "NA","NL_NAME_1": "NA","TYPE_1": "Il","ENGTYPE_1": "Province","CC_1": "NA","HASC_1": "TR.BD","ISO_1": "TR-15","name": "Burdur.province","area_km2": 7252.218,"hist_schema_id": "Elevation0-9000","hist_area_km2": {"75": 1.046,"100": 1.198,"125": 1.468,"150": 2.042,"175": 3.795,"200": 4.571,"225": 5.65,"250": 41.137,"275": 20.941,"300": 21.95,"325": 23.009,"350": 22.029,"375": 19.67,"400": 20.361,"425": 21.169,"450": 18.827,"475": 16.722,"500": 13.592,"525": 12.567,"550": 10.934,"575": 11.304,"600": 11.674,"625": 17.255,"650": 16.479,"675": 15.348,"700": 14.976,"725": 15.38,"750": 16.137,"775": 147.056,"800": 132.804,"825": 64.426,"850": 267.321,"875": 134.895,"900": 134.711,"925": 137.717,"950": 184.463,"975": 177.028,"1000": 194.758,"1025": 190.997,"1050": 221.757,"1075": 237.757,"1100": 260.654,"1125": 315.784,"1150": 288.333,"1175": 257.872,"1200": 274.283,"1225": 275.622,"1250": 256.05,"1275": 233.856,"1300": 210.012,"1325": 183.865,"1350": 173.451,"1375": 162.196,"1400": 174.511,"1425": 154.926,"1450": 139.01,"1475": 127.088,"1500": 118.99,"1525": 109.029,"1550": 104.512,"1575": 91.159,"1600": 81.571,"1625": 70.457,"1650": 58.443,"1675": 54.944,"1700": 51.523,"1725": 51.429,"1750": 49.851,"1775": 44.738,"1800": 39.717,"1825": 33.652,"1850": 28.525,"1875": 24.9,"1900": 21.701,"1925": 17.013,"1950": 14.045,"1975": 12.662,"2000": 10.891,"2025": 9.547,"2050": 8.537,"2075": 7.627,"2100": 6.649,"2125": 5.264,"2150": 3.761,"2175": 2.581,"2200": 1.82,"2225": 1.078,"2250": 0.758,"2275": 0.32,"2300": 0.084}}}