{"type": "Feature","id": "2273","bbox": [29.39038,36.91431,30.93499,37.84614],"geometry": {"type": "Polygon","coordinates": [[[30.58328,37.69935,1650.0581],[30.5129,37.70927,1596.8748],[30.47001,37.73537,1472.853],[30.43084,37.7685,1322.2899],[30.38639,37.81816,895.7375],[30.33658,37.84614,862.8683],[30.28997,37.808,847.5333],[30.26268,37.79286,841.4759],[30.23364,37.78131,841.0],[30.12346,37.71682,841.0],[30.08615,37.70315,841.0],[30.04864,37.71408,1047.941],[30.0291,37.74328,1460.1541],[30.01525,37.77651,1423.9866],[29.92637,37.78193,1657.8423],[29.84555,37.75935,1150.9949],[29.77372,37.71243,1057.759],[29.73351,37.69295,1122.437],[29.71801,37.68814,1102.7119],[29.68887,37.67439,1426.462],[29.67595,37.65269,1420.6538],[29.66602,37.63029,1316.2112],[29.53807,37.57626,1554.9086],[29.53756,37.54996,1229.4158],[29.54748,37.52265,1351.3179],[29.54582,37.4827,986.7824],[29.5575,37.44495,1387.2438],[29.56567,37.4449,1425.5139],[29.56991,37.44562,1560.5555],[29.57745,37.44097,1552.733],[29.58417,37.43301,1528.752],[29.58768,37.41924,1552.1882],[29.58448,37.40999,1360.8998],[29.54024,37.33968,879.6464],[29.44196,37.22248,1342.657],[29.41467,37.17468,1492.0076],[29.39886,37.12244,1472.2762],[29.39038,37.06864,1431.1755],[29.41343,37.01759,1180.7953],[29.39669,36.95966,1121.8418],[29.43503,36.94736,1643.4209],[29.4834,36.99588,1133.9082],[29.60401,37.00857,1777.6771],[29.68887,36.91431,1245.9795],[29.71842,36.91865,1263.4846],[29.74447,36.93085,1294.2317],[29.76876,36.95749,1350.6724],[29.79646,36.97878,1490.7133],[29.83594,37.03712,1409.7123],[29.85123,37.11246,1430.9667],[29.90601,37.17215,1851.4941],[30.08564,37.24662,1827.1084],[30.14693,37.25522,2166.0034],[30.29493,37.30493,850.2899],[30.3558,37.29845,806.3197],[30.4174,37.2385,977.8787],[30.44086,37.23083,955.9244],[30.57997,37.23535,833.3085],[30.67061,37.22757,770.3121],[30.74813,37.2284,471.5171],[30.78554,37.23525,222.6331],[30.84631,37.28873,582.909],[30.86461,37.33157,410.7585],[30.93499,37.38025,1174.1427],[30.92052,37.40898,1053.1858],[30.90016,37.43213,396.9928],[30.87009,37.43544,259.5198],[30.85458,37.43337,255.0],[30.83588,37.45133,329.199],[30.82678,37.46893,418.2734],[30.76642,37.5421,342.8371],[30.73934,37.58998,467.3604],[30.70648,37.67065,1058.0962],[30.64633,37.69997,958.7529],[30.58328,37.69935,1650.0581]]]}
,"properties": {"ISO3166-1-Alpha-3": "TUR","country": "Turkey","fill": "#FF0","name": "Burdur","area_km2": 7231.476,"hist_schema_id": "Elevation0-9000","hist_area_km2": {"75": 0.354,"100": 0.506,"125": 0.861,"150": 1.299,"175": 2.968,"200": 3.744,"225": 4.705,"250": 39.485,"275": 20.098,"300": 22.252,"325": 24.017,"350": 24.385,"375": 23.59,"400": 22.228,"425": 22.548,"450": 20.88,"475": 18.338,"500": 15.31,"525": 13.51,"550": 11.961,"575": 12.011,"600": 12.246,"625": 18.08,"650": 16.984,"675": 16.022,"700": 15.296,"725": 15.851,"750": 16.204,"775": 143.459,"800": 130.152,"825": 65.282,"850": 258.08,"875": 131.101,"900": 131.799,"925": 136.488,"950": 182.12,"975": 172.399,"1000": 191.206,"1025": 190.102,"1050": 220.594,"1075": 235.105,"1100": 258.985,"1125": 315.181,"1150": 288.49,"1175": 258.029,"1200": 274.019,"1225": 276.099,"1250": 254.682,"1275": 232.311,"1300": 209.231,"1325": 183.72,"1350": 173.963,"1375": 162.439,"1400": 178.843,"1425": 150.595,"1450": 135.835,"1475": 123.488,"1500": 115.607,"1525": 106.455,"1550": 102.548,"1575": 90.121,"1600": 80.517,"1625": 69.756,"1650": 58.955,"1675": 55.624,"1700": 52.509,"1725": 53.138,"1750": 51.154,"1775": 46.327,"1800": 41.729,"1825": 36.747,"1850": 30.791,"1875": 26.997,"1900": 23.577,"1925": 18.585,"1950": 14.924,"1975": 13.354,"2000": 11.55,"2025": 9.986,"2050": 9.027,"2075": 8.286,"2100": 7.341,"2125": 5.787,"2150": 3.896,"2175": 2.598,"2200": 1.82,"2225": 1.078,"2250": 0.758,"2275": 0.32,"2300": 0.084}}}