{"type": "Feature","bbox": [38.6523,40.7585,38.8188,40.9918],"geometry": {"type": "MultiPolygon","coordinates": [[[[38.7807,40.9918,3.7139],[38.7504,40.9704,4.4394],[38.7226,40.9538,0.0],[38.7207,40.9543,0.0],[38.7149,40.9507,0.0],[38.6921,40.9474,0.8289],[38.6862,40.9474,0.0],[38.6799,40.9496,1.8283],[38.6749,40.949,0.0],[38.6613,40.9554,61.6234],[38.655,40.9624,3.8328],[38.6525,40.9552,279.4786],[38.6523,40.9325,520.426],[38.655,40.8922,227.3759],[38.6704,40.8825,436.6815],[38.679,40.8732,397.6652],[38.6859,40.8522,765.7138],[38.6945,40.8356,625.7061],[38.6987,40.8083,697.1452],[38.7057,40.7995,920.7803],[38.7172,40.7942,928.4166],[38.7485,40.7915,920.5356],[38.758,40.7887,795.973],[38.7673,40.7818,772.1269],[38.7786,40.7667,864.5315],[38.7888,40.7606,1253.2896],[38.8024,40.7585,897.2254],[38.8188,40.7594,696.0509],[38.7916,40.8029,580.8028],[38.7884,40.8112,750.2126],[38.7857,40.8833,213.2839],[38.7682,40.887,436.5379],[38.763,40.8898,403.0094],[38.7591,40.8947,338.9562],[38.7572,40.9005,240.3591],[38.7574,40.9441,173.4785],[38.766,40.9523,137.825],[38.7729,40.9639,107.7876],[38.7794,40.9822,104.95],[38.7807,40.9918,3.7139]]]]}
,"properties": {"GID_2": "TUR.34.7_1","GID_0": "TUR","country": "Turkey","GID_1": "TUR.34_1","province": "Giresun","NL_NAME_1": "NA","county": "Espiye","VARNAME_2": "NA","NL_NAME_2": "NA","TYPE_2": "District","ENGTYPE_2": "District","CC_2": "NA","HASC_2": "TR.GI.ES","name": "Espiye.county","area_km2": 169.1731,"hist_schema_id": "Elevation0-9000","hist_area_km2": {"0": 6.7252,"25": 7.2875,"50": 6.487,"75": 5.2859,"100": 4.3733,"125": 4.7901,"150": 4.5345,"175": 4.4225,"200": 5.2084,"225": 5.0966,"250": 5.61,"275": 5.3535,"300": 6.3482,"325": 5.4985,"350": 5.5947,"375": 6.3011,"400": 5.8039,"425": 5.6125,"450": 5.6445,"475": 5.8697,"500": 4.8592,"525": 4.8759,"550": 4.4591,"575": 4.3312,"600": 4.0425,"625": 4.0426,"650": 3.401,"675": 3.4495,"700": 2.6954,"725": 2.6315,"750": 2.2785,"775": 2.4392,"800": 1.9097,"825": 1.8296,"850": 1.621,"875": 1.4124,"900": 1.5088,"925": 0.9631,"950": 0.9149,"975": 0.899,"1000": 0.7063,"1025": 0.5458,"1050": 0.4977,"1075": 0.289,"1100": 0.1606,"1125": 0.1606,"1150": 0.0963,"1175": 0.0642,"1200": 0.0482,"1225": 0.0964,"1250": 0.0642,"1275": 0.0321}}}