{"type": "Feature","bbox": [31.442,38.3386,31.8812,38.644],"geometry": {"type": "MultiPolygon","coordinates": [[[[31.442,38.5224,951.9022],[31.4562,38.4939,951.9462],[31.4685,38.4812,952.7346],[31.4941,38.4629,958.0442],[31.5154,38.4546,964.1281],[31.5261,38.4482,966.408],[31.6141,38.381,1001.5939],[31.6534,38.3664,1028.5042],[31.7076,38.3648,1139.4292],[31.7225,38.3624,1136.5684],[31.7376,38.354,1137.9218],[31.7541,38.3386,1077.858],[31.7853,38.3503,1052.3501],[31.8159,38.3566,1052.2212],[31.8278,38.3635,1073.8864],[31.8375,38.3722,1093.7426],[31.843,38.3831,1010.4205],[31.8451,38.4132,1024.0144],[31.8473,38.4219,1022.8889],[31.8553,38.4358,1020.5897],[31.8624,38.4567,1023.5754],[31.8812,38.4794,1183.5917],[31.8591,38.4931,1345.8495],[31.8466,38.5052,1461.9565],[31.8313,38.5314,1195.615],[31.8263,38.5617,1285.2549],[31.8101,38.5871,1181.3293],[31.8007,38.5942,1127.7664],[31.7795,38.6031,1444.972],[31.746,38.6229,1519.9353],[31.7288,38.6394,1398.5621],[31.7232,38.6421,1401.7993],[31.7129,38.644,1368.7905],[31.6988,38.6429,1239.4631],[31.6895,38.6394,1148.5798],[31.6714,38.6275,1147.5936],[31.6448,38.616,995.5599],[31.6208,38.6012,972.0108],[31.5724,38.5826,958.7372],[31.5456,38.5664,955.7802],[31.5246,38.5578,954.9154],[31.5006,38.543,953.498],[31.4677,38.53,951.9409],[31.442,38.5224,951.9022]]]]}
,"properties": {"GID_2": "TUR.53.29_1","GID_0": "TUR","country": "Turkey","GID_1": "TUR.53_1","province": "Konya","NL_NAME_1": "NA","county": "Tuzlukçu","VARNAME_2": "NA","NL_NAME_2": "NA","TYPE_2": "District","ENGTYPE_2": "District","CC_2": "NA","HASC_2": "TR.KO.TU","name": "Tuzlukçu.county","area_km2": 760.7193,"hist_schema_id": "Elevation0-9000","hist_area_km2": {"950": 115.29,"975": 88.6137,"1000": 75.2269,"1025": 74.3907,"1050": 70.7019,"1075": 58.9211,"1100": 50.2817,"1125": 36.3605,"1150": 24.6918,"1175": 22.7113,"1200": 18.7116,"1225": 15.8228,"1250": 14.1618,"1275": 14.061,"1300": 12.0712,"1325": 10.6287,"1350": 9.4017,"1375": 8.3229,"1400": 7.1783,"1425": 4.7579,"1450": 4.0119,"1475": 5.0225,"1500": 5.8678,"1525": 4.559,"1550": 2.7183,"1575": 2.3869,"1600": 2.337,"1625": 1.1438,"1650": 0.3645}}}