{"type":"Feature","properties":{"GID_2":"TUR.25.12_1","GID_0":"TUR","country":"Turkey","GID_1":"TUR.25_1","province":"Denizli","NL_NAME_1":"NA","county":"Çivril","VARNAME_2":"NA","NL_NAME_2":"NA","TYPE_2":"District","ENGTYPE_2":"District","CC_2":"NA","HASC_2":"TR.DN.CI","name":"Çivril.county"},
"geometry":{"type": "MultiPolygon","coordinates": [[[[29.7407,38.017,1154.2581],[29.757,38.0264,1042.516],[29.8025,38.0438,1021.3425],[29.8293,38.0599,963.139],[29.8477,38.0671,973.7044],[29.8892,38.0948,980.8947],[29.9245,38.1035,937.0573],[29.928,38.1137,944.7999],[29.9386,38.1235,916.7188],[29.9493,38.13,894.8081],[29.9649,38.1355,864.7943],[29.9761,38.1414,843.6735],[30.0161,38.172,823.9528],[30.0238,38.1807,820.7828],[30.036,38.2032,820.7305],[30.0413,38.2214,1210.5674],[30.0417,38.2337,1284.6409],[30.0405,38.2428,1731.9388],[30.0368,38.2516,1857.5786],[30.0184,38.2744,1892.5687],[30.009,38.2954,1437.6495],[29.9939,38.3186,1649.3003],[29.9696,38.3438,1711.1433],[29.9345,38.4003,1309.2985],[29.9222,38.4129,1258.6927],[29.9117,38.4197,1204.7328],[29.8987,38.4237,1122.4214],[29.8684,38.4237,1077.3063],[29.855,38.4256,1204.2125],[29.8266,38.434,1314.1543],[29.7882,38.4388,1415.5334],[29.7554,38.4541,1810.4521],[29.7101,38.4391,1012.7809],[29.6858,38.4327,952.4734],[29.6694,38.412,909.7734],[29.6639,38.382,888.4925],[29.6548,38.3652,921.6454],[29.6481,38.3441,935.1802],[29.6334,38.3207,946.3026],[29.6108,38.2981,954.0032],[29.5941,38.2723,994.241],[29.5914,38.2608,1014.9121],[29.5896,38.2217,1154.224],[29.5865,38.2136,1174.01],[29.5795,38.2023,1142.2673],[29.5726,38.1813,968.7654],[29.5672,38.1743,965.7233],[29.5289,38.1439,1049.0764],[29.5187,38.1326,1026.4856],[29.5117,38.1045,838.4419],[29.5242,38.0955,810.0803],[29.5531,38.0809,801.9631],[29.5802,38.0598,815.2543],[29.588,38.0512,821.0215],[29.5953,38.0391,824.239],[29.6139,38.0204,842.8269],[29.6247,38.0043,1077.7329],[29.6341,37.9971,1069.3234],[29.666,37.9887,1469.9664],[29.6975,37.9969,1289.1653],[29.7274,38.0088,1250.1952],[29.7407,38.017,1154.2581]]]]}}