{"type": "Feature","bbox": [26.8843,38.4318,27.0771,38.5316],"geometry": {"type": "MultiPolygon","coordinates": [[[[26.974,38.4401,0.0],[26.9743,38.4421,0.0],[26.9724,38.4424,-0.1273],[26.9713,38.4407,-0.045],[26.9721,38.4374,0.2982],[26.9688,38.4354,0.0],[26.9721,38.4343,0.0],[26.9746,38.4382,0.0],[26.974,38.4401,0.0]]],
[[[26.924,38.4479,0.0],[26.9226,38.4482,0.0],[26.9238,38.4457,0.0],[26.9276,38.4449,0.0],[26.9268,38.4468,0.0],[26.924,38.4479,0.0]]],
[[[26.8849,38.5057,0.0],[26.8843,38.5032,0.0],[26.9088,38.4865,0.0523],[26.9129,38.4813,-1.4976],[26.914,38.4771,0.103],[26.9224,38.4676,0.028],[26.9235,38.461,-0.0504],[26.9207,38.4604,0.0],[26.9238,38.4599,0.1121],[26.9238,38.4568,0.0],[26.9204,38.4568,0.0],[26.9196,38.4532,0.0],[26.9226,38.4557,0.0],[26.9235,38.4546,-0.0002],[26.9226,38.4521,0.0],[26.9274,38.4551,0.0071],[26.9276,38.4535,0.0],[26.9315,38.4543,-0.4097],[26.9385,38.4507,0.5026],[26.9376,38.4485,0.0],[26.9396,38.449,0.0443],[26.9393,38.446,-0.1764],[26.9418,38.4463,-0.0973],[26.9415,38.4449,-0.1206],[26.9438,38.4443,-0.0435],[26.9446,38.4465,-0.1454],[26.946,38.4451,0.0],[26.9474,38.4463,-0.141],[26.9518,38.4435,0.0503],[26.9518,38.4415,0.076],[26.9499,38.4407,0.0],[26.9512,38.4371,0.0],[26.9485,38.4318,0.0],[26.9538,38.4376,0.0],[26.9524,38.4407,0.076],[26.9546,38.4399,0.0023],[26.9551,38.4446,0.0],[26.9601,38.4454,0.0],[26.9643,38.4415,0.0],[26.9651,38.4435,0.0],[26.9629,38.4435,0.0],[26.9629,38.446,0.0],[26.966,38.4479,0.0],[26.9701,38.4421,-0.3845],[26.9724,38.4432,-0.1273],[26.9743,38.4479,0.0],[26.9713,38.4526,-0.3866],[26.9746,38.4518,0.0],[26.9743,38.4551,-0.0102],[26.9779,38.4526,-0.0227],[26.9793,38.4488,-0.0776],[26.9804,38.4488,0.026],[26.9793,38.4529,-0.2741],[26.9804,38.4535,-0.052],[26.984,38.4488,-0.3041],[26.9843,38.4529,0.0073],[26.9865,38.4535,0.0],[26.9846,38.4549,-0.1004],[26.9851,38.4565,-0.0171],[26.9879,38.4549,-0.0163],[26.9879,38.4568,-0.1479],[26.9899,38.4574,-0.3217],[26.9904,38.4557,-0.0467],[26.9879,38.4535,0.0],[26.9874,38.4493,-0.1086],[26.9904,38.4529,-0.1879],[26.9951,38.454,0.0],[26.9949,38.4574,0.0213],[26.9963,38.4585,0.0213],[27.0012,38.4579,0.0],[27.0079,38.4601,0.0],[27.0113,38.459,0.0],[27.0163,38.4607,0.0],[27.0138,38.4632,0.0],[27.0163,38.4651,0.0],[27.0179,38.4649,0.0],[27.0185,38.4618,0.0],[27.0207,38.4643,0.0],[27.0354,38.4632,0.0],[27.026,38.4651,0.0],[27.0268,38.4676,0.0],[27.0321,38.466,0.0],[27.0338,38.4674,0.0],[27.0388,38.4635,0.0],[27.0418,38.4657,-0.0719],[27.0504,38.4637,0.0],[27.0524,38.4654,-0.1223],[27.0557,38.4629,-0.0998],[27.0579,38.464,-0.0649],[27.0585,38.4615,0.0],[27.0571,38.4613,0.0],[27.0596,38.4599,0.0],[27.0599,38.4615,0.0],[27.0624,38.4618,0.0],[27.0626,38.4588,-0.2386],[27.0679,38.4582,0.0],[27.0726,38.4593,0.0],[27.0732,38.461,0.0],[27.0685,38.4621,-0.2417],[27.0674,38.4643,0.0],[27.0688,38.464,0.0],[27.0704,38.4668,0.0],[27.0771,38.4671,0.2926],[27.077,38.4993,101.7425],[27.0742,38.5095,179.9972],[27.0739,38.5316,325.355],[27.055,38.529,95.6969],[27.0273,38.5187,5.6746],[27.0143,38.5119,2.6894],[26.9704,38.5077,2.6504],[26.932,38.5081,-1.0],[26.9095,38.5154,-1.0],[26.9014,38.5158,-1.0],[26.8957,38.5147,-1.0],[26.8849,38.5057,0.0]]]]}
,"properties": {"GID_2": "TUR.41.9_1","GID_0": "TUR","country": "Turkey","GID_1": "TUR.41_1","province": "Izmir","NL_NAME_1": "NA","county": "Çiğli","VARNAME_2": "NA","NL_NAME_2": "NA","TYPE_2": "District","ENGTYPE_2": "District","CC_2": "NA","HASC_2": "TR.IZ.CI","name": "Çiğli.county","area_km2": 97.12038,"hist_schema_id": "Elevation0-9000","hist_area_km2": {"0": 87.96266,"25": 1.54303,"50": 0.99548,"75": 1.1448,"100": 0.96224,"125": 0.86269,"150": 0.76311,"175": 0.72992,"200": 0.59719,"225": 0.43129,"250": 0.46447,"275": 0.39811,"300": 0.14928,"325": 0.1161}}}