{"type":"Feature","properties":{"GID_2":"TUR.56.9_1","GID_0":"TUR","country":"Turkey","GID_1":"TUR.56_1","province":"Manisa","NL_NAME_1":"NA","county":"Kula","VARNAME_2":"NA","NL_NAME_2":"NA","TYPE_2":"District","ENGTYPE_2":"District","CC_2":"NA","HASC_2":"TR.MN.KU","name":"Kula.county"},
"geometry":{"type": "MultiPolygon","coordinates": [[[[28.8255,38.367,675.6395],[28.8383,38.3696,714.0859],[28.8448,38.3728,754.1898],[28.8522,38.3799,779.5628],[28.8555,38.3886,847.2194],[28.8565,38.4042,954.8386],[28.8554,38.4452,1042.5461],[28.8533,38.4564,924.9538],[28.8441,38.4728,923.255],[28.8416,38.4812,802.6863],[28.8403,38.4991,702.6647],[28.8411,38.5263,646.2098],[28.8433,38.5379,638.4321],[28.8522,38.5566,586.1481],[28.8519,38.564,597.8605],[28.848,38.5743,585.051],[28.8488,38.5807,561.7479],[28.8584,38.5989,541.4387],[28.8677,38.6124,445.3785],[28.8788,38.6374,532.4189],[28.8512,38.6447,473.0583],[28.8162,38.6484,485.5161],[28.7873,38.6569,475.9146],[28.7193,38.658,476.505],[28.6922,38.6606,386.5888],[28.6744,38.667,514.513],[28.6609,38.6698,411.3364],[28.6323,38.6725,382.3815],[28.5846,38.6906,417.7386],[28.5692,38.693,512.5269],[28.5206,38.6935,692.5539],[28.5028,38.6909,539.1901],[28.4892,38.6815,552.8306],[28.4715,38.6619,566.2232],[28.4546,38.6366,598.1812],[28.4513,38.6261,624.0622],[28.4517,38.6178,676.0446],[28.4562,38.6079,746.2837],[28.4783,38.5732,722.8345],[28.4805,38.5484,799.6702],[28.4913,38.5317,816.9788],[28.4942,38.5234,850.3124],[28.4954,38.4703,473.8606],[28.4983,38.4615,392.7617],[28.5039,38.4551,345.5625],[28.5115,38.4502,283.6262],[28.5415,38.4393,335.2264],[28.5771,38.4357,440.0765],[28.5871,38.4334,486.3998],[28.6471,38.4103,645.371],[28.6716,38.3961,584.5209],[28.675,38.4149,924.9448],[28.6774,38.4193,909.4393],[28.6826,38.4229,933.8206],[28.6893,38.4242,951.0931],[28.6959,38.4235,1006.4878],[28.7015,38.4208,938.0938],[28.7054,38.4136,831.0203],[28.7188,38.4055,978.6033],[28.7818,38.3812,816.4005],[28.809,38.3759,687.6107],[28.8255,38.367,675.6395]]]]}}