{"type": "Feature","bbox": [27.6355,37.774,27.8569,37.9855],"geometry": {"type": "MultiPolygon","coordinates": [[[[27.6355,37.7911,17.6578],[27.6579,37.8012,18.9494],[27.668,37.8036,19.906],[27.6961,37.7986,20.2557],[27.7401,37.7969,23.2491],[27.7528,37.7929,23.8899],[27.7616,37.7801,24.6845],[27.7659,37.7771,24.5311],[27.788,37.774,25.8673],[27.7879,37.7988,23.9556],[27.7897,37.8138,22.5002],[27.7996,37.8333,40.1089],[27.8021,37.8421,54.5795],[27.8034,37.886,253.2801],[27.8054,37.8982,414.5884],[27.8146,37.9149,616.7623],[27.8228,37.9383,1035.5594],[27.8377,37.9616,1303.5049],[27.8569,37.984,1039.8019],[27.8152,37.9826,914.9435],[27.8048,37.9807,860.4734],[27.7834,37.9734,457.4994],[27.7639,37.9718,513.2593],[27.7446,37.9743,513.1534],[27.7201,37.9855,660.037],[27.7102,37.9613,635.5145],[27.6866,37.9243,329.0566],[27.6797,37.9032,367.8714],[27.6552,37.8636,43.0066],[27.6504,37.8477,32.2009],[27.6394,37.826,20.4717],[27.6355,37.7911,17.6578]]]]}
,"properties": {"GID_2": "TUR.11.6_1","GID_0": "TUR","country": "Turkey","GID_1": "TUR.11_1","province": "Aydin","NL_NAME_1": "NA","county": "İncirliova","VARNAME_2": "NA","NL_NAME_2": "NA","TYPE_2": "District","ENGTYPE_2": "District","CC_2": "NA","HASC_2": "TR.AY.IN","name": "İncirliova.county","area_km2": 252.254,"hist_schema_id": "Elevation0-9000","hist_area_km2": {"25": 77.7973,"50": 32.3081,"75": 10.0761,"100": 4.0168,"125": 2.1756,"150": 6.3243,"175": 6.0393,"200": 7.8122,"225": 9.0161,"250": 8.8321,"275": 8.9322,"300": 8.3132,"325": 7.0923,"350": 5.486,"375": 5.0507,"400": 4.0303,"425": 3.8461,"450": 3.3276,"475": 3.9795,"500": 3.1433,"525": 3.0596,"550": 2.675,"575": 2.2903,"600": 2.2234,"625": 1.8555,"650": 1.5379,"675": 1.2037,"700": 1.1702,"725": 1.0866,"750": 1.1702,"775": 1.237,"800": 1.1869,"825": 1.1033,"850": 1.2036,"875": 1.1368,"900": 1.304,"925": 1.2371,"950": 1.1535,"975": 0.9697,"1000": 0.8358,"1025": 0.8358,"1050": 0.5851,"1075": 0.6185,"1100": 0.6854,"1125": 0.5684,"1150": 0.4681,"1175": 0.5015,"1200": 0.3511,"1225": 0.1839,"1250": 0.117,"1275": 0.0501,"1300": 0.0334,"1325": 0.0167}}}