{"type": "Feature","bbox": [27.7477,39.916,28.1385,40.1838],"geometry": {"type": "MultiPolygon","coordinates": [[[[27.8678,39.916,309.6872],[27.9066,39.9265,473.3521],[27.9496,39.9289,444.6777],[27.9775,39.9378,386.8755],[28.0317,39.9387,575.8098],[28.0429,39.9423,701.2217],[28.0453,39.9468,678.7012],[28.0449,39.9514,781.7024],[28.0355,39.966,747.67],[28.0331,39.9769,550.3019],[28.033,39.9854,472.7265],[28.0359,39.9965,406.9644],[28.0517,40.0124,109.2076],[28.1385,40.0788,70.1762],[28.1382,40.0956,19.8525],[28.1361,40.1047,16.6367],[28.1326,40.1095,15.0617],[28.1283,40.1121,18.9988],[28.1068,40.1172,37.4966],[28.0764,40.1291,30.1888],[28.0354,40.1565,14.5],[28.0083,40.1626,14.5],[27.9873,40.1696,14.5],[27.9182,40.1738,14.5],[27.8969,40.1811,14.5],[27.8834,40.1838,14.5],[27.8471,40.1656,14.5],[27.8402,40.1567,21.4475],[27.8355,40.1294,30.1091],[27.8258,40.1103,100.1506],[27.8205,40.0828,185.8273],[27.8157,40.0753,157.4635],[27.8023,40.062,130.7002],[27.7973,40.0549,266.738],[27.7962,40.0473,244.3752],[27.8014,40.0326,103.3667],[27.7995,40.0261,168.6796],[27.792,40.0126,176.66],[27.7865,40.0063,171.3178],[27.7791,40.0013,188.2429],[27.7592,39.9928,302.5643],[27.751,39.9848,364.8015],[27.7477,39.9741,272.1878],[27.7477,39.9511,95.0],[27.7697,39.9511,250.4304],[27.7828,39.9492,342.0574],[27.7896,39.945,388.3172],[27.7959,39.9336,374.7258],[27.8028,39.9298,351.8293],[27.8151,39.9291,386.7352],[27.8344,39.9337,447.2681],[27.8434,39.9326,414.5023],[27.8546,39.9264,456.6946],[27.8678,39.916,309.6872]]]]}
,"properties": {"GID_2": "TUR.12.14_1","GID_0": "TUR","country": "Turkey","GID_1": "TUR.12_1","province": "Balikesir","NL_NAME_1": "NA","county": "Manyas","VARNAME_2": "NA","NL_NAME_2": "NA","TYPE_2": "District","ENGTYPE_2": "District","CC_2": "NA","HASC_2": "TR.BK.MN","name": "Manyas.county","area_km2": 621.2197,"hist_schema_id": "Elevation0-9000","hist_area_km2": {"25": 232.3512,"50": 65.4548,"75": 39.9568,"100": 34.1664,"125": 23.2279,"150": 18.1493,"175": 15.2474,"200": 14.6968,"225": 13.0748,"250": 13.8881,"275": 13.9545,"300": 15.4817,"325": 20.6164,"350": 21.9679,"375": 20.1832,"400": 15.2284,"425": 12.2711,"450": 9.0045,"475": 6.03,"500": 4.0958,"525": 3.6406,"550": 2.2591,"575": 2.1453,"600": 1.3163,"625": 0.9588,"650": 0.6825,"675": 0.3901,"700": 0.3413,"725": 0.26,"750": 0.13,"775": 0.0488}}}