{"type":"Feature","properties":{"GID_1":"TUR.41_1","GID_0":"TUR","country":"Turkey","province":"Izmir","VARNAME_1":"İzmir|Esmirna|Smirne|Smyrna","NL_NAME_1":"NA","TYPE_1":"Il","ENGTYPE_1":"Province","CC_1":"NA","HASC_1":"TR.IZ","ISO_1":"TR-35","name":"Izmir.province"},
"geometry":{"type": "MultiPolygon","coordinates": [[[[26.4393,38.1876,0.0],[26.4374,38.1885,-0.1551],[26.436,38.1862,0.0],[26.4376,38.1826,1.7011],[26.4401,38.1832,0.0],[26.4393,38.1876,0.0]]],
[[[26.4343,38.1979,0.7088],[26.4321,38.1988,0.0],[26.4279,38.1943,0.0],[26.434,38.1932,0.0],[26.4343,38.1979,0.7088]]],
[[[26.4524,38.2001,2.7918],[26.4518,38.2012,0.7255],[26.4429,38.2004,2.5311],[26.4418,38.1982,0.0],[26.4451,38.1985,0.0],[26.4463,38.1963,0.0],[26.4482,38.196,0.0],[26.4524,38.2001,2.7918]]],
[[[26.4601,38.2004,9.2088],[26.4596,38.1968,18.1019],[26.4565,38.1949,4.2579],[26.4582,38.1915,0.0],[26.4649,38.1949,0.4033],[26.4693,38.1901,0.0],[26.4737,38.1899,0.0],[26.4749,38.1915,0.6167],[26.4776,38.1915,0.3087],[26.4782,38.1901,0.0],[26.4871,38.1921,6.4244],[26.4885,38.1957,0.2864],[26.4907,38.1957,1.4502],[26.4924,38.1918,3.1747],[26.4863,38.1862,8.313],[26.4871,38.1829,0.0],[26.4965,38.1796,5.0388],[26.4974,38.1776,1.3129],[26.5012,38.1829,25.0028],[26.5021,38.1779,0.0],[26.5054,38.1751,0.0],[26.5135,38.1813,0.0],[26.5179,38.1871,14.973],[26.5185,38.184,5.6548],[26.521,38.1821,1.503],[26.5176,38.1801,17.5364],[26.516,38.1749,0.0],[26.5199,38.171,16.2239],[26.5199,38.1651,6.5884],[26.5156,38.1707,0.0],[26.5129,38.1701,0.0],[26.5115,38.1657,2.7149],[26.516,38.1601,0.0],[26.519,38.159,1.4826],[26.5215,38.1543,3.1239],[26.5204,38.1424,1.1727],[26.5224,38.1407,2.84],[26.531,38.139,3.4895],[26.5287,38.1374,0.0],[26.5304,38.1351,0.0],[26.5296,38.1304,0.0],[26.5313,38.1299,0.0],[26.5301,38.1276,0.0],[26.5351,38.1265,0.0],[26.5415,38.1293,7.3296],[26.5418,38.1271,0.0],[26.5443,38.1268,22.2501],[26.5424,38.1218,0.0],[26.5435,38.1196,0.0],[26.5524,38.1215,42.8102],[26.5526,38.1176,11.8856],[26.5604,38.1174,0.0],[26.561,38.1193,7.7408],[26.5646,38.1204,0.0],[26.5643,38.1229,19.2211],[26.5674,38.1263,0.7199],[26.566,38.1282,7.2827],[26.5668,38.1396,0.0],[26.5632,38.144,2.5759],[26.571,38.1426,18.9838],[26.5738,38.1379,0.0],[26.5774,38.136,0.0],[26.5812,38.1268,5.0272],[26.584,38.1254,0.0],[26.5832,38.1171,11.8799],[26.5846,38.1151,12.2933],[26.5818,38.1135,7.4329],[26.5812,38.1096,3.9416],[26.5915,38.1026,5.0895],[26.5985,38.1068,16.5112],[26.6046,38.1024,5.4725],[26.6065,38.1054,0.0],[26.6115,38.1071,21.5031],[26.6149,38.111,0.0],[26.6154,38.1146,0.0],[26.611,38.1271,4.2258],[26.6132,38.1354,4.0252],[26.6076,38.1354,12.6365],[26.6043,38.1385,24.9693],[26.6032,38.1435,31.4645],[26.6068,38.139,1.4227],[26.609,38.141,5.4286],[26.6093,38.1382,0.0],[26.6138,38.1385,0.0],[26.6168,38.1368,0.0],[26.6196,38.1385,2.5481],[26.6243,38.1385,0.0],[26.6293,38.1596,20.7667],[26.6315,38.1607,0.0],[26.6338,38.1674,0.0],[26.631,38.1682,14.7974],[26.6335,38.1732,0.0],[26.6324,38.1771,0.0],[26.6307,38.1779,0.0],[26.6315,38.184,0.0],[26.6293,38.1865,7.6814],[26.6315,38.1913,0.0],[26.631,38.1963,0.0],[26.6324,38.2004,5.0786],[26.6357,38.1979,0.0],[26.6396,38.2012,6.4472],[26.636,38.2074,19.8952],[26.6451,38.2015,0.0],[26.6493,38.2026,0.0],[26.6518,38.2051,0.0],[26.6507,38.2096,4.4855],[26.6535,38.2101,0.0],[26.6565,38.2071,0.0],[26.6612,38.2099,6.1779],[26.6657,38.209,24.2183],[26.6668,38.2065,0.0],[26.6707,38.2076,5.4327],[26.6749,38.2043,0.0],[26.6785,38.2118,0.0],[26.6826,38.2113,0.143],[26.6857,38.2085,0.0],[26.6863,38.2065,1.8253],[26.6832,38.2049,0.0],[26.6854,38.2024,1.0186],[26.6879,38.2035,0.24],[26.6885,38.2062,0.0],[26.694,38.2049,0.0],[26.6954,38.2085,2.5183],[26.6937,38.2101,1.6248],[26.6965,38.211,2.6346],[26.7029,38.2068,0.0],[26.706,38.2082,1.1945],[26.7062,38.211,5.6306],[26.7126,38.2096,0.0],[26.7165,38.2107,5.9434],[26.7188,38.2088,0.0],[26.7215,38.2118,2.7754],[26.7224,38.2074,0.8556],[26.7268,38.2088,6.8246],[26.7329,38.2068,0.0],[26.7354,38.209,0.0],[26.7335,38.2124,2.0765],[26.7365,38.216,3.5998],[26.7396,38.2126,3.718],[26.7438,38.2143,1.7292],[26.7435,38.2126,0.0],[26.7454,38.2121,0.0],[26.7474,38.2137,0.0],[26.7474,38.2163,1.5013],[26.7454,38.219,5.5111],[26.7493,38.2182,0.0],[26.7529,38.2229,0.1406],[26.7574,38.2221,0.5793],[26.7576,38.2182,0.0],[26.761,38.2168,0.0],[26.7624,38.2143,0.0],[26.7663,38.2165,9.8175],[26.7668,38.2132,0.0],[26.7693,38.2137,0.0],[26.7715,38.2101,0.0],[26.7738,38.2096,2.1093],[26.7718,38.2079,0.0],[26.7735,38.2049,0.0],[26.7787,38.2024,5.0249],[26.7821,38.2032,0.1713],[26.7829,38.2007,4.1449],[26.7868,38.2012,3.472],[26.7904,38.199,1.0031],[26.7871,38.196,0.3091],[26.7829,38.1954,0.3413],[26.7829,38.1921,0.873],[26.7813,38.1932,0.0],[26.7826,38.196,0.0],[26.7771,38.1996,0.0],[26.7721,38.1968,0.0],[26.774,38.1918,1.829],[26.7735,38.1907,1.829],[26.7707,38.1913,0.0],[26.7696,38.1835,0.0],[26.7721,38.1815,0.0],[26.7674,38.1754,0.0],[26.7693,38.1732,0.0],[26.7735,38.174,3.2523],[26.7721,38.1707,0.0],[26.774,38.1701,0.0],[26.7749,38.1613,0.0],[26.779,38.1657,6.4022],[26.786,38.164,3.8205],[26.7879,38.1701,3.5139],[26.7954,38.1735,0.3086],[26.8035,38.171,1.0398],[26.8076,38.1662,0.8115],[26.8132,38.1657,0.7803],[26.8146,38.1626,0.0],[26.8199,38.1615,0.907],[26.8243,38.1582,4.7734],[26.8246,38.1546,9.7732],[26.8221,38.1515,0.0],[26.8235,38.1493,0.0],[26.8196,38.1468,6.5707],[26.819,38.1446,0.0],[26.8224,38.1404,0.0],[26.8301,38.1385,3.507],[26.8293,38.1368,0.0],[26.8324,38.1354,19.1433],[26.8324,38.1321,10.0556],[26.8368,38.1318,1.2534],[26.8357,38.1282,3.0679],[26.8338,38.129,0.0],[26.8335,38.1263,0.616],[26.8296,38.1268,0.0],[26.8299,38.1243,6.4393],[26.8354,38.124,11.3705],[26.8393,38.121,2.1092],[26.8421,38.116,0.0],[26.8415,38.1124,0.0],[26.8457,38.1096,0.3303],[26.8513,38.1021,7.1549],[26.8501,38.0965,1.5],[26.8482,38.0954,0.0],[26.8499,38.0943,0.0],[26.8499,38.0832,4.3235],[26.8449,38.0793,0.0],[26.8449,38.0726,2.8574],[26.8465,38.0687,0.0],[26.8499,38.0674,0.0],[26.8554,38.0588,2.619],[26.8549,38.0551,0.0],[26.8587,38.0496,15.6301],[26.8579,38.0454,0.0],[26.8629,38.0404,0.0],[26.8674,38.0401,18.1997],[26.8668,38.036,0.0],[26.8646,38.0337,0.0],[26.866,38.0313,0.0],[26.8643,38.0304,0.0],[26.8643,38.0285,0.0],[26.8668,38.029,3.0285],[26.8685,38.0329,3.0943],[26.8699,38.0301,0.0],[26.8721,38.0299,0.0],[26.8746,38.0335,5.3357],[26.8765,38.0337,0.0],[26.8765,38.0376,10.9066],[26.8821,38.0424,0.0],[26.8821,38.0474,3.0672],[26.8846,38.049,1.7423],[26.884,38.0515,2.1967],[26.8979,38.0615,0.2326],[26.941,38.0746,0.8755],[26.9621,38.076,3.7513],[26.965699999999998,38.0746,4.0258],[26.966,38.0721,8.3639],[26.9679,38.0713,0.0],[26.9701,38.0749,0.0],[26.9835,38.0743,1.196],[26.9935,38.0701,0.2778],[26.9963,38.0663,0.0],[27.0032,38.064,2.7892],[27.0054,38.0604,0.0],[27.014,38.0557,0.1186],[27.0393,38.0532,1.077],[27.0482,38.0501,1.8013],[27.0537,38.0457,3.4992],[27.0607,38.0365,0.0],[27.0635,38.0376,2.6083],[27.069,38.0324,8.8096],[27.0726,38.0254,0.0],[27.0724,38.0232,2.1707],[27.0704,38.0229,0.0],[27.0721,38.0199,5.8149],[27.0704,38.019,0.0],[27.0743,38.0171,7.404],[27.0754,38.0126,1.1784],[27.0779,38.014,4.1221],[27.0779,38.0163,4.7178],[27.086,38.0137,0.0],[27.0868,38.0168,33.3423],[27.089,38.0176,1.7359],[27.099,38.0154,0.0],[27.1029,38.0129,0.0],[27.1049,38.0093,0.0],[27.1076,38.0088,0.6874],[27.1082,38.0054,0.0],[27.111,38.0054,0.0],[27.111,38.001,0.0],[27.1149,38.001,15.6828],[27.1154,37.9976,1.6092],[27.1182,37.9971,4.2516],[27.1193,37.9924,2.8815],[27.1207,37.9943,2.2502],[27.1265,37.9935,0.0712],[27.131,37.991,1.5358],[27.1332,37.9876,3.9832],[27.1396,37.9888,16.0251],[27.1429,37.9837,0.0],[27.1465,37.9829,0.0],[27.1482,37.986,38.9153],[27.1543,37.9868,0.4695],[27.156,37.9837,0.0],[27.1676,37.981,0.0],[27.1693,37.984,12.927],[27.1729,37.9829,0.0],[27.1754,37.9863,50.5661],[27.1815,37.9857,2.8531],[27.1874,37.9907,1.3472],[27.1951,37.9882,0.0],[27.196,37.9904,6.0157],[27.1993,37.9907,17.9072],[27.2029,37.9885,0.0],[27.2057,37.9901,0.0],[27.2054,37.9921,14.4049],[27.2124,37.9904,0.0],[27.2171,37.9924,7.2088],[27.2182,37.9888,0.0],[27.2315,37.9837,0.0],[27.2382,37.986,1.8935],[27.2407,37.9849,0.136],[27.2418,37.9801,0.0],[27.2485,37.9813,0.1956],[27.2532,37.9776,0.4266],[27.2585,37.9701,0.4465],[27.2615,37.9599,0.0],[27.2721,37.9512,0.8185],[27.2749,37.9446,0.6834],[27.2774,37.9279,0.0],[27.2765,37.9238,0.2485],[27.2754,37.9224,0.0],[27.2663,37.9221,0.0],[27.2632,37.9146,19.1299],[27.2607,37.9132,0.0],[27.2635,37.9121,17.7098],[27.2612,37.9093,0.0],[27.2643,37.9051,0.0],[27.2693,37.906,2.0633],[27.2721,37.9032,0.4641],[27.2724,37.8982,4.2349],[27.2682,37.8965,0.0],[27.2671,37.8937,0.0],[27.2953,37.8907,188.2961],[27.3336,37.8904,284.3641],[27.3665,37.8933,203.4937],[27.4083,37.9078,602.17],[27.4417,37.9161,519.6533],[27.4717,37.9333,400.724],[27.4894,37.9405,404.3403],[27.4942,37.9439,271.4325],[27.5009,37.9527,384.1866],[27.5044,37.9655,304.1621],[27.5085,37.973,469.8769],[27.5199,37.9811,475.0089],[27.5318,37.9837,402.174],[27.6802,37.9836,587.2446],[27.7201,37.9855,660.037],[27.7446,37.9743,513.1534],[27.7639,37.9718,513.2593],[27.7758,37.9723,347.2161],[27.8152,37.9826,914.9435],[27.8667,37.9847,1322.6396],[27.8984,37.9931,919.9975],[27.9236,37.9951,1408.7422],[27.9288,38.0078,1216.7212],[27.9387,38.0184,1445.2771],[27.9537,38.0067,1102.1688],[27.9937,38.0084,734.3911],[28.0369,38.022,1584.8177],[28.0719,38.0294,1580.2478],[28.1812,38.029,1395.635],[28.1921,38.0267,1529.6453],[28.202,38.0219,1595.4116],[28.2204,38.0192,1535.4473],[28.249,38.019,1279.2356],[28.2718,38.0238,1247.7444],[28.2777,38.0276,1377.7354],[28.3153,38.0386,906.6663],[28.3992,38.0547,525.2939],[28.4208,38.0618,974.5735],[28.448,38.0671,952.0576],[28.5257,38.0972,1175.6128],[28.5599,38.1087,1315.0955],[28.5358,38.1261,867.0823],[28.5273,38.1353,995.4612],[28.4979,38.182,568.8535],[28.4912,38.2031,642.7026],[28.4832,38.2169,954.7575],[28.4784,38.2444,1507.1708],[28.4741,38.2545,1719.1455],[28.4626,38.2734,1552.124],[28.4564,38.2805,1308.7451],[28.4487,38.2868,1458.1028],[28.4335,38.2951,1087.1633],[28.4065,38.3004,1199.7078],[28.385,38.3074,1124.308],[28.3386,38.3093,1427.8916],[28.3159,38.3117,1034.3325],[28.2946,38.3188,1266.5598],[28.2654,38.3223,1260.9634],[28.2585,38.3266,1360.2673],[28.2229,38.3359,1552.7859],[28.1612,38.3608,1876.8612],[28.1566,38.3637,1767.6388],[28.1496,38.3843,1532.9387],[28.145,38.392,1363.9979],[28.1331,38.4001,1273.8052],[28.1175,38.4028,1281.6633],[28.0334,38.4029,894.5374],[28.0168,38.4023,892.6998],[28.0011,38.3995,1017.6672],[27.9683,38.3814,964.9246],[27.9287,38.3676,1011.3839],[27.8816,38.336,966.4951],[27.8678,38.3329,846.064],[27.8536,38.3338,1114.4429],[27.8414,38.3386,956.5501],[27.8213,38.3508,696.087],[27.807,38.3686,978.5534],[27.7849,38.404,647.2154],[27.7662,38.4227,561.2386],[27.7549,38.4387,378.7046],[27.7427,38.4469,490.081],[27.6984,38.4588,231.5564],[27.6556,38.4613,139.8313],[27.6373,38.464,114.1229],[27.5955,38.4748,71.9235],[27.5654,38.4863,138.8351],[27.5426,38.5009,217.4303],[27.4784,38.5514,1090.7744],[27.4579,38.5635,1187.2927],[27.4309,38.5688,925.7168],[27.4063,38.5766,1037.0985],[27.3542,38.5776,309.9903],[27.3495,38.5849,256.6315],[27.3383,38.5883,483.5303],[27.3251,38.5872,610.8389],[27.28,38.5722,512.2292],[27.2768,38.5973,357.5192],[27.2668,38.6166,324.8111],[27.2618,38.6435,120.3916],[27.2518,38.6632,206.0356],[27.2469,38.6901,168.0716],[27.2372,38.7098,366.5272],[27.2335,38.7337,391.476],[27.2297,38.7416,325.7212],[27.2181,38.7505,317.3654],[27.1612,38.7722,369.4088],[27.1245,38.7797,139.4613],[27.132,38.8069,105.5858],[27.142,38.8262,127.9828],[27.1481,38.8561,272.8153],[27.1682,38.8917,489.5523],[27.1995,38.894,438.7162],[27.2289,38.9023,364.7088],[27.2898,38.9055,621.2969],[27.3115,38.9124,572.3337],[27.3348,38.9169,588.7246],[27.37,38.9268,813.8402],[27.3746,38.9398,760.581],[27.3875,38.952,768.1104],[27.4016,38.9593,946.8062],[27.4252,38.9634,702.7493],[27.4339,38.967,662.803],[27.4425,38.9746,661.0553],[27.4516,38.9884,703.0557],[27.4628,38.9983,382.8212],[27.4767,39.0057,414.4483],[27.4904,39.0083,324.8685],[27.5054,39.0199,707.4106],[27.5056,39.1082,203.7034],[27.5044,39.1177,234.8353],[27.5009,39.1266,266.3739],[27.471,39.1719,62.9784],[27.475,39.1864,101.9469],[27.4754,39.205,133.1598],[27.4725,39.2168,197.6281],[27.4644,39.2306,212.2149],[27.4619,39.2394,328.7009],[27.4607,39.2833,281.0128],[27.4588,39.2955,355.1674],[27.4497,39.3122,392.36],[27.4415,39.3356,309.5365],[27.4268,39.359,533.3038],[27.4077,39.3815,485.5816],[27.3909,39.3831,536.3088],[27.3623,39.3911,673.3336],[27.316,39.3944,724.4962],[27.2609,39.4142,714.406],[27.1999,39.4166,772.7332],[27.1768,39.4215,1031.8707],[27.167,39.4102,647.8621],[27.1579,39.4024,824.5402],[27.1475,39.396,779.6042],[27.1292,39.3893,705.4305],[27.1186,39.383,790.1417],[26.9575,39.2594,423.1364],[26.9007,39.2366,172.6798],[26.8767,39.2219,382.0312],[26.8554,39.213,339.0651],[26.8194,39.1888,23.6366],[26.7922,39.1807,5.4511],[26.7882,39.1777,4.1085],[26.7849,39.1718,1.5952],[26.7646,39.1732,0.2899],[26.7679,39.166,0.3095],[26.791,39.1629,0.4083],[26.8068,39.1587,0.0],[26.8174,39.154,0.2704],[26.8249,39.1476,0.566],[26.8357,39.1421,1.4651],[26.8504,39.1282,0.0],[26.8546,39.119,1.7519],[26.8596,39.1151,0.4538],[26.8626,39.1149,2.5758],[26.864,39.1118,0.0],[26.8676,39.1121,2.8172],[26.8668,39.1104,0.0],[26.8685,39.1071,0.4652],[26.8751,39.1007,0.0],[26.8776,39.1001,0.4279],[26.8768,39.0982,0.0],[26.8826,39.0893,0.7427],[26.8876,39.0754,3.0619],[26.8857,39.0699,2.4337],[26.8865,39.0682,7.7151],[26.8804,39.0643,0.3463],[26.874,39.0629,0.7295],[26.8682,39.0643,0.0],[26.8632,39.0588,3.7751],[26.8565,39.0563,11.3203],[26.851,39.0579,0.0],[26.8474,39.0521,0.0],[26.8393,39.0482,0.0],[26.8382,39.0451,9.8969],[26.8304,39.0438,0.0],[26.8293,39.0407,0.0],[26.8232,39.0376,0.1047],[26.8179,39.0368,0.4664],[26.8126,39.0418,1.2618],[26.8121,39.0374,0.0],[26.8051,39.0388,0.0],[26.8037,39.0346,3.0994],[26.799,39.0324,0.0],[26.7996,39.0285,12.2586],[26.7949,39.024,0.0],[26.7954,39.0226,0.7673],[26.799,39.0221,2.1358],[26.7988,39.0151,0.0],[26.8115,39.0199,0.0],[26.8115,39.0235,0.0],[26.816,39.026,0.6739],[26.8154,39.0201,0.0],[26.8124,39.0157,0.0],[26.8079,39.0157,0.0],[26.8043,39.0107,0.0],[26.8021,39.0101,0.1476],[26.7999,39.0032,4.5395],[26.801,38.999,0.0],[26.7974,38.9962,13.3644],[26.7971,38.9904,0.8288],[26.7988,38.9888,0.8288],[26.7968,38.9868,0.0],[26.796,38.9824,0.0],[26.8004,38.974,13.0248],[26.7993,38.9724,24.4742],[26.8004,38.9685,14.9926],[26.7996,38.9643,14.6345],[26.7965,38.9637,0.0],[26.7962,38.9618,0.0],[26.7979,38.9596,69.7701],[26.7976,38.956,14.193],[26.8012,38.9507,18.5322],[26.8032,38.9501,0.0],[26.8076,38.9538,24.0388],[26.8115,38.9526,3.2639],[26.8149,38.9493,0.0],[26.816,38.941,11.5139],[26.8204,38.9362,0.0],[26.8251,38.9357,9.9228],[26.8293,38.9332,0.0],[26.844,38.9351,0.0],[26.8499,38.9338,2.96],[26.8529,38.9313,10.1327],[26.8535,38.9246,0.0],[26.8574,38.9226,5.7862],[26.8529,38.919,8.6185],[26.8524,38.9157,0.0],[26.8582,38.9138,4.1604],[26.8654,38.9143,0.0],[26.8674,38.9171,6.5084],[26.8712,38.9185,0.0],[26.8776,38.9151,0.0],[26.8793,38.9162,0.0],[26.8812,38.9226,2.9966],[26.889,38.9232,0.0],[26.8907,38.9254,0.0],[26.8901,38.9274,7.5563],[26.8932,38.9296,24.5991],[26.9101,38.934,2.6382],[26.9196,38.9399,1.3646],[26.9304,38.936,2.1664],[26.9332,38.9329,4.5023],[26.9338,38.9276,1.5769],[26.9396,38.9257,0.0],[26.9393,38.9293,0.0],[26.9357,38.9332,3.7774],[26.9368,38.9376,2.8857],[26.9474,38.9388,22.4849],[26.9507,38.9343,0.9702],[26.9551,38.9401,4.866],[26.9574,38.9401,0.0],[26.9543,38.9407,9.2839],[26.9551,38.9418,9.2839],[26.9579,38.943,0.1166],[26.9585,38.9404,-0.0126],[26.9599,38.9435,0.0309],[26.9646,38.9426,0.0],[26.9685,38.9443,0.0],[26.965699999999998,38.9412,-0.0019],[26.9579,38.9393,-0.0126],[26.9571,38.9376,0.0],[26.964,38.9338,-0.1116],[26.9688,38.9285,0.0],[26.9701,38.929,0.0],[26.9696,38.9268,0.0],[26.9749,38.9268,0.0522],[26.9837,38.9215,0.0],[26.9846,38.9193,-0.0172],[26.999,38.9146,0.0],[27.006,38.9129,0.0],[27.0179,38.9135,0.0],[27.0171,38.9182,0.0],[27.0065,38.916,0.0463],[27.0063,38.919,0.0],[27.0124,38.9179,0.0],[27.0104,38.9207,0.0196],[27.0132,38.9201,0.0],[27.0132,38.9224,-0.0603],[27.0157,38.9243,0.0],[27.0107,38.9238,-0.2025],[27.011,38.9249,-0.018],[27.0163,38.9257,-0.1887],[27.0193,38.929,-0.0131],[27.0274,38.9307,0.0485],[27.0324,38.9374,0.0],[27.0354,38.9379,0.0],[27.0379,38.9407,-0.384],[27.041,38.9393,-0.1406],[27.0438,38.941,-0.3015],[27.0454,38.9379,-0.0241],[27.0501,38.936,0.7993],[27.054,38.931,0.3893],[27.0529,38.9279,0.2379],[27.0485,38.929,-0.0112],[27.0537,38.9249,0.4724],[27.0571,38.9132,10.4591],[27.0549,38.911,12.4636],[27.0438,38.9093,0.0],[27.0443,38.9029,22.4241],[27.0424,38.9015,0.6688],[27.0413,38.8971,0.0],[27.0371,38.8963,2.966],[27.0374,38.8935,0.0],[27.0443,38.8907,0.0],[27.0482,38.8937,0.0],[27.0487,38.8965,1.2194],[27.0515,38.8971,2.9536],[27.0501,38.8937,0.0],[27.0579,38.891,0.9894],[27.0618,38.8874,2.3955],[27.0629,38.8824,2.5098],[27.0663,38.8799,0.088],[27.0663,38.8771,0.172],[27.064,38.876,0.8515],[27.0632,38.8785,0.1937],[27.061,38.8776,2.1156],[27.0601,38.8757,0.0],[27.0635,38.874,1.0786],[27.0635,38.871,1.4877],[27.059,38.866,0.9049],[27.0565,38.866,0.4066],[27.0557,38.869,2.1049],[27.0532,38.8693,2.1692],[27.0515,38.8676,0.6281],[27.0446,38.8685,14.0663],[27.0388,38.8618,3.7203],[27.036,38.8621,0.0],[27.0346,38.856,0.5664],[27.0315,38.8554,0.3079],[27.0276,38.8582,0.0],[27.0229,38.8582,0.1713],[27.0196,38.8621,0.0],[27.0201,38.8663,0.9854],[27.0265,38.8699,0.0],[27.0257,38.8726,0.0],[27.0121,38.8657,2.1193],[27.0076,38.8668,4.3485],[27.0057,38.8587,25.339],[27.0012,38.8565,19.5696],[26.991,38.8568,7.699],[26.9871,38.8532,0.0],[26.9882,38.8482,0.0],[26.9863,38.8468,8.7188],[26.9788,38.849,0.0],[26.976,38.8449,0.0537],[26.9713,38.846,0.0],[26.9624,38.831,0.0],[26.9796,38.8293,0.9019],[26.9837,38.826,2.5633],[26.9843,38.8226,16.5978],[26.9768,38.8085,4.6263],[26.969,38.804,1.2983],[26.9651,38.8049,0.4696],[26.9604,38.8029,0.8936],[26.9532,38.8032,6.9558],[26.949,38.8085,2.0923],[26.9426,38.8121,0.9255],[26.9432,38.821,0.5496],[26.9463,38.8251,1.7661],[26.9443,38.8365,0.0],[26.9368,38.8343,0.0],[26.9293,38.8288,0.8498],[26.9285,38.8301,0.0],[26.9251,38.8293,0.0],[26.914,38.8174,0.578],[26.8993,38.8213,12.6503],[26.8971,38.8251,2.119],[26.8926,38.8251,0.0],[26.8915,38.8199,0.0],[26.8943,38.8138,30.0757],[26.8985,38.8085,0.0],[26.9037,38.8074,5.9269],[26.9054,38.8026,0.0],[26.9112,38.7965,0.0],[26.9101,38.794,0.0],[26.9149,38.7904,50.0356],[26.9171,38.7857,23.9554],[26.9251,38.7804,0.3021],[26.9243,38.7779,0.0],[26.926,38.7774,0.2286],[26.9265,38.7804,0.3021],[26.929,38.7793,0.0],[26.9296,38.781,0.4085],[26.9321,38.781,0.3328],[26.9301,38.7729,0.3611],[26.9338,38.7718,0.9751],[26.939,38.766,30.9567],[26.9387,38.7629,0.5356],[26.9354,38.7585,5.3906],[26.9293,38.756,1.9985],[26.9235,38.7576,0.1263],[26.9179,38.7629,2.5621],[26.9118,38.7649,28.3431],[26.9112,38.7665,5.8322],[26.9071,38.7665,3.7586],[26.9071,38.764,7.1808],[26.9051,38.7635,0.0],[26.9074,38.7601,21.944],[26.9043,38.7601,12.0679],[26.904,38.7568,16.5596],[26.9068,38.7551,7.1684],[26.9068,38.7526,3.1005],[26.9054,38.7515,13.6311],[26.8996,38.7524,0.0],[26.8968,38.749,0.642],[26.9001,38.7474,6.2335],[26.9007,38.7443,0.0],[26.8976,38.7363,0.0],[26.8946,38.7337,2.7519],[26.8849,38.7324,0.984],[26.8765,38.7354,37.959],[26.8729,38.7407,0.259],[26.8657,38.7443,0.9941],[26.8582,38.7532,7.2585],[26.8501,38.7513,0.0],[26.8515,38.7501,10.1031],[26.8504,38.7485,4.7136],[26.8443,38.746,5.4165],[26.839,38.7415,3.4045],[26.836,38.7421,0.5852],[26.8326,38.7449,0.1955],[26.8321,38.7485,0.0],[26.834,38.7518,0.3122],[26.8374,38.7515,0.0],[26.8374,38.7532,1.1074],[26.8329,38.7551,7.5069],[26.8312,38.7613,3.7304],[26.824,38.7624,0.0],[26.819,38.7599,0.0],[26.8185,38.7579,10.1722],[26.8149,38.7562,0.0],[26.8146,38.7535,4.3659],[26.8107,38.7518,26.0724],[26.8021,38.7507,0.0],[26.7976,38.7487,16.8768],[26.7968,38.7463,1.2115],[26.7946,38.7463,10.7222],[26.7926,38.7487,14.871],[26.7904,38.7485,4.4953],[26.7904,38.7457,4.358],[26.7871,38.7471,0.0],[26.7865,38.7438,0.0],[26.7838,38.7424,0.0],[26.7846,38.7393,0.0],[26.7821,38.7393,0.0],[26.7804,38.7371,4.185],[26.7787,38.7376,4.185],[26.7793,38.7401,2.7264],[26.7774,38.7388,0.0],[26.7738,38.7393,0.0],[26.7693,38.7349,2.4867],[26.7685,38.7379,2.8921],[26.7704,38.7418,0.0],[26.7682,38.7426,0.0],[26.7668,38.7418,4.4936],[26.7674,38.7376,4.7914],[26.7657,38.7376,3.0324],[26.7637,38.7404,11.2485],[26.7613,38.7401,3.863],[26.7588,38.7393,0.0],[26.7593,38.7363,1.4685],[26.7538,38.7371,0.0],[26.7521,38.7399,5.397],[26.7401,38.7418,0.6389],[26.739,38.7365,0.0],[26.7415,38.7363,7.0037],[26.7432,38.7315,1.3337],[26.7374,38.7318,17.5179],[26.734,38.7304,3.595],[26.7321,38.7274,0.0],[26.7293,38.7276,1.5731],[26.7279,38.7263,9.5233],[26.7288,38.7232,9.5589],[26.7265,38.7215,0.0],[26.7285,38.7193,0.0],[26.7324,38.7196,0.1292],[26.7318,38.7163,8.4173],[26.731,38.7151,12.6863],[26.729,38.716,0.5955],[26.7285,38.7129,2.8484],[26.7326,38.7026,0.4635],[26.7313,38.7018,2.5188],[26.7313,38.6976,2.9634],[26.7282,38.6954,1.0665],[26.7315,38.6929,4.1549],[26.7318,38.6904,0.0],[26.7363,38.6885,1.2351],[26.7363,38.6868,6.0103],[26.7335,38.6857,0.0],[26.7371,38.6824,2.1168],[26.7396,38.6835,0.6445],[26.741,38.681,0.0],[26.7393,38.6782,0.6029],[26.7371,38.679,0.0],[26.7307,38.6746,0.0],[26.7376,38.6757,0.0],[26.739,38.6779,0.6029],[26.7482,38.6774,4.4688],[26.7549,38.6721,4.8414],[26.7504,38.669,1.2372],[26.7538,38.6651,5.7537],[26.7449,38.6643,9.2748],[26.7446,38.6693,0.0],[26.7421,38.6688,0.0],[26.7426,38.6662,5.7799],[26.7407,38.6662,0.0],[26.7418,38.6632,2.3711],[26.734,38.6671,0.0],[26.7343,38.6599,9.7801],[26.7282,38.6554,1.7833],[26.7232,38.6563,4.2238],[26.7221,38.6526,0.0],[26.7257,38.6496,0.0],[26.7274,38.6549,1.7833],[26.7337,38.6538,5.3782],[26.7346,38.6515,0.0],[26.7321,38.6493,0.0],[26.7326,38.6476,0.0],[26.7363,38.6443,1.224],[26.7421,38.6457,1.6487],[26.7435,38.644,14.8168],[26.7435,38.6376,4.8406],[26.7496,38.6343,4.956],[26.754,38.6351,0.0],[26.7563,38.6376,1.1028],[26.7637,38.6407,5.938],[26.7696,38.636,0.0],[26.769,38.6351,0.8166],[26.7646,38.6376,0.0],[26.7643,38.6332,2.5677],[26.7599,38.6326,0.0],[26.7546,38.6285,8.773],[26.7571,38.626,2.4202],[26.7563,38.6235,2.17],[26.7585,38.6199,8.4572],[26.7565,38.6174,2.0531],[26.7571,38.6154,0.0],[26.7621,38.6146,0.0],[26.7649,38.616,3.833],[26.766,38.6146,0.0],[26.7665,38.6165,1.7713],[26.7693,38.6165,5.5647],[26.7751,38.6124,2.1316],[26.776,38.6165,9.3198],[26.779,38.6174,1.679],[26.7876,38.6143,9.3212],[26.7915,38.6107,11.2584],[26.7999,38.611,16.1685],[26.8015,38.6087,-0.7987],[26.8012,38.6037,-0.0508],[26.8029,38.6035,-0.0508],[26.8004,38.5993,0.0],[26.8063,38.6015,-0.0052],[26.8104,38.5949,0.0],[26.816,38.5946,-0.0869],[26.8163,38.5924,-0.0347],[26.8143,38.5899,0.0],[26.8165,38.5896,-0.0245],[26.8182,38.586,0.0],[26.8257,38.5907,-0.2522],[26.8257,38.5871,0.0],[26.8276,38.5851,0.0],[26.8271,38.5815,0.0],[26.8304,38.5782,0.0],[26.8354,38.5876,0.0054],[26.8376,38.589,-0.1488],[26.8396,38.5876,-0.0909],[26.8399,38.5804,0.0],[26.8437,38.5821,-0.8145],[26.8479,38.5757,0.0],[26.8418,38.5682,0.0],[26.8437,38.5649,-0.1383],[26.8432,38.5629,-0.2445],[26.846,38.5624,-0.5219],[26.8468,38.5604,-0.5828],[26.8385,38.5612,-0.0463],[26.841,38.5579,0.0],[26.8401,38.5563,-0.0157],[26.8296,38.5582,0.0],[26.8229,38.5504,0.0],[26.8249,38.5507,0.0],[26.8304,38.5565,0.0012],[26.8357,38.5535,0.0],[26.8379,38.554,-0.0785],[26.8426,38.5504,0.0],[26.8426,38.5521,0.0],[26.8393,38.554,-0.1867],[26.8426,38.5554,0.0],[26.8429,38.5576,0.0],[26.841,38.5601,-0.0334],[26.8471,38.5596,-0.5828],[26.8474,38.5565,0.1475],[26.8451,38.5554,0.0],[26.8476,38.5554,0.0],[26.8487,38.5504,2.726],[26.8476,38.5485,0.1257],[26.8465,38.5493,0.0],[26.8454,38.5457,0.0743],[26.8482,38.5429,0.0],[26.8593,38.5388,-0.4309],[26.8701,38.5371,-0.5896],[26.876,38.534,-0.0001],[26.8826,38.5349,0.0705],[26.8807,38.529,0.0249],[26.8765,38.5288,0.0],[26.8801,38.5271,-0.2618],[26.8812,38.5174,0.0],[26.8796,38.5165,0.0],[26.8782,38.5179,0.0],[26.8771,38.516,0.0],[26.8843,38.5157,-0.3003],[26.8879,38.5135,-0.5],[26.8879,38.5107,-0.5119],[26.8804,38.5104,0.0],[26.8668,38.5157,0.0],[26.8568,38.5176,0.0],[26.856,38.5185,-0.026],[26.8574,38.5187,0.0],[26.854,38.5204,0.0],[26.8371,38.5226,0.0],[26.8271,38.5299,0.0],[26.8282,38.5271,-0.2831],[26.8357,38.5224,0.0],[26.8712,38.5132,0.0],[26.8846,38.5076,-0.1641],[26.8838,38.5037,0.0],[26.9085,38.4868,0.0523],[26.9129,38.4813,-1.4976],[26.914,38.4771,0.103],[26.9224,38.4676,0.028],[26.9235,38.461,-0.0504],[26.9207,38.4604,0.0],[26.9238,38.4599,0.1121],[26.9238,38.4568,0.0],[26.9204,38.4568,0.0],[26.9196,38.4532,0.0],[26.9226,38.4557,0.0],[26.9235,38.4546,-0.0002],[26.9226,38.4521,0.0],[26.9274,38.4551,0.0071],[26.9276,38.4535,0.0],[26.9315,38.4543,-0.4097],[26.9385,38.4507,0.5026],[26.9376,38.4485,0.0],[26.9396,38.449,0.0443],[26.9393,38.446,-0.1764],[26.9418,38.4463,-0.0973],[26.9415,38.4449,-0.1206],[26.9438,38.4443,-0.0435],[26.9446,38.4465,-0.1454],[26.946,38.4451,0.0],[26.9474,38.4463,-0.141],[26.9518,38.4435,0.0503],[26.9518,38.4415,0.076],[26.9499,38.4407,0.0],[26.9512,38.4371,0.0],[26.9485,38.4318,0.0],[26.9538,38.4376,0.0],[26.9524,38.4407,0.076],[26.9546,38.4399,0.0023],[26.9551,38.4446,0.0],[26.9601,38.4454,0.0],[26.9643,38.4415,0.0],[26.9651,38.4435,0.0],[26.9629,38.4435,0.0],[26.9629,38.446,0.0],[26.966,38.4479,0.0],[26.9701,38.4421,-0.3845],[26.9724,38.4432,-0.1273],[26.9743,38.4479,0.0],[26.9713,38.4526,-0.3866],[26.9746,38.4518,0.0],[26.9743,38.4551,-0.0102],[26.9779,38.4526,-0.0227],[26.9793,38.4488,-0.0776],[26.9804,38.4488,0.026],[26.9793,38.4529,-0.2741],[26.9804,38.4535,-0.052],[26.984,38.4488,-0.3041],[26.9843,38.4529,0.0073],[26.9865,38.4535,0.0],[26.9846,38.4549,-0.1004],[26.9851,38.4565,-0.0171],[26.9879,38.4549,-0.0163],[26.9879,38.4568,-0.1479],[26.9899,38.4574,-0.3217],[26.9904,38.4557,-0.0467],[26.9879,38.4535,0.0],[26.9874,38.4493,-0.1086],[26.9904,38.4529,-0.1879],[26.9951,38.454,0.0],[26.9949,38.4574,0.0213],[26.9963,38.4585,0.0213],[27.0012,38.4579,0.0],[27.0079,38.4601,0.0],[27.0113,38.459,0.0],[27.0163,38.4607,0.0],[27.0138,38.4632,0.0],[27.0163,38.4651,0.0],[27.0179,38.4649,0.0],[27.0185,38.4618,0.0],[27.0207,38.4643,0.0],[27.0354,38.4632,0.0],[27.026,38.4651,0.0],[27.0268,38.4676,0.0],[27.0321,38.466,0.0],[27.0338,38.4674,0.0],[27.0388,38.4635,0.0],[27.0418,38.4657,-0.0719],[27.0504,38.4637,0.0],[27.0524,38.4654,-0.1223],[27.0557,38.4629,-0.0998],[27.0579,38.464,-0.0649],[27.0574,38.461,0.0],[27.0599,38.4599,0.0],[27.0599,38.4615,0.0],[27.0624,38.4618,0.0],[27.0626,38.4588,-0.2386],[27.0665,38.4582,0.0],[27.0732,38.4599,0.0],[27.0729,38.4618,0.0],[27.0685,38.4621,-0.2417],[27.0674,38.464,0.0],[27.0704,38.4668,0.0],[27.0793,38.4671,3.428],[27.0938,38.4532,0.0],[27.1118,38.4487,0.0],[27.1126,38.4504,1.7175],[27.1185,38.4526,0.0],[27.1193,38.4546,5.6562],[27.1254,38.4568,0.4522],[27.1279,38.4607,8.8269],[27.1324,38.4593,0.0],[27.1318,38.4629,0.4996],[27.134,38.461,0.0],[27.136,38.4626,0.0],[27.1349,38.4649,1.1567],[27.149,38.4643,0.0],[27.159,38.4668,0.459],[27.1696,38.4526,4.4245],[27.1693,38.4504,0.0],[27.1715,38.4479,1.9763],[27.1701,38.4451,1.2273],[27.1707,38.4412,2.3891],[27.1688,38.4407,0.4314],[27.1696,38.4437,0.4093],[27.1671,38.446,0.1523],[27.1685,38.444,0.0449],[27.1676,38.4404,2.5151],[27.1621,38.4407,1.1551],[27.1618,38.4451,2.2048],[27.1596,38.4437,3.5726],[27.1588,38.4418,0.6201],[27.1604,38.4407,1.9676],[27.1593,38.4407,1.9676],[27.1576,38.4421,0.0],[27.1596,38.446,0.0],[27.1557,38.4468,2.6042],[27.1521,38.4449,0.5426],[27.1513,38.4424,1.2657],[27.149,38.4424,0.0],[27.1476,38.4443,0.9594],[27.1499,38.4468,0.0],[27.1482,38.4476,0.0],[27.1454,38.4449,0.0],[27.1457,38.4424,0.6355],[27.1424,38.4421,0.0],[27.141,38.4362,8.6651],[27.1374,38.434,0.0],[27.134,38.429,0.0],[27.1321,38.4287,0.0],[27.1313,38.4235,9.037],[27.1293,38.4246,0.0],[27.1279,38.4235,0.0],[27.1287,38.4215,1.3289],[27.1249,38.419,0.0],[27.1251,38.4174,1.2519],[27.1187,38.4104,16.9305],[27.099,38.4065,2.934],[27.0949,38.4024,0.359],[27.0868,38.3985,6.9091],[27.074,38.4018,1.4336],[27.0704,38.4046,0.0],[27.0713,38.4063,0.0],[27.0651,38.4087,2.3768],[27.0596,38.4154,2.1874],[27.036,38.4107,0.0],[27.028199999999998,38.4146,0.0],[27.0218,38.4143,0.0],[27.0171,38.4182,0.0],[27.0174,38.4151,2.7897],[27.011,38.4096,2.0736],[26.9968,38.4079,0.0],[26.9888,38.401,0.3312],[26.9807,38.3968,2.2893],[26.9776,38.3974,0.0],[26.9751,38.3957,0.0],[26.9546,38.3915,0.0],[26.9435,38.386,1.3431],[26.9343,38.3838,0.0],[26.9221,38.3849,0.9007],[26.9035,38.3796,1.1104],[26.8846,38.379,0.0],[26.881,38.3768,2.0275],[26.8718,38.3751,2.8675],[26.8671,38.3746,1.3234],[26.866,38.376,0.0],[26.8624,38.3737,2.2077],[26.8546,38.374,0.0],[26.8351,38.3707,0.0],[26.8176,38.3643,0.0],[26.8129,38.3582,0.0],[26.8085,38.3554,3.9361],[26.7946,38.3563,0.592],[26.7818,38.3618,0.7864],[26.7813,38.3635,0.0],[26.7738,38.3635,1.7533],[26.7715,38.3657,0.0],[26.7665,38.3668,3.3316],[26.7618,38.374,23.0819],[26.7632,38.3793,0.0],[26.7615,38.3818,8.7743],[26.7629,38.3843,0.0],[26.754,38.3885,0.0],[26.7524,38.3915,0.0],[26.7496,38.3924,1.5311],[26.7496,38.3946,1.0415],[26.7521,38.3949,0.0],[26.7515,38.3968,0.0],[26.749,38.3965,0.5637],[26.7479,38.3988,0.4796],[26.7554,38.3974,0.0],[26.7551,38.4007,0.0],[26.7504,38.4001,0.7604],[26.7424,38.4026,1.0584],[26.7388,38.4115,0.0],[26.7354,38.4143,0.0],[26.7349,38.4185,3.8955],[26.7404,38.421,0.5584],[26.7365,38.4287,0.0],[26.7335,38.4299,6.5296],[26.731,38.4246,7.2831],[26.7296,38.4268,0.0],[26.7318,38.4304,0.0],[26.7274,38.4321,0.0],[26.7251,38.436,0.0],[26.7204,38.4371,0.0],[26.7193,38.4354,2.3082],[26.7221,38.4324,6.6502],[26.7215,38.429,1.1404],[26.7237,38.4282,0.2201],[26.7154,38.4274,0.0],[26.7112,38.4332,0.0],[26.7074,38.4346,1.5496],[26.7051,38.4296,3.0545],[26.7004,38.4282,7.4127],[26.6999,38.4257,0.0],[26.6965,38.426,0.0],[26.6929,38.4196,0.6393],[26.6882,38.4182,7.7831],[26.6832,38.4115,0.0],[26.6824,38.4087,0.0],[26.6857,38.4057,5.2065],[26.686,38.4029,19.4597],[26.684,38.3996,23.6891],[26.6779,38.3974,1.3217],[26.6785,38.3949,2.2091],[26.676,38.3932,5.4052],[26.6746,38.3879,0.0],[26.6768,38.3785,0.0],[26.6821,38.3732,0.5129],[26.6818,38.3671,4.0319],[26.6799,38.366,0.0],[26.6821,38.3646,1.3227],[26.6815,38.3629,0.0],[26.6882,38.3518,2.364],[26.6879,38.3504,1.6958],[26.6849,38.3504,3.3346],[26.6835,38.3563,14.5798],[26.6779,38.3604,2.3849],[26.6749,38.3579,0.0],[26.6768,38.3546,2.8253],[26.6751,38.3479,0.0],[26.6779,38.3493,2.4288],[26.6793,38.3476,0.1884],[26.6868,38.3468,0.0],[26.6915,38.3443,0.0878],[26.6951,38.3399,0.2359],[26.6935,38.3354,0.0],[26.7001,38.3324,0.1594],[26.7015,38.3276,0.4562],[26.6999,38.3226,0.0],[26.7032,38.3199,0.9724],[26.7015,38.3151,0.898],[26.6915,38.3118,0.2497],[26.6807,38.3104,1.0423],[26.6738,38.3121,0.0],[26.6668,38.3174,0.0497],[26.6632,38.3243,0.6965],[26.6585,38.3246,0.0305],[26.6537,38.3304,2.63],[26.6521,38.3288,0.2563],[26.6524,38.3329,-0.0261],[26.6507,38.3346,1.1194],[26.6537,38.3349,-0.0123],[26.6524,38.3382,0.2909],[26.6443,38.3399,1.6506],[26.6413,38.3476,0.0],[26.6454,38.3571,0.0],[26.6454,38.3707,0.0],[26.6435,38.3757,0.0],[26.6401,38.3793,0.0],[26.6299,38.3815,4.0953],[26.6271,38.3901,0.0],[26.6235,38.3924,0.0],[26.6254,38.3946,0.0],[26.6243,38.4001,0.0],[26.6229,38.4015,0.0],[26.6201,38.4004,8.4935],[26.619,38.4026,0.0],[26.6171,38.4029,1.6525],[26.6179,38.4085,7.492],[26.6146,38.411,0.0],[26.6168,38.4126,0.0],[26.6162,38.4154,0.0],[26.6118,38.419,0.0],[26.6115,38.4224,0.0],[26.6046,38.4201,0.0],[26.6021,38.4165,3.1378],[26.5999,38.4162,0.7354],[26.5899,38.4215,0.6586],[26.5893,38.4238,0.0],[26.5868,38.424,0.3659],[26.5846,38.4265,1.8172],[26.5846,38.4285,1.4676],[26.5879,38.4318,0.0],[26.5918,38.4301,0.0],[26.5946,38.4332,6.0268],[26.5979,38.4321,1.3337],[26.5999,38.434,0.0],[26.6007,38.4385,2.9643],[26.6029,38.4393,2.9593],[26.6035,38.4415,10.7764],[26.6001,38.4435,8.6154],[26.599,38.4463,0.8249],[26.6026,38.4468,0.0],[26.6026,38.4493,6.2493],[26.6049,38.4515,6.4677],[26.6013,38.4607,0.0],[26.5976,38.4618,0.3056],[26.596,38.459,0.4774],[26.5896,38.4615,0.0],[26.5976,38.4663,0.0],[26.5979,38.4679,0.0],[26.5912,38.4685,5.0416],[26.5879,38.4704,0.0],[26.6046,38.4704,0.0],[26.6087,38.469,0.0],[26.609,38.4707,4.2285],[26.6115,38.4715,0.6595],[26.6207,38.4724,9.7504],[26.6279,38.4685,0.0],[26.6304,38.4629,0.0],[26.6393,38.466,0.2834],[26.6413,38.4693,0.0],[26.6404,38.4765,12.1893],[26.6321,38.4993,0.3871],[26.6332,38.5115,0.0],[26.6299,38.5174,0.0],[26.626,38.516,4.296],[26.6279,38.5182,0.1165],[26.6249,38.5201,1.2507],[26.6238,38.5257,7.1574],[26.6251,38.5265,0.0],[26.6251,38.5313,0.0],[26.6201,38.5304,20.8828],[26.6188,38.5321,0.0],[26.6176,38.5296,1.0814],[26.6132,38.5296,4.1735],[26.6074,38.5318,30.9077],[26.6029,38.5351,15.6902],[26.6018,38.539,0.0],[26.5999,38.5385,10.0932],[26.5996,38.5412,0.0],[26.5954,38.5412,3.406],[26.5921,38.5465,2.8939],[26.5854,38.5488,0.0],[26.579,38.5551,0.0],[26.5693,38.5596,4.141],[26.5679,38.5657,21.0309],[26.5699,38.5679,8.2901],[26.5668,38.5693,0.8638],[26.5676,38.5715,7.3238],[26.5657,38.5735,9.3495],[26.5671,38.5743,1.0864],[26.5679,38.581,0.6576],[26.5663,38.5815,3.834],[26.5674,38.5832,0.0],[26.5649,38.589,0.0],[26.5654,38.5921,0.0],[26.5624,38.5938,0.0],[26.5624,38.6026,0.0],[26.5593,38.6015,4.5327],[26.5571,38.6049,3.7146],[26.5507,38.6015,14.5743],[26.546,38.6074,0.0],[26.5451,38.6113,0.0],[26.5404,38.6149,16.7454],[26.5362,38.6232,0.0],[26.5324,38.6224,0.0],[26.5307,38.6238,11.87],[26.5332,38.6249,4.3383],[26.5326,38.6268,3.9844],[26.5232,38.6307,4.1321],[26.5254,38.634,0.0],[26.5218,38.6401,0.0],[26.5232,38.6418,1.3897],[26.5274,38.641,0.0],[26.5285,38.6421,0.0],[26.528199999999998,38.6443,0.0],[26.524,38.6471,2.842],[26.5235,38.6501,1.3161],[26.5204,38.651,0.0],[26.5187,38.6499,15.8914],[26.5171,38.6518,0.0],[26.5157,38.6479,0.3583],[26.5126,38.6474,6.1809],[26.509,38.6507,0.0],[26.5001,38.6543,0.7932],[26.4999,38.6576,0.0],[26.4926,38.6604,6.2466],[26.4915,38.664,0.0],[26.4893,38.6621,7.0461],[26.4893,38.664,0.0],[26.4854,38.6651,19.5893],[26.4854,38.6676,0.0],[26.4813,38.6688,13.1349],[26.4796,38.6718,20.4757],[26.4743,38.6751,12.8255],[26.465699999999998,38.6696,15.6227],[26.4549,38.6729,0.0],[26.4476,38.6718,9.8087],[26.4424,38.6738,0.0],[26.4379,38.6724,0.0],[26.4376,38.671,0.5049],[26.4321,38.6726,0.9589],[26.4268,38.6793,0.0],[26.4162,38.681,0.0],[26.409,38.6763,0.0],[26.4076,38.6735,34.228],[26.406,38.6738,0.0],[26.4043,38.6712,37.6619],[26.3974,38.6674,0.0],[26.3937,38.6679,1.3854],[26.3868,38.6654,7.5166],[26.3832,38.6671,0.0],[26.3793,38.664,21.9101],[26.369,38.6649,0.0],[26.3682,38.6624,1.8144],[26.3632,38.6615,4.5129],[26.3607,38.6599,0.0],[26.3585,38.6515,0.0],[26.3543,38.6468,0.0],[26.3529,38.6387,14.0416],[26.3563,38.6318,0.0],[26.3563,38.6251,0.0],[26.3579,38.6218,0.1746],[26.3568,38.6188,1.229],[26.3538,38.6168,0.0],[26.3563,38.6096,0.0],[26.3587,38.609,2.6992],[26.3599,38.6065,15.4329],[26.3596,38.5976,18.5133],[26.3621,38.5901,1.6833],[26.3624,38.5851,17.3013],[26.3607,38.5846,0.0],[26.3613,38.5824,18.0106],[26.3593,38.5812,8.4447],[26.359,38.5782,2.2695],[26.3604,38.5774,2.2695],[26.3604,38.5699,0.0],[26.3624,38.5674,0.065],[26.3599,38.5671,0.0],[26.3635,38.5621,5.4154],[26.3654,38.5626,8.1144],[26.3701,38.5604,0.4348],[26.371,38.5576,1.2564],[26.3685,38.5568,0.0],[26.3685,38.5554,0.0],[26.3749,38.5504,0.0],[26.3738,38.5474,0.0],[26.3807,38.544,3.1505],[26.3807,38.5235,3.24],[26.3785,38.5296,1.3086],[26.3796,38.5326,0.0],[26.3774,38.534,0.0],[26.3774,38.5368,0.0],[26.3757,38.5371,5.7048],[26.3768,38.5401,13.2545],[26.3751,38.5418,0.0],[26.3732,38.5393,2.8652],[26.3715,38.5299,0.0],[26.3757,38.5288,3.9257],[26.3771,38.5235,0.0],[26.3813,38.519,1.7642],[26.3849,38.5226,11.748],[26.3899,38.5218,4.0487],[26.3918,38.5193,8.765],[26.3896,38.5163,7.15],[26.3935,38.514,0.0],[26.3924,38.5096,0.0],[26.3946,38.5076,15.8788],[26.389,38.5065,0.0],[26.3893,38.5049,0.0],[26.3963,38.5035,0.0],[26.4007,38.5054,0.0],[26.4015,38.5018,0.0],[26.404,38.5015,34.7573],[26.403199999999998,38.4968,0.0],[26.4068,38.4982,5.6258],[26.4093,38.4949,0.0],[26.4121,38.4943,4.3338],[26.4118,38.4921,0.0],[26.4099,38.4921,0.0],[26.4046,38.4868,22.0158],[26.403199999999998,38.4821,0.0],[26.4043,38.4782,30.0547],[26.3988,38.4735,0.0],[26.3957,38.4668,7.339],[26.3921,38.4657,0.0],[26.391,38.4632,0.0],[26.3904,38.4576,0.0],[26.3929,38.4465,0.0],[26.4001,38.4454,0.0],[26.404,38.4504,0.0],[26.4049,38.4562,2.9294],[26.4093,38.4551,0.0],[26.4129,38.4568,0.0],[26.4143,38.4615,0.0],[26.416,38.4618,0.0],[26.4138,38.4646,11.8209],[26.4138,38.4688,12.5979],[26.416,38.4718,0.0],[26.4188,38.4726,1.7356],[26.4199,38.4763,1.1204],[26.4299,38.4776,0.106],[26.4379,38.4768,0.0],[26.4424,38.4754,2.1456],[26.449,38.4696,0.0],[26.4538,38.4688,16.7428],[26.4599,38.4635,0.0],[26.464,38.4635,13.1212],[26.4699,38.4574,3.8396],[26.4757,38.459,0.8597],[26.4893,38.4488,1.6129],[26.4946,38.4485,2.1842],[26.5018,38.4421,7.42],[26.5049,38.4365,1.3759],[26.5113,38.4324,1.2464],[26.5154,38.4315,0.6162],[26.516,38.4282,0.2864],[26.5107,38.426,0.0],[26.5099,38.4221,11.5959],[26.5118,38.4201,4.5785],[26.5071,38.4149,8.5457],[26.501,38.4151,3.5954],[26.5032,38.4107,12.2278],[26.5029,38.4063,23.1937],[26.4982,38.4046,0.0],[26.4962,38.4015,10.9522],[26.4901,38.401,3.4648],[26.4854,38.404,2.0079],[26.4863,38.409,0.0],[26.4835,38.4143,0.0],[26.4779,38.4176,2.8259],[26.4704,38.4263,0.4762],[26.4662,38.4271,0.0],[26.4629,38.424,2.8888],[26.4615,38.426,0.0],[26.4513,38.4282,2.4501],[26.4504,38.4238,0.2929],[26.4526,38.4199,0.0],[26.4557,38.4207,12.151],[26.4615,38.4179,0.0],[26.4621,38.4157,4.5759],[26.459,38.4096,0.0],[26.4621,38.4087,0.0],[26.4671,38.4124,7.6657],[26.4721,38.4068,0.0],[26.4726,38.4038,0.0],[26.4757,38.4015,0.0],[26.4743,38.396,5.3354],[26.4724,38.3943,0.0],[26.4743,38.3907,7.4867],[26.4729,38.3868,0.0],[26.4751,38.3812,0.2414],[26.4818,38.3779,0.0],[26.4824,38.376,1.5915],[26.4724,38.3732,0.1372],[26.4676,38.3649,0.7734],[26.4626,38.364,0.0],[26.4615,38.3587,6.1277],[26.456,38.3565,1.1845],[26.4557,38.354,2.6386],[26.4504,38.3521,0.0],[26.4518,38.3485,1.6826],[26.4504,38.3471,0.0],[26.4432,38.3482,1.5153],[26.4418,38.3443,1.3903],[26.4396,38.3432,8.9213],[26.4346,38.346,0.0],[26.4299,38.3407,2.0874],[26.4271,38.3418,3.0323],[26.4224,38.3379,0.8791],[26.4199,38.3393,0.0],[26.419,38.3357,1.0373],[26.4251,38.3363,1.2471],[26.4243,38.3335,2.442],[26.419,38.3307,1.1536],[26.4174,38.3335,1.8268],[26.4093,38.3321,0.0],[26.4079,38.3276,0.3143],[26.4046,38.3276,1.3772],[26.4018,38.3235,2.6265],[26.3979,38.3246,0.3667],[26.3954,38.3218,1.1574],[26.394,38.3232,0.0],[26.3951,38.329,17.7746],[26.4021,38.3326,0.6075],[26.3979,38.3413,0.0],[26.3935,38.3429,0.0],[26.3874,38.3368,4.6692],[26.3887,38.3451,0.0],[26.3876,38.3482,0.0],[26.3843,38.3488,0.0],[26.3826,38.3363,0.0],[26.384,38.3321,0.0],[26.3882,38.3315,7.5903],[26.3857,38.3282,17.1631],[26.3854,38.3221,0.0],[26.3829,38.3201,0.0],[26.3846,38.3151,3.0003],[26.3785,38.309,1.5876],[26.3637,38.3079,0.6628],[26.3585,38.3107,6.8574],[26.3618,38.3132,0.0],[26.3579,38.3146,0.0],[26.3532,38.314,0.4628],[26.3449,38.3193,0.3176],[26.346,38.3246,0.0],[26.3449,38.3343,0.0],[26.3415,38.3324,0.0],[26.340699999999998,38.3254,2.821],[26.3354,38.324,0.6486],[26.3257,38.3257,1.9536],[26.3188,38.3301,4.5679],[26.3168,38.3368,1.9959],[26.3118,38.339,3.5806],[26.3182,38.3407,0.0],[26.3157,38.3462,0.0],[26.3185,38.3476,8.5163],[26.3226,38.346,2.1643],[26.3215,38.3513,18.7611],[26.3249,38.3532,0.0],[26.3232,38.3574,0.0],[26.3171,38.3579,1.7294],[26.3165,38.3601,0.0],[26.3185,38.3599,0.0],[26.319,38.3624,0.6259],[26.3171,38.3646,0.0],[26.3146,38.3643,3.0874],[26.3157,38.3662,0.0],[26.3149,38.3699,12.3307],[26.3168,38.3737,0.0],[26.316,38.3763,0.0],[26.3126,38.3771,0.0],[26.3093,38.3751,6.4083],[26.3107,38.3704,9.8244],[26.3082,38.3671,5.6184],[26.3054,38.3676,0.9043],[26.3049,38.3643,0.8543],[26.3021,38.364,0.0],[26.3046,38.3574,0.0],[26.3026,38.3551,0.8197],[26.3001,38.3551,6.8965],[26.2968,38.3568,13.0728],[26.2965,38.3607,6.0981],[26.2885,38.3671,11.0052],[26.2846,38.3765,0.5734],[26.2843,38.3746,2.9714],[26.2826,38.3743,2.9714],[26.2843,38.361,1.9155],[26.2824,38.3513,0.0],[26.2851,38.3421,1.7314],[26.291,38.3382,13.7549],[26.2949,38.3288,8.2354],[26.3015,38.3249,1.6394],[26.3007,38.3226,0.0],[26.3026,38.3207,0.0],[26.301,38.3201,7.6713],[26.2999,38.3235,0.0],[26.2982,38.3224,0.0],[26.2965,38.3235,0.9108],[26.2862,38.3171,2.4391],[26.2837,38.3246,0.0],[26.281,38.3238,0.0],[26.279,38.3193,0.0],[26.2793,38.3118,0.0],[26.2826,38.3013,16.0856],[26.2796,38.2951,1.6897],[26.2718,38.2901,1.3683],[26.2596,38.2868,13.7081],[26.2554,38.2876,0.0],[26.2501,38.2846,2.3205],[26.2435,38.2893,0.0],[26.2451,38.2938,0.0],[26.2396,38.2954,5.6765],[26.2385,38.2932,4.6734],[26.2335,38.2943,0.0],[26.2318,38.2832,0.0],[26.2329,38.2776,0.0],[26.2315,38.2749,31.3884],[26.2301,38.2751,3.6367],[26.2301,38.2696,1.5298],[26.2315,38.2663,0.0],[26.2346,38.2643,0.0],[26.2415,38.2626,0.0],[26.2438,38.2629,0.0],[26.2457,38.2668,0.0],[26.2493,38.2682,1.8521],[26.2538,38.2676,0.0],[26.2571,38.2696,0.7903],[26.2726,38.2693,5.0672],[26.2754,38.2671,1.8694],[26.2854,38.2651,0.0],[26.2935,38.259,1.4119],[26.2979,38.2593,7.1545],[26.301,38.2571,10.2233],[26.3026,38.2549,0.0],[26.3015,38.2485,1.9203],[26.306,38.2471,3.3414],[26.3068,38.2401,0.0],[26.3126,38.2388,6.6182],[26.3238,38.2304,0.0],[26.3293,38.231,8.6034],[26.3312,38.2276,0.0],[26.3349,38.2257,2.8142],[26.3388,38.226,1.0038],[26.3426,38.2287,0.0],[26.3479,38.229,4.8412],[26.3546,38.2268,0.0],[26.3554,38.2293,0.6575],[26.3593,38.2276,0.0],[26.3613,38.2296,3.5082],[26.3632,38.2271,8.9619],[26.3668,38.2271,3.7277],[26.3685,38.2332,0.0],[26.374,38.2368,0.0],[26.374,38.2399,1.0466],[26.3782,38.241,0.0],[26.3796,38.2449,0.0],[26.3874,38.2474,0.0],[26.3857,38.2501,0.0],[26.3865,38.254,0.0],[26.3824,38.2568,0.8748],[26.3785,38.2629,0.1606],[26.3818,38.2601,0.0],[26.391,38.261,-0.014],[26.3921,38.2585,0.0],[26.4001,38.2524,8.1891],[26.4018,38.2449,0.0],[26.3996,38.2426,0.0],[26.4004,38.2396,0.1439],[26.3957,38.2418,3.689],[26.3899,38.2376,2.0442],[26.3915,38.2287,0.0],[26.389,38.2229,0.0],[26.3937,38.2215,1.3463],[26.4001,38.2165,0.0],[26.4024,38.2168,0.0],[26.4096,38.2132,0.0],[26.4112,38.2088,0.0],[26.4143,38.2101,2.7114],[26.4176,38.2057,0.0],[26.4215,38.2046,11.1606],[26.4229,38.2018,0.0],[26.4299,38.1982,0.0],[26.4313,38.199,0.0],[26.4299,38.2007,0.0],[26.4293,38.2082,0.0],[26.4246,38.2115,0.8384],[26.4196,38.2212,0.0155],[26.4296,38.2218,0.4416],[26.4324,38.219,0.0],[26.4418,38.2188,7.434],[26.444,38.2168,1.2702],[26.4393,38.2143,1.8702],[26.4393,38.2121,7.7903],[26.4468,38.209,3.3065],[26.4507,38.2093,1.0079],[26.4513,38.2024,4.2177],[26.4526,38.201,0.7255],[26.456,38.2021,0.0],[26.4585,38.2051,0.0],[26.4607,38.2051,0.0206],[26.4618,38.2032,2.6655],[26.4601,38.2004,9.2088]]],
[[[26.7713,38.2001,2.9186],[26.7685,38.2007,0.0],[26.7701,38.1979,0.0],[26.7721,38.1985,0.3262],[26.7713,38.2001,2.9186]]],
[[[26.6793,38.3324,3.8436],[26.6771,38.3338,0.0],[26.6743,38.3324,0.0],[26.6743,38.3293,0.0],[26.6787,38.3296,0.4849],[26.6793,38.3324,3.8436]]],
[[[26.7718,38.4099,13.9024],[26.7682,38.4104,12.1636],[26.7699,38.4043,0.0],[26.7738,38.4074,0.5074],[26.7718,38.4099,13.9024]]],
[[[26.2099,38.296,11.9375],[26.2071,38.2979,0.0],[26.2082,38.2921,0.0],[26.2107,38.2904,0.0],[26.2113,38.2929,0.0],[26.2099,38.296,11.9375]]],
[[[26.4549,38.3676,2.2217],[26.4496,38.3676,1.0719],[26.4463,38.3638,0.0],[26.4529,38.359,0.0],[26.4557,38.3593,0.0],[26.4579,38.3607,0.0],[26.4579,38.3632,0.0],[26.4549,38.3676,2.2217]]],
[[[26.4674,38.381,0.0],[26.465699999999998,38.3818,0.0],[26.4615,38.3743,0.0],[26.4668,38.3754,0.0],[26.4674,38.381,0.0]]],
[[[26.4501,38.3896,0.0],[26.4476,38.3896,4.5172],[26.449,38.3857,2.0408],[26.451,38.3874,4.6344],[26.4501,38.3896,0.0]]],
[[[26.4493,38.3926,0.0],[26.4496,38.3949,0.0],[26.4485,38.3949,1.3746],[26.4465,38.3913,0.0],[26.4482,38.3913,0.0],[26.4493,38.3926,0.0]]],
[[[26.465699999999998,38.4015,0.0],[26.4626,38.4021,0.0],[26.4615,38.3968,0.0],[26.4646,38.3868,0.0],[26.4674,38.3874,3.3053],[26.4685,38.3904,0.0],[26.466,38.3954,0.0],[26.465699999999998,38.4015,0.0]]],
[[[26.469,38.3954,0.0],[26.4696,38.4004,2.7179],[26.4682,38.4004,2.7179],[26.4671,38.3968,0.0],[26.469,38.3954,0.0]]],
[[[26.4926,38.4043,0.0],[26.4915,38.4054,0.4665],[26.4899,38.4049,0.0],[26.4904,38.4035,0.0],[26.4926,38.4043,0.0]]],
[[[26.8565,38.0451,6.0651],[26.856,38.0465,11.6131],[26.8538,38.0454,0.0],[26.8546,38.0443,6.0651],[26.8565,38.0451,6.0651]]],
[[[26.8035,38.151,0.0],[26.804,38.1521,0.0],[26.8037,38.1532,0.0],[26.8021,38.1493,0.0],[26.8035,38.151,0.0]]],
[[[26.8049,38.1607,2.1027],[26.806,38.1629,0.4105],[26.8024,38.1626,0.0],[26.8007,38.1574,0.0],[26.8026,38.1576,3.9109],[26.8049,38.1607,2.1027]]],
[[[26.9743,38.4382,0.0],[26.9743,38.4421,0.0],[26.9724,38.4424,-0.1273],[26.9713,38.4407,-0.045],[26.9721,38.4374,0.2982],[26.9707,38.4357,-0.0382],[26.9685,38.436,0.0054],[26.9721,38.4343,0.0],[26.9743,38.4382,0.0]]],
[[[26.9246,38.4468,0.0],[26.9226,38.4482,0.0],[26.9238,38.4457,0.0],[26.9276,38.4449,0.0],[26.9268,38.4468,0.0],[26.9246,38.4468,0.0]]],
[[[26.7904,38.3768,6.8539],[26.7871,38.3776,1.7475],[26.7846,38.3757,0.0],[26.7854,38.3735,1.6051],[26.7829,38.371,4.4561],[26.7832,38.3674,2.5582],[26.7879,38.3704,0.0],[26.7899,38.3746,3.1579],[26.7921,38.3749,0.0],[26.7904,38.3768,6.8539]]],
[[[26.7915,38.3988,0.0],[26.7893,38.3999,4.179],[26.7865,38.3985,0.0],[26.7838,38.3943,0.7693],[26.786,38.3929,0.0],[26.7921,38.3954,0.0],[26.7915,38.3988,0.0]]],
[[[26.7971,38.4132,0.0],[26.7965,38.4151,13.6771],[26.7938,38.4143,2.0053],[26.7921,38.4107,0.0],[26.7932,38.4065,0.0],[26.7993,38.4074,0.0],[26.7971,38.4132,0.0]]],
[[[26.8532,38.5337,0.0],[26.8504,38.5346,0.0],[26.849,38.5346,0.0],[26.8546,38.5326,0.0],[26.8532,38.5337,0.0]]],
[[[26.8629,38.5343,0.0],[26.8613,38.5351,0.0],[26.8613,38.5337,0.0],[26.859,38.5337,0.0],[26.8596,38.5365,0.0],[26.8579,38.5337,0.0],[26.8635,38.5332,0.0],[26.8629,38.5343,0.0]]],
[[[26.8196,38.5435,0.0],[26.8185,38.5457,0.0],[26.821,38.5488,0.0],[26.814,38.5446,0.0],[26.8185,38.5374,-0.0193],[26.826,38.5315,0.0],[26.8276,38.5335,0.0],[26.8243,38.5357,0.0],[26.8263,38.5382,0.0],[26.8246,38.5374,0.0],[26.8243,38.5401,0.0],[26.8215,38.5401,0.0],[26.8196,38.5435,0.0]]],
[[[26.884,38.8554,10.6043],[26.8826,38.8565,0.0],[26.8762,38.8521,0.0],[26.8762,38.8474,0.0],[26.8793,38.8465,0.0],[26.8799,38.8482,0.0],[26.8824,38.8479,2.1201],[26.8824,38.8462,0.0],[26.8846,38.8457,2.9066],[26.8876,38.8476,0.0],[26.8879,38.8535,0.0],[26.884,38.8554,10.6043]]],
[[[26.3093,38.4215,0.0],[26.3079,38.4235,2.2312],[26.3085,38.4174,1.0018],[26.3101,38.4149,0.0],[26.3135,38.4143,0.4636],[26.3154,38.416,14.6284],[26.3151,38.4179,10.7105],[26.3096,38.4182,4.9476],[26.3093,38.4215,0.0]]],
[[[26.3874,38.4351,8.2368],[26.3838,38.4362,0.0],[26.3815,38.4351,10.9765],[26.3818,38.4332,19.5999],[26.3735,38.4318,10.1693],[26.3729,38.4271,0.0],[26.3757,38.4274,9.8374],[26.3762,38.4249,0.0],[26.3796,38.4257,27.2955],[26.3813,38.4235,0.0],[26.3854,38.4221,2.3872],[26.3896,38.4221,0.0],[26.3896,38.4254,0.0],[26.3854,38.4307,47.7695],[26.3882,38.4329,0.0],[26.3874,38.4351,8.2368]]],
[[[26.3718,38.4365,2.7771],[26.3674,38.4374,3.4554],[26.3665,38.4296,0.0],[26.3682,38.4271,1.8505],[26.374,38.434,0.0],[26.3718,38.4365,2.7771]]],
[[[26.3607,38.4554,5.141],[26.3493,38.4549,0.0],[26.3415,38.4474,0.0],[26.3368,38.4454,42.4546],[26.3315,38.4457,0.0],[26.3285,38.444,1.3435],[26.3276,38.4415,5.745],[26.3251,38.4413,0.8365],[26.3254,38.4376,1.6831],[26.3276,38.4374,6.8781],[26.3293,38.4343,0.0],[26.3268,38.4285,1.5052],[26.3315,38.4226,0.0],[26.3357,38.4229,1.1384],[26.3346,38.4285,0.0],[26.3371,38.4276,2.1117],[26.339,38.4229,0.0],[26.3412,38.4307,18.5888],[26.3457,38.4271,8.123],[26.3476,38.4304,10.4407],[26.3493,38.4299,0.0],[26.3513,38.4318,15.8168],[26.349,38.4276,0.0],[26.3532,38.4249,0.0],[26.3574,38.4282,0.9146],[26.3579,38.4304,17.1101],[26.3557,38.4335,14.3588],[26.3587,38.4346,0.0],[26.3574,38.4371,12.123],[26.3582,38.4407,36.7763],[26.3613,38.4396,0.0],[26.3635,38.4443,0.0],[26.3621,38.4485,4.3411],[26.3601,38.4485,33.3328],[26.3615,38.4524,0.0],[26.3607,38.4554,5.141]]],
[[[26.7838,38.4168,7.5692],[26.7815,38.4182,5.4239],[26.7804,38.416,0.0],[26.7851,38.4146,0.0],[26.7854,38.4162,0.0],[26.7838,38.4168,7.5692]]],
[[[26.7687,38.4546,0.0],[26.7668,38.4554,19.8861],[26.7593,38.4526,0.0],[26.7582,38.4399,0.8913],[26.7632,38.4351,0.0],[26.7657,38.4351,0.0],[26.7679,38.4376,12.42],[26.7763,38.441,7.1674],[26.7749,38.4465,0.0],[26.7718,38.4482,7.345],[26.7732,38.4532,0.0],[26.7687,38.4546,0.0]]],
[[[26.7001,38.546,5.3325],[26.6974,38.5471,0.0],[26.7007,38.5404,0.0],[26.7032,38.5404,1.2104],[26.7062,38.5374,0.0],[26.7062,38.5354,0.6851],[26.7015,38.5324,0.0],[26.7024,38.5215,1.2598],[26.6988,38.519,0.0],[26.6949,38.5196,3.1615],[26.6954,38.516,0.9732],[26.6935,38.5115,0.0],[26.6954,38.5071,1.4024],[26.6926,38.4968,0.6696],[26.6949,38.4888,1.259],[26.6943,38.4796,7.7528],[26.701,38.4746,0.0],[26.7035,38.4754,0.0],[26.704,38.4785,0.3014],[26.7062,38.4785,0.0],[26.7115,38.4776,8.0462],[26.7118,38.4751,0.0],[26.714,38.4771,3.7974],[26.7149,38.4743,4.9323],[26.719,38.4724,8.0426],[26.7249,38.471,0.0],[26.7271,38.4721,8.4094],[26.7279,38.4699,6.6766],[26.7237,38.4618,4.7255],[26.7213,38.4618,0.0],[26.721,38.4604,0.0],[26.7332,38.4585,0.0],[26.7368,38.4604,0.0],[26.7393,38.4585,0.0],[26.7424,38.4588,2.333],[26.7449,38.4668,6.8736],[26.7468,38.4674,0.1086],[26.7479,38.4701,0.0],[26.7479,38.4774,0.7496],[26.7496,38.4818,4.133],[26.7451,38.4854,24.0697],[26.7426,38.4901,2.5063],[26.7432,38.4918,2.3864],[26.7451,38.4918,0.0],[26.7446,38.4932,4.9196],[26.7376,38.4921,0.0],[26.7343,38.4932,2.2486],[26.731,38.4968,6.7567],[26.731,38.5107,8.8372],[26.7351,38.5151,3.355],[26.7315,38.516,0.1994],[26.7313,38.5201,0.0],[26.7285,38.5218,0.3001],[26.7301,38.5268,0.0],[26.7293,38.5299,0.0],[26.7276,38.5324,0.0],[26.7215,38.5335,12.8349],[26.7218,38.5357,0.0],[26.7188,38.536,5.4003],[26.7154,38.5415,0.0],[26.7054,38.5432,0.8313],[26.7043,38.5412,1.3311],[26.701,38.5435,0.0],[26.7001,38.546,5.3325]]],
[[[26.5232,38.6529,0.6575],[26.5213,38.654,0.0],[26.5268,38.6499,0.0],[26.5249,38.6524,0.9495],[26.5232,38.6529,0.6575]]],
[[[26.519,38.6593,4.2061],[26.5187,38.6635,1.4727],[26.5168,38.6635,0.0],[26.5104,38.6576,0.0],[26.5132,38.6563,2.3439],[26.5182,38.6568,0.0],[26.5199,38.6579,0.0],[26.519,38.6593,4.2061]]],
[[[26.7268,38.676,9.7715],[26.7246,38.6768,0.8322],[26.7232,38.6746,1.9716],[26.7279,38.6701,0.0],[26.7296,38.674,0.0],[26.7268,38.676,9.7715]]],
[[[26.7185,38.6763,2.9297],[26.7182,38.6782,2.9968],[26.715699999999998,38.6779,1.1394],[26.7112,38.6746,9.6157],[26.7135,38.6732,0.0],[26.7185,38.6763,2.9297]]],
[[[26.8835,38.0235,-0.0769],[26.8807,38.0238,0.0],[26.8807,38.0204,0.0],[26.8849,38.0218,0.7766],[26.8835,38.0235,-0.0769]]],
[[[27.0143,38.044,6.5252],[27.014,38.0457,0.0],[27.0118,38.0449,0.0],[27.0129,38.0432,0.0],[27.0143,38.044,6.5252]]],
[[[26.7104,38.701,6.5212],[26.709,38.7029,0.0],[26.7074,38.6988,0.0],[26.7088,38.6918,0.0],[26.7115,38.6926,18.0507],[26.7201,38.6871,12.2819],[26.7229,38.6868,0.0],[26.7257,38.6907,2.7967],[26.7251,38.6932,0.9001],[26.7171,38.6935,16.9993],[26.7104,38.701,6.5212]]],
[[[26.7099,38.7157,0.0],[26.7088,38.7165,0.0],[26.7079,38.711,0.0],[26.7099,38.7135,5.5993],[26.7099,38.7157,0.0]]],
[[[26.7332,38.7318,0.0],[26.7343,38.7318,0.0],[26.7346,38.7337,7.3195],[26.7318,38.7332,0.0],[26.7332,38.7318,0.0]]],
[[[26.7882,39.0107,3.4662],[26.7862,39.0124,0.0],[26.7821,39.0113,0.7126],[26.7804,39.0088,0.0],[26.7835,39.0074,13.2318],[26.784,39.0001,0.0],[26.7868,39.0021,0.0],[26.7885,39.006,7.8316],[26.7882,39.0107,3.4662]]],
[[[26.8349,38.9076,0.0],[26.8326,38.9087,1.1545],[26.8326,38.9043,24.7736],[26.8363,38.9012,3.223],[26.839,38.901,1.8432],[26.8393,38.904,2.8427],[26.8349,38.9076,0.0]]],
[[[26.8126,38.926,4.9119],[26.8107,38.9276,0.0],[26.8071,38.9271,0.0],[26.8068,38.9235,0.0],[26.8118,38.9226,0.0],[26.8107,38.9193,0.0],[26.8063,38.9171,0.0],[26.811,38.9138,0.0],[26.8146,38.9149,0.0],[26.8179,38.9113,2.5225],[26.8224,38.911,3.0488],[26.8218,38.914,12.8279],[26.8265,38.9165,0.0],[26.8257,38.9229,1.1578],[26.8163,38.9224,0.0],[26.8126,38.926,4.9119]]],
[[[26.8051,38.9365,0.4966],[26.8035,38.9376,0.0],[26.8046,38.934,0.0],[26.8065,38.934,2.5818],[26.8065,38.9351,2.5818],[26.8051,38.9365,0.4966]]],
[[[26.7993,39.0101,0.0],[26.7968,39.0113,0.0],[26.7929,39.0085,6.9822],[26.7935,39.0051,3.4614],[26.791,39.0004,19.1193],[26.7918,38.9965,0.0],[26.7949,38.9957,0.0],[26.7965,38.9974,18.6837],[26.7954,39.0015,3.7398],[26.7993,39.0101,0.0]]],
[[[26.8937,38.8649,0.0],[26.8924,38.8665,1.6785],[26.8913,38.8624,0.0],[26.8929,38.8624,7.6136],[26.8937,38.8649,0.0]]],
[[[27.0401,38.8857,0.3486],[27.0382,38.8843,1.2552],[27.0413,38.8846,1.3874],[27.0413,38.8865,0.3486],[27.0401,38.8857,0.3486]]]]}}