{"type": "Feature","bbox": [36.7734,40.1534,37.4717,40.428],"geometry": {"type": "MultiPolygon","coordinates": [[[[37.4717,40.2382,1712.0792],[37.4445,40.2449,1957.6287],[37.4095,40.2486,1526.9485],[37.3806,40.2569,1085.657],[37.3343,40.2601,1135.7169],[37.3127,40.2669,1129.1172],[37.2891,40.2717,1343.6235],[37.2762,40.2774,1072.1206],[37.2477,40.2976,1004.0775],[37.2342,40.3033,1023.1915],[37.2102,40.3053,902.2661],[37.1407,40.3043,881.0005],[37.1268,40.3069,905.7261],[37.1202,40.3132,809.5526],[37.118,40.324,951.8767],[37.1193,40.3481,1059.894],[37.1243,40.3676,1517.7023],[37.0904,40.377,1307.1719],[37.043,40.3957,1378.3906],[36.9855,40.4007,1021.3703],[36.9523,40.4131,1164.1035],[36.9225,40.428,998.6376],[36.909,40.4057,791.5],[36.9018,40.4005,925.8237],[36.8912,40.3985,1072.6733],[36.8446,40.3972,1487.8676],[36.8381,40.3948,1584.1772],[36.8322,40.3893,1655.1964],[36.8207,40.3713,1199.411],[36.8154,40.3413,1286.8193],[36.7796,40.2857,1217.8495],[36.7757,40.2781,1301.6349],[36.7734,40.2625,1093.3538],[36.7736,40.2238,1495.1084],[36.7886,40.2121,1580.4122],[36.85,40.2122,1709.2354],[36.8737,40.2103,1762.05],[36.8989,40.2026,1541.1848],[36.9372,40.1976,1934.3389],[36.9679,40.1822,2040.6702],[36.997,40.197,1819.4956],[37.0568,40.2204,1662.2246],[37.0668,40.2226,1722.019],[37.0775,40.2229,1850.5104],[37.091,40.2204,1714.542],[37.135,40.2022,1719.1692],[37.1688,40.1902,1791.3066],[37.2304,40.1872,1621.6083],[37.2664,40.1777,1588.9609],[37.3205,40.1756,1401.73],[37.349,40.1672,1060.9082],[37.3843,40.1631,1345.2228],[37.4089,40.1554,1591.6575],[37.4342,40.1534,2250.0857],[37.4376,40.1639,1816.4019],[37.4468,40.1807,1720.8026],[37.4528,40.2105,1922.8918],[37.4717,40.2382,1712.0792]]]]}
,"properties": {"GID_2": "TUR.74.1_1","GID_0": "TUR","country": "Turkey","GID_1": "TUR.74_1","province": "Tokat","NL_NAME_1": "NA","county": "Almus","VARNAME_2": "NA","NL_NAME_2": "NA","TYPE_2": "District","ENGTYPE_2": "District","CC_2": "NA","HASC_2": "TR.TT.AL","name": "Almus.county","area_km2": 900.7111,"hist_schema_id": "Elevation0-9000","hist_area_km2": {"800": 39.177,"825": 14.3485,"850": 17.6151,"875": 19.0227,"900": 19.6371,"925": 19.2976,"950": 19.3143,"975": 20.0915,"1000": 20.6912,"1025": 23.2797,"1050": 24.6897,"1075": 22.5705,"1100": 23.024,"1125": 21.8461,"1150": 21.8156,"1175": 20.8787,"1200": 21.0424,"1225": 20.5414,"1250": 19.507,"1275": 19.2499,"1300": 19.5258,"1325": 19.4619,"1350": 19.544,"1375": 19.9496,"1400": 19.9669,"1425": 19.0616,"1450": 19.5317,"1475": 19.2738,"1500": 18.4012,"1525": 18.8228,"1550": 18.6776,"1575": 18.6619,"1600": 18.7603,"1625": 17.5949,"1650": 17.4335,"1675": 17.4822,"1700": 16.4627,"1725": 17.1751,"1750": 16.2685,"1775": 14.6338,"1800": 14.0834,"1825": 13.0799,"1850": 11.4127,"1875": 10.6682,"1900": 9.2925,"1925": 8.4834,"1950": 6.7833,"1975": 6.0227,"2000": 5.0677,"2025": 4.8736,"2050": 3.789,"2075": 2.8984,"2100": 2.0728,"2125": 2.1052,"2150": 1.7327,"2175": 1.2145,"2200": 0.7449,"2225": 0.421,"2250": 0.3886,"2275": 0.34,"2300": 0.3238,"2325": 0.2915,"2350": 0.1943,"2375": 0.0486,"2400": 0.0486}}}