{"type": "Feature","bbox": [29.0546,40.9362,29.1962,40.9978],"geometry": {"type": "MultiPolygon","coordinates": [[[[29.0981,40.9786,68.9896],[29.0859,40.9774,65.6108],[29.0546,40.9657,8.0943],[29.0568,40.9635,0.0],[29.0621,40.9621,6.3355],[29.0699,40.9621,10.2574],[29.0718,40.9571,1.4641],[29.0768,40.9576,7.0537],[29.0829,40.9529,0.3073],[29.0876,40.954,3.878],[29.0899,40.951,0.8775],[29.0971,40.9501,0.337],[29.1032,40.9429,0.0],[29.109,40.9415,0.5916],[29.1126,40.9362,2.1015],[29.1171,40.9379,19.6499],[29.1285,40.9367,33.3851],[29.1591,40.9445,200.5313],[29.1836,40.9451,254.0403],[29.1836,40.9511,264.3866],[29.1914,40.9655,204.1953],[29.1962,40.9692,201.2253],[29.1932,40.9924,157.6076],[29.1866,40.993,160.1874],[29.1812,40.9954,144.573],[29.1639,40.993,146.6614],[29.1573,40.9966,138.7845],[29.1435,40.9978,127.7288],[29.1405,40.9912,102.3894],[29.1153,40.9912,93.0068],[29.1099,40.987,61.3011],[29.1045,40.9792,72.3813],[29.0981,40.9786,68.9896]]]]}
,"properties": {"GID_2": "TUR.40.27_1","GID_0": "TUR","country": "Turkey","GID_1": "TUR.40_1","province": "Istanbul","NL_NAME_1": "NA","county": "Maltepe","VARNAME_2": "NA","NL_NAME_2": "NA","TYPE_2": "District","ENGTYPE_2": "District","CC_2": "NA","HASC_2": "TR.IB.MA","name": "Maltepe.county","area_km2": 50.09364,"hist_schema_id": "Elevation0-9000","hist_area_km2": {"0": 2.16179,"25": 5.6524,"50": 6.4525,"75": 5.79546,"100": 4.93044,"125": 4.64191,"150": 4.3057,"175": 4.14582,"200": 3.3619,"225": 2.81785,"250": 2.0654,"275": 1.505,"300": 1.00869,"325": 0.48032,"350": 0.33623,"375": 0.20812,"400": 0.1761,"425": 0.04803}}}