{"type":"Feature","properties":{"GID_2":"TUR.52.5_1","GID_0":"TUR","country":"Turkey","GID_1":"TUR.52_1","province":"Kocaeli","NL_NAME_1":"NA","county":"Karamürsel","VARNAME_2":"NA","NL_NAME_2":"NA","TYPE_2":"District","ENGTYPE_2":"District","CC_2":"NA","HASC_2":"TR.KC.KM","name":"Karamürsel.county"},
"geometry":{"type": "MultiPolygon","coordinates": [[[[29.7073,40.5971,625.0875],[29.6989,40.6324,549.3905],[29.6899,40.6492,814.9258],[29.6874,40.6584,804.7642],[29.6862,40.6778,574.5635],[29.6872,40.7054,7.2658],[29.6835,40.7054,17.7109],[29.6796,40.7026,4.5135],[29.6701,40.7032,4.5793],[29.6649,40.7051,0.5026],[29.661,40.7024,0.0],[29.6535,40.7012,0.9269],[29.6476,40.6968,6.1482],[29.6418,40.6949,50.2412],[29.6179,40.6965,0.0],[29.6129,40.6937,7.8793],[29.5954,40.6921,0.0],[29.5849,40.6879,18.497],[29.5776,40.6899,0.0],[29.5657,40.6868,4.8912],[29.5565,40.6865,2.474],[29.5493,40.6926,1.9275],[29.5321,40.7143,0.0],[29.5293,40.7132,1.4482],[29.526,40.7146,0.1806],[29.5179,40.7121,0.0],[29.5074,40.7174,0.0],[29.5088,40.7204,0.0],[29.5149,40.7221,6.6932],[29.5157,40.7249,0.1144],[29.5182,40.7246,0.1084],[29.519,40.7215,0.0],[29.5215,40.7207,0.0],[29.5179,40.7268,0.2923],[29.5146,40.7412,0.0],[29.5101,40.7337,1.1686],[29.5004,40.7254,2.2798],[29.4813,40.7179,1.0796],[29.4707,40.7082,0.6092],[29.4699,40.7026,1.0878],[29.464,40.6974,2.5294],[29.4593,40.6951,3.1723],[29.4515,40.6954,1.3842],[29.4426,40.6921,0.0],[29.4329,40.6794,135.4288],[29.4306,40.6642,96.8617],[29.431,40.5603,374.4225],[29.4526,40.5552,500.6991],[29.5529,40.555,344.2551],[29.5763,40.5568,520.916],[29.5978,40.5638,498.5492],[29.6249,40.5692,649.663],[29.6725,40.5877,638.1434],[29.7073,40.5971,625.0875]]]]}}