{"type": "Feature","bbox": [39.8798,37.1232,40.4733,37.5891],"geometry": {"type": "MultiPolygon","coordinates": [[[[39.8814,37.5563,1428.1031],[39.8798,37.5439,1366.599],[39.8836,37.529,1286.5759],[39.8897,37.5262,1264.0659],[39.9031,37.5081,1141.1052],[39.9095,37.4868,1044.9349],[39.9178,37.4729,1012.8364],[39.9233,37.4543,940.3583],[39.9326,37.4379,874.5404],[39.9405,37.4144,823.4259],[40.0661,37.219,475.3195],[40.0752,37.1931,473.3488],[40.1123,37.1359,438.9759],[40.118,37.1232,436.5188],[40.1409,37.1264,449.1475],[40.1691,37.135,433.0909],[40.2385,37.1368,454.5209],[40.2494,37.1387,450.8229],[40.274,37.1463,459.4896],[40.3176,37.1487,466.7271],[40.3517,37.1601,459.8376],[40.3671,37.1683,471.0932],[40.3961,37.1886,471.2689],[40.4211,37.1993,480.9174],[40.4323,37.2069,481.7578],[40.4417,37.2158,486.3696],[40.4703,37.2599,560.6655],[40.4733,37.27,605.279],[40.4724,37.275,635.9773],[40.4652,37.2884,683.5283],[40.4626,37.297,743.8223],[40.4611,37.3273,1077.6097],[40.433,37.3418,1049.8391],[40.3996,37.3491,1075.9342],[40.3692,37.36,1104.2761],[40.3482,37.3705,1050.3793],[40.343,37.3764,1066.3884],[40.3379,37.391,1078.2681],[40.3223,37.4171,1040.7168],[40.3048,37.432,1060.8035],[40.2916,37.4374,1074.2341],[40.2804,37.4388,1049.3762],[40.2146,37.4394,1075.0258],[40.2012,37.4429,1064.7159],[40.1809,37.4538,896.1866],[40.1781,37.4582,924.9346],[40.172,37.4838,1010.3528],[40.1646,37.4915,1044.8323],[40.1519,37.4996,955.5811],[40.15,37.5062,946.0703],[40.1552,37.5143,905.574],[40.1717,37.5237,943.377],[40.1755,37.5273,929.9215],[40.187,37.5423,883.3727],[40.1916,37.5552,856.4233],[40.2066,37.5669,892.101],[40.1959,37.5734,846.6141],[40.172,37.5805,859.1991],[40.1433,37.5797,880.9691],[40.1329,37.5815,888.3116],[40.112,37.5884,896.3559],[40.0945,37.5891,903.501],[40.0845,37.587,909.8711],[40.0577,37.5764,943.8805],[40.0315,37.5608,990.1555],[40.0173,37.5563,1002.6184],[39.9927,37.555,1062.6759],[39.8814,37.5563,1428.1031]]]]}
,"properties": {"GID_2": "TUR.57.2_1","GID_0": "TUR","country": "Turkey","GID_1": "TUR.57_1","province": "Mardin","NL_NAME_1": "NA","county": "Derik","VARNAME_2": "NA","NL_NAME_2": "NA","TYPE_2": "District","ENGTYPE_2": "District","CC_2": "NA","HASC_2": "TR.MR.DE","name": "Derik.county","area_km2": 1480.07,"hist_schema_id": "Elevation0-9000","hist_area_km2": {"425": 2.484,"450": 103.322,"475": 146.889,"500": 106.359,"525": 80.389,"550": 76.993,"575": 53.125,"600": 47.48,"625": 43.023,"650": 47.38,"675": 49.66,"700": 49.468,"725": 41.057,"750": 34.265,"775": 32.224,"800": 30.267,"825": 29.524,"850": 37.917,"875": 52.344,"900": 61.642,"925": 60.609,"950": 45.24,"975": 33.518,"1000": 26.234,"1025": 19.54,"1050": 19.917,"1075": 28.394,"1100": 30.315,"1125": 27.32,"1150": 19.724,"1175": 12.835,"1200": 10.207,"1225": 6.162,"1250": 3.263,"1275": 2.506,"1300": 2.035,"1325": 1.664,"1350": 2.219,"1375": 1.664,"1400": 0.79,"1425": 0.101}}}