{"type":"Feature","properties":{"GID_2":"TUR.44.2_1","GID_0":"TUR","country":"Turkey","GID_1":"TUR.44_1","province":"Karaman","NL_NAME_1":"NA","county":"Başyayla","VARNAME_2":"NA","NL_NAME_2":"NA","TYPE_2":"District","ENGTYPE_2":"District","CC_2":"NA","HASC_2":"TR.KR.BA","name":"Başyayla.county"},
"geometry":{"type": "MultiPolygon","coordinates": [[[[32.6664,36.8157,1793.7987],[32.6466,36.8104,1868.3917],[32.608,36.7846,1839.9132],[32.5774,36.7784,1929.9487],[32.5528,36.7699,1921.0449],[32.5628,36.7614,1983.2437],[32.5776,36.7542,1908.267],[32.5846,36.749,1894.3562],[32.5977,36.731,1893.9709],[32.6164,36.7123,1976.5226],[32.6255,36.698,1592.3494],[32.6415,36.6833,2022.7794],[32.6901,36.645,1590.7471],[32.7031,36.6368,1641.5049],[32.7115,36.6346,1576.8546],[32.7307,36.6387,1305.0591],[32.7392,36.636,1343.1532],[32.7545,36.6173,1296.698],[32.7627,36.6021,1288.1365],[32.806,36.6157,1220.1948],[32.8411,36.6184,682.0],[32.8496,36.6219,827.1977],[32.8535,36.6255,956.5844],[32.8555,36.6299,1021.6808],[32.8547,36.6344,1048.3813],[32.8061,36.7097,1544.7764],[32.7995,36.7303,1291.626],[32.7947,36.7371,1089.5504],[32.7849,36.7438,1078.3165],[32.7668,36.7511,1286.4797],[32.7501,36.7622,1362.8395],[32.7353,36.7749,1665.8195],[32.7237,36.7913,1721.2747],[32.7152,36.7988,1732.0605],[32.7064,36.8025,1782.6887],[32.6831,36.8071,1749.7023],[32.6664,36.8157,1793.7987]]]]}}