{"type":"Feature","properties":{"GID_2":"TUR.32.13_1","GID_0":"TUR","country":"Turkey","GID_1":"TUR.32_1","province":"Eskisehir","NL_NAME_1":"NA","county":"Sivrihisar","VARNAME_2":"NA","NL_NAME_2":"NA","TYPE_2":"District","ENGTYPE_2":"District","CC_2":"NA","HASC_2":"TR.ES.SI","name":"Sivrihisar.county"},
"geometry":{"type": "MultiPolygon","coordinates": [[[[31.6969,39.0931,893.9176],[31.7482,39.0758,851.686],[31.766,39.0763,844.1354],[31.7997,39.0881,829.7874],[31.8291,39.1,819.2029],[31.8389,39.1068,838.7874],[31.8438,39.1136,846.3309],[31.8496,39.1318,924.0547],[31.8584,39.1483,919.2845],[31.86,39.1566,939.0602],[31.8607,39.168,938.2194],[31.844,39.1714,773.1896],[31.8219,39.181,806.3561],[31.8156,39.1864,826.1704],[31.8062,39.1991,915.442],[31.8012,39.2129,968.5161],[31.8005,39.2448,1148.8254],[31.7985,39.2572,1267.8076],[31.7754,39.2947,1374.6174],[31.7721,39.3031,1243.7809],[31.7705,39.3222,1174.4535],[31.771,39.4659,890.2184],[31.7689,39.4784,888.0427],[31.7577,39.501,856.2228],[31.7558,39.5167,904.511],[31.7561,39.536,840.5352],[31.7575,39.5453,806.9799],[31.7608,39.5537,781.2437],[31.7989,39.6113,812.0052],[31.8018,39.6222,814.5173],[31.8018,39.6335,783.507],[31.7999,39.6418,758.2815],[31.7951,39.6495,729.3137],[31.7769,39.6675,692.4512],[31.7687,39.6792,688.6378],[31.7445,39.6973,745.035],[31.7333,39.7155,789.8348],[31.7085,39.7156,739.5363],[31.6953,39.7189,724.1248],[31.6859,39.7261,756.0413],[31.6773,39.7403,788.3886],[31.6689,39.7493,943.2947],[31.6556,39.757,808.1978],[31.649,39.7569,806.63],[31.6397,39.7512,776.4642],[31.6151,39.7115,854.4249],[31.5997,39.6988,835.7415],[31.5875,39.6927,889.6302],[31.5634,39.6837,965.9726],[31.5527,39.6813,1013.3636],[31.4381,39.6791,889.7173],[31.4212,39.6753,864.2661],[31.4193,39.672,956.5198],[31.4155,39.6701,957.9312],[31.3979,39.6663,922.9792],[31.3497,39.6484,894.3864],[31.3078,39.643,933.4866],[31.2953,39.6354,926.2396],[31.2865,39.626,942.7548],[31.2679,39.6153,964.5521],[31.2295,39.588,1115.2732],[31.2184,39.5752,1155.7756],[31.2025,39.549,1076.925],[31.2013,39.5295,1023.2992],[31.2087,39.5063,1007.3838],[31.204,39.4979,976.4417],[31.1931,39.4886,942.957],[31.2145,39.4721,937.3662],[31.2261,39.461,918.2936],[31.2631,39.4021,877.5897],[31.2714,39.393,866.1615],[31.2978,39.3732,842.869],[31.3315,39.3578,860.6065],[31.3419,39.3495,855.284],[31.3477,39.3421,857.9372],[31.3505,39.3339,842.8848],[31.3517,39.3196,850.7502],[31.3514,39.3026,865.1057],[31.3489,39.2925,851.2792],[31.3431,39.2868,838.5013],[31.322,39.2816,830.1644],[31.3053,39.2732,829.4359],[31.3062,39.259,835.7278],[31.3097,39.2485,845.0093],[31.3604,39.1696,914.1765],[31.3681,39.146,918.7846],[31.3864,39.1187,875.6788],[31.3964,39.1121,922.4827],[31.4258,39.1002,940.9781],[31.4531,39.0901,928.8862],[31.4713,39.0867,906.5836],[31.5064,39.0877,894.4117],[31.5351,39.0966,892.2117],[31.5546,39.0984,891.5111],[31.6681,39.0982,923.3339],[31.6846,39.0968,898.1367],[31.6969,39.0931,893.9176]]]]}}