{"type": "Feature","bbox": [32.9045,36.0696,33.2213,36.4118],"geometry": {"type": "MultiPolygon","coordinates": [[[[32.9333,36.0915,0.0],[32.9362,36.0929,2.9644],[32.9362,36.0957,11.1005],[32.9401,36.0946,0.0],[32.9418,36.096,0.0],[32.9426,36.0982,0.0],[32.941,36.0976,0.0],[32.9399,36.1001,0.0],[32.9501,36.1037,0.0],[32.959,36.1035,0.0],[32.9707,36.0999,0.0],[32.976,36.0976,0.8674],[32.9749,36.0949,0.0],[32.9771,36.0979,1.9055],[32.9924,36.096,11.5523],[32.9985,36.0971,0.0],[32.9996,36.099,2.7987],[33.0024,36.0982,0.0],[33.0043,36.0943,0.0],[33.0137,36.0938,3.9177],[33.0157,36.0957,11.5633],[33.0229,36.0901,0.0],[33.0265,36.0921,0.0],[33.0279,36.0954,0.0],[33.0313,36.0962,4.0118],[33.0415,36.0938,11.5258],[33.0518,36.0949,0.5831],[33.0543,36.0935,0.0],[33.0529,36.0901,0.0],[33.0657,36.0907,7.7554],[33.0699,36.0874,14.4931],[33.0687,36.0829,1.6262],[33.0701,36.0818,0.0],[33.0762,36.0824,17.296],[33.0812,36.081,0.0],[33.0818,36.0751,20.2754],[33.079,36.0735,4.4076],[33.0782,36.0704,3.5778],[33.0815,36.0696,0.0],[33.089,36.0765,0.0],[33.0899,36.0799,0.0],[33.0868,36.0829,0.0],[33.0887,36.0874,10.0497],[33.0918,36.0857,2.3375],[33.0951,36.0893,0.0],[33.0943,36.0949,0.0],[33.0996,36.0943,0.0],[33.099,36.0965,1.9616],[33.1035,36.101,47.7396],[33.1096,36.1032,6.7888],[33.1132,36.1146,0.2504],[33.1213,36.126,0.4435],[33.1263,36.1312,1.8894],[33.1332,36.1351,0.0],[33.1465,36.1379,2.1605],[33.1615,36.1382,2.1717],[33.174,36.1335,0.0],[33.1801,36.1335,0.7627],[33.1951,36.1274,29.2133],[33.2093,36.1296,38.2713],[33.2185,36.1271,10.2072],[33.2213,36.129,15.3489],[33.2205,36.1594,156.7895],[33.2186,36.1713,438.4454],[33.1806,36.2321,654.1747],[33.1724,36.2552,1227.8633],[33.162,36.2648,1311.8792],[33.1444,36.2721,1365.7092],[33.1307,36.2799,1398.1099],[33.1098,36.2966,1367.3779],[33.1027,36.307,1151.6372],[33.1004,36.322,1187.7772],[33.1014,36.3596,1306.9528],[33.0993,36.3809,1347.0206],[33.0924,36.3912,1330.2363],[33.0762,36.4031,1377.7842],[33.0664,36.4069,1522.5592],[33.0452,36.4118,1417.5189],[33.0221,36.3935,1345.1371],[33.0156,36.3863,1327.7794],[33.0112,36.3753,1359.15],[33.0105,36.3155,1215.0391],[33.0064,36.3017,1306.3433],[32.9929,36.2808,1239.5532],[32.9727,36.2603,1198.7693],[32.9609,36.2435,1330.1047],[32.9539,36.2368,1445.6814],[32.9401,36.2272,1307.926],[32.9166,36.2169,758.5757],[32.9101,36.2112,665.7755],[32.9071,36.2063,597.2549],[32.9045,36.189,410.0604],[32.9059,36.1381,400.014],[32.9083,36.1296,450.6569],[32.9284,36.0925,136.9712],[32.9326,36.0928,50.9377],[32.9333,36.0915,0.0]]]]}
,"properties": {"GID_2": "TUR.58.3_1","GID_0": "TUR","country": "Turkey","GID_1": "TUR.58_1","province": "Mersin","NL_NAME_1": "NA","county": "Bozyazı","VARNAME_2": "NA","NL_NAME_2": "NA","TYPE_2": "District","ENGTYPE_2": "District","CC_2": "NA","HASC_2": "TR.IC.BO","name": "Bozyazı.county","area_km2": 577.6073,"hist_schema_id": "Elevation0-9000","hist_area_km2": {"0": 14.6275,"25": 15.2772,"50": 13.4783,"75": 12.9632,"100": 13.2532,"125": 13.4062,"150": 12.5839,"175": 11.8128,"200": 12.8044,"225": 11.6571,"250": 11.4852,"275": 12.1867,"300": 11.2789,"325": 11.5518,"350": 11.0554,"375": 10.8669,"400": 10.6785,"425": 11.3622,"450": 10.9344,"475": 11.2592,"500": 11.0021,"525": 11.1733,"550": 9.8385,"575": 9.8896,"600": 8.7771,"625": 8.9821,"650": 8.2293,"675": 8.0237,"700": 7.733,"725": 7.2194,"750": 6.9798,"775": 6.0729,"800": 6.5517,"825": 5.9012,"850": 6.2091,"875": 6.0552,"900": 8.143,"925": 6.4832,"950": 7.2014,"975": 6.312,"1000": 5.5588,"1025": 5.4045,"1050": 4.7886,"1075": 4.7022,"1100": 4.4628,"1125": 6.3434,"1150": 8.3084,"1175": 12.6146,"1200": 18.0813,"1225": 15.824,"1250": 13.6698,"1275": 12.3003,"1300": 12.1618,"1325": 11.837,"1350": 7.9257,"1375": 10.2301,"1400": 7.8377,"1425": 3.8421,"1450": 2.3736,"1475": 2.2363,"1500": 1.9461,"1525": 1.3998,"1550": 1.1948,"1575": 0.4438,"1600": 0.5632,"1625": 0.256}}}