{"type":"Feature","properties":{"ISO3166-1-Alpha-3":"TUR","country":"Turkey","fill":"#00F","id":"2282","name":"Elazig"},
"geometry":{"type": "Polygon","coordinates": [[[40.34413,38.72249,975.5818],[40.36243,38.74962,1184.5764],[40.37534,38.78828,1787.8812],[40.38217,38.82515,1860.1624],[40.36387,38.85827,1527.7729],[40.30382,38.91558,1768.0491],[40.27954,38.99292,1758.8972],[40.29948,39.06325,1731.7878],[40.34961,39.11756,1950.7926],[40.39157,39.18174,1804.3198],[40.36119,39.22944,1290.4929],[40.27902,39.20063,1224.8079],[40.2444,39.19267,1267.3147],[40.01506,39.09736,1007.8071],[39.96142,39.09462,1007.4576],[39.91108,39.08591,1051.7793],[39.89227,39.07488,959.7902],[39.87915,39.05927,976.2563],[39.8899,39.02072,964.3988],[39.89444,38.98542,1017.3723],[39.88018,38.93861,1041.7379],[39.85362,38.89577,954.0914],[39.79285,38.84326,1059.6215],[39.69952,38.81432,1172.9878],[39.60237,38.80934,985.4733],[39.56682,38.81135,978.4351],[39.53178,38.80606,926.8723],[39.50635,38.77996,835.5],[39.47555,38.76327,835.5],[39.45085,38.76947,835.5],[39.42667,38.7789,915.919],[39.4092,38.775149999999996,835.5],[39.40052,38.77412,835.5],[39.37809,38.79577,835.5],[39.35866,38.80706,863.8787],[39.31432,38.81753,835.5],[39.27133,38.84101,835.5],[39.22544,38.85796,835.5],[39.18431,38.86114,835.5],[39.14369,38.87055,835.5],[39.11217,38.87236,835.5],[39.08085,38.88716,835.5],[39.07082,38.88807,835.5],[39.05119,38.88396,835.5],[39.04137,38.883,835.5],[38.99879,38.89747,859.369],[38.91983,38.89287,835.5],[38.84138,38.87654,835.5],[38.81306,38.87716,835.5],[38.76976,38.90961,920.1394],[38.77058,38.93742,835.5],[38.78526,38.96419,835.5],[38.78433,38.99307,835.5],[38.74568,39.03777,835.5],[38.71405,39.03343,1029.0327],[38.6879,39.02297,877.4195],[38.6168,39.02031,1219.3651],[38.5893,38.99219,1253.0947],[38.58992,38.95078,1112.8448],[38.60677,38.92478,991.977],[38.61938,38.89595,1021.9354],[38.62434,38.83448,1131.8579],[38.62393,38.81262,1105.3444],[38.63571,38.78172,699.0085],[38.63158,38.77572,920.8764],[38.63302,38.76241,935.3961],[38.63168,38.75226,935.6954],[38.61866,38.74823,688.5],[38.5089,38.75681,806.9094],[38.48357,38.75304,688.5],[38.47127,38.74076,744.4091],[38.4781,38.72544,688.5],[38.47262,38.70746,688.5],[38.46042,38.69242,688.5],[38.44668,38.68617,688.5],[38.42208,38.68265,688.5],[38.40244,38.67343,688.5],[38.38704,38.66033,688.5],[38.37567,38.64519,688.5],[38.3704,38.63452,688.5],[38.36379,38.6163,688.5],[38.34891,38.59563,688.5],[38.35128,38.58863,688.5],[38.35769,38.58255,688.5],[38.36141,38.57318,688.5],[38.36461,38.55641,688.5],[38.3735,38.53651,688.5],[38.38663,38.51868,688.5],[38.40296,38.50801,688.5],[38.41422,38.51677,688.5],[38.42559,38.51243,688.5],[38.44327,38.49434,688.5],[38.4566,38.48494,688.5],[38.46869,38.4792,688.5],[38.48171,38.47595,688.5],[38.5398,38.47042,688.5],[38.56667,38.4646,688.5],[38.57142,38.46228,688.5],[38.58765,38.44985,688.5],[38.59457,38.45021,688.5],[38.60057,38.45308,688.5],[38.6078,38.45339,701.3595],[38.68894,38.42073,688.5],[38.71767,38.41864,688.5],[38.77896,38.43693,688.5],[38.81048,38.44029,688.5],[38.83435,38.42608,688.5],[38.82691,38.41864,767.9395],[38.85285,38.40466,769.6292],[38.86102,38.39877,688.0],[38.88386,38.36898,687.5],[38.88551,38.36402,687.5],[38.91114,38.36066,817.213],[38.92789,38.35234,774.931],[38.95724,38.33048,796.1829],[38.99217,38.32603,767.1967],[39.07341,38.34794,725.3285],[39.11485,38.34353,717.4103],[39.25211,38.36221,1812.5503],[39.33499,38.34528,1726.0251],[39.42026,38.34019,1847.5431],[39.46191,38.35456,1409.4529],[39.53881,38.36298,1487.5242],[39.56744,38.37634,1307.0078],[39.64299,38.38099,1393.2278],[39.71998,38.37771,979.3972],[39.75378,38.38678,944.7014],[39.78427,38.40267,943.0798],[39.80959,38.4328,940.5128],[39.83202,38.46509,981.1207],[39.84742,38.49744,953.4099],[39.893,38.50401,1159.1753],[39.91522,38.49535,1124.1251],[39.94994,38.47401,1013.4142],[39.96617,38.46944,962.8785],[40.30124,38.47799,906.9792],[40.2969,38.52419,945.376],[40.28677,38.56788,1030.8108],[40.23323,38.63036,1331.5706],[40.28026,38.7366,1043.8342],[40.31106,38.73205,993.7552],[40.34413,38.72249,975.5818]]]}}