{"type": "Feature","bbox": [27.0286,40.5907,27.4407,40.848],"geometry": {"type": "MultiPolygon","coordinates": [[[[27.0294,40.5907,11.5669],[27.0343,40.594,2.5756],[27.0376,40.5938,1.4427],[27.0424,40.5982,5.2411],[27.061,40.6021,0.8534],[27.0657,40.6054,0.9538],[27.0824,40.6049,0.0],[27.109,40.6099,0.6322],[27.1118,40.6096,0.4575],[27.111,40.6074,0.0],[27.1124,40.6074,0.118],[27.1135,40.6101,0.4575],[27.1274,40.6107,1.2221],[27.131,40.6129,0.743],[27.146,40.6149,0.0],[27.1582,40.6207,0.2287],[27.1612,40.6237,0.0857],[27.179,40.6276,0.907],[27.1874,40.6396,1.1585],[27.2029,40.6451,0.0],[27.2113,40.6521,10.5233],[27.215699999999998,40.6524,2.1542],[27.2185,40.6551,7.2581],[27.2249,40.6565,0.0],[27.2296,40.6596,1.6745],[27.2368,40.6593,0.3105],[27.2418,40.661,1.034],[27.2515,40.6724,12.2926],[27.2649,40.6771,0.8768],[27.2793,40.6868,1.4263],[27.2976,40.6949,0.0],[27.3004,40.6985,1.3406],[27.3093,40.7024,2.1322],[27.3107,40.709,8.9146],[27.3135,40.7107,3.4114],[27.3157,40.7101,0.0],[27.3188,40.7143,0.3047],[27.319,40.7204,1.48],[27.324,40.7285,0.0],[27.3315,40.7346,1.0186],[27.3318,40.7415,19.0317],[27.3357,40.749,1.3157],[27.3354,40.7565,13.2098],[27.3421,40.7643,134.5803],[27.3565,40.7732,5.0619],[27.3576,40.7765,33.4988],[27.3635,40.779,12.5934],[27.366,40.7832,48.3409],[27.376,40.7907,41.7757],[27.3821,40.7993,33.8087],[27.3904,40.8026,4.376],[27.3924,40.8071,77.0011],[27.4201,40.8201,9.0295],[27.4407,40.8349,10.0095],[27.3955,40.847,265.2701],[27.3502,40.848,195.1453],[27.3305,40.8453,298.95],[27.286,40.828,380.656],[27.2756,40.8255,329.7252],[27.2363,40.8244,233.0016],[27.2016,40.8277,227.3432],[27.1982,40.8172,194.6127],[27.192,40.8063,200.4058],[27.1878,40.8027,219.221],[27.1717,40.7951,184.5963],[27.1558,40.7906,253.249],[27.1193,40.7893,175.7655],[27.1051,40.7873,160.4458],[27.0719,40.7749,94.1579],[27.0415,40.7602,116.8971],[27.0417,40.7387,92.0201],[27.0311,40.7158,95.1001],[27.0286,40.6995,77.311],[27.0294,40.5907,11.5669]]]]}
,"properties": {"GID_2": "TUR.73.9_1","GID_0": "TUR","country": "Turkey","GID_1": "TUR.73_1","province": "Tekirdag","NL_NAME_1": "NA","county": "Şarköy","VARNAME_2": "NA","NL_NAME_2": "NA","TYPE_2": "District","ENGTYPE_2": "District","CC_2": "NA","HASC_2": "TR.TG.SK","name": "Şarköy.county","area_km2": 502.51,"hist_schema_id": "Elevation0-9000","hist_area_km2": {"0": 13.6428,"25": 11.7091,"50": 13.4138,"75": 20.3546,"100": 21.8307,"125": 24.8361,"150": 27.982,"175": 26.4375,"200": 29.2446,"225": 28.3106,"250": 30.4305,"275": 30.5894,"300": 27.9038,"325": 25.5864,"350": 19.803,"375": 15.6585,"400": 14.2289,"425": 12.5591,"450": 12.238,"475": 10.7926,"500": 9.2183,"525": 8.6401,"550": 8.4305,"575": 7.3864,"600": 8.3341,"625": 8.2379,"650": 6.3266,"675": 4.961,"700": 5.1699,"725": 5.7477,"750": 3.837,"775": 2.1189,"800": 1.9263,"825": 1.525,"850": 1.2681,"875": 1.0756,"900": 0.7063,"925": 0.0482}}}