{"type":"Feature","properties":{"GID_2":"TUR.22.12_1","GID_0":"TUR","country":"Turkey","GID_1":"TUR.22_1","province":"Çanakkale","NL_NAME_1":"NA","county":"Yenice","VARNAME_2":"NA","NL_NAME_2":"NA","TYPE_2":"District","ENGTYPE_2":"District","CC_2":"NA","HASC_2":"TR.CK.YE","name":"Yenice.county"},
"geometry":{"type": "MultiPolygon","coordinates": [[[[27.4726,39.8876,348.8149],[27.4797,39.9126,498.4761],[27.4916,39.9343,542.4822],[27.4924,39.9538,544.2881],[27.4894,39.9618,563.6846],[27.4834,39.9679,492.7421],[27.4613,39.9778,225.271],[27.4545,39.9828,165.696],[27.4503,39.9897,224.3751],[27.45,39.9949,320.1715],[27.4596,40.0132,468.5087],[27.465699999999998,40.0317,596.7026],[27.4743,40.0455,651.8084],[27.4799,40.064,727.4354],[27.4894,40.0804,542.3033],[27.4966,40.1014,444.5904],[27.505,40.115,259.9612],[27.5071,40.1259,357.4118],[27.5038,40.1391,409.6154],[27.4683,40.1947,382.2422],[27.2838,40.1239,546.6421],[27.252,40.1073,420.8512],[27.229,40.0737,434.9946],[27.1651,40.0238,522.438],[27.1514,40.0112,331.5721],[27.1351,39.9855,218.2133],[27.1298,39.9665,318.6988],[27.1206,39.9504,534.7003],[27.1152,39.9319,699.7935],[27.1059,39.9197,803.9848],[27.0891,39.9082,698.0615],[27.0129,39.8797,291.1149],[26.9841,39.8639,307.0951],[26.9781,39.848,565.7791],[26.9695,39.8343,549.3367],[26.9676,39.8285,638.1333],[26.9668,39.8101,877.2618],[26.9691,39.801,932.7809],[26.9803,39.7822,1069.4636],[27.0317,39.7984,700.1635],[27.0664,39.8023,458.5986],[27.0918,39.8102,404.7148],[27.1118,39.8121,281.9124],[27.1391,39.8121,284.2085],[27.1572,39.8103,265.9348],[27.2107,39.7901,245.2053],[27.2384,39.7848,269.2753],[27.2643,39.7708,273.8029],[27.2986,39.7801,215.7267],[27.4184,39.8266,385.3127],[27.4277,39.8338,310.4721],[27.4371,39.8476,393.3846],[27.4558,39.8663,295.063],[27.4653,39.8802,281.6184],[27.4726,39.8876,348.8149]]]]}}