{"type": "Feature","bbox": [42.4634,39.2727,42.9902,39.7072],"geometry": {"type": "MultiPolygon","coordinates": [[[[42.5079,39.6975,2357.8345],[42.5098,39.6358,2119.0564],[42.5124,39.6268,2100.7996],[42.5213,39.6104,1995.0996],[42.5236,39.5995,1950.1344],[42.5243,39.5779,1867.8855],[42.5226,39.5626,1850.8712],[42.5193,39.5544,1711.6453],[42.4879,39.5056,1858.0887],[42.476,39.4915,1891.0801],[42.4634,39.4861,1911.7227],[42.4648,39.4685,1787.9004],[42.4691,39.4591,1774.7847],[42.5037,39.4059,1556.4531],[42.5129,39.3799,1674.2698],[42.5239,39.369,1504.9143],[42.5572,39.3426,1591.8118],[42.5636,39.3361,1590.5859],[42.5769,39.3172,1850.636],[42.6145,39.2864,1844.5748],[42.6276,39.2727,2019.5515],[42.6498,39.2933,2215.2346],[42.6833,39.3178,1846.7363],[42.7193,39.3329,1660.6827],[42.7529,39.3447,1666.1187],[42.7705,39.3451,1725.5405],[42.7983,39.3365,1865.2158],[42.829,39.3343,1879.436],[42.9233,39.3341,1949.3333],[42.9336,39.3355,2041.4755],[42.9418,39.3399,2157.5146],[42.9526,39.3571,2281.8457],[42.9465,39.3702,2200.8777],[42.9412,39.3889,2063.1328],[42.9302,39.4111,2023.4059],[42.9275,39.4643,1903.969],[42.9248,39.473,2017.5325],[42.9173,39.4861,2001.8716],[42.9168,39.493899999999996,1978.6504],[42.9208,39.5009,2028.5283],[42.9276,39.5061,1951.8173],[42.9726,39.5224,1833.9027],[42.9803,39.5271,1895.9471],[42.9861,39.5335,1878.8593],[42.9898,39.5477,1946.6344],[42.9902,39.578,1790.4031],[42.9892,39.5927,1780.626],[42.9863,39.6009,1724.1233],[42.9828,39.6054,1702.8043],[42.973,39.6121,1634.1506],[42.9547,39.6194,1719.2915],[42.9312,39.6333,1741.7466],[42.9045,39.6454,1877.2751],[42.8809,39.6635,1893.9325],[42.861,39.6847,1798.0387],[42.8248,39.6835,2169.4888],[42.7921,39.6845,1965.1962],[42.7549,39.6942,2300.8203],[42.6875,39.6963,2234.4006],[42.6756,39.6983,2121.5999],[42.6538,39.7055,1949.7114],[42.6375,39.7072,1976.7593],[42.6083,39.7062,1977.2566],[42.5826,39.6983,2013.9739],[42.5667,39.6959,2154.6528],[42.5373,39.6955,2289.658],[42.5079,39.6975,2357.8345]]]]}
,"properties": {"GID_2": "TUR.4.8_1","GID_0": "TUR","country": "Turkey","GID_1": "TUR.4_1","province": "Agri","NL_NAME_1": "NA","county": "Tutak","VARNAME_2": "NA","NL_NAME_2": "NA","TYPE_2": "District","ENGTYPE_2": "District","CC_2": "NA","HASC_2": "TR.AG.TU","name": "Tutak.county","area_km2": 1530.112,"hist_schema_id": "Elevation0-9000","hist_area_km2": {"1500": 18.747,"1525": 25.714,"1550": 29.309,"1575": 41.346,"1600": 52.957,"1625": 60.348,"1650": 141.509,"1675": 160.389,"1700": 109.365,"1725": 68.141,"1750": 50.676,"1775": 46.08,"1800": 50.745,"1825": 59.676,"1850": 66.919,"1875": 61.267,"1900": 52.471,"1925": 44.348,"1950": 41.908,"1975": 42.442,"2000": 44.766,"2025": 44.639,"2050": 34.504,"2075": 25.582,"2100": 21.963,"2125": 20.389,"2150": 17.692,"2175": 16.482,"2200": 14.996,"2225": 14.147,"2250": 12.151,"2275": 10.697,"2300": 7.889,"2325": 5.848,"2350": 4.508,"2375": 4.001,"2400": 2.596,"2425": 1.992,"2450": 0.637,"2475": 0.131,"2500": 0.114,"2525": 0.033}}}