{"type": "Feature","bbox": [28.1684,39.7527,28.7814,40.1896],"geometry": {"type": "MultiPolygon","coordinates": [[[[28.6702,39.756,854.1909],[28.6947,39.7672,749.549],[28.7017,39.7726,592.3074],[28.7065,39.7797,402.3517],[28.7109,39.8184,561.8725],[28.7201,39.8351,725.0729],[28.7236,39.8456,836.6547],[28.7132,39.8558,775.3594],[28.7094,39.8635,885.6226],[28.708,39.8775,781.8054],[28.7102,39.8886,853.9849],[28.7172,39.8984,1006.9651],[28.7492,39.9256,849.423],[28.7782,39.9695,689.8962],[28.7814,39.9794,662.8079],[28.7806,39.9847,689.678],[28.7729,39.9981,693.6395],[28.7671,40.0165,226.0545],[28.7516,40.0426,518.0999],[28.7348,40.0681,587.5663],[28.715699999999998,40.0897,467.7126],[28.7067,40.1125,433.0001],[28.6919,40.1359,109.2455],[28.6841,40.1445,2.5],[28.6743,40.152,2.5],[28.6606,40.159,2.5],[28.6188,40.1704,2.5],[28.5221,40.1727,2.5],[28.4777,40.1886,2.5],[28.466,40.1896,2.5],[28.4407,40.176,4.7761],[28.419,40.1667,5.2103],[28.3827,40.1402,7.8808],[28.3683,40.1268,7.2981],[28.3423,40.0863,33.4008],[28.3297,40.0755,17.3723],[28.3178,40.0686,40.2592],[28.2882,40.0575,119.7758],[28.2745,40.0579,49.6457],[28.2688,40.0604,47.3247],[28.2622,40.066,19.7769],[28.2424,40.097,17.4231],[28.2345,40.1012,17.0259],[28.2211,40.1019,18.1126],[28.2109,40.0991,17.0149],[28.1969,40.0898,17.2821],[28.1877,40.0806,18.6726],[28.1786,40.066,29.3223],[28.1684,40.0555,25.1602],[28.182,40.0477,23.3098],[28.1998,40.0405,24.2366],[28.2109,40.0312,25.9729],[28.2254,40.008,47.4398],[28.2317,39.9867,63.5711],[28.255,39.9496,464.4975],[28.2627,39.9261,616.6912],[28.278,39.9026,670.2427],[28.298,39.8821,732.7416],[28.3032,39.8692,704.123],[28.3258,39.8682,1088.8882],[28.3379,39.8643,1149.6316],[28.3738,39.8392,790.8394],[28.3948,39.8305,662.8463],[28.4216,39.8145,549.4832],[28.4426,39.8059,714.6669],[28.4786,39.7807,689.8094],[28.5212,39.7663,918.4092],[28.579,39.7628,832.2776],[28.6046,39.7552,978.9311],[28.6187,39.753,1052.8394],[28.6432,39.7527,975.3855],[28.6702,39.756,854.1909]]]]}
,"properties": {"GID_2": "TUR.21.11_1","GID_0": "TUR","country": "Turkey","GID_1": "TUR.21_1","province": "Bursa","NL_NAME_1": "NA","county": "MustafaKemalpaşa","VARNAME_2": "NA","NL_NAME_2": "NA","TYPE_2": "District","ENGTYPE_2": "District","CC_2": "NA","HASC_2": "TR.BU.MK","name": "Mustafa_Kemalpaşa.county","area_km2": 1602.187,"hist_schema_id": "Elevation0-9000","hist_area_km2": {"0": 190.884,"25": 146.671,"50": 71.612,"75": 56.07,"100": 51.1,"125": 44.883,"150": 42.89,"175": 40.473,"200": 36.025,"225": 35.113,"250": 34.559,"275": 33.437,"300": 34.039,"325": 29.946,"350": 29.215,"375": 30.775,"400": 35.397,"425": 37.756,"450": 45.398,"475": 43.467,"500": 36.816,"525": 30.181,"550": 27.897,"575": 26.441,"600": 26.363,"625": 27.801,"650": 31.919,"675": 34.491,"700": 38.14,"725": 34.971,"750": 32.437,"775": 28.843,"800": 26.435,"825": 23.914,"850": 20.788,"875": 18.884,"900": 14.212,"925": 10.615,"950": 9.28,"975": 7.327,"1000": 6.692,"1025": 4.478,"1050": 3.925,"1075": 2.524,"1100": 2.786,"1125": 2.492,"1150": 1.238,"1175": 0.309,"1200": 0.13,"1225": 0.098,"1250": 0.049}}}