{"type": "Feature","bbox": [43.3588,39.2879,43.8381,39.6855],"geometry": {"type": "MultiPolygon","coordinates": [[[[43.3588,39.3873,2794.1606],[43.3758,39.3912,2873.3452],[43.3943,39.3927,2595.4773],[43.4127,39.3922,2989.116],[43.4266,39.3889,3072.082],[43.4433,39.3775,3148.8682],[43.4499,39.3706,3146.5632],[43.463,39.3514,3131.657],[43.4887,39.3309,2944.4001],[43.5004,39.3244,2734.2603],[43.516,39.3184,2778.9795],[43.5422,39.3025,2921.1743],[43.5752,39.2894,3310.7856],[43.5857,39.2879,3304.7041],[43.5998,39.2887,3242.457],[43.6208,39.2963,3122.1128],[43.6455,39.3024,3067.2109],[43.6731,39.3399,2898.7737],[43.6962,39.3585,2715.3489],[43.7164,39.3702,2738.2673],[43.7576,39.3687,2825.8015],[43.8381,39.3691,3179.6599],[43.8192,39.4022,2769.1855],[43.8155,39.4136,2604.0864],[43.8156,39.5205,1938.2827],[43.8139,39.5363,1948.5432],[43.8116,39.5422,1908.7158],[43.8056,39.5498,1898.1698],[43.7771,39.5741,1826.6581],[43.7717,39.5846,1830.7484],[43.7726,39.5981,1807.5503],[43.7825,39.6161,1837.2651],[43.7825,39.6213,1882.9974],[43.7804,39.6262,1993.2278],[43.7742,39.6319,1975.9984],[43.7655,39.6356,1906.4907],[43.742,39.6396,1946.4835],[43.7205,39.6463,2154.1616],[43.6884,39.6493,2350.0527],[43.6784,39.6517,2348.6379],[43.6182,39.6747,2442.5459],[43.5972,39.6855,2597.8574],[43.5942,39.6754,2591.9719],[43.5856,39.6584,2489.9006],[43.5541,39.6307,2028.0042],[43.541,39.6164,1848.9872],[43.5136,39.6042,2075.167],[43.483,39.5984,1818.9496],[43.4719,39.5923,1807.8838],[43.4604,39.5824,1939.1672],[43.4551,39.5722,2041.7823],[43.4544,39.5581,2274.9307],[43.4567,39.5471,2326.4187],[43.4668,39.5287,2704.2146],[43.4653,39.5185,2598.0244],[43.4484,39.4932,2533.9504],[43.4031,39.4563,2531.8186],[43.3895,39.4377,2899.0415],[43.3707,39.4191,3114.3345],[43.3662,39.412,3282.7092],[43.3588,39.3873,2794.1606]]]]}
,"properties": {"GID_2": "TUR.4.1_1","GID_0": "TUR","country": "Turkey","GID_1": "TUR.4_1","province": "Agri","NL_NAME_1": "NA","county": "Diyadin","VARNAME_2": "NA","NL_NAME_2": "NA","TYPE_2": "District","ENGTYPE_2": "District","CC_2": "NA","HASC_2": "TR.AG.DI","name": "Diyadin.county","area_km2": 1084.7431,"hist_schema_id": "Elevation0-9000","hist_area_km2": {"1800": 3.4633,"1825": 16.2408,"1850": 19.9829,"1875": 27.0747,"1900": 31.1457,"1925": 32.1315,"1950": 39.9553,"1975": 41.0406,"2000": 42.368899999999996,"2025": 37.612,"2050": 36.1924,"2075": 32.8562,"2100": 33.1045,"2125": 33.5649,"2150": 42.1917,"2175": 42.8002,"2200": 32.806,"2225": 29.8772,"2250": 25.8069,"2275": 23.2392,"2300": 21.1459,"2325": 21.2943,"2350": 20.3144,"2375": 18.8456,"2400": 18.8635,"2425": 19.9433,"2450": 21.1379,"2475": 19.8128,"2500": 18.5209,"2525": 15.6247,"2550": 15.4268,"2575": 14.6267,"2600": 13.6119,"2625": 13.0405,"2650": 12.9441,"2675": 12.8143,"2700": 14.1582,"2725": 14.3555,"2750": 13.4378,"2775": 13.0943,"2800": 14.9797,"2825": 14.603,"2850": 12.3743,"2875": 10.8343,"2900": 9.3265999999999991,"2925": 8.3767,"2950": 6.8033,"2975": 6.623,"3000": 6.4101,"3025": 5.5742,"3050": 4.82,"3075": 4.7548,"3100": 4.1811,"3125": 3.7222,"3150": 3.4436,"3175": 2.427,"3200": 2.1483,"3225": 1.804,"3250": 1.6237,"3275": 1.427,"3300": 1.3124,"3325": 0.6891,"3350": 0.0164}}}