{"type":"Feature","properties":{"GID_2":"TUR.63.17_1","GID_0":"TUR","country":"Turkey","GID_1":"TUR.63_1","province":"Ordu","NL_NAME_1":"NA","county":"Ulubey","VARNAME_2":"NA","NL_NAME_2":"NA","TYPE_2":"District","ENGTYPE_2":"District","CC_2":"NA","HASC_2":"TR.OR.UL","name":"Ulubey.county"},
"geometry":{"type": "MultiPolygon","coordinates": [[[[37.8371,40.7294,1020.2861],[37.8666,40.7364,595.1987],[37.8874,40.7442,945.0935],[37.901,40.7468,823.4414],[37.9003,40.7569,1029.6228],[37.8975,40.7688,985.0598],[37.8887,40.7858,390.7443],[37.8838,40.8127,641.246],[37.8685,40.8422,366.5746],[37.8628,40.851,202.4889],[37.8526,40.8568,338.6319],[37.8461,40.8625,92.9468],[37.8224,40.8952,193.237],[37.7952,40.9078,282.23],[37.7725,40.9104,337.9424],[37.7297,40.9088,454.9446],[37.7013,40.9003,918.0911],[37.6761,40.8983,1000.6743],[37.6734,40.8788,739.9429],[37.6643,40.8624,1071.6434],[37.6612,40.8509,1061.4731],[37.6605,40.8177,605.0633],[37.6657,40.8042,737.3018],[37.6773,40.7955,545.9738],[37.6971,40.7864,675.2411],[37.7139,40.7721,762.5767],[37.7491,40.7503,552.7311],[37.7821,40.7376,1024.484],[37.8213,40.7336,1294.6642],[37.8371,40.7294,1020.2861]]]]}}