{"type":"Feature","properties":{"GID_2":"TUR.31.1_1","GID_0":"TUR","country":"Turkey","GID_1":"TUR.31_1","province":"Erzurum","NL_NAME_1":"NA","county":"Aşkale","VARNAME_2":"NA","NL_NAME_2":"NA","TYPE_2":"District","ENGTYPE_2":"District","CC_2":"NA","HASC_2":"TR.EM.AS","name":"Aşkale.county"},
"geometry":{"type": "MultiPolygon","coordinates": [[[[40.2864,40.0391,2269.7334],[40.2759,40.0248,2590.3928],[40.2603,39.9989,2268.082],[40.2541,39.9688,1945.5803],[40.2431,39.9473,1719.4326],[40.2427,39.9391,1630.1356],[40.2448,39.931,1552.7795],[40.2653,39.9068,1828.2598],[40.4725,39.9072,2313.6479],[40.4882,39.9061,2109.6355],[40.4985,39.9031,2045.7944],[40.5099,39.894,2075.7458],[40.54,39.8449,1961.616],[40.5409,39.8368,1967.0386],[40.5395,39.8286,1786.0393],[40.5302,39.8127,1638.0107],[40.5281,39.8047,1727.0297],[40.5301,39.7911,1857.3435],[40.5356,39.7837,1949.3579],[40.5513,39.7681,2036.5769],[40.5634,39.7513,1990.2119],[40.5817,39.737,2100.2715],[40.6151,39.7238,2019.1425],[40.6318,39.7203,2145.7725],[40.6425,39.7272,2282.759],[40.6515,39.7307,2274.929],[40.6657,39.7324,2266.9917],[40.6838,39.7315,2264.896],[40.6999,39.7252,2355.3721],[40.7315,39.702,2458.0508],[40.7377,39.6996,2500.8838],[40.7481,39.6988,2532.7017],[40.7574,39.7012,2521.4785],[40.8408,39.7336,2283.2007],[40.8509,39.7402,2372.676],[40.8562,39.7468,2268.7969],[40.8669,39.7718,2126.063],[40.8504,39.7936,2336.9316],[40.8183,39.8204,2386.9272],[40.8142,39.8279,2407.7712],[40.8142,39.8333,2407.5063],[40.8185,39.8404,2425.0811],[40.829,39.8464,2329.7644],[40.8594,39.8491,2310.6008],[40.8681,39.8518,2287.3787],[40.8823,39.8675,2000.198],[40.8984,39.8932,1905.6094],[40.9015,39.901,1907.7526],[40.9033,39.9209,1710.8364],[40.9021,39.9439,1784.4413],[40.8984,39.9544,1817.6812],[40.855,40.0219,2110.0122],[40.8466,40.0309,2135.6362],[40.8197,40.0542,2284.7534],[40.8043,40.0758,2607.7009],[40.7851,40.0895,2372.2827],[40.7712,40.0928,2404.3843],[40.7458,40.0922,2180.5972],[40.6914,40.072,2223.6479],[40.6675,40.0675,2238.2834],[40.6464,40.0601,2617.7415],[40.6323,40.058,2482.1631],[40.6071,40.0592,2197.6899],[40.5791,40.0696,2270.7744],[40.5407,40.0542,2216.1069],[40.5113,40.0369,2438.0557],[40.4843,40.0264,2292.1025],[40.4696,40.0235,2506.4021],[40.3751,40.0239,2848.3499],[40.3636,40.0258,2928.2151],[40.3421,40.0329,2626.9736],[40.3029,40.0361,2539.5981],[40.2864,40.0391,2269.7334]]]]}}