{"type": "Feature","bbox": [37.4572,37.2008,37.8485,37.3819],"geometry": {"type": "MultiPolygon","coordinates": [[[[37.5428,37.3802,770.2811],[37.5244,37.3819,789.1259],[37.5083,37.3808,757.4216],[37.4833,37.3728,768.1796],[37.4596,37.3673,838.7374],[37.4572,37.3192,687.9446],[37.4588,37.2967,825.0675],[37.4633,37.288,842.7439],[37.4714,37.2814,825.4949],[37.4917,37.2728,656.5099],[37.5049,37.264,594.5813],[37.5135,37.2557,679.4617],[37.5224,37.2418,750.3257],[37.5289,37.2363,788.485],[37.5548,37.2247,838.3334],[37.5873,37.2008,784.0607],[37.6333,37.2099,873.3544],[37.6619,37.2183,829.0223],[37.7229,37.2212,697.3895],[37.7781,37.241,662.4122],[37.8303,37.2439,628.4055],[37.8438,37.2645,425.3194],[37.847,37.2727,397.2048],[37.8485,37.2854,418.4812],[37.8484,37.3125,519.9735],[37.8321,37.3219,510.4258],[37.7151,37.3673,750.9896],[37.6849,37.3738,774.6744],[37.664,37.3811,729.4512],[37.6498,37.3819,727.774],[37.6364,37.3788,679.049],[37.607,37.3616,957.9702],[37.5966,37.3593,957.1323],[37.5784,37.3588,952.768],[37.5615,37.3627,934.5184],[37.5516,37.3697,745.8881],[37.5428,37.3802,770.2811]]]]}
,"properties": {"GID_2": "TUR.33.9_1","GID_0": "TUR","country": "Turkey","GID_1": "TUR.33_1","province": "Gaziantep","NL_NAME_1": "NA","county": "Yavuzeli","VARNAME_2": "NA","NL_NAME_2": "NA","TYPE_2": "District","ENGTYPE_2": "District","CC_2": "NA","HASC_2": "TR.GA.YA","name": "Yavuzeli.county","area_km2": 493.8353,"hist_schema_id": "Elevation0-9000","hist_area_km2": {"375": 1.0798,"400": 0.7255,"425": 1.2991,"450": 2.1763,"475": 6.0046,"500": 20.6249,"525": 48.0278,"550": 44.8617,"575": 42.7088,"600": 39.1368,"625": 32.7612,"650": 29.8753,"675": 21.2892,"700": 19.6856,"725": 21.1532,"750": 22.6036,"775": 23.9528,"800": 23.4307,"825": 20.092,"850": 18.2184,"875": 13.7628,"900": 7.2137,"925": 6.2188,"950": 6.556,"975": 6.9606,"1000": 5.5282,"1025": 4.1631,"1050": 3.0339,"1075": 0.6911}}}