{"type": "Feature","bbox": [38.414,40.7458,38.6554,40.9746],"geometry": {"type": "MultiPolygon","coordinates": [[[[38.5982,40.7474,1213.5901],[38.6143,40.7493,907.0201],[38.6083,40.7612,951.7421],[38.6071,40.7782,1266.0618],[38.6093,40.7893,955.8057],[38.6183,40.805,743.0238],[38.6191,40.8102,552.983],[38.6148,40.8203,517.9153],[38.595,40.8402,830.2477],[38.5923,40.8483,628.4387],[38.5932,40.8594,447.9436],[38.6002,40.8695,448.2624],[38.6166,40.8813,217.0622],[38.6263,40.8853,228.7347],[38.655,40.8922,227.3759],[38.6523,40.9325,520.426],[38.6525,40.9552,279.4786],[38.6554,40.9646,1.4764],[38.6518,40.9679,0.0],[38.6479,40.9707,0.0],[38.6443,40.9707,5.9693],[38.6435,40.974,0.0],[38.6418,40.9746,0.0],[38.6415,40.9721,8.8991],[38.6335,40.9707,0.0],[38.6279,40.9735,0.0],[38.6235,40.9732,7.5752],[38.6204,40.9676,3.7666],[38.611,40.9668,15.4542],[38.6071,40.9596,7.611],[38.599,40.954,1.4008],[38.5951,40.9538,0.0],[38.5935,40.9488,8.1483],[38.5871,40.9443,1.4344],[38.5796,40.9432,21.5107],[38.5768,40.9399,16.793],[38.5743,40.9401,2.1649],[38.5685,40.9338,1.204],[38.5571,40.9293,0.955],[38.5415,40.9204,34.4967],[38.529,40.9165,16.1586],[38.5238,40.9185,4.3541],[38.5057,40.9179,3.1766],[38.5018,40.916,12.1976],[38.494,40.9165,7.3856],[38.4801,40.9132,32.1575],[38.4757,40.9151,31.2831],[38.4732,40.9185,3.5863],[38.4693,40.9188,0.0],[38.4582,40.9151,12.8581],[38.4507,40.9162,0.7183],[38.4463,40.9146,17.9889],[38.4382,40.9149,0.2226],[38.4307,40.9113,4.8268],[38.4254,40.9121,4.3567],[38.4201,40.9162,5.3052],[38.414,40.9154,20.2487],[38.4376,40.8897,23.1337],[38.4713,40.8633,315.03],[38.4856,40.8552,428.7426],[38.5099,40.8495,583.8074],[38.5157,40.8438,659.9967],[38.5165,40.8336,562.6967],[38.5131,40.8261,507.1817],[38.479,40.7955,460.6321],[38.4883,40.7822,719.4167],[38.4991,40.7713,852.7722],[38.5201,40.7551,775.3034],[38.5329,40.7487,941.3099],[38.548,40.7462,1226.7469],[38.5676,40.7458,1621.5583],[38.5982,40.7474,1213.5901]]],
[[[38.4374,40.9296,0.0],[38.4376,40.9307,0.0],[38.4357,40.9307,0.0],[38.4351,40.9287,0.0],[38.4385,40.9285,0.0],[38.4374,40.9296,0.0]]]]}
,"properties": {"GID_2": "TUR.34.11_1","GID_0": "TUR","country": "Turkey","GID_1": "TUR.34_1","province": "Giresun","NL_NAME_1": "NA","county": "Keşap","VARNAME_2": "NA","NL_NAME_2": "NA","TYPE_2": "District","ENGTYPE_2": "District","CC_2": "NA","HASC_2": "TR.GI.KE","name": "Keşap.county","area_km2": 247.3847,"hist_schema_id": "Elevation0-9000","hist_area_km2": {"0": 4.0372,"25": 6.072,"50": 5.8317,"75": 6.6489,"100": 7.1937,"125": 7.2422,"150": 7.4508,"175": 7.2267,"200": 7.74,"225": 7.9643,"250": 8.4774,"275": 8.4621,"300": 8.2538,"325": 7.5488,"350": 7.0526,"375": 7.0369,"400": 6.4765,"425": 6.1884,"450": 6.5253,"475": 5.7565,"500": 5.6447,"525": 5.1159,"550": 5.1325,"575": 5.0526,"600": 5.1654,"625": 4.6528,"650": 4.6209,"675": 4.6534,"700": 4.06,"725": 3.8034,"750": 4.5096,"775": 3.7075,"800": 3.8199,"825": 3.8684,"850": 3.9164,"875": 3.7402,"900": 3.2265,"925": 3.4514,"950": 2.7451,"975": 2.729,"1000": 2.1512,"1025": 2.3921,"1050": 2.1514,"1075": 1.7982,"1100": 1.7019,"1125": 1.3808,"1150": 1.2845,"1175": 1.6539,"1200": 1.1561,"1225": 1.108,"1250": 0.9956,"1275": 0.9154,"1300": 0.6424,"1325": 0.6745,"1350": 0.7548,"1375": 0.6263,"1400": 0.5942,"1425": 0.4979,"1450": 0.5139,"1475": 0.3854,"1500": 0.2248,"1525": 0.273,"1550": 0.1767,"1575": 0.0643,"1600": 0.1285,"1625": 0.257,"1650": 0.0321,"1675": 0.0482}}}