{"type": "Feature","bbox": [36.383,39.9496,36.9225,40.5314],"geometry": {"type": "MultiPolygon","coordinates": [[[[36.7736,40.2238,1495.1084],[36.7734,40.2625,1093.3538],[36.7757,40.2781,1301.6349],[36.8154,40.3413,1286.8193],[36.8207,40.3713,1199.411],[36.8259,40.3811,1378.9236],[36.8358,40.3932,1618.4581],[36.8446,40.3972,1487.8676],[36.8912,40.3985,1072.6733],[36.9018,40.4005,925.8237],[36.909,40.4057,791.5],[36.9175,40.4184,977.9863],[36.9225,40.428,998.6376],[36.9205,40.4324,1051.7482],[36.9081,40.4457,1180.2358],[36.895,40.4562,1162.6635],[36.8599,40.4829,1078.4325],[36.845,40.4907,1164.2452],[36.818,40.5008,1010.2294],[36.7939,40.5049,893.7924],[36.7729,40.5122,1012.6979],[36.7455,40.5173,888.3699],[36.7134,40.5314,913.2228],[36.6739,40.5247,1079.4757],[36.6526,40.5176,1336.6348],[36.6289,40.513,1435.7455],[36.6002,40.5044,1590.3008],[36.5396,40.5033,1459.8511],[36.5239,40.5017,1512.7668],[36.4724,40.4828,1375.444],[36.4438,40.4801,1227.6106],[36.4435,40.4581,1147.9315],[36.4406,40.4461,1174.6901],[36.4257,40.4229,1272.9164],[36.4022,40.3975,1351.6096],[36.3957,40.3678,834.5762],[36.3879,40.3535,635.3715],[36.3842,40.3421,590.4196],[36.383,40.32,559.4056],[36.3857,40.2885,727.1688],[36.3962,40.2669,1059.6414],[36.3999,40.2308,1632.0688],[36.4104,40.2086,1424.0887],[36.4152,40.1694,1246.418],[36.4401,40.1301,1194.5078],[36.4422,40.1164,1183.187],[36.439,40.1058,1160.6786],[36.4241,40.0825,1156.6611],[36.4113,40.0675,1100.6283],[36.404,40.0655,1106.6367],[36.3953,40.0415,1155.3885],[36.3846,40.0227,1308.0128],[36.3838,40.009,1373.4113],[36.3866,40.0012,1454.2584],[36.4,39.9803,1523.962],[36.421,39.9563,1529.2695],[36.4425,39.9496,1726.1427],[36.4716,39.958,1528.4663],[36.489,39.9652,1505.1543],[36.5163,39.9704,1511.1573],[36.5374,39.9777,1632.4955],[36.5614,39.982,1630.2887],[36.5826,39.9893,1578.6281],[36.6066,39.9935,1633.6521],[36.64,40.0056,1685.7117],[36.6592,40.0144,1621.9379],[36.6678,40.0211,1588.3015],[36.6792,40.036,1758.406],[36.7113,40.0876,1468.8027],[36.7124,40.0958,1499.5901],[36.711,40.1039,1556.2523],[36.6997,40.1252,1561.1244],[36.6991,40.1334,1463.058],[36.701,40.1415,1430.5576],[36.7197,40.1694,1441.1252],[36.7525,40.1959,1567.6854],[36.761,40.2111,1649.895],[36.7736,40.2238,1495.1084]]]]}
,"properties": {"GID_2": "TUR.74.5_1","GID_0": "TUR","country": "Turkey","GID_1": "TUR.74_1","province": "Tokat","NL_NAME_1": "NA","county": "Merkez","VARNAME_2": "Tokat","NL_NAME_2": "NA","TYPE_2": "District","ENGTYPE_2": "District","CC_2": "NA","HASC_2": "TR.TT.TT","name": "Merkez.county","area_km2": 1812.457,"hist_schema_id": "Elevation0-9000","hist_area_km2": {"550": 1.843,"575": 23.887,"600": 20.848,"625": 25.642,"650": 26.589,"675": 23.955,"700": 22.485,"725": 22.645,"750": 22.515,"775": 24.874,"800": 25.165,"825": 24.697,"850": 25.826,"875": 26.89,"900": 25.453,"925": 26.442,"950": 24.684,"975": 25.751,"1000": 28.013,"1025": 28.792,"1050": 28.824,"1075": 30.93,"1100": 43.83,"1125": 83.321,"1150": 75.213,"1175": 67.663,"1200": 69.399,"1225": 66.516,"1250": 61.591,"1275": 59.465,"1300": 57.377,"1325": 53.996,"1350": 51.194,"1375": 48.198,"1400": 48.15,"1425": 49.155,"1450": 47.357,"1475": 47.352,"1500": 48.9,"1525": 49.885,"1550": 51.707,"1575": 45.382,"1600": 37.28,"1625": 29.789,"1650": 23.618,"1675": 18.568,"1700": 12.058,"1725": 8.543,"1750": 6.081,"1775": 4.721,"1800": 3.343,"1825": 2.354,"1850": 1.672,"1875": 0.86,"1900": 0.438,"1925": 0.308,"1950": 0.179,"1975": 0.146,"2000": 0.049,"2025": 0.049}}}