{"type":"Feature","properties":{"GID_2":"TUR.71.4_1","GID_0":"TUR","country":"Turkey","GID_1":"TUR.71_1","province":"Sirnak","NL_NAME_1":"NA","county":"İdil","VARNAME_2":"NA","NL_NAME_2":"NA","TYPE_2":"District","ENGTYPE_2":"District","CC_2":"NA","HASC_2":"TR.SR.ID","name":"İdil.county"},
"geometry":{"type": "MultiPolygon","coordinates": [[[[42.1665,37.2662,481.9226],[42.1589,37.2812,499.8799],[42.158,37.29,504.2046],[42.1592,37.2985,440.1267],[42.1617,37.3034,434.578],[42.1659,37.3068,409.0151],[42.1828,37.3132,405.8988],[42.1862,37.3174,373.3007],[42.1889,37.3282,375.7039],[42.188,37.346,376.5891],[42.1853,37.3547,394.8242],[42.1758,37.3714,554.2696],[42.1728,37.3966,537.8903],[42.1754,37.4219,557.329],[42.1878,37.4436,855.8818],[42.1601,37.4516,1048.8646],[42.1303,37.4687,1089.6577],[42.1169,37.472,989.9603],[42.0948,37.4728,1211.6714],[42.0767,37.4713,1365.0298],[42.0522,37.463,1141.0552],[42.0383,37.4607,1005.361],[42.0238,37.4605,882.3279],[42.0096,37.4628,721.5612],[41.9946,37.4708,800.8122],[41.9719,37.4895,979.2473],[41.9661,37.4965,827.512],[41.9492,37.5255,963.4473],[41.9116,37.5027,850.9393],[41.902,37.4984,805.0482],[41.8872,37.4959,770.9504],[41.8332,37.494,541.3701],[41.8081,37.4863,783.7364],[41.7696,37.4815,860.812],[41.7407,37.4683,894.5291],[41.7381,37.4432,746.1366],[41.7378,37.3574,746.3569],[41.739,37.3371,798.8521],[41.7427,37.3234,808.9189],[41.7564,37.2967,877.0862],[41.7632,37.2913,890.1151],[41.7723,37.2882,845.183],[41.7855,37.2894,846.4481],[41.7995,37.2949,842.2455],[41.8231,37.3001,831.6722],[41.8422,37.307,788.5364],[41.8512,37.3065,793.7895],[41.8575,37.3016,802.1653],[41.8621,37.2876,826.9408],[41.8707,37.2709,842.437],[41.8755,37.2438,774.2627],[41.8857,37.2242,708.878],[41.888,37.2093,662.5234],[41.8864,37.1882,652.3859],[41.8752,37.1657,650.0317],[41.8692,37.139,623.9591],[41.9751,37.1596,603.1892],[42.0163,37.1774,568.6058],[42.0573,37.1889,564.0518],[42.0793,37.2016,542.0874],[42.1061,37.2129,504.7414],[42.1128,37.2191,494.8857],[42.1224,37.2354,481.5253],[42.1538,37.2598,475.0105],[42.1665,37.2662,481.9226]]]]}}