{"type": "Feature","bbox": [40.4104,38.1891,40.6442,38.3132],"geometry": {"type": "MultiPolygon","coordinates": [[[[40.4104,38.2891,867.2438],[40.4298,38.264,739.6234],[40.4342,38.2368,743.478],[40.4397,38.2272,696.7052],[40.4472,38.2221,713.1331],[40.4538,38.2199,733.0549],[40.4911,38.2181,769.0817],[40.5008,38.2158,789.9374],[40.5064,38.2103,771.4711],[40.5121,38.195,767.0195],[40.5208,38.1893,763.9852],[40.5272,38.1891,771.5407],[40.5331,38.1912,780.3464],[40.5572,38.209,804.545],[40.5699,38.2157,814.0674],[40.6087,38.2205,794.4539],[40.6378,38.2289,848.3432],[40.6416,38.2393,854.1692],[40.6442,38.2685,1020.6871],[40.6426,38.2812,1059.6936],[40.6377,38.2919,1172.7712],[40.6205,38.3132,1108.7703],[40.5977,38.302,1028.5459],[40.5705,38.2917,1036.3947],[40.5524,38.2886,899.0803],[40.4104,38.2891,867.2438]]]]}
,"properties": {"GID_2": "TUR.26.10_1","GID_0": "TUR","country": "Turkey","GID_1": "TUR.26_1","province": "Diyarbakir","NL_NAME_1": "NA","county": "Kocaköy","VARNAME_2": "NA","NL_NAME_2": "NA","TYPE_2": "District","ENGTYPE_2": "District","CC_2": "NA","HASC_2": "TR.DY.KO","name": "Kocaköy.county","area_km2": 163.1659,"hist_schema_id": "Elevation0-9000","hist_area_km2": {"675": 0.4164,"700": 5.0456,"725": 8.7418,"750": 13.1716,"775": 29.5602,"800": 30.2396,"825": 22.827,"850": 13.3677,"875": 7.7571,"900": 4.4277,"925": 2.3137,"950": 1.9307,"975": 3.0293,"1000": 4.9933,"1025": 5.509,"1050": 4.0773,"1075": 2.8126,"1100": 1.0983,"1125": 0.6822,"1150": 0.4992,"1175": 0.2995,"1200": 0.1997,"1225": 0.1331,"1250": 0.0333}}}