{"type":"Feature","properties":{"GID_2":"TUR.80.1_1","GID_0":"TUR","country":"Turkey","GID_1":"TUR.80_1","province":"Yozgat","NL_NAME_1":"NA","county":"Akdağmadeni","VARNAME_2":"NA","NL_NAME_2":"NA","TYPE_2":"District","ENGTYPE_2":"District","CC_2":"NA","HASC_2":"TR.YZ.AK","name":"Akdağmadeni.county"},
"geometry":{"type": "MultiPolygon","coordinates": [[[[36.0662,39.5025,2147.7285],[36.0665,39.5256,1752.1582],[36.0692,39.5365,1811.8235],[36.0841,39.5598,1917.5693],[36.1068,39.5824,1853.0536],[36.122,39.6059,1524.9457],[36.1251,39.6141,1589.5917],[36.129,39.6382,1893.2439],[36.1382,39.6549,1670.4707],[36.1416,39.6654,1761.2784],[36.1567,39.6771,1853.2301],[36.1403,39.6869,1599.7844],[36.1224,39.6931,1706.8296],[36.1258,39.7039,1534.8978],[36.1274,39.7222,1416.0649],[36.1267,39.7373,1431.0756],[36.1239,39.746,1387.3986],[36.118,39.7534,1287.5803],[36.1103,39.7597,1327.9238],[36.0987,39.7666,1372.4058],[36.0807,39.7738,1391.2755],[36.07,39.7832,1339.2764],[36.063,39.8039,1331.8645],[36.0544,39.8206,1388.4583],[36.0514,39.8425,1267.3702],[36.0471,39.8527,1355.6621],[36.0383,39.8602,1333.9534],[36.0203,39.8675,1359.4647],[35.9966,39.8812,1347.7979],[35.9733,39.8919,1319.8987],[35.9655,39.8999,1134.3524],[35.962,39.91,1040.7648],[35.9219,39.9083,1146.3851],[35.8744,39.8904,1247.3184],[35.8603,39.8878,1238.3624],[35.8463,39.8886,1227.21],[35.8217,39.8964,1208.917],[35.806,39.8982,990.3127],[35.6881,39.8986,1058.3207],[35.6914,39.884,1120.9856],[35.692,39.8696,1212.1018],[35.6905,39.8583,1219.6073],[35.687,39.8506,1241.05],[35.6664,39.8299,1304.2915],[35.6526,39.8111,1143.2496],[35.5929,39.7628,1217.7612],[35.5882,39.7553,1211.5375],[35.5815,39.7344,1460.826],[35.5522,39.6875,1165.2427],[35.5417,39.6771,1216.9249],[35.5286,39.6689,1173.0005],[35.5184,39.667,1169.9998],[35.5052,39.6701,1155.1265],[35.4925,39.6787,1148.3118],[35.4831,39.6898,1201.7384],[35.4812,39.7036,1203.9653],[35.4835,39.7118,1232.962],[35.4925,39.7253,1188.6486],[35.5041,39.7494,1203.1343],[35.4707,39.7461,1317.0853],[35.4523,39.7373,1206.697],[35.4272,39.7164,1201.8998],[35.3865,39.653,1232.8892],[35.3674,39.6299,1246.2241],[35.403,39.6312,1190.1284],[35.4346,39.6305,1203.8027],[35.4493,39.6282,1213.7744],[35.4667,39.6225,1262.1384],[35.4766,39.622,1263.5383],[35.501,39.6288,1344.5564],[35.5357,39.633,1274.6854],[35.5609,39.6411,1271.0531],[35.5725,39.6424,1293.2472],[35.5922,39.6417,1254.9655],[35.6175,39.6338,1283.4535],[35.6445,39.6282,1334.6412],[35.6661,39.6211,1480.9644],[35.7082,39.6159,1497.7957],[35.7318,39.6076,1559.7339],[35.7434,39.6001,1533.0117],[35.7453,39.5931,1511.4606],[35.7303,39.569,1484.7246],[35.6965,39.5412,1497.5009],[35.6824,39.5263,1475.1034],[35.9629,39.5254,1850.281],[35.9749,39.5233,1871.7686],[36.0052,39.5123,1925.9833],[36.0349,39.5001,2152.5596],[36.0511,39.4909,2181.3755],[36.0662,39.5025,2147.7285]]]]}}