{"type": "Feature","bbox": [33.2401,37.933,34.3968,39.0081],"geometry": {"type": "MultiPolygon","coordinates": [[[[33.2495,38.265,964.2439],[33.2426,38.2552,965.8577],[33.2402,38.2473,967.3856],[33.2401,38.2154,981.8849],[33.2431,38.2016,995.658],[33.2805,38.1438,1009.5328],[33.2895,38.1179,1018.4083],[33.3626,38.0036,1051.4193],[33.3978,37.9712,1017.631],[33.4092,37.9551,1052.1394],[33.4184,37.9479,1022.4364],[33.4243,37.9453,1036.6697],[33.4544,37.9359,1031.1202],[33.4657,37.9339,1069.3608],[33.5075,37.933,1084.931],[33.5234,37.9354,1090.3906],[33.5451,37.9423,1100.647],[33.5569,37.9439,1101.7906],[33.5813,37.9458,1069.7672],[33.6387,37.9444,1044.0713],[33.6548,37.9461,1050.8112],[33.6765,37.9531,1040.1118],[33.6879,37.9551,1060.5929],[33.7783,37.9562,1087.0286],[33.7938,37.9585,1081.6117],[33.8153,37.9654,1069.6373],[33.8615,37.9688,1080.8131],[33.8944,37.9777,1074.8571],[33.9514,37.9802,1114.3525],[33.9807,37.9884,1111.2192],[34.0154,37.9924,1142.5286],[34.0632,38.01,1193.9764],[34.0742,38.0127,1213.5033],[34.1257,38.0138,1273.0651],[34.13,38.0268,1301.1542],[34.1469,38.052,1363.0291],[34.1569,38.0586,1391.3168],[34.1868,38.0701,1467.1995],[34.1973,38.0715,1565.9972],[34.2116,38.0705,1758.2823],[34.2546,38.054,1512.642],[34.2633,38.0538,1358.3536],[34.2684,38.056,1348.8418],[34.2743,38.0613,1334.1428],[34.283,38.0749,1457.75],[34.3015,38.0938,1659.2137],[34.3222,38.1266,1999.2764],[34.3298,38.135,1862.4558],[34.3663,38.1533,1876.3184],[34.3821,38.157,1951.2654],[34.3895,38.1619,1886.6692],[34.3931,38.1662,1863.9956],[34.3962,38.1769,1617.5867],[34.3951,38.1947,1536.7001],[34.3968,38.2247,1600.2988],[34.3945,38.2426,1647.8557],[34.379,38.2689,1553.2184],[34.3632,38.2909,1468.2955],[34.366,38.3081,1448.3088],[34.3666,38.3523,1212.6969],[34.3683,38.3677,1181.0166],[34.3791,38.3902,1182.3149],[34.384,38.4172,1190.2339],[34.3944,38.4389,1202.5884],[34.3901,38.448,1207.4291],[34.3795,38.4579,1218.7792],[34.3661,38.4663,1222.7219],[34.348,38.4734,1277.3446],[34.3463,38.4813,1259.041],[34.3355,38.5056,1186.4956],[34.333,38.5085,1184.5619],[34.3285,38.51,1182.6174],[34.3188,38.5365,1166.191],[34.3102,38.5502,1140.1709],[34.2896,38.5949,1117.666],[34.273,38.6205,1114.7051],[34.2543,38.6358,1116.4945],[34.2308,38.6458,1157.8667],[34.2234,38.6509,1150.4664],[34.2194,38.655,1145.5341],[34.2053,38.6778,1117.6936],[34.2047,38.6858,1110.6388],[34.2065,38.6908,1108.0159],[34.2443,38.7481,1263.3954],[34.2498,38.7667,1221.7535],[34.2593,38.7831,1088.3035],[34.2626,38.7937,1044.8663],[34.2401,38.7995,1119.9989],[34.222,38.8157,1104.2755],[34.1853,38.8743,957.8128],[34.1769,38.8821,945.8218],[34.1381,38.8971,984.2405],[34.0944,38.899,1032.4733],[34.0777,38.9036,1051.303],[34.0301,38.9384,1004.6001],[34.0059,38.9488,984.3459],[33.9948,38.9554,979.407],[33.9267,39.0081,934.6821],[33.9134,38.9991,880.3572],[33.9051,38.991,868.2032],[33.8902,38.9678,910.8489],[33.8883,38.9542,942.2581],[33.8903,38.9461,1011.3122],[33.8998,38.9299,1118.3752],[33.9057,38.9114,1124.6396],[33.9151,38.8951,1167.9298],[33.9208,38.8766,1220.9657],[33.9302,38.8601,1224.839],[33.9371,38.8351,1342.7991],[33.943,38.8347,1322.7734],[33.9469,38.8292,1305.5745],[33.9477,38.8185,1248.6622],[33.9447,38.8068,1316.8616],[33.924,38.7807,1282.123],[33.9151,38.778,1260.2435],[33.9035,38.7714,1261.384],[33.8437,38.725,1183.2715],[33.8256,38.7149,1262.4492],[33.8031,38.7122,1174.6132],[33.7083,38.7128,1010.8479],[33.6815,38.711,942.6498],[33.6602,38.7038,907.6375],[33.633,38.6985,904.8964],[33.5854,38.6799,905.8467],[33.5485,38.6682,905.4644],[33.5282,38.6579,905.0394],[33.4981,38.6463,904.728],[33.465,38.6365,902.5],[33.4572,38.6254,902.5],[33.4281,38.5999,902.5],[33.4144,38.5818,904.9802],[33.4073,38.5767,905.1873],[33.3874,38.5678,902.5],[33.3806,38.5624,905.0579],[33.3641,38.5373,908.2236],[33.3575,38.516,916.5813],[33.3492,38.5022,919.3435],[33.3425,38.4811,924.7853],[33.3341,38.4674,929.5359],[33.3273,38.4462,932.6484],[33.3181,38.4295,940.984],[33.3129,38.4026,946.6771],[33.3039,38.3859,951.7648],[33.3016,38.3778,951.626],[33.3014,38.347,953.7654],[33.2888,38.3276,955.2179],[33.2809,38.3041,955.9363],[33.2655,38.2807,961.8292],[33.2495,38.265,964.2439]]]]}
,"properties": {"GID_1": "TUR.5_1","GID_0": "TUR","country": "Turkey","province": "Aksaray","VARNAME_1": "NA","NL_NAME_1": "NA","TYPE_1": "Il","ENGTYPE_1": "Province","CC_1": "NA","HASC_1": "TR.AK","ISO_1": "TR-68","name": "Aksaray.province","area_km2": 7624.902,"hist_schema_id": "Elevation0-9000","hist_area_km2": {"875": 2.736,"900": 869.071,"925": 888.002,"950": 647.442,"975": 478.824,"1000": 429.799,"1025": 463.412,"1050": 427.096,"1075": 429.699,"1100": 438.604,"1125": 311.028,"1150": 252.468,"1175": 260.179,"1200": 212.056,"1225": 174.233,"1250": 167.774,"1275": 161.177,"1300": 178.971,"1325": 119.766,"1350": 89.984,"1375": 72.079,"1400": 61.042,"1425": 53.604,"1450": 44.745,"1475": 42.304,"1500": 30.152,"1525": 25.953,"1550": 20.984,"1575": 20.106,"1600": 18.437,"1625": 17.912,"1650": 16.55,"1675": 14.39,"1700": 14.841,"1725": 12.478,"1750": 12.698,"1775": 10.868,"1800": 9.632,"1825": 9.301,"1850": 10.837,"1875": 8.135,"1900": 6.902,"1925": 6.584,"1950": 6.386,"1975": 5.252,"2000": 4.818,"2025": 4.469,"2050": 4.552,"2075": 3.919,"2100": 3.085,"2125": 3.252,"2150": 2.986,"2175": 2.802,"2200": 2.252,"2225": 2.052,"2250": 2.352,"2275": 2.118,"2300": 2.635,"2325": 2.268,"2350": 1.801,"2375": 1.868,"2400": 1.668,"2425": 1.534,"2450": 1.368,"2475": 1.418,"2500": 1.218,"2525": 1.401,"2550": 1.334,"2575": 1.234,"2600": 1.218,"2625": 1.118,"2650": 0.817,"2675": 0.801,"2700": 0.851,"2725": 0.617,"2750": 0.751,"2775": 0.634,"2800": 0.684,"2825": 0.4,"2850": 0.65,"2875": 0.434,"2900": 0.584,"2925": 0.3,"2950": 0.35,"2975": 0.267,"3000": 0.5,"3025": 0.15,"3050": 0.167,"3075": 0.1,"3100": 0.117,"3125": 0.167,"3175": 0.133,"3200": 0.1}}}