{"type": "Feature","bbox": [33.13848716991518,38.484396666885118,33.7428167229165,39.152308871346889],"geometry": {"type": "Polygon","coordinates": [[[33.430790748156937,38.960383460457024,904.0],[33.444331498004971,38.963621465855482,904.0],[33.459932796742947,38.9777509439578,905.615],[33.472590454209609,38.980988949356259,910.5124],[33.468469356429779,38.992763514441521,915.0544],[33.442270949115056,39.044865964943824,919.1348],[33.366030640187944,39.118162632599621,958.381],[33.345130787161622,39.147010317058516,934.3466],[33.338066048110448,39.152308871346889,921.2682],[33.32481966238953,39.150837050711232,912.2526],[33.28301995633683,39.131703382447654,911.351],[33.2892016030066,39.117868268472478,905.9862],[33.30980709190581,39.102855697988758,907.7219],[33.317754923338356,39.090786768776354,922.6425],[33.317460559211241,39.079306567818236,912.6766],[33.305097265871694,39.061055991936058,912.2441],[33.30391980936318,39.0492814268508,911.3144],[33.309218363651553,39.036035041129878,911.6628],[33.326291483025187,39.009542269688012,913.387],[33.332473129694961,38.995412791585693,906.5696],[33.334533678584876,38.983932590627575,907.18],[33.332473129694961,38.957439819185709,914.3567],[33.322464749372472,38.938306150922159,902.5],[33.298915619201949,38.929475227108213,960.2912],[33.2456357121911,38.9265315858369,909.1855],[33.219437304876379,38.920349939167124,908.4846],[33.20206982137563,38.904748640429148,907.198],[33.146729365474869,38.779349522271048,902.5],[33.13848716991518,38.738138544472633,902.5],[33.153205376271757,38.707230311123794,905.2011],[33.187351615019026,38.688096642860245,905.446],[33.264769380454652,38.657777137765663,902.5],[33.296560706184891,38.638349105375,902.5],[33.354844803356968,38.582714285347095,904.9221],[33.420782367834448,38.5632862529564,905.2278],[33.462582073887148,38.53885403040448,905.7654],[33.479066465006525,38.535321660878907,905.4853],[33.497905769142932,38.528845650082019,905.5399],[33.508208513592564,38.514127443725414,905.5383],[33.51703943740651,38.498231780860323,905.7283],[33.530580187254571,38.487634672283576,905.7455],[33.541471659958432,38.484396666885118,905.6035],[33.550008219645264,38.49705432435178,905.8269],[33.558544779332067,38.516187992615357,905.8837],[33.568258795527413,38.531789291353334,905.658],[33.584448822519647,38.54474131294711,904.4512],[33.590041740935163,38.550628595489741,904.0],[33.598872664749109,38.597432491703671,905.6336],[33.629486533970805,38.615094339331591,905.6221],[33.711025397186262,38.621570350128479,912.5101],[33.7428167229165,38.630990002196683,922.2446],[33.7428167229165,38.638349105375,930.6928],[33.716029587347521,38.640409654264914,913.632],[33.698662103846743,38.6468856650618,911.9607],[33.686298810507225,38.659543322528464,909.3299],[33.652741300014213,38.713411957793568,905.4304],[33.643910376200267,38.7313681695486,909.872],[33.640378006674666,38.751679294320667,904.9266],[33.629486533970805,38.786414261322221,912.7993],[33.584154458392533,38.846464543257071,909.9888],[33.5782671758499,38.891796618835343,911.5502],[33.571496800925871,38.891796618835343,911.9786],[33.547358942501063,38.803781744823,912.8452],[33.547358942501063,38.789357902593537,905.932],[33.552657496789436,38.779349522271048,905.2087],[33.555306773933609,38.7610989463889,909.8774],[33.546770214246806,38.75285675082921,939.9669],[33.426080922122821,38.850585641036929,943.1417],[33.41754436243599,38.859710928977989,909.9252],[33.413717628783274,38.867658760410563,906.8419],[33.416955634181733,38.87737277660591,903.0],[33.43432311768251,38.913285200115979,907.6371],[33.426375286249964,38.9247654010741,906.6079],[33.420488003707305,38.940366699812074,904.9262],[33.420488003707305,38.954496177914393,907.3098],[33.430790748156937,38.960383460457024,904.0]]]}
,"properties": {"featurecla": "Alkaline Lake","scalerank": 4,"name": "Lake Tuz","name_abb": "L. Tuz","name_alt": null,"note": null,"delta": null,"dam_name": null,"year": -99,"admin": null,"min_zoom": 4.0,"min_label": 5.0,"area_km2": 1564.071,"hist_schema_id": "Elevation0-9000","hist_area_km2": {"900": 1541.999,"925": 18.499,"950": 2.521,"975": 0.625,"1000": 0.378,"1025": 0.049}}}