{"type":"Feature","properties":{"ISO3166-1-Alpha-3":"TUR","country":"Turkey","fill":"#F0F","id":"3021","name":"Aksaray"},
"geometry":{"type": "Polygon","coordinates": [[[33.98524,38.97958,982.5118],[33.9438,38.98524,971.1322],[33.93005,39.00108,971.5286],[33.89667,38.93499,1083.7599],[33.93656,38.85045,1208.6134],[33.93326,38.79226,1303.2708],[33.84975,38.73012,1166.0886],[33.81161,38.71541,1186.2629],[33.72242,38.71764,1197.2207],[33.63539,38.6987,904.8493],[33.55354,38.66198,905.5452],[33.46662,38.64358,902.5],[33.4474,38.61612,902.5],[33.38952,38.56486,905.2349],[33.3675,38.53152,909.1665],[33.35303,38.45264,931.4362],[33.31769,38.40983,945.8063],[33.29402,38.35712,953.0369],[33.28813,38.32012,955.6416],[33.27211,38.28604,960.822],[33.26467,38.20446,987.7686],[33.30115,38.12705,1017.1113],[33.31428,38.11984,1019.3451],[33.32513,38.10884,1021.7765],[33.33309,38.0677,1027.463],[33.34849,38.0292,1043.4727],[33.41546,37.96373,1062.9153],[33.45608,37.93324,1033.4974],[33.49969,37.93179,1071.5151],[33.61886,37.9521,1065.3737],[33.77461,37.96084,1101.9489],[33.85378,37.95781,1071.1549],[33.93212,37.9736,1083.3296],[34.00943,37.99815,1106.8367],[34.08488,38.01181,1219.9778],[34.15981,38.00225,1252.0151],[34.48981,38.38851,1289.9958],[34.45188,38.40779,1260.4431],[34.41881,38.43486,1201.1403],[34.37757,38.46003,1214.137],[34.3601,38.47321,1229.1492],[34.35928,38.52158,1269.8785],[34.38946,38.57175,1326.6334],[34.38078,38.61744,1167.3665],[34.3599,38.6224,1170.1189],[34.3167,38.61578,1132.045],[34.26647,38.62741,1130.0626],[34.22037,38.65079,1149.3374],[34.20621,38.70136,1098.4973],[34.24084,38.74645,1235.1641],[34.25748,38.79701,1033.2892],[34.22482,38.88641,915.7117],[34.23567,38.92685,863.2491],[34.21417,38.92274,908.5613],[34.17066,38.92819,966.6232],[34.14978,38.9229,996.7867],[34.09966,38.89995,1031.1217],[34.06028,38.92706,1135.4976],[34.04591,38.96703,1096.9517],[34.00664,38.98077,946.2082],[33.98524,38.97958,982.5118]]]}}