{"type": "Feature","bbox": [29.1339,41.0278,29.3864,41.1303],"geometry": {"type": "MultiPolygon","coordinates": [[[[29.1339,41.0512,95.6847],[29.1417,41.0512,134.0678],[29.1597,41.0452,162.9902],[29.1794,41.0278,126.9473],[29.2088,41.0296,146.4076],[29.2298,41.035,132.9868],[29.2346,41.0398,135.944],[29.2442,41.0404,146.172],[29.2514,41.044,203.2776],[29.2616,41.0584,133.102],[29.27,41.0626,158.9654],[29.2801,41.0632,237.085],[29.3125,41.0608,164.4796],[29.3263,41.0554,160.3348],[29.3383,41.0542,26.1321],[29.3431,41.044,94.6752],[29.3497,41.038,108.8532],[29.3611,41.0398,58.5],[29.366,41.0447,58.5],[29.3569,41.048,63.8221],[29.3832,41.0892,164.4592],[29.3864,41.0998,145.4487],[29.3858,41.108,182.8761],[29.3837,41.1132,160.1396],[29.3785,41.1193,154.3989],[29.3653,41.1284,183.3288],[29.3622,41.1273,195.1547],[29.3353,41.1273,98.1111],[29.3179,41.1303,42.362],[29.2855,41.1303,23.7305],[29.2741,41.1243,15.3622],[29.2544,41.1177,81.9899],[29.2466,41.1111,118.8448],[29.237,41.1081,132.4985],[29.2244,41.1087,129.1402],[29.2196,41.1075,121.205],[29.2172,41.1039,128.5436],[29.2088,41.0997,205.2716],[29.2052,41.0955,273.3466],[29.1998,41.0859,224.756],[29.1974,41.0691,230.2248],[29.1938,41.0656,217.801],[29.1621,41.0644,200.7207],[29.1549,41.062,150.2745],[29.1459,41.0614,112.0175],[29.1411,41.056,86.0117],[29.1339,41.0512,95.6847]]]]}
,"properties": {"GID_2": "TUR.40.16_1","GID_0": "TUR","country": "Turkey","GID_1": "TUR.40_1","province": "Istanbul","NL_NAME_1": "NA","county": "Çekmekoy","VARNAME_2": "NA","NL_NAME_2": "NA","TYPE_2": "District","ENGTYPE_2": "District","CC_2": "NA","HASC_2": "NA","name": "Çekmekoy.county","area_km2": 132.6801,"hist_schema_id": "Elevation0-9000","hist_area_km2": {"-25": 0.0479,"0": 2.6997,"25": 15.4191,"50": 13.4065,"75": 12.1283,"100": 12.9116,"125": 13.1192,"150": 16.2064,"175": 16.7523,"200": 12.085,"225": 7.8972,"250": 4.0924,"275": 2.0301,"300": 1.6945,"325": 0.8632,"350": 0.4636,"375": 0.3517,"400": 0.4476,"425": 0.0639}}}