{"type":"Feature","properties":{"GID_2":"TUR.32.7_1","GID_0":"TUR","country":"Turkey","GID_1":"TUR.32_1","province":"Eskisehir","NL_NAME_1":"NA","county":"Mahmudiye","VARNAME_2":"NA","NL_NAME_2":"NA","TYPE_2":"District","ENGTYPE_2":"District","CC_2":"NA","HASC_2":"TR.ES.MA","name":"Mahmudiye.county"},
"geometry":{"type": "MultiPolygon","coordinates": [[[[30.9377,39.673,934.7737],[30.9112,39.6533,931.4296],[30.8963,39.6334,904.3152],[30.8896,39.6278,906.6205],[30.8773,39.6232,898.3613],[30.8482,39.6195,901.8832],[30.8585,39.6006,926.65],[30.8824,39.5636,908.696],[30.8849,39.555,946.4904],[30.886,39.543,937.8963],[30.8841,39.5129,978.9404],[30.8727,39.491,1012.8031],[30.8667,39.4726,989.2358],[30.8575,39.4561,956.7996],[30.855,39.4314,924.5547],[30.9013,39.4156,911.097],[30.9128,39.4137,905.1605],[31.0066,39.4129,879.4219],[31.0304,39.4146,893.7101],[31.0942,39.4386,887.6628],[31.1237,39.4557,866.08],[31.1453,39.465,886.8766],[31.1687,39.4791,918.2957],[31.1931,39.4886,942.957],[31.2072,39.5019,986.3135],[31.2087,39.5063,1007.3838],[31.2081,39.5106,1028.6641],[31.203,39.5215,1033.1436],[31.2013,39.5295,1023.2992],[31.2025,39.549,1076.925],[31.2184,39.5752,1155.7756],[31.2295,39.588,1115.2732],[31.1847,39.624,935.4657],[31.1647,39.6443,844.8903],[31.1399,39.6557,840.4755],[31.1114,39.6614,817.5428],[31.0874,39.6683,835.5304],[31.0484,39.6686,862.4356],[31.0121,39.6586,994.9857],[30.9849,39.6571,990.2789],[30.9656,39.6591,986.5151],[30.9589,39.6612,965.6639],[30.9377,39.673,934.7737]]]]}}