{"type": "Feature","bbox": [27.9921,37.0118,28.9283,37.4952],"geometry": {"type": "MultiPolygon","coordinates": [[[[28.5165,37.4952,693.3292],[28.4992,37.4745,1248.4723],[28.4951,37.467,1265.6248],[28.4931,37.4553,1102.1804],[28.4917,37.4192,706.8383],[28.4886,37.4111,622.9262],[28.4602,37.3671,1065.5193],[28.4541,37.3612,1348.0433],[28.4285,37.3491,1500.8237],[28.3984,37.3321,1598.7319],[28.368,37.3211,1535.6001],[28.3439,37.317,1141.5448],[28.2837,37.2942,800.198],[28.2362,37.2634,482.1298],[28.206,37.2522,677.5477],[28.1784,37.2474,477.2177],[28.1485,37.2361,602.6191],[28.1385,37.2298,603.468],[28.1279,37.2183,952.7379],[28.104,37.2045,1178.304],[28.0716,37.179,1126.7183],[28.0716,37.157,1140.1909],[28.0677,37.1436,1043.1851],[28.0523,37.1203,1051.4445],[28.0337,37.1023,424.9328],[28.0216,37.0856,480.1893],[28.0014,37.0653,268.3039],[27.9972,37.0546,117.6392],[27.9968,37.0461,427.2163],[28.0002,37.0278,129.8592],[27.9921,37.0279,0.0],[27.9968,37.0276,46.648],[28.004,37.0235,0.0],[28.026,37.0215,0.0],[28.0657,37.0249,0.0],[28.0693,37.0224,23.7415],[28.0788,37.0215,0.0],[28.0807,37.0229,2.5384],[28.0807,37.0254,8.0741],[28.0837,37.0246,0.0],[28.0876,37.0288,34.7901],[28.0912,37.0265,0.0],[28.0901,37.021,1.5966],[28.0932,37.0207,6.8156],[28.096,37.0229,29.1833],[28.101,37.0204,0.0],[28.0987,37.0182,0.0],[28.1001,37.0163,18.045],[28.0968,37.0151,7.4244],[28.0974,37.0126,0.0],[28.0999,37.0118,0.0],[28.1157,37.0154,0.0],[28.1118,37.019,40.7464],[28.1143,37.021,0.0],[28.1135,37.0235,31.6883],[28.0979,37.0285,11.0365],[28.0976,37.0304,0.0],[28.101,37.0346,3.7474],[28.1201,37.0346,10.6076],[28.131,37.0313,13.3447],[28.1535,37.031,23.5415],[28.1637,37.0285,0.0],[28.1704,37.0299,0.0],[28.1771,37.0337,0.0],[28.1857,37.0337,0.0],[28.1915,37.0385,0.757],[28.1976,37.0399,3.3038],[28.2179,37.0407,7.9728],[28.2226,37.0393,2.8647],[28.2299,37.0412,22.076],[28.2412,37.0385,0.0],[28.2468,37.0412,10.9581],[28.2537,37.0407,11.8027],[28.2671,37.0446,4.3356],[28.2743,37.0493,46.3171],[28.2899,37.0471,28.9384],[28.3071,37.0488,24.6408],[28.3107,37.0513,10.8844],[28.3137,37.049,15.1643],[28.3201,37.0501,0.0],[28.3224,37.052,0.0],[28.312,37.0634,269.8924],[28.3126,37.0747,671.9344],[28.3156,37.0856,897.1417],[28.3367,37.1089,642.4822],[28.3464,37.1233,626.2366],[28.3531,37.1302,770.3337],[28.3669,37.1398,643.4274],[28.3771,37.1436,878.924],[28.3926,37.1452,817.9741],[28.449,37.1448,910.0252],[28.4686,37.146,914.3026],[28.5012,37.1551,770.4349],[28.5475,37.1582,920.98],[28.5988,37.1772,930.6504],[28.6285,37.18,974.068],[28.6775,37.1802,995.2784],[28.6955,37.1773,1067.2426],[28.7041,37.17,938.3745],[28.7154,37.15,959.5233],[28.7713,37.1669,1006.694],[28.7948,37.1681,1182.6792],[28.8626,37.1676,1306.2496],[28.8816,37.1702,1453.3834],[28.8916,37.1748,1274.3618],[28.9033,37.183,1180.9116],[28.9283,37.2068,767.0852],[28.8816,37.2235,710.0818],[28.8577,37.2278,680.4996],[28.8299,37.2366,649.8422],[28.7979,37.2391,703.1802],[28.7862,37.2443,670.9906],[28.7783,37.2526,725.9338],[28.767,37.2711,823.4352],[28.7641,37.2791,961.1251],[28.7631,37.2879,798.6389],[28.762,37.3243,668.0307],[28.7602,37.33,660.0979],[28.744,37.3553,500.5992],[28.7344,37.3622,472.4743],[28.7282,37.3645,536.3612],[28.7048,37.369,459.7211],[28.6831,37.3756,577.864],[28.6446,37.3773,360.0698],[28.6334,37.3787,414.9951],[28.624,37.3825,624.9024],[28.6159,37.3905,635.5096],[28.6125,37.4028,426.6055],[28.6136,37.4527,417.5602],[28.6129,37.468,564.402],[28.6104,37.4749,476.7016],[28.6073,37.4772,470.7562],[28.573,37.4841,631.3185],[28.548,37.4922,524.5421],[28.5165,37.4952,693.3292]]]]}
,"properties": {"GID_2": "TUR.59.8_1","GID_0": "TUR","country": "Turkey","GID_1": "TUR.59_1","province": "Mugla","NL_NAME_1": "NA","county": "Merkez","VARNAME_2": "MuglaMerkezi","NL_NAME_2": "NA","TYPE_2": "District","ENGTYPE_2": "District","CC_2": "NA","HASC_2": "TR.MG.MG","name": "Merkez.county","area_km2": 1697.965,"hist_schema_id": "Elevation0-9000","hist_area_km2": {"0": 2.59,"25": 3.046,"50": 3.199,"75": 3.249,"100": 3.317,"125": 3.266,"150": 3.587,"175": 3.79,"200": 4.772,"225": 5.296,"250": 5.736,"275": 5.686,"300": 6.089,"325": 6.576,"350": 7.063,"375": 9.454,"400": 11.93,"425": 18.455,"450": 23.175,"475": 36.345,"500": 32.9,"525": 34.505,"550": 36.652,"575": 36.401,"600": 38.866,"625": 79.863,"650": 64.315,"675": 62.51,"700": 65.719,"725": 64.064,"750": 66.311,"775": 64.717,"800": 57.139,"825": 50.964,"850": 51.264,"875": 51.685,"900": 50.97,"925": 51.242,"950": 43.626,"975": 40.311,"1000": 36.882,"1025": 35.869,"1050": 39.87,"1075": 38.366,"1100": 36.257,"1125": 34.858,"1150": 33.0,"1175": 30.874,"1200": 28.661,"1225": 26.329,"1250": 20.485,"1275": 19.252,"1300": 15.42,"1325": 13.934,"1350": 11.791,"1375": 10.408,"1400": 8.975,"1425": 7.962,"1450": 6.529,"1475": 5.533,"1500": 5.112,"1525": 5.044,"1550": 3.914,"1575": 3.121,"1600": 2.361,"1625": 1.804,"1650": 1.248,"1675": 1.045,"1700": 0.675,"1725": 0.573,"1750": 0.455,"1775": 0.169,"1800": 0.202,"1825": 0.236,"1850": 0.101}}}