{"type": "Feature","bbox": [27.0237,38.3477,27.090699999999998,38.4154],"geometry": {"type": "MultiPolygon","coordinates": [[[[27.0237,38.4143,0.0],[27.0237,38.4055,6.887],[27.0269,38.3967,20.4365],[27.0375,38.3798,80.7314],[27.0475,38.3717,267.5991],[27.0637,38.3477,268.0389],[27.0794,38.3504,375.3517],[27.0869,38.3542,298.03],[27.090699999999998,38.3623,241.9319],[27.0901,38.3999,2.8064],[27.0854,38.3985,6.9091],[27.074,38.4018,1.4336],[27.0704,38.4046,0.0],[27.0713,38.4063,0.0],[27.0651,38.4087,2.3768],[27.0596,38.4154,2.1874],[27.0382,38.4107,0.0],[27.028199999999998,38.4146,0.0],[27.0237,38.4143,0.0]]]]}
,"properties": {"GID_2": "TUR.41.2_1","GID_0": "TUR","country": "Turkey","GID_1": "TUR.41_1","province": "Izmir","NL_NAME_1": "NA","county": "Balçova","VARNAME_2": "NA","NL_NAME_2": "NA","TYPE_2": "District","ENGTYPE_2": "District","CC_2": "NA","HASC_2": "TR.IZ.BA","name": "Balçova.county","area_km2": 28.40297,"hist_schema_id": "Elevation0-9000","hist_area_km2": {"0": 6.96167,"25": 5.00186,"50": 2.21033,"75": 1.37944,"100": 1.0471,"125": 1.11361,"150": 1.14688,"175": 1.14691,"200": 1.13034,"225": 1.31328,"250": 1.1803,"275": 0.83119,"300": 0.89774,"325": 0.71487,"350": 1.01411,"375": 0.48212,"400": 0.51537,"425": 0.26599,"450": 0.03325,"475": 0.01663}}}