{"type": "Feature","bbox": [28.2689,37.7736,28.6684,38.1136],"geometry": {"type": "MultiPolygon","coordinates": [[[[28.5086,37.8485,664.8199],[28.4909,37.8772,98.4999],[28.4703,37.8979,72.7554],[28.4658,37.9051,71.4039],[28.4637,37.9134,117.0416],[28.463,37.9277,289.0357],[28.464,37.9391,581.177],[28.4667,37.9473,765.6383],[28.4742,37.9561,1037.9735],[28.4867,37.9652,871.3726],[28.5139,37.9767,732.0284],[28.5468,37.9993,878.3213],[28.5743,38.0113,1321.807],[28.5962,38.0265,1613.6594],[28.6058,38.0351,1369.4171],[28.6112,38.0423,1157.3551],[28.6159,38.0581,888.6284],[28.6197,38.0654,893.3636],[28.6258,38.0711,986.8572],[28.6421,38.0812,1151.35],[28.6684,38.1136,612.3709],[28.5599,38.1087,1315.0955],[28.5257,38.0972,1175.6128],[28.448,38.0671,952.0576],[28.4208,38.0618,974.5735],[28.3992,38.0547,525.2939],[28.3153,38.0386,906.6663],[28.2777,38.0276,1377.7354],[28.2718,38.0238,1247.7444],[28.2689,38.0007,1026.6632],[28.271,37.9868,712.2748],[28.2806,37.9743,555.8204],[28.3092,37.9498,339.5277],[28.3233,37.9288,123.5436],[28.327,37.9212,104.5689],[28.3287,37.9125,84.5889],[28.3287,37.8523,56.6791],[28.3437,37.8431,57.329],[28.3541,37.833,67.8068],[28.3575,37.8253,122.7913],[28.3614,37.7977,280.9751],[28.3729,37.7803,202.4795],[28.377,37.7766,311.8614],[28.3894,37.7736,415.7857],[28.3996,37.7744,497.5009],[28.4328,37.7868,886.8309],[28.4419,37.7918,1182.5664],[28.4572,37.8045,1352.8087],[28.4685,37.8215,1129.0784],[28.4777,37.8306,989.0911],[28.4917,37.8404,783.7145],[28.5086,37.8485,664.8199]]]]}
,"properties": {"GID_2": "TUR.11.14_1","GID_0": "TUR","country": "Turkey","GID_1": "TUR.11_1","province": "Aydin","NL_NAME_1": "NA","county": "Nazilli","VARNAME_2": "NA","NL_NAME_2": "NA","TYPE_2": "District","ENGTYPE_2": "District","CC_2": "NA","HASC_2": "TR.AY.NA","name": "Nazilli.county","area_km2": 571.8075,"hist_schema_id": "Elevation0-9000","hist_area_km2": {"50": 18.4956,"75": 63.7534,"100": 20.1417,"125": 10.8569,"150": 9.6847,"175": 8.6307,"200": 9.5667,"225": 10.1516,"250": 10.7041,"275": 12.359,"300": 11.8569,"325": 10.4518,"350": 8.8796,"375": 8.0101,"400": 8.6623,"425": 8.5951,"450": 8.6956,"475": 8.6947,"500": 7.7579,"525": 8.6093,"550": 8.3425,"575": 9.0765,"600": 8.875,"625": 9.4933,"650": 9.2083,"675": 8.5729,"700": 8.5898,"725": 8.8562,"750": 9.2567,"775": 9.4733,"800": 10.559,"825": 11.5772,"850": 12.1953,"875": 13.3635,"900": 13.9303,"925": 13.7634,"950": 12.8959,"975": 12.5605,"1000": 11.992,"1025": 11.4745,"1050": 10.3213,"1075": 9.7366,"1100": 9.0521,"1125": 7.8839,"1150": 8.1679,"1175": 7.0318,"1200": 6.2301,"1225": 5.9627,"1250": 5.2772,"1275": 5.3611,"1300": 4.375,"1325": 3.2064,"1350": 2.6051,"1375": 2.1711,"1400": 1.8035,"1425": 1.4028,"1450": 0.9185,"1475": 0.6847,"1500": 0.6513,"1525": 0.2338,"1550": 0.0835,"1575": 0.0334}}}