{"type": "Feature","bbox": [30.0029,37.7026,30.4009,38.0507],"geometry": {"type": "MultiPolygon","coordinates": [[[[30.0105,37.7723,1452.4971],[30.0029,37.7549,1587.5316],[30.0187,37.7407,1224.6296],[30.0339,37.7193,1180.3029],[30.0468,37.709,1043.2928],[30.0563,37.7044,1020.3491],[30.0669,37.7026,990.3976],[30.0812,37.7035,841.0],[30.1144,37.716,841.0],[30.144,37.7337,841.0],[30.1651,37.7422,841.0],[30.2013,37.7672,841.0],[30.2306,37.7804,841.0],[30.2737,37.8123,886.9104],[30.2974,37.8226,971.3379],[30.3209,37.8371,864.6779],[30.3295,37.8399,857.7186],[30.3378,37.84,855.2143],[30.3575,37.8331,851.4188],[30.371,37.8303,850.0162],[30.3766,37.8376,851.2551],[30.3861,37.8419,853.1348],[30.388,37.8579,856.6638],[30.399,37.8807,880.4791],[30.4004,37.8867,894.3228],[30.4009,37.8958,927.9167],[30.399,37.9078,999.5294],[30.39,37.9245,1122.4761],[30.3869,37.9369,1152.611],[30.3853,38.0347,1312.7931],[30.3793,38.0377,1270.5208],[30.3576,38.0422,1450.4902],[30.3331,38.0507,1406.5795],[30.322,38.0463,1612.4021],[30.298,38.0319,1492.0387],[30.2738,38.0216,1033.0535],[30.2296,37.9877,1163.7657],[30.2236,37.9809,1004.4731],[30.2092,37.9575,1012.8083],[30.2028,37.9246,1365.5028],[30.1826,37.9012,1437.8214],[30.2017,37.8672,1661.0786],[30.2034,37.8622,1624.7614],[30.2024,37.8543,1428.5012],[30.1671,37.8139,1062.2542],[30.1416,37.8019,1071.2223],[30.1173,37.7873,1085.1027],[30.0844,37.7747,1761.0791],[30.0646,37.7722,1717.2638],[30.0105,37.7723,1452.4971]]]]}
,"properties": {"GID_2": "TUR.39.6_1","GID_0": "TUR","country": "Turkey","GID_1": "TUR.39_1","province": "Isparta","NL_NAME_1": "NA","county": "Keçiborlu","VARNAME_2": "NA","NL_NAME_2": "NA","TYPE_2": "District","ENGTYPE_2": "District","CC_2": "NA","HASC_2": "TR.IP.KE","name": "Keçiborlu.county","area_km2": 506.4417,"hist_schema_id": "Elevation0-9000","hist_area_km2": {"850": 54.0959,"875": 27.7125,"900": 19.8739,"925": 21.9288,"950": 23.7999,"975": 20.1484,"1000": 20.483,"1025": 21.9394,"1050": 21.9694,"1075": 21.1143,"1100": 19.9247,"1125": 18.5518,"1150": 17.6484,"1175": 18.1673,"1200": 17.5802,"1225": 15.7061,"1250": 12.444,"1275": 11.7085,"1300": 13.095,"1325": 13.0436,"1350": 11.3899,"1375": 10.6884,"1400": 10.7394,"1425": 9.7361,"1450": 6.7088,"1475": 6.1249,"1500": 6.4091,"1525": 5.8406,"1550": 4.552,"1575": 4.1336,"1600": 3.7319,"1625": 3.263,"1650": 2.5276,"1675": 2.2767,"1700": 1.6069,"1725": 1.5736,"1750": 1.3066,"1775": 1.2393,"1800": 0.6533,"1825": 0.4188,"1850": 0.3182,"1875": 0.2009,"1900": 0.067}}}