{"type":"Feature","properties":{"GID_2":"TUR.25.16_1","GID_0":"TUR","country":"Turkey","GID_1":"TUR.25_1","province":"Denizli","NL_NAME_1":"NA","county":"Merkez","VARNAME_2":"DenizliMerkez","NL_NAME_2":"NA","TYPE_2":"District","ENGTYPE_2":"District","CC_2":"NA","HASC_2":"TR.DN.DN","name":"Merkez.county"},
"geometry":{"type": "MultiPolygon","coordinates": [[[[29.0176,37.8787,201.2864],[29.0185,37.8665,221.3169],[29.0163,37.8555,251.4094],[28.9866,37.8089,541.9429],[28.9774,37.7976,619.0958],[28.9728,37.7453,1072.4343],[28.9709,37.7392,1216.519],[28.9527,37.7057,1998.9692],[28.9872,37.6835,1487.5565],[29.0653,37.6529,1089.9231],[29.0743,37.6457,1142.3176],[29.0855,37.6305,1073.9048],[29.0958,37.6243,1139.8265],[29.1095,37.6218,1074.797],[29.1459,37.6202,1139.8826],[29.1774,37.6112,1105.1001],[29.2128,37.6093,1199.7679],[29.2251,37.6165,1239.812],[29.2341,37.6197,1178.3502],[29.2633,37.621,1046.4902],[29.2576,37.6412,1120.0057],[29.2527,37.6488,1266.4343],[29.2104,37.6828,790.2023],[29.2038,37.6898,752.7105],[29.2009,37.695,737.1449],[29.199,37.7061,915.1938],[29.2014,37.7228,720.2676],[29.21,37.7367,861.3468],[29.2138,37.7471,764.2068],[29.2144,37.7555,569.4429],[29.2122,37.7693,454.3258],[29.203,37.785,376.7458],[29.2021,37.7903,353.6429],[29.206,37.8005,264.5894],[29.22,37.8133,279.215],[29.2396,37.8261,371.1082],[29.2494,37.8297,411.2917],[29.2737,37.8335,431.7048],[29.2977,37.8403,495.4734],[29.2797,37.8648,531.9262],[29.2702,37.8906,746.4153],[29.2318,37.9513,1159.7596],[29.2296,37.9663,1217.0742],[29.2305,37.9816,1362.6055],[29.2339,37.9931,1325.5621],[29.2414,38.004,1227.7802],[29.2447,38.0138,1133.0226],[29.2438,38.0212,1070.6055],[29.2405,38.0256,1015.8014],[29.2277,38.0296,1081.1377],[29.182,38.0293,1158.1449],[29.1167,38.0072,778.3807],[29.1365,37.9814,872.7278],[29.1427,37.9517,665.4659],[29.1516,37.935,639.4518],[29.1541,37.9264,488.3709],[29.1556,37.9022,338.2014],[29.1542,37.8842,243.6253],[29.1512,37.876,227.2039],[29.142,37.8633,199.7486],[29.1361,37.8577,198.0205],[29.127,37.855,194.5183],[29.1137,37.8556,197.1903],[29.06,37.8761,262.6877],[29.0176,37.8787,201.2864]]]]}}