{"type":"Feature","properties":{"GID_2":"TUR.21.14_1","GID_0":"TUR","country":"Turkey","GID_1":"TUR.21_1","province":"Bursa","NL_NAME_1":"NA","county":"Orhangazi","VARNAME_2":"NA","NL_NAME_2":"NA","TYPE_2":"District","ENGTYPE_2":"District","CC_2":"NA","HASC_2":"TR.BU.OG","name":"Orhangazi.county"},
"geometry":{"type": "MultiPolygon","coordinates": [[[[29.3254,40.369,933.439],[29.4906,40.368899999999996,503.8693],[29.491,40.4475,83.0],[29.4893,40.4666,83.0],[29.4786,40.4895,83.0],[29.4752,40.5215,408.3878],[29.4724,40.5308,429.7369],[29.4526,40.5552,500.6991],[29.431,40.5603,374.4225],[29.3996,40.576,568.4843],[29.3627,40.58,372.9667],[29.3361,40.5687,647.2632],[29.3012,40.5649,320.6416],[29.2794,40.558,361.3815],[29.2676,40.556,371.9336],[29.2383,40.5551,516.9692],[29.2058,40.5563,557.1746],[29.2055,40.4403,142.3643],[29.2083,40.4281,99.6949],[29.2211,40.4073,439.2137],[29.2266,40.4008,326.5412],[29.2339,40.3956,342.9357],[29.2606,40.3852,745.2966],[29.2742,40.3818,778.4496],[29.3051,40.3786,1074.2573],[29.3254,40.369,933.439]]]]}}