{"type": "Feature","bbox": [32.5305,36.4312,33.2304,36.8509],"geometry": {"type": "MultiPolygon","coordinates": [[[[32.6581,36.4461,1884.9352],[32.6791,36.4436,1898.4128],[32.7424,36.4424,1802.6146],[32.7542,36.4403,1769.4802],[32.7797,36.4326,1798.4722],[32.7958,36.4312,1718.1571],[32.8288,36.4316,1573.4409],[32.8407,36.4331,1684.113],[32.866,36.4409,1551.7745],[32.9006,36.4452,1504.6226],[32.926,36.4528,1400.8363],[32.9419,36.4536,1376.4968],[32.9594,36.4508,1489.6995],[32.9913,36.4563,1386.6985],[33.0159,36.4642,1171.2109],[33.0547,36.4688,1390.5188],[33.1895,36.5207,365.68],[33.1994,36.5227,395.1366],[33.2132,36.5226,428.4204],[33.2295,36.5548,582.4852],[33.2304,36.5615,797.2352],[33.221,36.5792,1130.7906],[33.2176,36.5837,1136.1907],[33.2081,36.5908,1144.2975],[33.1902,36.598,1469.5076],[33.1604,36.6153,1613.0811],[33.1302,36.6266,1636.5758],[33.1063,36.6307,1436.1018],[33.0966,36.6343,1586.8622],[33.0798,36.6456,1614.2183],[33.04,36.677,1843.3317],[33.0291,36.6883,1804.9816],[32.971,36.7792,1928.8882],[32.9618,36.8092,1856.6277],[32.9448,36.8202,1881.2327],[32.9019,36.8373,2013.8075],[32.8403,36.8402,2031.5193],[32.8153,36.8479,1973.6053],[32.804,36.8498,1855.3212],[32.7481,36.8509,1643.6676],[32.7306,36.8472,1693.2825],[32.6915,36.8347,1759.2654],[32.6711,36.8239,1765.7109],[32.6664,36.8157,1793.7987],[32.6831,36.8071,1749.7023],[32.7064,36.8025,1782.6887],[32.7152,36.7988,1732.0605],[32.7237,36.7913,1721.2747],[32.7353,36.7749,1665.8195],[32.7501,36.7622,1362.8395],[32.7668,36.7511,1286.4797],[32.7849,36.7438,1078.3165],[32.7947,36.7371,1089.5504],[32.7995,36.7303,1291.626],[32.8061,36.7097,1544.7764],[32.8342,36.6651,1370.3572],[32.8443,36.6519,1408.1772],[32.8547,36.6344,1048.3813],[32.8555,36.6299,1021.6808],[32.8535,36.6255,956.5844],[32.8443,36.6193,705.7155],[32.7995,36.6141,1283.5701],[32.7627,36.6021,1288.1365],[32.7509,36.5957,1208.2922],[32.7277,36.5864,968.776],[32.7133,36.5835,1203.9573],[32.6861,36.5809,967.7205],[32.6607,36.5732,1104.7639],[32.6259,36.5693,1080.637],[32.6006,36.5617,843.6088],[32.5621,36.557,897.5765],[32.5305,36.5415,1563.1243],[32.5482,36.5142,1803.6641],[32.5542,36.5082,1751.9343],[32.583,36.4944,1734.5315],[32.6159,36.4718,1771.2299],[32.6397,36.4614,1797.6522],[32.6581,36.4461,1884.9352]]]]}
,"properties": {"GID_2": "TUR.44.3_1","GID_0": "TUR","country": "Turkey","GID_1": "TUR.44_1","province": "Karaman","NL_NAME_1": "NA","county": "Ermenek","VARNAME_2": "NA","NL_NAME_2": "NA","TYPE_2": "District","ENGTYPE_2": "District","CC_2": "NA","HASC_2": "TR.KR.ER","name": "Ermenek.county","area_km2": 1436.73,"hist_schema_id": "Elevation0-9000","hist_area_km2": {"250": 0.017,"275": 0.051,"300": 0.102,"325": 4.838,"350": 3.594,"375": 3.321,"400": 3.883,"425": 3.832,"450": 4.308,"475": 4.189,"500": 4.359,"525": 4.41,"550": 4.683,"575": 4.666,"600": 4.938,"625": 4.751,"650": 4.836,"675": 58.354,"700": 13.844,"725": 13.878,"750": 14.014,"775": 15.105,"800": 14.628,"825": 15.599,"850": 15.19,"875": 14.833,"900": 15.344,"925": 14.408,"950": 14.612,"975": 15.328,"1000": 16.503,"1025": 16.555,"1050": 15.141,"1075": 14.884,"1100": 13.675,"1125": 13.096,"1150": 14.356,"1175": 14.134,"1200": 13.317,"1225": 14.491,"1250": 14.099,"1275": 13.964,"1300": 13.197,"1325": 13.23,"1350": 13.009,"1375": 12.294,"1400": 15.754,"1425": 18.549,"1450": 24.155,"1475": 30.067,"1500": 28.02,"1525": 31.289,"1550": 32.513,"1575": 30.926,"1600": 32.213,"1625": 31.214,"1650": 30.421,"1675": 35.331,"1700": 45.546,"1725": 56.677,"1750": 64.638,"1775": 66.862,"1800": 74.539,"1825": 65.419,"1850": 54.403,"1875": 44.982,"1900": 30.407,"1925": 24.456,"1950": 15.747,"1975": 9.118,"2000": 7.199,"2025": 5.308,"2050": 3.334,"2075": 1.718,"2100": 1.054,"2125": 1.02,"2150": 0.611,"2175": 0.645,"2200": 0.594,"2225": 0.136}}}