{"type":"Feature","properties":{"GID_2":"TUR.34.2_1","GID_0":"TUR","country":"Turkey","GID_1":"TUR.34_1","province":"Giresun","NL_NAME_1":"NA","county":"Bulancak","VARNAME_2":"NA","NL_NAME_2":"NA","TYPE_2":"District","ENGTYPE_2":"District","CC_2":"NA","HASC_2":"TR.GI.BU","name":"Bulancak.county"},
"geometry":{"type": "MultiPolygon","coordinates": [[[[38.3543,40.9096,4.0275],[38.3229,40.9199,3.1501],[38.3213,40.9226,0.0],[38.3096,40.9285,20.3953],[38.3065,40.9315,3.1472],[38.3071,40.9338,0.0],[38.3046,40.9354,1.7523],[38.2912,40.9374,6.5111],[38.2876,40.9393,0.0],[38.2879,40.9437,0.0],[38.2832,40.9451,16.0078],[38.2665,40.944,4.8905],[38.2612,40.9451,13.6949],[38.2435,40.9407,2.9358],[38.2212,40.9382,6.9355],[38.188,40.939,1.9834],[38.1867,40.8812,238.2794],[38.1894,40.8667,487.8403],[38.2007,40.8457,654.1619],[38.2007,40.8382,547.6504],[38.1986,40.8336,266.8221],[38.1912,40.829,381.0444],[38.1651,40.8265,533.6833],[38.1516,40.8224,396.3416],[38.1133,40.797,701.4357],[38.0643,40.7778,1290.6775],[38.0379,40.7615,1396.9392],[38.0183,40.7522,1007.2914],[38.0136,40.754,1015.4043],[38.0096,40.752,851.9959],[38.0086,40.7483,1103.8696],[38.0112,40.7423,1336.2288],[38.0389,40.7011,1682.3912],[38.0614,40.6781,1436.8436],[38.0707,40.6639,1024.3582],[38.0895,40.6453,1140.677],[38.1004,40.6289,1645.3745],[38.1166,40.6118,1661.5828],[38.1241,40.5919,1865.8086],[38.1281,40.5756,2063.4429],[38.1375,40.5593,2047.6791],[38.1408,40.5487,2259.8052],[38.1545,40.5512,2320.6721],[38.185,40.5621,2026.5879],[38.2199,40.5769,2073.0657],[38.2283,40.5847,1890.517],[38.24,40.6009,1760.0126],[38.278,40.6315,1606.4324],[38.288,40.6428,1405.9001],[38.2938,40.673,1549.1129],[38.303,40.6894,1565.6284],[38.306399999999996,40.6999,1348.3925],[38.2951,40.7127,930.4411],[38.2916,40.725,741.9556],[38.2921,40.8185,579.3041],[38.2949,40.827,440.5915],[38.2987,40.8322,315.5391],[38.3315,40.8615,223.8766],[38.3355,40.8693,364.4359],[38.3404,40.8851,78.7282],[38.3543,40.9096,4.0275]]]]}}