{"type":"Feature","properties":{"GID_2":"TUR.74.6_1","GID_0":"TUR","country":"Turkey","GID_1":"TUR.74_1","province":"Tokat","NL_NAME_1":"NA","county":"Niksar","VARNAME_2":"NA","NL_NAME_2":"NA","TYPE_2":"District","ENGTYPE_2":"District","CC_2":"NA","HASC_2":"TR.TT.NI","name":"Niksar.county"},
"geometry":{"type": "MultiPolygon","coordinates": [[[[36.932,40.7395,902.0886],[36.8598,40.6862,992.5167],[36.83,40.6729,786.5156],[36.8127,40.6601,511.4517],[36.787,40.6242,394.1611],[36.7646,40.6115,417.8726],[36.7486,40.5978,497.2661],[36.7323,40.5721,722.5894],[36.726,40.5508,1248.3112],[36.7134,40.5314,913.2228],[36.7455,40.5173,888.3699],[36.7729,40.5122,1012.6979],[36.7939,40.5049,893.7924],[36.818,40.5008,1010.2294],[36.8512,40.4881,1152.8325],[36.8682,40.477,1176.2137],[36.9081,40.4457,1180.2358],[36.9171,40.437,1146.66],[36.9225,40.428,998.6376],[36.9523,40.4131,1164.1035],[36.9924,40.3993,980.019],[37.0325,40.3975,1441.0076],[37.043,40.3957,1378.3906],[37.0904,40.377,1307.1719],[37.1243,40.3676,1517.7023],[37.1566,40.3925,1541.3052],[37.1724,40.4118,649.245],[37.1483,40.419,531.9255],[37.1208,40.4241,725.9474],[37.0728,40.4419,597.8217],[37.031,40.4467,812.1436],[37.0209,40.4529,861.4849],[37.0177,40.4574,739.7748],[37.0166,40.4626,528.5228],[37.0175,40.4678,331.8508],[37.0253,40.4809,745.1884],[37.0279,40.4892,887.1644],[37.0317,40.5342,942.3678],[37.0406,40.5508,1273.7341],[37.0491,40.5744,1168.2231],[37.0606,40.5857,1134.939],[37.0693,40.5912,1179.515],[37.0834,40.5956,1330.9147],[37.1073,40.5965,1482.8357],[37.1411,40.5943,1570.1924],[37.1514,40.6083,1480.1556],[37.1596,40.6142,1539.8929],[37.1695,40.6182,1650.5959],[37.1876,40.6199,1581.5875],[37.2097,40.6191,1555.8444],[37.2236,40.6166,1601.1294],[37.2408,40.6106,1467.6931],[37.2509,40.61,1512.6481],[37.2748,40.6171,1555.0127],[37.2987,40.6218,1483.5496],[37.3124,40.6279,1577.0964],[37.3141,40.6421,1576.8088],[37.3126,40.6503,1575.5265],[37.3062,40.659,1526.0146],[37.2939,40.6673,1547.5687],[37.2833,40.6697,1497.1938],[37.2653,40.6775,1467.1367],[37.2592,40.6834,1349.0242],[37.2265,40.6916,1356.4482],[37.2088,40.6984,1525.4702],[37.1873,40.7042,1548.2512],[37.1433,40.6994,1494.0837],[37.1186,40.6918,1162.5225],[37.107,40.6897,1215.4106],[37.0783,40.6888,1212.6125],[37.0539,40.6903,1051.2289],[37.0248,40.6988,1186.5864],[36.9752,40.7026,1159.7178],[36.9612,40.7098,1233.1953],[36.9477,40.7271,918.7777],[36.932,40.7395,902.0886]]]]}}