{"type":"Feature","properties":{"GID_2":"TUR.8.11_1","GID_0":"TUR","country":"Turkey","GID_1":"TUR.8_1","province":"Antalya","NL_NAME_1":"NA","county":"Korkuteli","VARNAME_2":"NA","NL_NAME_2":"NA","TYPE_2":"District","ENGTYPE_2":"District","CC_2":"NA","HASC_2":"TR.AL.KO","name":"Korkuteli.county"},
"geometry":{"type": "MultiPolygon","coordinates": [[[[30.1882,36.7952,1510.2507],[30.2617,36.7947,2352.4253],[30.2772,36.797,2224.1992],[30.3025,36.8045,1694.3597],[30.3518,36.8075,2149.1372],[30.3567,36.8281,1833.2468],[30.3732,36.8539,1363.5399],[30.3849,36.8649,1357.2234],[30.4305,36.9001,1162.4716],[30.4414,36.9114,1279.6661],[30.471,36.958,774.3869],[30.4736,36.969,344.1183],[30.475,36.9945,777.7197],[30.4776,37.0026,528.8128],[30.4854,37.0119,429.4409],[30.515,37.037,886.3912],[30.5307,37.0602,956.5581],[30.5339,37.068,1007.3707],[30.5352,37.0792,1170.762],[30.534,37.0904,1222.8395],[30.5319,37.0958,1106.0637],[30.5261,37.1032,959.6716],[30.4881,37.1325,956.1177],[30.4763,37.1394,1147.4657],[30.4582,37.1465,694.322],[30.4476,37.1562,788.1019],[30.4442,37.1697,959.244],[30.4441,37.2236,984.458],[30.431,37.2268,969.767],[30.4041,37.2371,809.2415],[30.3935,37.2432,807.7137],[30.3866,37.252,807.443],[30.3815,37.2704,1079.5905],[30.3694,37.2914,972.7198],[30.3616,37.2997,936.3602],[30.3534,37.3041,813.0016],[30.3349,37.307,811.8026],[30.2959,37.3064,847.0701],[30.281,37.304,861.8031],[30.2632,37.2976,880.9662],[30.2394,37.2931,1052.5701],[30.1882,37.2742,1336.855],[30.1643,37.2698,1590.7555],[30.1431,37.2627,2125.55],[30.1159,37.2574,1948.0974],[30.068,37.2395,1614.2632],[30.0477,37.2378,1790.6862],[29.912,37.1839,1908.0322],[29.8774,37.1614,1912.8864],[29.8629,37.1452,2157.3337],[29.8483,37.1219,1696.7529],[29.8447,37.1114,1564.5219],[29.8412,37.0894,1396.8545],[29.8302,37.0673,1394.5917],[29.8267,37.0195,1425.6564],[29.8091,36.991,1478.8606],[29.7754,36.9611,1367.5635],[29.7618,36.9428,1387.725],[29.7522,36.9354,1317.7761],[29.7307,36.9248,1275.5381],[29.6843,36.919,1246.9854],[29.713,36.9058,1370.5803],[29.728,36.9007,1289.9432],[29.7471,36.8989,1560.6355],[29.7783,36.8991,1914.3319],[29.7969,36.9021,2096.2998],[29.8234,36.9171,1841.5701],[29.837,36.9216,2046.8878],[29.8601,36.9231,2567.1604],[29.8875,36.9222,1968.313],[29.9021,36.9198,1986.0201],[29.9194,36.914,2018.9194],[29.9294,36.9135,1893.3801],[29.9534,36.9204,1546.7057],[29.9772,36.925,1751.2632],[29.9984,36.9324,1727.6056],[30.0189,36.9364,1617.8027],[30.0395,36.9438,1542.0554],[30.0495,36.9452,1619.8435],[30.0592,36.9444,1420.6309],[30.065,36.9422,1370.2759],[30.0691,36.9386,1415.4683],[30.089,36.9097,1316.2798],[30.11,36.8862,1575.6212],[30.1126,36.8776,1626.2495],[30.1146,36.8514,1794.7273],[30.1183,36.8444,1846.1072],[30.1424,36.8296,1363.1057],[30.1882,36.7952,1510.2507]]]]}}