{"type": "Feature","bbox": [30.7103,38.5545,30.9472,38.7966],"geometry": {"type": "MultiPolygon","coordinates": [[[[30.9472,38.7918,1518.0925],[30.9195,38.7958,1502.3242],[30.8784,38.7962,1195.9337],[30.8588,38.7942,1143.7983],[30.840699999999998,38.7886,1093.3068],[30.8312,38.7873,1102.5056],[30.7958,38.7955,1048.0061],[30.7588,38.7966,1060.3523],[30.7346,38.7941,1066.3021],[30.7105,38.7866,1023.1215],[30.7302,38.7603,1028.6483],[30.7372,38.7393,1031.7365],[30.7463,38.7226,997.77],[30.7485,38.7071,992.019],[30.7487,38.6654,1015.1381],[30.7481,38.6463,1133.1826],[30.7452,38.6342,1211.4015],[30.729,38.6086,1381.9091],[30.7103,38.5893,1458.3593],[30.7434,38.5851,1668.2089],[30.7646,38.5778,1336.2494],[30.7917,38.5724,1187.6379],[30.8095,38.566,1173.7998],[30.8371,38.5611,1100.6869],[30.8607,38.5545,1005.6859],[30.8734,38.5576,1014.5919],[30.8896,38.5686,1013.2286],[30.896,38.5756,1022.9641],[30.9104,38.5991,1000.9409],[30.9134,38.6136,982.826],[30.9138,38.6532,974.2771],[30.9158,38.673,973.7704],[30.9014,38.6922,977.2473],[30.8993,38.7003,980.1093],[30.9003,38.7113,1055.6598],[30.9394,38.7715,1486.1602],[30.9472,38.7918,1518.0925]]]]}
,"properties": {"GID_2": "TUR.3.5_1","GID_0": "TUR","country": "Turkey","GID_1": "TUR.3_1","province": "Afyon","NL_NAME_1": "NA","county": "Çobanlar","VARNAME_2": "NA","NL_NAME_2": "NA","TYPE_2": "District","ENGTYPE_2": "District","CC_2": "NA","HASC_2": "TR.AF.CO","name": "Çobanlar.county","area_km2": 388.1212,"hist_schema_id": "Elevation0-9000","hist_area_km2": {"975": 101.7157,"1000": 67.5547,"1025": 40.7264,"1050": 32.0883,"1075": 21.9834,"1100": 15.9023,"1125": 13.1741,"1150": 10.9398,"1175": 10.5794,"1200": 8.1945,"1225": 6.7188,"1250": 6.7357,"1275": 6.3881,"1300": 4.767,"1325": 3.8568,"1350": 3.8067,"1375": 3.9228,"1400": 4.8826,"1425": 5.2646,"1450": 5.1478,"1475": 4.3367,"1500": 3.459,"1525": 2.8131,"1550": 1.3905,"1575": 0.6125,"1600": 0.4971,"1625": 0.2154,"1650": 0.1989,"1675": 0.116,"1700": 0.1326}}}