{"type":"Feature","properties":{"GID_2":"TUR.3.10_1","GID_0":"TUR","country":"Turkey","GID_1":"TUR.3_1","province":"Afyon","NL_NAME_1":"NA","county":"Hocalar","VARNAME_2":"NA","NL_NAME_2":"NA","TYPE_2":"District","ENGTYPE_2":"District","CC_2":"NA","HASC_2":"TR.AF.HO","name":"Hocalar.county"},
"geometry":{"type": "MultiPolygon","coordinates": [[[[30.1026,38.6687,1896.4291],[30.0996,38.6751,1713.8433],[30.0959,38.6786,1725.3246],[30.0746,38.6889,1581.4825],[30.0561,38.6956,1430.3497],[30.0292,38.7117,1487.5594],[30.0082,38.7202,1417.897],[29.9755,38.7422,1570.6678],[29.954,38.7361,1586.9309],[29.9242,38.7194,1465.2841],[29.8944,38.7097,1296.8888],[29.8891,38.6932,1220.1047],[29.8798,38.6768,1180.0742],[29.8758,38.6519,1074.5941],[29.8728,38.6442,1081.3916],[29.7992,38.5301,1751.8816],[29.7906,38.5208,1720.0762],[29.7718,38.506,1561.2842],[29.7693,38.4864,1710.9243],[29.7603,38.4699,1257.3373],[29.7554,38.4541,1810.4521],[29.7882,38.4388,1415.5334],[29.8266,38.434,1314.1543],[29.8482,38.4271,1247.6293],[29.8684,38.4237,1077.3063],[29.8845,38.4417,1069.1018],[29.9051,38.456,1200.0453],[29.9507,38.4732,1028.14],[29.9833,38.4919,1019.8967],[30.0592,38.5204,1081.449],[30.081,38.5304,1073.2863],[30.0854,38.5338,1045.3289],[30.0985,38.5507,1090.2349],[30.1284,38.5973,1248.7791],[30.1317,38.6077,1220.5029],[30.1297,38.6213,1393.4899],[30.1072,38.6558,1647.641],[30.1026,38.6687,1896.4291]]]]}}