{"type": "Feature","bbox": [30.3518,36.6661,30.9252,37.2362],"geometry": {"type": "MultiPolygon","coordinates": [[[[30.5893,36.804,0.0],[30.5879,36.8021,12.6378],[30.5904,36.8007,5.1683],[30.5904,36.8032,14.8533],[30.5893,36.804,0.0]]],
[[[30.56,36.7242,5.9754],[30.564,36.726,1.7884],[30.5668,36.7388,1.9123],[30.5696,36.7435,0.0],[30.5724,36.7438,0.0],[30.5682,36.7518,22.6946],[30.5735,36.7632,0.0],[30.5754,36.7829,10.3845],[30.5729,36.7854,1.8212],[30.5763,36.7924,1.1818],[30.5749,36.7949,9.0183],[30.5779,36.8007,10.4678],[30.5843,36.8065,3.467],[30.6001,36.8271,4.3325],[30.604,36.829,0.3104],[30.6104,36.8282,0.0],[30.6168,36.8329,0.0],[30.6162,36.8349,0.0],[30.6093,36.8288,0.726],[30.609,36.8301,0.726],[30.6093,36.8304,0.726],[30.6087,36.8304,0.726],[30.6082,36.8293,0.726],[30.6057,36.8301,0.3104],[30.6085,36.8343,0.0],[30.6065,36.8385,0.2751],[30.6129,36.8349,0.0],[30.6143,36.8354,0.0],[30.6154,36.844,6.6009],[30.6224,36.8507,3.5],[30.6579,36.8737,0.0],[30.6763,36.8829,0.7596],[30.689,36.8826,0.0],[30.7001,36.8846,4.9346],[30.7074,36.8743,0.0],[30.7154,36.8726,8.7627],[30.7176,36.8679,6.8636],[30.7232,36.8657,12.8182],[30.7304,36.8571,7.3504],[30.7337,36.8568,0.0],[30.7399,36.8532,0.0],[30.744,36.8543,28.6537],[30.7462,36.8507,13.6159],[30.756,36.8471,21.4021],[30.7574,36.8449,0.0],[30.761,36.8468,15.1751],[30.7826,36.8493,5.3254],[30.7879,36.8521,18.8343],[30.7943,36.851,2.147],[30.7996,36.8468,0.0],[30.8046,36.8474,2.897],[30.8063,36.846,0.602],[30.814,36.8479,1.9661],[30.8232,36.8474,1.0599],[30.8638,36.8524,2.9767],[30.889,36.8529,0.6788],[30.8946,36.8543,1.6246],[30.8999,36.8532,0.0],[30.9224,36.8537,0.4381],[30.9244,36.869,1.4615],[30.9214,36.8816,3.5701],[30.8883,36.9036,6.0676],[30.8823,36.9109,7.0173],[30.8798,36.9218,7.2418],[30.8813,36.9301,8.9637],[30.8841,36.9353,9.7947],[30.9067,36.9577,10.2026],[30.9229,36.9837,12.2826],[30.9252,37.0079,15.3097],[30.9252,37.0545,19.9102],[30.9232,37.0694,23.1055],[30.9077,37.0957,68.4706],[30.8989,37.1049,32.1456],[30.8851,37.1146,30.1244],[30.8538,37.1288,76.1899],[30.8367,37.1413,89.5247],[30.8249,37.1531,44.389],[30.8162,37.1768,50.1634],[30.8072,37.1932,72.0735],[30.8054,37.2044,60.5306],[30.8052,37.2246,84.9117],[30.7902,37.2362,164.6047],[30.7288,37.2355,626.1184],[30.7165,37.2335,850.5413],[30.6946,37.2266,636.829],[30.6734,37.2247,700.0022],[30.4827,37.2248,776.4078],[30.4441,37.2236,984.458],[30.4442,37.1697,959.244],[30.4476,37.1562,788.1019],[30.4582,37.1465,694.322],[30.4763,37.1394,1147.4657],[30.4881,37.1325,956.1177],[30.5261,37.1032,959.6716],[30.5319,37.0958,1106.0637],[30.534,37.0904,1222.8395],[30.5349,37.0736,1002.6387],[30.532,37.0626,1030.0773],[30.515,37.037,886.3912],[30.4854,37.0119,429.4409],[30.4776,37.0026,528.8128],[30.475,36.9945,777.7197],[30.4736,36.969,344.1183],[30.471,36.958,774.3869],[30.4414,36.9114,1279.6661],[30.4305,36.9001,1162.4716],[30.3775,36.8585,1475.5734],[30.3714,36.8515,1392.1735],[30.3567,36.8281,1833.2468],[30.3518,36.8075,2149.1372],[30.3537,36.7808,1728.8538],[30.353,36.7058,1098.171],[30.3541,36.6964,1180.353],[30.3602,36.6847,1214.3188],[30.3742,36.6732,1415.5668],[30.3918,36.667,1074.9364],[30.4135,36.6661,1186.4764],[30.4241,36.6724,1165.0641],[30.4336,36.6758,1157.3339],[30.4837,36.6793,487.0803],[30.5206,36.6925,379.7836],[30.5487,36.7074,349.4619],[30.56,36.7242,5.9754]]]]}
,"properties": {"GID_2": "TUR.8.14_1","GID_0": "TUR","country": "Turkey","GID_1": "TUR.8_1","province": "Antalya","NL_NAME_1": "NA","county": "Merkez","VARNAME_2": "Antalya","NL_NAME_2": "NA","TYPE_2": "District","ENGTYPE_2": "District","CC_2": "NA","HASC_2": "TR.AL.AN","name": "Merkez.county","area_km2": 1897.869,"hist_schema_id": "Elevation0-9000","hist_area_km2": {"0": 85.272,"25": 118.359,"50": 174.074,"75": 128.173,"100": 83.395,"125": 49.017,"150": 33.515,"175": 25.486,"200": 25.943,"225": 37.227,"250": 43.457,"275": 54.828,"300": 252.792,"325": 77.673,"350": 37.432,"375": 22.032,"400": 15.792,"425": 15.49,"450": 16.724,"475": 15.13,"500": 15.048,"525": 13.272,"550": 15.826,"575": 15.389,"600": 15.996,"625": 14.629,"650": 14.256,"675": 14.343,"700": 15.256,"725": 14.054,"750": 15.272,"775": 28.19,"800": 19.225,"825": 18.806,"850": 16.186,"875": 13.954,"900": 13.468,"925": 13.79,"950": 14.045,"975": 13.656,"1000": 14.229,"1025": 13.877,"1050": 12.646,"1075": 12.614,"1100": 12.378,"1125": 12.125,"1150": 11.226,"1175": 10.588,"1200": 9.355,"1225": 9.712,"1250": 9.848,"1275": 8.439,"1300": 7.388,"1325": 8.101,"1350": 7.439,"1375": 7.541,"1400": 6.862,"1425": 6.844,"1450": 5.876,"1475": 5.672,"1500": 5.418,"1525": 5.146,"1550": 4.755,"1575": 4.619,"1600": 4.075,"1625": 4.126,"1650": 3.463,"1675": 2.971,"1700": 2.801,"1725": 2.393,"1750": 2.224,"1775": 2.308,"1800": 2.342,"1825": 2.105,"1850": 2.444,"1875": 2.24,"1900": 1.918,"1925": 2.156,"1950": 1.528,"1975": 1.663,"2000": 1.426,"2025": 1.63,"2050": 1.154,"2075": 1.171,"2100": 1.188,"2125": 1.103,"2150": 1.052,"2175": 1.036,"2200": 0.934,"2225": 0.713,"2250": 1.036,"2275": 0.747,"2300": 0.662,"2325": 0.679,"2350": 0.73,"2375": 0.39,"2400": 0.373,"2425": 0.475,"2450": 0.39,"2475": 0.306,"2500": 0.187,"2525": 0.119,"2550": 0.068,"2575": 0.153,"2600": 0.153,"2625": 0.068}}}