{"type": "Feature","bbox": [37.6151,39.0591,38.3964,39.6527],"geometry": {"type": "MultiPolygon","coordinates": [[[[38.3664,39.6342,1796.9421],[38.314,39.6506,1280.2107],[38.2857,39.6527,1536.703],[38.2569,39.6517,1649.4061],[38.2422,39.6487,2104.1946],[38.2237,39.6427,2456.9446],[38.1891,39.6386,1909.2019],[38.1636,39.6309,1620.4446],[38.1181,39.6242,1876.2212],[38.1163,39.6204,1910.53],[38.112,39.6182,1858.1295],[38.07,39.6068,1900.1884],[37.9647,39.6059,1894.9413],[37.9449,39.6034,1956.2651],[37.9143,39.5924,1968.835],[37.876,39.5762,1886.7938],[37.7377,39.4711,1362.7129],[37.6748,39.4465,1440.4607],[37.663,39.4443,1433.2589],[37.6511,39.4445,1584.0365],[37.6324,39.4351,1449.7974],[37.6185,39.4244,1588.2349],[37.6151,39.4176,1642.99],[37.6158,39.4126,1728.0543],[37.6217,39.4072,1712.7803],[37.6438,39.3986,1763.9624],[37.6864,39.3936,1593.5996],[37.7274,39.3794,1598.1249],[37.7357,39.379,1539.297],[37.7523,39.3835,1522.531],[37.7694,39.3842,1596.3854],[37.7793,39.3816,1664.2542],[37.7887,39.3744,1701.3596],[37.7926,39.3663,1577.2896],[37.7937,39.3572,1316.5117],[37.7923,39.2813,1623.7817],[37.7943,39.2724,1633.1257],[37.7973,39.2673,1721.6733],[37.809,39.2584,1740.3748],[37.8816,39.2314,2283.4097],[37.8963,39.2227,2296.0049],[37.9101,39.2093,2007.2482],[37.9394,39.1626,1926.9286],[37.9423,39.1509,1931.4878],[37.9429,39.1356,2047.0779],[37.9422,39.0799,2385.1624],[37.9395,39.0591,2496.2427],[37.9742,39.0595,2322.9512],[37.986,39.0614,2005.7517],[38.0038,39.0675,2161.8777],[38.027,39.0702,2481.7322],[38.1492,39.0699,2102.4861],[38.1814,39.0726,1824.4952],[38.2117,39.0838,2024.0859],[38.2418,39.0999,1667.774],[38.2592,39.1176,1666.97],[38.2738,39.1265,1633.4419],[38.3075,39.1385,1722.2085],[38.3545,39.1398,1744.4666],[38.3755,39.1639,2096.5994],[38.39,39.1874,1748.927],[38.3926,39.1968,1738.4987],[38.3936,39.2134,1570.1957],[38.3935,39.3787,1062.5865],[38.3964,39.4112,915.287],[38.3914,39.4272,1025.1412],[38.3812,39.4466,1104.6865],[38.3752,39.4764,1351.7502],[38.3672,39.4903,1391.3026],[38.3602,39.5112,1505.5583],[38.352,39.525,1563.3789],[38.3491,39.5366,1520.6213],[38.3483,39.5547,1263.0817],[38.3497,39.5727,1384.7338],[38.3523,39.5812,1214.2424],[38.3623,39.6006,1486.6575],[38.3664,39.6342,1796.9421]]]]}
,"properties": {"GID_2": "TUR.72.3_1","GID_0": "TUR","country": "Turkey","GID_1": "TUR.72_1","province": "Sivas","NL_NAME_1": "NA","county": "Divriği","VARNAME_2": "NA","NL_NAME_2": "NA","TYPE_2": "District","ENGTYPE_2": "District","CC_2": "NA","HASC_2": "TR.SV.DI","name": "Divriği.county","area_km2": 2848.437,"hist_schema_id": "Elevation0-9000","hist_area_km2": {"850": 4.048,"875": 5.048,"900": 7.097,"925": 9.67,"950": 13.473,"975": 16.422,"1000": 18.356,"1025": 19.227,"1050": 24.868,"1075": 30.459,"1100": 36.983,"1125": 38.669,"1150": 41.914,"1175": 47.383,"1200": 54.212,"1225": 58.19,"1250": 63.591,"1275": 69.123,"1300": 77.126,"1325": 76.464,"1350": 78.689,"1375": 81.879,"1400": 86.2,"1425": 94.31,"1450": 96.114,"1475": 91.511,"1500": 88.45,"1525": 82.661,"1550": 78.749,"1575": 76.071,"1600": 72.211,"1625": 70.284,"1650": 68.624,"1675": 70.205,"1700": 74.161,"1725": 75.886,"1750": 72.763,"1775": 69.96,"1800": 69.817,"1825": 62.665,"1850": 54.174,"1875": 46.398,"1900": 41.669,"1925": 41.017,"1950": 38.024,"1975": 35.294,"2000": 32.363,"2025": 31.48,"2050": 27.497,"2075": 24.149,"2100": 21.132,"2125": 19.871,"2150": 18.132,"2175": 17.394,"2200": 17.559,"2225": 14.9,"2250": 14.442,"2275": 12.718,"2300": 10.289,"2325": 8.547,"2350": 7.595,"2375": 7.383,"2400": 6.085,"2425": 5.541,"2450": 4.161,"2475": 4.094,"2500": 2.714,"2525": 2.484,"2550": 2.616,"2575": 1.744,"2600": 1.497,"2625": 1.02,"2650": 0.543,"2675": 0.263,"2700": 0.099}}}