{"type":"Feature","properties":{"GID_2":"TUR.72.17_1","GID_0":"TUR","country":"Turkey","GID_1":"TUR.72_1","province":"Sivas","NL_NAME_1":"NA","county":"Zara","VARNAME_2":"NA","NL_NAME_2":"NA","TYPE_2":"District","ENGTYPE_2":"District","CC_2":"NA","HASC_2":"TR.SV.ZA","name":"Zara.county"},
"geometry":{"type": "MultiPolygon","coordinates": [[[[38.1181,39.6242,1876.2212],[38.1109,39.6442,1825.8436],[38.1079,39.6694,1760.0835],[38.1035,39.6795,1784.9475],[38.0896,39.6953,1824.9357],[38.0808,39.698,1846.4584],[38.0509,39.7013,1947.5352],[38.0386,39.7096,2137.4985],[38.0348,39.7171,1860.7465],[38.0304,39.7443,1910.0461],[37.991,39.8075,1704.8353],[37.9889,39.8224,1595.2803],[37.9886,39.8843,1617.8822],[37.9855,39.8958,1586.9867],[37.9762,39.9119,1722.9152],[37.9754,39.9256,1947.8137],[37.9789,39.9337,1946.4309],[37.9856,39.941,1955.1689],[38.0212,39.9663,1892.9513],[37.9955,39.9866,2051.3589],[37.9788,40.012,1864.0797],[37.9712,40.0355,2653.4736],[37.9481,40.0725,2323.678],[37.9463,40.0884,2473.4492],[37.8947,40.1118,2243.0261],[37.8416,40.1496,1667.4503],[37.8083,40.1624,1853.99],[37.7844,40.1668,1806.0308],[37.7634,40.174,1837.6465],[37.7522,40.1759,1782.4177],[37.6445,40.1766,1451.822],[37.6359,40.1732,1488.7622],[37.6333,40.167,1488.1658],[37.6343,40.1626,1453.1117],[37.643,40.1481,1400.4528],[37.6444,40.1235,1644.7107],[37.6426,40.115,1689.8441],[37.6353,40.1069,1879.9094],[37.6071,40.0905,2061.291],[37.5857,40.0813,1909.321],[37.5757,40.0748,1927.4386],[37.5578,40.0502,1735.6567],[37.5421,40.0244,1756.6102],[37.5396,40.0156,1896.9329],[37.5387,40.0034,1748.311],[37.5392,39.9099,1524.5272],[37.5422,39.8983,1454.6808],[37.5503,39.8845,1298.7065],[37.5528,39.8758,1299.0664],[37.5532,39.8199,1344.6956],[37.5566,39.805,1480.6487],[37.5674,39.7927,1494.6838],[37.5901,39.7761,1320.9778],[37.5997,39.7712,1321.0703],[37.6423,39.7556,1355.3861],[37.6503,39.7509,1387.2068],[37.6566,39.7449,1368.9147],[37.6655,39.7292,1374.1],[37.667,39.7226,1450.9873],[37.6633,39.7157,1430.0729],[37.6485,39.7014,1603.4958],[37.6459,39.6937,1451.381],[37.647,39.6884,1456.2056],[37.6544,39.6805,1520.5295],[37.6743,39.6722,1878.973],[37.6857,39.6632,1704.437],[37.7023,39.6375,1770.6177],[37.7041,39.6293,1855.2072],[37.7038,39.6186,1801.8799],[37.7007,39.6114,1663.0874],[37.6962,39.6078,1697.0922],[37.6748,39.6031,1748.3804],[37.6444,39.5922,1902.2368],[37.612,39.5733,1973.2906],[37.5782,39.5613,1991.5532],[37.539,39.5572,2001.9351],[37.5142,39.5455,1808.1833],[37.5125,39.5418,1803.696],[37.5187,39.5265,1904.396],[37.5198,39.519,1876.2506],[37.5176,39.5115,1811.5427],[37.5097,39.498,1597.7426],[37.5083,39.4872,1687.4324],[37.5105,39.4792,1667.3698],[37.5139,39.4747,1588.0342],[37.5237,39.4679,1549.4143],[37.5575,39.4562,1848.9021],[37.6194,39.4538,1385.8369],[37.6511,39.4445,1584.0365],[37.6689,39.445,1428.9712],[37.702,39.4565,1275.1637],[37.7377,39.4711,1362.7129],[37.7535,39.482,1385.8842],[37.8706,39.5727,1934.4785],[37.8871,39.5816,1838.5232],[37.9487,39.6043,1935.578],[37.9647,39.6059,1894.9413],[38.07,39.6068,1900.1884],[38.112,39.6182,1858.1295],[38.1163,39.6204,1910.53],[38.1181,39.6242,1876.2212]]]]}}