{"type": "Feature","bbox": [35.4989,40.8764,35.9417,41.2515],"geometry": {"type": "MultiPolygon","coordinates": [[[[35.6657,40.8946,760.9091],[35.6879,40.8819,791.1071],[35.7026,40.8773,866.3281],[35.7304,40.8764,1048.8293],[35.7604,40.8801,1032.5302],[35.7435,40.8971,914.5265],[35.7412,40.9025,897.0641],[35.7421,40.9106,800.6416],[35.7491,40.918,758.5765],[35.7594,40.922,846.33],[35.7963,40.9232,951.5502],[35.8088,40.9269,889.6307],[35.8126,40.9316,875.0027],[35.8142,40.9371,858.6186],[35.8147,40.9739,833.4009],[35.8169,40.9798,805.2213],[35.8213,40.9851,743.3819],[35.8308,40.9907,751.1042],[35.842,40.993,758.1541],[35.8976,40.9917,811.577],[35.8788,41.0146,873.3956],[35.8749,41.0259,809.0442],[35.874,41.1042,1016.4977],[35.8751,41.1227,1021.6857],[35.8795,41.1341,931.6241],[35.8994,41.1545,882.895],[35.9094,41.1689,1019.545],[35.9417,41.1986,814.9962],[35.9061,41.2048,971.177],[35.8616,41.2222,878.1593],[35.8511,41.2247,824.1364],[35.779,41.2254,1027.001],[35.7596,41.2273,840.509],[35.7464,41.2327,809.263],[35.7174,41.2515,826.8408],[35.6962,41.2387,921.391],[35.6885,41.2321,909.3718],[35.6816,41.222,913.8847],[35.676,41.1919,933.0651],[35.6526,41.1549,691.8768],[35.6457,41.1338,521.9141],[35.6366,41.1174,506.8105],[35.6336,41.0835,625.7548],[35.6313,41.0753,622.6293],[35.6175,41.0558,700.8231],[35.6105,41.0511,715.7378],[35.5878,41.0419,670.569],[35.5524,41.0386,651.0864],[35.5422,41.0359,631.4495],[35.5278,41.0274,708.1815],[35.4989,41.0047,1153.4446],[35.5122,40.9966,1077.9701],[35.5333,40.988,986.168],[35.5572,40.9734,967.3159],[35.5783,40.9648,959.5302],[35.6145,40.9399,706.0022],[35.6439,40.9268,686.6547],[35.6595,40.9129,617.4847],[35.6657,40.8946,760.9091]]]]}
,"properties": {"GID_2": "TUR.67.6_1","GID_0": "TUR","country": "Turkey","GID_1": "TUR.67_1","province": "Samsun","NL_NAME_1": "NA","county": "Havza","VARNAME_2": "NA","NL_NAME_2": "NA","TYPE_2": "District","ENGTYPE_2": "District","CC_2": "NA","HASC_2": "TR.SS.HA","name": "Havza.county","area_km2": 770.7809,"hist_schema_id": "Elevation0-9000","hist_area_km2": {"450": 0.2077,"475": 0.3834,"500": 0.5911,"525": 3.3395,"550": 8.4217,"575": 14.8478,"600": 24.634,"625": 28.1412,"650": 29.8234,"675": 35.6776,"700": 41.3729,"725": 51.2728,"750": 62.7678,"775": 72.1487,"800": 65.3421,"825": 54.3191,"850": 46.0058,"875": 45.9101,"900": 36.9945,"925": 31.0546,"950": 27.3649,"975": 20.6696,"1000": 16.4508,"1025": 12.4744,"1050": 8.9943,"1075": 7.4615,"1100": 5.5445,"1125": 4.0108,"1150": 3.1475,"1175": 3.0036,"1200": 2.6042,"1225": 1.9811,"1250": 1.6935,"1275": 1.0863,"1300": 0.5909,"1325": 0.3673,"1350": 0.0798}}}