{"type": "Feature","bbox": [33.4769,40.2784,34.1162,40.8203],"geometry": {"type": "MultiPolygon","coordinates": [[[[33.7291,40.2784,643.9974],[33.7449,40.2826,686.9949],[33.7691,40.2848,669.9984],[33.7721,40.3039,644.7431],[33.7768,40.3116,620.3547],[33.7865,40.3204,577.5811],[33.8013,40.329,562.4828],[33.8319,40.3399,560.0205],[33.8624,40.3456,556.8276],[33.8868,40.3569,554.8752],[33.9019,40.3756,618.462],[33.916,40.3992,582.4826],[33.9254,40.4253,631.2595],[33.9319,40.4324,689.5116],[33.9427,40.4404,664.6622],[33.9519,40.4452,710.1219],[33.9947,40.461,555.5377],[34.024,40.4784,669.3547],[34.0542,40.4904,666.2954],[34.0748,40.4926,612.9609],[34.101,40.4875,597.2499],[34.1162,40.4935,610.7028],[34.1128,40.5041,611.7365],[34.1035,40.5205,647.0501],[34.0979,40.539,649.2204],[34.0896,40.5528,645.9984],[34.0863,40.5634,644.2162],[34.0695,40.5592,670.2873],[34.0433,40.5435,711.6885],[34.0199,40.5346,669.7328],[34.0113,40.5332,685.9628],[34.0022,40.5357,820.7181],[33.9891,40.5444,801.8644],[33.9747,40.5572,751.456],[33.9609,40.5764,979.5061],[33.9395,40.5994,868.0044],[33.9364,40.6132,906.8309],[33.9363,40.6474,1319.6055],[33.9337,40.6555,1233.6127],[33.9279,40.6618,1229.7512],[33.9163,40.6671,1242.4551],[33.8846,40.6697,1166.5979],[33.8746,40.6719,1144.1616],[33.8175,40.6933,1040.8077],[33.8057,40.7021,913.7361],[33.8013,40.7124,986.6568],[33.8004,40.7237,1045.7024],[33.8018,40.7496,1084.4534],[33.8038,40.7579,1155.2571],[33.8144,40.7766,1235.7755],[33.8152,40.7902,1511.8844],[33.8106,40.8003,1482.3406],[33.7931,40.8203,1574.1613],[33.7738,40.812,1615.5587],[33.7586,40.8086,1669.9355],[33.7259,40.8078,1634.1614],[33.673,40.8092,1547.0184],[33.6903,40.7885,1488.3317],[33.6952,40.7786,1227.1016],[33.6969,40.7648,1393.6781],[33.6967,40.743,1214.7402],[33.6953,40.7324,1165.5999],[33.6922,40.725,1091.8958],[33.6788,40.7043,1131.3531],[33.6726,40.6984,1158.4875],[33.6384,40.6816,1024.2395],[33.5609,40.6236,1028.8976],[33.586,40.5998,973.905],[33.5931,40.5788,942.6418],[33.5974,40.572,860.1917],[33.6253,40.5483,811.5604],[33.6329,40.5395,859.3978],[33.6355,40.5318,886.9304],[33.6365,40.5212,844.7784],[33.634,40.4972,652.6008],[33.6181,40.4714,752.5745],[33.6048,40.4583,870.8108],[33.531,40.4015,861.8235],[33.517,40.3928,831.1641],[33.496,40.3841,839.3576],[33.4769,40.3675,841.9762],[33.4982,40.3572,731.9723],[33.5315,40.3451,833.347],[33.567,40.3414,1022.3455],[33.577,40.3391,1086.2593],[33.664,40.3053,616.6973],[33.6964,40.2865,649.6929],[33.7291,40.2784,643.9974]]]]}
,"properties": {"GID_2": "TUR.23.9_1","GID_0": "TUR","country": "Turkey","GID_1": "TUR.23_1","province": "Çankiri","NL_NAME_1": "NA","county": "Merkez","VARNAME_2": "Çankiri","NL_NAME_2": "NA","TYPE_2": "District","ENGTYPE_2": "District","CC_2": "NA","HASC_2": "TR.CI.CI","name": "Merkez.county","area_km2": 1451.572,"hist_schema_id": "Elevation0-9000","hist_area_km2": {"550": 14.977,"575": 58.325,"600": 56.13,"625": 78.115,"650": 81.339,"675": 79.484,"700": 83.793,"725": 76.198,"750": 73.513,"775": 67.973,"800": 70.535,"825": 74.166,"850": 70.932,"875": 72.56,"900": 64.377,"925": 57.308,"950": 52.156,"975": 48.967,"1000": 42.475,"1025": 35.298,"1050": 28.405,"1075": 18.132,"1100": 16.939,"1125": 17.242,"1150": 13.638,"1175": 11.788,"1200": 8.168,"1225": 6.335,"1250": 5.273,"1275": 4.162,"1300": 3.181,"1325": 2.763,"1350": 2.489,"1375": 2.987,"1400": 3.195,"1425": 2.986,"1450": 3.195,"1475": 3.58,"1500": 3.195,"1525": 3.532,"1550": 3.387,"1575": 2.922,"1600": 3.259,"1625": 2.825,"1650": 4.013,"1675": 3.644,"1700": 3.339,"1725": 2.729,"1750": 1.99,"1775": 1.894,"1800": 0.947,"1825": 0.722,"1850": 0.096}}}