{"type": "Feature","bbox": [27.8707,41.2547,28.2197,41.4819],"geometry": {"type": "MultiPolygon","coordinates": [[[[28.2197,41.4819,205.1313],[28.1854,41.4663,306.5966],[28.0353,41.4078,158.5344],[28.0119,41.4001,173.6596],[28.0005,41.4001,169.5584],[27.966,41.4079,146.362],[27.9383,41.4169,181.2203],[27.924,41.4171,173.7714],[27.9109,41.4139,167.0023],[27.8843,41.4034,128.6056],[27.8736,41.3936,121.4652],[27.8707,41.3799,129.6595],[27.8734,41.3661,132.9207],[27.8781,41.3562,125.7107],[27.8843,41.3534,125.7045],[27.8992,41.3378,177.7506],[27.9147,41.3255,193.6417],[27.932,41.3151,186.4536],[27.9619,41.3032,189.239],[27.9958,41.2913,167.4936],[28.0499,41.2893,171.1594],[28.0648,41.2872,165.6334],[28.0826,41.2809,213.4946],[28.1096,41.2752,209.9621],[28.1394,41.2589,236.8364],[28.1561,41.2547,251.6087],[28.1596,41.2652,213.506],[28.1687,41.2819,220.3956],[28.1747,41.3117,191.2099],[28.1828,41.3256,194.5112],[28.1888,41.344,203.2053],[28.1991,41.3633,229.7013],[28.2012,41.3754,202.8446],[28.2025,41.4194,307.2916],[28.205,41.4282,321.0357],[28.2148,41.4473,309.7252],[28.2197,41.4819,205.1313]]]]}
,"properties": {"GID_2": "TUR.73.1_1","GID_0": "TUR","country": "Turkey","GID_1": "TUR.73_1","province": "Tekirdag","NL_NAME_1": "NA","county": "Çerkezköy","VARNAME_2": "NA","NL_NAME_2": "NA","TYPE_2": "District","ENGTYPE_2": "District","CC_2": "NA","HASC_2": "TR.TG.CE","name": "Çerkezköy.county","area_km2": 387.0591,"hist_schema_id": "Elevation0-9000","hist_area_km2": {"125": 9.0046,"150": 39.4678,"175": 90.4874,"200": 137.6605,"225": 81.0784,"250": 7.4449,"275": 4.1481,"300": 4.8153,"325": 5.0694,"350": 4.3228,"375": 2.9401,"400": 0.6198}}}