{"type":"Feature","properties":{"GID_2":"TUR.17.1_1","GID_0":"TUR","country":"Turkey","GID_1":"TUR.17_1","province":"Bingöl","NL_NAME_1":"NA","county":"Adaklı","VARNAME_2":"NA","NL_NAME_2":"NA","TYPE_2":"District","ENGTYPE_2":"District","CC_2":"NA","HASC_2":"TR.BG.AD","name":"Adaklı.county"},
"geometry":{"type": "MultiPolygon","coordinates": [[[[40.4204,39.1616,1831.0571],[40.449,39.1589,1923.2585],[40.4669,39.1527,1950.5253],[40.4906,39.148,1825.5127],[40.5154,39.1402,1833.5908],[40.5617,39.1368,2039.5201],[40.5944,39.128,1831.8661],[40.6405,39.1247,1833.7286],[40.6505,39.121,1879.0825],[40.6736,39.1069,1892.9833],[40.6837,39.1039,1984.1941],[40.6981,39.1028,2321.7603],[40.7154,39.1049,2002.4108],[40.7277,39.1125,1958.6272],[40.7478,39.139,1817.7666],[40.7496,39.1526,1829.5469],[40.7484,39.158,1821.8116],[40.7386,39.1761,1846.4109],[40.7386,39.181399999999996,1836.1929],[40.7406,39.1864,1866.7891],[40.7509,39.1965,1861.4602],[40.7739,39.2095,2037.9603],[40.7777,39.2132,2063.0378],[40.7808,39.223,2104.6125],[40.7824,39.2481,2213.9077],[40.7852,39.2559,2252.3701],[40.8006,39.2793,2364.3301],[40.8366,39.3106,2395.9712],[40.8388,39.3158,2317.4001],[40.8381,39.3239,2447.4294],[40.833,39.3309,2447.2932],[40.7927,39.3652,2127.7402],[40.7771,39.356,2205.1099],[40.7661,39.3528,2249.9722],[40.7576,39.3542,2278.2683],[40.72,39.3683,1982.7705],[40.709,39.3703,1853.8944],[40.6236,39.3709,2053.7324],[40.6056,39.3725,2031.7275],[40.5691,39.3862,2173.4731],[40.5368,39.4093,1728.7885],[40.5247,39.4153,1640.1431],[40.5071,39.4169,1739.5227],[40.4815,39.4118,1864.6533],[40.4742,39.4143,1678.6195],[40.4628,39.4252,1870.3538],[40.4542,39.4268,1743.9133],[40.4479,39.4255,1996.4435],[40.4395,39.4208,2102.8982],[40.4298,39.4126,2432.8423],[40.4166,39.3984,2081.5825],[40.4046,39.3951,2270.5508],[40.3909,39.3945,1793.8445],[40.391,39.3715,2120.6611],[40.3926,39.3632,1816.4395],[40.3953,39.3579,1678.9635],[40.4071,39.3467,1570.1429],[40.4158,39.3413,1271.4382],[40.4381,39.3329,1458.0386],[40.447,39.328,1391.0996],[40.4566,39.32,1572.4633],[40.4601,39.3128,1502.6609],[40.458,39.3061,1631.8506],[40.4491,39.2943,1958.8435],[40.4276,39.283,1779.9247],[40.4166,39.2752,1659.8718],[40.4098,39.2683,1564.863],[40.4063,39.2603,1474.9067],[40.406,39.2519,1497.6414],[40.4086,39.2439,1431.5278],[40.4252,39.2265,1304.8948],[40.4286,39.2197,1204.6591],[40.4213,39.1964,1672.7035],[40.4204,39.1616,1831.0571]]]]}}