{"type":"Feature","properties":{"GID_2":"TUR.12.12_1","GID_0":"TUR","country":"Turkey","GID_1":"TUR.12_1","province":"Balikesir","NL_NAME_1":"NA","county":"İvrindi","VARNAME_2":"NA","NL_NAME_2":"NA","TYPE_2":"District","ENGTYPE_2":"District","CC_2":"NA","HASC_2":"TR.BK.IV","name":"İvrindi.county"},
"geometry":{"type": "MultiPolygon","coordinates": [[[[27.3527,39.6545,853.9012],[27.3568,39.627,534.1198],[27.3554,39.5967,561.0805],[27.3522,39.5889,547.912],[27.3239,39.5447,551.4121],[27.31,39.5312,634.7458],[27.2953,39.5224,670.9606],[27.2649,39.5115,839.2808],[27.2225,39.5066,552.4775],[27.2102,39.5008,635.4336],[27.1914,39.4871,630.7681],[27.1805,39.4758,616.8344],[27.1769,39.4679,490.4273],[27.1754,39.4509,635.1441],[27.1768,39.4215,1031.8707],[27.1999,39.4166,772.7332],[27.2609,39.4142,714.406],[27.316,39.3944,724.4962],[27.3623,39.3911,673.3336],[27.3909,39.3831,536.3088],[27.4077,39.3815,485.5816],[27.445,39.3946,552.9684],[27.4935,39.414,703.217],[27.4914,39.4331,454.8342],[27.4931,39.4471,317.2692],[27.5126,39.4781,550.499],[27.5227,39.4867,586.0137],[27.5348,39.4934,559.4692],[27.5449,39.496,573.7453],[27.5682,39.4981,540.2416],[27.5764,39.5013,548.7898],[27.5797,39.5051,579.8248],[27.5852,39.5192,596.7296],[27.593,39.5286,610.4763],[27.6098,39.54,524.4717],[27.6248,39.5445,485.2316],[27.6289,39.5747,490.9619],[27.6379,39.5916,431.9819],[27.6441,39.6097,394.2225],[27.651,39.6182,291.7396],[27.6688,39.6307,211.4502],[27.6804,39.6491,196.1984],[27.5794,39.6479,242.844],[27.568,39.6459,357.8135],[27.5475,39.6378,319.8616],[27.5217,39.6305,321.6212],[27.4945,39.6358,359.9945],[27.4365,39.6387,268.6848],[27.3823,39.658,574.3447],[27.3721,39.658,617.6476],[27.3527,39.6545,853.9012]]]]}}