{"type":"Feature","properties":{"GID_2":"TUR.3.7_1","GID_0":"TUR","country":"Turkey","GID_1":"TUR.3_1","province":"Afyon","NL_NAME_1":"NA","county":"Dinar","VARNAME_2":"NA","NL_NAME_2":"NA","TYPE_2":"District","ENGTYPE_2":"District","CC_2":"NA","HASC_2":"TR.AF.DI","name":"Dinar.county"},
"geometry":{"type": "MultiPolygon","coordinates": [[[[30.1826,37.9012,1437.8214],[30.2028,37.9246,1365.5028],[30.2082,37.9548,1037.5846],[30.2119,37.9622,997.3259],[30.2236,37.9809,1004.4731],[30.2393,37.9961,1512.7637],[30.2738,38.0216,1033.0535],[30.298,38.0319,1492.0387],[30.322,38.0463,1612.4021],[30.3331,38.0507,1406.5795],[30.3443,38.0602,1439.7383],[30.3663,38.0713,1222.2126],[30.512,38.1831,1599.4292],[30.5231,38.1892,1696.5948],[30.5502,38.1994,1711.3656],[30.5671,38.2027,1685.0994],[30.5896,38.2201,1820.8854],[30.5838,38.2323,1706.8423],[30.5803,38.2689,1229.5043],[30.5614,38.2995,1288.4387],[30.5446,38.3127,1533.4191],[30.5206,38.3228,1588.9048],[30.5064,38.3315,1567.329],[30.4483,38.3768,1738.2292],[30.4286,38.3949,2003.4493],[30.4145,38.3667,1951.1311],[30.3919,38.3437,1532.8113],[30.3845,38.3318,1474.8311],[30.3721,38.3192,1452.8474],[30.3395,38.2943,1686.9048],[30.3288,38.288,1693.657],[30.3203,38.2851,1535.3732],[30.3091,38.2759,1545.6191],[30.2837,38.2621,1385.1854],[30.2296,38.2213,1132.4678],[30.1966,38.2073,1077.3232],[30.1801,38.2034,1106.1826],[30.036,38.2032,820.7305],[30.0238,38.1807,820.7828],[30.009,38.166,827.4968],[29.9761,38.1414,843.6735],[29.9649,38.1355,864.7943],[29.9493,38.13,894.8081],[29.9386,38.1235,916.7188],[29.9318,38.1178,935.8823],[29.9255,38.1094,944.2195],[29.9245,38.1035,937.0573],[29.9332,38.0859,901.8439],[29.9394,38.0645,895.8374],[29.9464,38.053,896.248],[29.9543,38.0296,910.6611],[29.9629,38.0158,950.0477],[29.9721,37.9946,973.4334],[29.9947,37.9912,962.6301],[30.0548,37.9682,998.3447],[30.069,37.9599,1047.2256],[30.1002,37.9358,1185.101],[30.1141,37.927,1311.4232],[30.1826,37.9012,1437.8214]]]]}}