{"type": "Feature","bbox": [31.0985,40.7868,31.4693,41.0081],"geometry": {"type": "MultiPolygon","coordinates": [[[[31.4693,40.871,956.4073],[31.4577,40.8774,513.0236],[31.4307,40.8878,853.1143],[31.4003,40.8938,732.828],[31.3669,40.9064,722.2],[31.3523,40.9156,688.6678],[31.3225,40.9387,472.8009],[31.3119,40.9506,622.827],[31.3088,40.9615,565.6992],[31.3091,40.9873,597.2633],[31.3142,41.0062,298.0505],[31.2285,41.0081,130.3951],[31.2127,41.007,369.6392],[31.2021,41.0045,357.3063],[31.1577,40.9869,504.5167],[31.1313,40.9793,999.8718],[31.1281,40.9497,572.1045],[31.1286,40.9383,378.976],[31.1306,40.9301,340.9417],[31.1337,40.9253,256.3704],[31.1403,40.9198,195.4645],[31.157,40.9133,230.0022],[31.1638,40.9091,220.0744],[31.1667,40.9052,188.7176],[31.167,40.9003,170.8408],[31.1625,40.8937,154.7759],[31.1526,40.8856,152.0583],[31.1243,40.8655,140.6747],[31.1033,40.8532,133.0144],[31.0985,40.845,131.9603],[31.1123,40.8373,132.5403],[31.1301,40.8305,137.2042],[31.137,40.8253,142.4346],[31.1402,40.8208,143.8616],[31.1414,40.8156,143.5217],[31.1405,40.8104,147.7615],[31.1323,40.7972,147.2949],[31.1284,40.7868,150.257],[31.2209,40.7869,211.084],[31.2348,40.7905,218.2213],[31.2422,40.7955,214.5442],[31.2554,40.8137,242.3112],[31.2704,40.8263,421.0477],[31.2835,40.8319,463.156],[31.291,40.8332,471.1829],[31.3299,40.8337,502.3011],[31.3488,40.8314,784.8902],[31.3588,40.8277,767.1645],[31.3853,40.8128,828.4985],[31.4315,40.8051,1054.5359],[31.4466,40.8322,1092.8102],[31.4562,40.8456,1026.7439],[31.4693,40.871,956.4073]]]]}
,"properties": {"GID_2": "TUR.27.7_1","GID_0": "TUR","country": "Turkey","GID_1": "TUR.27_1","province": "Düzce","NL_NAME_1": "NA","county": "Merkez","VARNAME_2": "Düzce","NL_NAME_2": "NA","TYPE_2": "District","ENGTYPE_2": "District","CC_2": "NA","HASC_2": "TR.DU.DU","name": "Merkez.county","area_km2": 444.7596,"hist_schema_id": "Elevation0-9000","hist_area_km2": {"125": 5.9654,"150": 50.6325,"175": 36.9251,"200": 22.5159,"225": 13.2403,"250": 13.459,"275": 13.0582,"300": 14.2421,"325": 14.4023,"350": 14.3055,"375": 13.3277,"400": 11.9018,"425": 12.1586,"450": 11.6144,"475": 11.3911,"500": 12.24,"525": 12.2723,"550": 12.8964,"575": 13.1831,"600": 11.5493,"625": 10.4445,"650": 9.853,"675": 8.7638,"700": 9.2612,"725": 8.5578,"750": 7.0208,"775": 6.6375,"800": 6.0763,"825": 5.5314,"850": 5.8201,"875": 5.4678,"900": 5.2915,"925": 5.035,"950": 4.3777,"975": 3.5118,"1000": 2.7904,"1025": 2.8867,"1050": 2.6943,"1075": 2.3736,"1100": 1.8926,"1125": 1.7644,"1150": 1.4917,"1175": 1.3474,"1200": 1.2191,"1225": 1.0908,"1250": 0.9945,"1275": 0.6095,"1300": 0.2566,"1325": 0.2246,"1350": 0.0481,"1375": 0.1123,"1400": 0.0321}}}