{"type":"Feature","properties":{"GID_2":"TUR.51.4_1","GID_0":"TUR","country":"Turkey","GID_1":"TUR.51_1","province":"Kirsehir","NL_NAME_1":"NA","county":"Çiçekdağı","VARNAME_2":"NA","NL_NAME_2":"NA","TYPE_2":"District","ENGTYPE_2":"District","CC_2":"NA","HASC_2":"TR.KH.CI","name":"Çiçekdağı.county"},
"geometry":{"type": "MultiPolygon","coordinates": [[[[34.1591,39.5272,1127.041],[34.1725,39.5192,1121.522],[34.2021,39.5069,1127.7681],[34.2322,39.4956,1191.2844],[34.2429,39.4931,1206.3596],[34.2671,39.4919,1222.6049],[34.3916,39.4921,1197.635],[34.4131,39.4898,1105.7987],[34.448,39.4751,1025.411],[34.4544,39.4695,1037.1333],[34.464,39.4564,1090.7815],[34.4733,39.4495,1199.3953],[34.5025,39.4423,1022.0329],[34.5204,39.4362,1060.2007],[34.5321,39.4343,1201.6982],[34.6394,39.4337,1085.636],[34.643,39.4442,1155.9775],[34.6522,39.4606,1180.2227],[34.6566,39.4866,1071.0435],[34.6321,39.4921,1115.0483],[34.6199,39.4968,1157.2686],[34.5986,39.5099,1117.1941],[34.576,39.5203,1063.5916],[34.5703,39.5257,1036.9471],[34.5677,39.5325,1014.8517],[34.5445,39.5427,1001.2576],[34.5294,39.5536,967.8898],[34.5226,39.5624,918.1062],[34.5219,39.5705,1019.356],[34.5238,39.5755,1068.9595],[34.5465,39.6088,816.1175],[34.5464,39.6194,981.8177],[34.541,39.627,968.034],[34.5131,39.6479,965.2247],[34.4847,39.6602,756.2869],[34.4685,39.6721,750.9956],[34.4623,39.6792,748.1879],[34.441,39.7148,889.9799],[34.4257,39.7331,1026.1378],[34.3838,39.7459,874.9933],[34.3728,39.7478,833.8026],[34.3069,39.7476,809.0455],[34.296,39.7457,769.6053],[34.2715,39.7379,743.4262],[34.2346,39.7367,699.9399],[34.2274,39.7293,753.7435],[34.2235,39.7239,794.1375],[34.2198,39.7116,785.1377],[34.2197,39.6193,1576.1179],[34.2171,39.5999,1464.3356],[34.1849,39.5491,1214.4373],[34.1591,39.5272,1127.041]]]]}}