{"type":"Feature","properties":{"GID_2":"TUR.65.2_1","GID_0":"TUR","country":"Turkey","GID_1":"TUR.65_1","province":"Rize","NL_NAME_1":"NA","county":"Çamlıhemşin","VARNAME_2":"NA","NL_NAME_2":"NA","TYPE_2":"District","ENGTYPE_2":"District","CC_2":"NA","HASC_2":"TR.RI.CH","name":"Çamlıhemşin.county"},
"geometry":{"type": "MultiPolygon","coordinates": [[[[41.1223,40.8201,3181.1499],[41.1106,40.83,2770.0503],[41.1033,40.8387,2597.8604],[41.0951,40.8621,2594.2395],[41.058,40.92,1699.1536],[41.0551,40.9344,1564.6216],[41.055,40.9706,1391.0424],[41.0537,40.9824,1036.5516],[41.0427,41.0044,1082.1177],[41.0379,41.0319,696.5647],[41.029,41.0483,667.179],[41.0204,41.072,453.83],[41.0086,41.0837,682.5255],[40.9503,41.1287,253.3681],[40.9324,41.1161,285.9272],[40.9202,41.1109,466.9124],[40.9195,41.0023,1005.1423],[40.9165,40.9901,1055.8928],[40.9068,40.9706,1322.8152],[40.9025,40.9347,1633.0005],[40.8937,40.918,1368.3795],[40.8847,40.8945,2175.7393],[40.8757,40.8852,2356.9775],[40.8548,40.8687,2215.2732],[40.8688,40.8532,2803.5281],[40.8731,40.8459,2749.0706],[40.8753,40.832,2935.4558],[40.8731,40.818,3185.01],[40.8638,40.806,2984.8057],[40.8355,40.7834,3156.884],[40.8212,40.7694,2904.498],[40.842,40.7578,3097.2598],[40.8553,40.746,3041.012],[40.8712,40.7203,3051.6599],[40.8778,40.6992,2981.9841],[40.8893,40.6864,2837.4028],[40.9027,40.6945,2967.9902],[40.9237,40.7031,3235.7288],[40.9477,40.7178,3025.0144],[40.9962,40.7364,3410.1985],[41.023,40.7525,3362.7573],[41.0468,40.7627,3318.7693],[41.0776,40.7844,3209.9941],[41.1041,40.7961,2890.4719],[41.1223,40.8085,3032.7925],[41.1223,40.8201,3181.1499]]]]}}