{"type":"Feature","properties":{"GID_1":"TUR.8_1","GID_0":"TUR","country":"Turkey","province":"Antalya","VARNAME_1":"Adalia|Anatolia","NL_NAME_1":"NA","TYPE_1":"Il","ENGTYPE_1":"Province","CC_1":"NA","HASC_1":"TR.AL","ISO_1":"TR-07","name":"Antalya.province"},
"geometry":{"type": "MultiPolygon","coordinates": [[[[29.6632,36.1354,14.6852],[29.6626,36.1365,7.0013],[29.6585,36.1357,0.0],[29.6546,36.1329,0.0],[29.6579,36.1301,0.0],[29.6604,36.1301,0.0],[29.6632,36.1354,14.6852]]],
[[[29.6563,36.1432,2.2689],[29.6537,36.144,0.0],[29.653199999999998,36.1413,0.0],[29.6549,36.1413,0.0],[29.6563,36.1432,2.2689]]],
[[[29.626,36.1526,0.5883],[29.6238,36.1535,1.5231],[29.6215,36.1512,0.0],[29.6279,36.1515,0.0],[29.626,36.1526,0.5883]]],
[[[29.6318,36.1521,0.0],[29.6326,36.1532,0.0],[29.6313,36.1535,0.0],[29.6288,36.1515,0.0],[29.6301,36.1512,0.0],[29.6318,36.1521,0.0]]],
[[[29.7568,36.1404,2.3431],[29.7546,36.141,0.0],[29.7496,36.1365,0.0],[29.7471,36.1321,3.4955],[29.7404,36.1271,0.0],[29.7388,36.1226,3.2242],[29.7424,36.1224,1.7526],[29.7426,36.124,9.3858],[29.746,36.1254,0.0],[29.749,36.1251,0.0],[29.7507,36.1285,0.0],[29.749,36.131,4.818],[29.7504,36.1318,0.0],[29.7663,36.1315,0.0],[29.7568,36.1404,2.3431]]],
[[[29.8732,36.1676,2.5803],[29.8729,36.169,0.0],[29.8713,36.1688,0.0],[29.8707,36.1662,0.0],[29.8721,36.1662,0.0],[29.8732,36.1676,2.5803]]],
[[[29.8376,36.1699,14.4649],[29.8365,36.1712,0.0],[29.834,36.1688,0.0],[29.8374,36.1671,4.7816],[29.8376,36.1699,14.4649]]],
[[[29.8321,36.1704,0.0],[29.8332,36.1688,0.0],[29.8363,36.1721,0.0],[29.8326,36.1712,4.3925],[29.8321,36.1704,0.0]]],
[[[29.6271,36.1615,0.0],[29.6254,36.1626,0.0],[29.624,36.161,0.0],[29.6251,36.1599,0.0],[29.6271,36.1615,0.0]]],
[[[29.6296,36.1607,1.1877],[29.6301,36.1624,0.0],[29.6288,36.1635,0.0],[29.6279,36.1615,0.0],[29.6296,36.1607,1.1877]]],
[[[29.5493,36.186,3.3945],[29.5471,36.1871,0.0],[29.546,36.1846,0.0],[29.5485,36.1826,0.7358],[29.5518,36.1829,0.0],[29.5518,36.184,0.0],[29.5493,36.186,3.3945]]],
[[[29.4396,36.2035,0.0],[29.4393,36.2046,0.0],[29.4354,36.204,0.0],[29.4346,36.1999,0.0],[29.4368,36.199,3.7617],[29.4374,36.2021,3.1996],[29.4396,36.2035,0.0]]],
[[[29.9157,36.1965,1.0013],[29.9107,36.1976,5.0629],[29.904,36.1957,0.0],[29.8974,36.1921,0.0],[29.8935,36.1879,40.6444],[29.884,36.1885,51.9097],[29.8688,36.1843,3.3571],[29.8593,36.1779,57.3548],[29.8518,36.1757,3.5753],[29.8465,36.1718,20.9122],[29.8449,36.1726,0.0],[29.841,36.171,8.6297],[29.8407,36.169,27.2213],[29.8435,36.1662,0.0],[29.8474,36.1668,0.0],[29.8476,36.1704,0.3995],[29.8524,36.1679,0.0],[29.8621,36.1704,2.6314],[29.861,36.1685,0.0],[29.8624,36.1679,0.0],[29.8638,36.1721,28.3065],[29.8668,36.1715,0.0],[29.8696,36.1743,8.8744],[29.8749,36.1729,0.0],[29.879,36.1765,5.2463],[29.8818,36.1768,12.6032],[29.8771,36.1715,0.0],[29.8782,36.1696,0.0],[29.8813,36.169,0.0],[29.8843,36.1721,0.0],[29.8832,36.174,43.2173],[29.8871,36.1743,4.6234],[29.8929,36.1779,13.1594],[29.8935,36.1804,42.7331],[29.8885,36.1835,0.0],[29.8918,36.1835,6.2537],[29.8926,36.1821,0.0],[29.8976,36.1829,3.3761],[29.9007,36.1849,0.0],[29.9007,36.1896,9.8688],[29.904,36.1918,3.3852],[29.9076,36.1907,6.1865],[29.9157,36.1965,1.0013]]],
[[[29.9132,36.1907,0.0],[29.9118,36.1915,0.0],[29.9099,36.1888,0.0],[29.9124,36.1882,0.0],[29.9132,36.1907,0.0]]],
[[[29.9007,36.2051,1.1747],[29.8985,36.2065,1.8016],[29.899,36.2026,1.0596],[29.9026,36.2012,0.0],[29.9037,36.2038,0.0],[29.9007,36.2051,1.1747]]],
[[[29.9065,36.211,4.2456],[29.9074,36.2129,0.0],[29.9018,36.2126,0.0],[29.8949,36.2093,2.9733],[29.9026,36.2068,0.0],[29.9065,36.211,4.2456]]],
[[[29.3646,36.2176,2.3301],[29.3665,36.2199,1.1751],[29.3474,36.214,0.0],[29.3463,36.2088,0.0],[29.3515,36.2101,0.0],[29.3646,36.2176,2.3301]]],
[[[29.3746,36.2235,21.8721],[29.3704,36.2246,1.8567],[29.3674,36.2212,18.2088],[29.3721,36.2193,2.6326],[29.3746,36.221,11.4323],[29.3746,36.2235,21.8721]]],
[[[29.7638,36.1568,0.0],[29.7718,36.1601,0.0],[29.7835,36.1579,0.4039],[29.779,36.1551,62.4968],[29.776,36.1554,28.2198],[29.7685,36.1524,0.0],[29.7565,36.1426,2.2317],[29.7582,36.1407,7.021],[29.7687,36.1396,0.0],[29.7776,36.1365,0.0],[29.7838,36.1396,0.0],[29.784,36.1413,1.3468],[29.7824,36.1415,8.6733],[29.7851,36.1435,0.0],[29.7926,36.1429,0.0],[29.7979,36.1476,3.7504],[29.8037,36.1488,4.2465],[29.8079,36.1524,8.6705],[29.8113,36.1529,2.2853],[29.8126,36.1565,0.0],[29.816,36.1593,7.2911],[29.8176,36.1587,0.0],[29.8179,36.1621,12.0372],[29.8213,36.1629,0.0],[29.8229,36.1615,0.0],[29.8265,36.1662,0.0],[29.8293,36.1674,6.0972],[29.8293,36.169,2.1999],[29.8246,36.1693,4.2241],[29.8165,36.1665,20.6813],[29.811,36.1676,0.0],[29.8015,36.1632,21.8395],[29.8007,36.1654,2.8813],[29.809,36.1707,11.9461],[29.8168,36.1729,0.0],[29.8163,36.176,11.1727],[29.8232,36.1757,4.3943],[29.8238,36.1804,59.8838],[29.8318,36.1776,0.0],[29.8326,36.1818,0.0],[29.8346,36.1824,0.0],[29.8363,36.1862,2.5885],[29.844,36.189,2.9869],[29.8468,36.1885,0.0],[29.8496,36.1901,0.0],[29.8504,36.1932,0.0],[29.8446,36.1929,4.7018],[29.8321,36.186,4.175],[29.8301,36.1862,4.175],[29.8307,36.1876,2.9642],[29.8288,36.1879,7.4865],[29.829,36.189,27.2669],[29.8374,36.1921,3.5706],[29.839,36.1946,4.852],[29.846,36.1963,0.7635],[29.8635,36.1965,0.3598],[29.8618,36.1946,6.2499],[29.8524,36.1924,0.0],[29.8524,36.1907,0.0],[29.8546,36.191,0.0],[29.8543,36.1893,0.0],[29.856,36.191,1.9443],[29.8563,36.189,0.0],[29.8582,36.1885,0.0],[29.869,36.1918,1.9194],[29.8729,36.191,4.6533],[29.8765,36.1926,14.0564],[29.8804,36.1915,0.0],[29.8807,36.1932,0.0],[29.8868,36.1937,0.0],[29.8904,36.1999,0.0],[29.8979,36.2024,6.1411],[29.8976,36.2057,0.0],[29.894,36.2062,3.3615],[29.8935,36.2101,0.0],[29.8913,36.2101,31.3205],[29.891,36.2115,0.9209],[29.8971,36.2121,6.6344],[29.9024,36.2154,0.0],[29.9088,36.2168,0.0],[29.9057,36.2199,7.6582],[29.906,36.2265,9.1176],[29.9096,36.2251,0.0],[29.9135,36.2279,0.0],[29.921,36.2287,0.0],[29.9238,36.2307,4.9745],[29.9224,36.234,11.757],[29.9301,36.2329,5.4779],[29.9376,36.2279,0.0],[29.9401,36.2304,0.224],[29.9443,36.2287,1.5271],[29.946,36.2268,5.4507],[29.9413,36.2224,2.8615],[29.9449,36.2193,0.0],[29.9515,36.2215,0.7405],[29.9671,36.2185,0.0],[29.9726,36.2196,0.0],[29.9763,36.2221,6.298],[29.9829,36.2196,6.9713],[29.9793,36.2157,0.0],[29.9813,36.2143,0.0],[29.9885,36.2174,9.3449],[29.9871,36.2204,4.958],[29.9918,36.2249,0.4667],[30.0107,36.2321,1.3783],[30.0421,36.2507,0.8275],[30.0615,36.2596,0.7318],[30.0704,36.2604,0.6785],[30.0746,36.2568,0.0],[30.0788,36.2562,6.4161],[30.0785,36.2543,2.6396],[30.081,36.2538,41.1858],[30.0812,36.2518,0.0],[30.0838,36.2532,1.7098],[30.0846,36.2496,0.0],[30.0904,36.2504,0.0],[30.0993,36.2463,0.0],[30.1007,36.2463,0.0],[30.101,36.2485,26.3278],[30.1026,36.2463,0.0],[30.106,36.2454,0.0],[30.1079,36.246,0.0],[30.1085,36.2485,0.0],[30.1104,36.2463,0.0],[30.1165,36.2474,2.4658],[30.1179,36.2507,23.5205],[30.1207,36.2513,0.0],[30.1207,36.256,7.3744],[30.1224,36.2574,0.0],[30.1218,36.2621,26.0856],[30.1276,36.2613,0.0],[30.129,36.2643,32.9689],[30.1315,36.2646,0.0],[30.1338,36.2735,5.3007],[30.1382,36.2779,27.3068],[30.1426,36.2774,3.6823],[30.1388,36.2701,20.3265],[30.1404,36.2665,0.0],[30.1437,36.266,1.5821],[30.1518,36.2721,0.0],[30.1496,36.2743,8.7725],[30.1526,36.274,4.0417],[30.1537,36.279,0.0],[30.1515,36.2821,0.0],[30.1526,36.2876,2.8387],[30.1499,36.2899,0.0],[30.1504,36.2918,0.0],[30.1482,36.2954,0.2181],[30.1496,36.301,1.1665],[30.1562,36.3029,0.0],[30.1688,36.3101,0.3076],[30.2004,36.3154,0.0],[30.224,36.3143,1.9695],[30.2435,36.3163,2.0451],[30.2813,36.3146,1.1627],[30.2882,36.3118,0.0],[30.296,36.3112,1.3206],[30.3282,36.2968,2.2242],[30.3499,36.2815,0.0],[30.3662,36.2729,7.0201],[30.3674,36.2699,6.0097],[30.3701,36.2687,0.0],[30.3715,36.2724,33.1828],[30.3782,36.2721,2.665],[30.3813,36.276,22.7697],[30.3874,36.274,9.6052],[30.3876,36.2779,15.1275],[30.391,36.279,23.5156],[30.3935,36.2785,0.0],[30.396,36.2726,0.0],[30.4082,36.2754,0.0],[30.4138,36.2674,5.1352],[30.4135,36.264,9.0119],[30.4093,36.259,0.0],[30.409,36.256,0.0],[30.404,36.2554,7.5488],[30.3985,36.2482,15.4755],[30.3999,36.2429,0.0],[30.406,36.2421,19.637],[30.4068,36.2407,17.5488],[30.4054,36.2363,2.4331],[30.4015,36.2326,0.0],[30.4046,36.2287,25.3333],[30.4021,36.2163,0.0],[30.4024,36.2099,0.0],[30.4057,36.2093,0.0],[30.4074,36.2118,1.8341],[30.4143,36.2146,0.0],[30.4163,36.2207,57.0798],[30.4201,36.2201,0.0],[30.4215,36.2226,0.0],[30.4212,36.229,18.3254],[30.4274,36.2274,0.0],[30.4346,36.2313,0.0],[30.4346,36.2346,51.6058],[30.4363,36.2363,15.8674],[30.4346,36.2399,20.6135],[30.4371,36.2435,69.303],[30.4435,36.2468,0.0],[30.4449,36.2507,67.9155],[30.4488,36.2524,10.1472],[30.4524,36.2513,-0.157],[30.4504,36.2557,6.6856],[30.4512,36.2576,29.6133],[30.4582,36.2574,32.7573],[30.4604,36.2557,0.0],[30.4604,36.261,0.9584],[30.4638,36.2657,13.7979],[30.4699,36.2707,84.336],[30.4785,36.2721,15.7132],[30.4876,36.279,22.0446],[30.4849,36.2888,1.6619],[30.4885,36.2954,16.2023],[30.4888,36.2993,0.0],[30.4821,36.3018,16.4261],[30.476,36.2976,0.0],[30.471,36.2974,0.539],[30.4682,36.299,0.451],[30.4649,36.3054,1.9548],[30.4668,36.314,25.1938],[30.4685,36.3149,7.4812],[30.4737,36.3132,0.0],[30.4785,36.3157,23.8188],[30.4876,36.3157,11.2128],[30.4918,36.3213,0.0],[30.4907,36.3238,2.8012],[30.494,36.326,28.8869],[30.4971,36.3268,0.0],[30.5015,36.3226,2.4136],[30.5057,36.3229,0.0],[30.5074,36.3235,0.0],[30.5085,36.3268,0.0],[30.5085,36.3318,0.0],[30.5187,36.329,2.8294],[30.5296,36.3343,7.8541],[30.5299,36.339,0.0],[30.526,36.3443,0.0],[30.5249,36.3421,0.0],[30.5199,36.3415,14.9119],[30.5154,36.3443,0.0],[30.511,36.3446,29.1443],[30.5099,36.3537,0.0],[30.5071,36.3563,0.0],[30.5049,36.3526,5.551],[30.5029,36.356,44.0726],[30.5046,36.3593,22.2831],[30.5085,36.3601,0.0],[30.5057,36.3699,1.1641],[30.5001,36.3693,0.0],[30.501,36.3651,1.4929],[30.4971,36.3676,0.0],[30.4915,36.3776,0.0],[30.4857,36.3829,22.354],[30.4874,36.391,0.0],[30.4779,36.3954,33.6757],[30.4768,36.3988,0.2521],[30.479,36.4012,0.0],[30.4779,36.4046,3.8623],[30.4807,36.4121,1.9074],[30.4824,36.4151,0.3325],[30.484,36.4151,0.3325],[30.4835,36.421,4.2709],[30.4918,36.4215,0.0],[30.4888,36.4235,5.5008],[30.4874,36.4307,0.0],[30.4826,36.4315,20.9728],[30.4813,36.434,0.0],[30.4832,36.4368,0.0],[30.4876,36.4351,0.0],[30.4882,36.4393,3.9098],[30.4979,36.4354,0.0],[30.5007,36.4379,7.1738],[30.5051,36.4365,0.0],[30.5096,36.4399,0.0],[30.5113,36.4451,0.0],[30.5104,36.4476,0.0],[30.5124,36.4501,0.0],[30.5115,36.4532,0.0],[30.5129,36.4546,4.1619],[30.5163,36.4543,0.0],[30.5174,36.4568,0.0],[30.5101,36.4601,2.6336],[30.5121,36.4621,0.0],[30.5065,36.4654,71.765],[30.5074,36.4688,16.379],[30.5135,36.4688,12.4817],[30.5168,36.4699,0.0],[30.5151,36.4729,16.5383],[30.5218,36.4735,0.0],[30.5179,36.4754,1.3836],[30.5168,36.479,2.4122],[30.5196,36.4801,9.5409],[30.5207,36.4785,0.0],[30.5229,36.4787,0.0],[30.5213,36.4824,10.5446],[30.5271,36.4932,4.0354],[30.5332,36.5013,8.2175],[30.5365,36.5032,0.0],[30.5365,36.5054,1.8511],[30.5399,36.5096,8.455],[30.5446,36.5096,0.0],[30.5415,36.5224,27.4896],[30.5485,36.5243,10.2469],[30.5507,36.5232,24.6595],[30.5504,36.5207,26.5077],[30.5524,36.5196,0.0],[30.5543,36.5238,8.95],[30.5513,36.5271,6.09],[30.5554,36.529,12.4658],[30.5554,36.5307,48.5945],[30.5624,36.531,5.0852],[30.5654,36.5326,0.631],[30.5646,36.534,0.0],[30.5579,36.5343,24.0528],[30.5576,36.5363,9.8516],[30.5607,36.5371,0.0],[30.5574,36.5399,3.0675],[30.5579,36.5435,8.6859],[30.5668,36.5549,3.5563],[30.576,36.5626,0.9081],[30.5835,36.5718,0.0],[30.5885,36.579,0.9928],[30.5857,36.5846,0.0],[30.5888,36.5854,0.0],[30.5915,36.5893,0.0],[30.590699999999998,36.5985,9.6974],[30.5876,36.5988,0.0],[30.5824,36.5954,25.457],[30.5771,36.5965,1.9903],[30.5751,36.5988,0.9338],[30.5774,36.6007,0.0],[30.5726,36.6024,0.0],[30.5696,36.601,0.2698],[30.5599,36.6115,9.5841],[30.5568,36.6188,0.8924],[30.5585,36.6296,19.578],[30.5565,36.6321,0.0],[30.5565,36.6354,0.0],[30.5607,36.644,0.0],[30.556,36.6437,14.5584],[30.5546,36.646,0.0],[30.5549,36.6499,0.7071],[30.5607,36.6607,0.0],[30.5713,36.6749,0.0],[30.571,36.6868,0.0],[30.5746,36.7049,3.5333],[30.5718,36.7107,0.0],[30.5668,36.7157,0.4527],[30.5637,36.7254,1.862],[30.5668,36.7388,1.9123],[30.5696,36.7435,0.0],[30.5724,36.7438,0.0],[30.5682,36.7518,22.6946],[30.5735,36.7632,0.0],[30.5754,36.7829,10.3845],[30.5729,36.7854,1.8212],[30.5763,36.7924,1.1818],[30.5749,36.7949,9.0183],[30.5788,36.8018,10.4678],[30.5843,36.8065,3.467],[30.6001,36.8271,4.3325],[30.604,36.829,0.3104],[30.6104,36.8282,0.0],[30.6168,36.8329,0.0],[30.6162,36.8349,0.0],[30.6093,36.8288,0.726],[30.609,36.8301,0.726],[30.6093,36.8304,0.726],[30.6087,36.8304,0.726],[30.6082,36.8293,0.726],[30.6057,36.8301,0.3104],[30.6085,36.8343,0.0],[30.6065,36.8385,0.2751],[30.6129,36.8349,0.0],[30.6143,36.8354,0.0],[30.6154,36.844,6.6009],[30.6224,36.8507,3.5],[30.6579,36.8737,0.0],[30.6793,36.8838,26.0829],[30.689,36.8826,0.0],[30.7001,36.8846,4.9346],[30.7074,36.8743,0.0],[30.7154,36.8726,8.7627],[30.7176,36.8679,6.8636],[30.7232,36.8657,12.8182],[30.7304,36.8571,7.3504],[30.7337,36.8568,0.0],[30.7399,36.8532,0.0],[30.744,36.8543,28.6537],[30.7462,36.8507,13.6159],[30.756,36.8471,21.4021],[30.7574,36.8449,0.0],[30.761,36.8468,15.1751],[30.7826,36.8493,5.3254],[30.7879,36.8521,18.8343],[30.7943,36.851,2.147],[30.7996,36.8468,0.0],[30.8046,36.8474,2.897],[30.8063,36.846,0.602],[30.814,36.8479,1.9661],[30.8232,36.8474,1.0599],[30.8571,36.8518,0.7335],[30.889,36.8529,0.6788],[30.8946,36.8543,1.6246],[30.9171,36.8529,0.0],[30.9349,36.8546,0.7749],[30.9368,36.856,3.5096],[31.0065,36.8582,1.0655],[31.0171,36.8554,0.0],[31.0374,36.8543,3.1843],[31.0626,36.849,1.922],[31.0701,36.8468,2.0512],[31.0754,36.8424,1.5798],[31.0796,36.841,1.4726],[31.1004,36.8401,0.922],[31.1743,36.8279,0.0],[31.1796,36.8296,1.3979],[31.1979,36.8279,1.1805],[31.2118,36.8254,0.3529],[31.2199,36.8207,0.4931],[31.2318,36.8232,2.2693],[31.2593,36.8207,3.8207],[31.2646,36.819,2.8375],[31.2657,36.8168,0.0],[31.2787,36.8187,0.9625],[31.2835,36.8171,10.8582],[31.2946,36.8168,0.7266],[31.3296,36.8093,5.3152],[31.3624,36.7976,2.718],[31.3726,36.7888,0.9196],[31.3871,36.7807,8.3311],[31.3904,36.7762,2.1768],[31.391,36.7718,0.4508],[31.3896,36.7693,0.0],[31.384,36.7668,3.1608],[31.3863,36.764,6.1811],[31.3887,36.7632,0.0],[31.3932,36.766,3.6509],[31.3988,36.7651,2.1578],[31.416,36.7549,0.0],[31.4215,36.7549,0.0],[31.424,36.7565,2.133],[31.4365,36.7551,2.2251],[31.4693,36.7454,0.0],[31.4912,36.7374,0.0],[31.4968,36.7368,1.4586],[31.5079,36.7315,0.0],[31.5132,36.731,1.3582],[31.5268,36.7254,0.4317],[31.528199999999998,36.7235,0.0],[31.5329,36.7232,1.2322],[31.5485,36.716,0.7294],[31.5526,36.7154,1.9955],[31.5543,36.7135,0.0],[31.5613,36.7118,3.2628],[31.5826,36.7018,1.5753],[31.589,36.6971,5.3907],[31.5904,36.6943,1.9372],[31.5979,36.6913,4.2498],[31.606,36.6843,1.7869],[31.6379,36.6707,0.972],[31.6524,36.6615,0.7173],[31.6646,36.6493,0.0],[31.6721,36.6496,3.3719],[31.6746,36.6463,22.807],[31.6721,36.644,0.0],[31.6801,36.6449,0.0],[31.6821,36.6482,0.4288],[31.6868,36.649,9.0014],[31.6918,36.6463,0.0],[31.6946,36.6471,15.4249],[31.7026,36.6421,4.1507],[31.7121,36.6426,5.715],[31.7196,36.641,9.6637],[31.7218,36.6387,0.0],[31.7249,36.6401,0.9168],[31.7251,36.6379,0.0],[31.7293,36.6385,0.0],[31.7318,36.641,9.2321],[31.736,36.6407,25.6422],[31.7393,36.639,7.3012],[31.7399,36.6371,11.5673],[31.746,36.6382,4.9601],[31.7515,36.6338,1.2108],[31.7512,36.6318,0.0],[31.7543,36.6312,9.9146],[31.7535,36.6274,3.5311],[31.7551,36.6254,0.0],[31.7579,36.6257,11.4349],[31.7582,36.6229,0.1736],[31.7624,36.6243,9.7325],[31.7621,36.6215,0.0],[31.7663,36.6204,0.0],[31.7685,36.6174,2.0657],[31.7749,36.6138,10.5227],[31.7754,36.6082,2.7489],[31.7712,36.6071,0.0],[31.7726,36.6049,0.0],[31.7746,36.604,0.0],[31.7779,36.6035,0.0],[31.7793,36.6051,0.0],[31.7865,36.6071,10.0375],[31.7976,36.6004,0.0],[31.8165,36.5932,0.0],[31.8296,36.5954,0.0],[31.8436,36.591,1.1365],[31.8549,36.5896,4.0982],[31.891,36.5751,0.0],[31.896,36.5713,0.0],[31.9043,36.5718,3.8313],[31.9065,36.5693,2.9293],[31.9118,36.5687,2.8483],[31.9182,36.5632,0.0],[31.9249,36.5638,18.1455],[31.939,36.5582,0.0],[31.9463,36.5582,1.035],[31.9496,36.5599,1.8951],[31.9549,36.5576,0.0],[31.9607,36.5585,0.0],[31.9688,36.556,6.8544],[31.9774,36.551,6.4436],[31.9879,36.5421,3.7461],[31.9885,36.5371,0.0],[31.9871,36.5346,7.0946],[31.989,36.5299,46.8745],[31.9857,36.5274,0.0],[31.9899,36.5296,46.8745],[31.9946,36.5288,53.0064],[32.0004,36.5304,0.0],[32.0007,36.5335,0.0],[31.999,36.5357,0.0],[32.0046,36.5387,0.0],[31.9996,36.5379,0.207],[31.9993,36.5399,0.0],[32.0057,36.5429,1.9145],[32.0163,36.5429,6.4453],[32.0254,36.5385,0.0],[32.0296,36.5382,3.6067],[32.0535,36.5232,3.5965],[32.0615,36.5137,0.0],[32.0743,36.5068,0.3914],[32.086,36.494,3.4058],[32.0885,36.4935,3.3469],[32.1029,36.479,2.1426],[32.1162,36.4687,0.8395],[32.1235,36.4571,6.2808],[32.1235,36.4499,0.5596],[32.1307,36.4443,33.5599],[32.1343,36.4374,0.7296],[32.1401,36.4365,6.1006],[32.1435,36.4329,0.6224],[32.1504,36.4307,6.7277],[32.166,36.4171,3.9506],[32.1738,36.4049,0.0],[32.1751,36.3996,0.0],[32.1785,36.3979,5.0822],[32.1943,36.3763,1.687],[32.1929,36.3701,1.1462],[32.1982,36.3654,0.0],[32.2085,36.3465,0.0],[32.2101,36.346,20.6887],[32.211,36.3418,4.5337],[32.2132,36.341,38.196],[32.216,36.3357,0.0],[32.2207,36.3338,34.0183],[32.221,36.3304,0.0],[32.226,36.3288,46.9052],[32.2301,36.3221,9.8078],[32.2337,36.321,5.1294],[32.2335,36.3185,0.0],[32.2418,36.3179,12.4543],[32.246,36.314,55.5752],[32.2454,36.3107,0.0],[32.2487,36.3071,2.6031],[32.2529,36.309,26.0143],[32.2621,36.3024,20.1909],[32.2749,36.289,2.2736],[32.276,36.2863,0.0],[32.274,36.2824,0.0],[32.2788,36.2793,29.839],[32.2807,36.2668,3.1087],[32.2799,36.2632,1.376],[32.2774,36.2624,0.4098],[32.2771,36.2607,10.1634],[32.286,36.2537,0.0],[32.2893,36.2482,2.6557],[32.2921,36.2474,3.4326],[32.2954,36.2412,3.5359],[32.2954,36.2343,19.9142],[32.3071,36.2287,0.0],[32.3101,36.229,28.619],[32.3138,36.2254,0.0],[32.3224,36.2224,19.6713],[32.3296,36.2218,0.0],[32.3329,36.2179,39.1724],[32.3324,36.2157,11.9384],[32.3363,36.2146,0.0],[32.3393,36.2157,27.3663],[32.3507,36.2079,0.0],[32.354,36.2035,0.0],[32.3607,36.2004,0.0],[32.3607,36.1985,0.0],[32.3643,36.1954,0.0],[32.3632,36.1932,0.0],[32.3662,36.1929,2.1698],[32.3713,36.186,0.0],[32.3746,36.1854,0.0],[32.3749,36.181,0.0],[32.3796,36.1751,0.0],[32.3793,36.1729,0.0],[32.3815,36.171,0.0],[32.389,36.1696,4.3955],[32.3901,36.1657,20.7211],[32.389,36.1629,0.0],[32.3976,36.1649,0.0],[32.3996,36.1618,0.0],[32.4015,36.1629,4.0801],[32.404,36.1615,0.0],[32.4085,36.1629,4.0043],[32.4126,36.1621,56.2031],[32.4149,36.1604,19.1781],[32.4124,36.1568,0.0],[32.414,36.1543,0.0],[32.4162,36.1546,1.3393],[32.416,36.1532,0.0],[32.4176,36.1526,0.0],[32.4212,36.1532,11.266],[32.4226,36.149,0.0],[32.4313,36.1471,42.3807],[32.436,36.1418,0.0],[32.4418,36.1415,20.8921],[32.441,36.1376,0.0],[32.4457,36.1385,1.2172],[32.4615,36.1335,0.0],[32.4621,36.1307,26.4016],[32.4654,36.1293,4.7244],[32.4687,36.1237,0.0],[32.471,36.1246,1.3977],[32.4721,36.1226,0.0],[32.4779,36.1213,4.9912],[32.4779,36.119,0.0],[32.4815,36.1165,12.0447],[32.4818,36.1146,4.0819],[32.4879,36.1132,0.0],[32.4879,36.109,0.0],[32.491,36.1087,0.0],[32.4949,36.1113,12.568],[32.5015,36.1043,3.75],[32.5071,36.1043,0.0],[32.5099,36.106,34.0049],[32.5146,36.1015,0.0],[32.5171,36.0965,0.0],[32.5332,36.094,52.8811],[32.534,36.0921,2.3892],[32.5438,36.0949,36.397],[32.5501,36.0929,0.0],[32.5543,36.099,64.1902],[32.566,36.0999,0.4964],[32.5801,36.1102,229.006],[32.5874,36.1182,90.6146],[32.6004,36.1391,169.1719],[32.6035,36.1474,460.3036],[32.6085,36.1743,295.7672],[32.6165,36.1882,553.8877],[32.6225,36.2067,383.1357],[32.6327,36.2259,437.7834],[32.6372,36.2618,1190.1639],[32.6451,36.2786,1507.8604],[32.6468,36.286,2097.2915],[32.6451,36.2935,2170.5032],[32.6378,36.3074,2213.688],[32.636,36.3165,2235.3682],[32.6358,36.3836,2002.1377],[32.6388,36.3956,1927.6221],[32.6478,36.412,1895.7083],[32.653,36.434,1914.2451],[32.6581,36.4461,1884.9352],[32.6397,36.4614,1797.6522],[32.6159,36.4718,1771.2299],[32.583,36.4944,1734.5315],[32.5542,36.5082,1751.9343],[32.5482,36.5142,1803.6641],[32.5305,36.5415,1563.1243],[32.5117,36.5526,1754.855],[32.5038,36.561,1174.9187],[32.4957,36.5845,1452.792],[32.489,36.5957,1322.3584],[32.4823,36.6168,1766.5405],[32.4741,36.6307,1958.6125],[32.4683,36.6491,1918.3977],[32.459,36.6655,1725.6941],[32.4565,36.6741,1536.6055],[32.4553,36.6952,1290.6667],[32.4567,36.7132,1254.6633],[32.4592,36.7217,1321.1144],[32.4682,36.7382,1577.3391],[32.4706,36.7511,1536.2753],[32.4373,36.8058,1384.3113],[32.4224,36.8246,1655.4928],[32.395,36.8371,1518.7456],[32.3633,36.8411,1724.9553],[32.3437,36.8397,2223.3611],[32.3292,36.8405,2224.1873],[32.291,36.8509,2087.0012],[32.2831,36.8592,2159.8491],[32.2786,36.8667,2212.8828],[32.2734,36.8935,1945.2297],[32.2646,36.9102,2077.3149],[32.2589,36.9518,2068.4497],[32.2496,36.9685,2096.1685],[32.2391,36.9941,1865.6973],[32.2329,37.0003,1828.9231],[32.1833,37.0395,1870.6492],[32.1729,37.0456,1929.9111],[32.1496,37.0551,2088.7983],[32.1088,37.0854,1755.7646],[32.0927,37.0948,1721.4296],[32.0678,37.1357,1893.7671],[32.0544,37.1412,1774.9225],[32.0255,37.1607,1684.3831],[31.9969,37.1733,1751.151],[31.8526,37.2846,1917.7877],[31.8404,37.2915,1817.4128],[31.8249,37.2977,1752.9192],[31.795,37.3142,1828.3955],[31.7564,37.3192,1786.6414],[31.7278,37.3276,1603.7535],[31.6838,37.329,1406.323],[31.5775,37.3289,1761.4637],[31.5614,37.3307,1540.0819],[31.5398,37.3377,1563.8763],[31.5285,37.3396,1834.1333],[31.46,37.3415,1772.7183],[31.4493,37.344,1405.1516],[31.4048,37.3614,1571.1151],[31.3746,37.3703,1578.8917],[31.3552,37.4022,2110.6404],[31.3414,37.4138,1829.5551],[31.3233,37.4244,2184.9238],[31.2994,37.4224,1470.2113],[31.2388,37.4218,926.4172],[31.2248,37.4182,949.1277],[31.2154,37.4117,1192.3175],[31.2043,37.4009,862.2271],[31.1797,37.3897,1388.4541],[31.1525,37.3844,1681.5114],[31.1308,37.3776,1722.5272],[31.096,37.3738,1323.6543],[31.0743,37.3668,1261.5977],[31.0471,37.3615,1419.702],[30.9968,37.3428,1469.9009],[30.9864,37.3435,1818.5853],[30.9774,37.3476,1668.5486],[30.9486,37.368899999999996,1087.2405],[30.936,37.3738,1251.3926],[30.9159,37.3725,895.2529],[30.8819,37.3624,375.0118],[30.872,37.3557,269.586],[30.8685,37.3513,338.5465],[30.8617,37.3305,472.3167],[30.8526,37.3141,763.8275],[30.8471,37.2955,926.4343],[30.8387,37.2817,657.7917],[30.8318,37.2607,290.7152],[30.8177,37.2373,310.2317],[30.8052,37.2246,84.9117],[30.7902,37.2362,164.6047],[30.7504,37.2364,429.728],[30.7288,37.2355,626.1184],[30.7165,37.2335,850.5413],[30.6946,37.2266,636.829],[30.6734,37.2247,700.0022],[30.4827,37.2248,776.4078],[30.4441,37.2236,984.458],[30.431,37.2268,969.767],[30.4041,37.2371,809.2415],[30.3935,37.2432,807.7137],[30.3866,37.252,807.443],[30.3815,37.2704,1079.5905],[30.3694,37.2914,972.7198],[30.366,37.2959,925.8174],[30.3563,37.3029,832.6906],[30.3462,37.306,807.9379],[30.3349,37.307,811.8026],[30.2959,37.3064,847.0701],[30.281,37.304,861.8031],[30.2632,37.2976,880.9662],[30.233,37.2913,1174.9657],[30.1882,37.2742,1336.855],[30.1643,37.2698,1590.7555],[30.1431,37.2627,2125.55],[30.1159,37.2574,1948.0974],[30.068,37.2395,1614.2632],[30.0477,37.2378,1790.6862],[30.0262,37.2282,1673.7467],[29.9203,37.1882,1815.0115],[29.8774,37.1614,1912.8864],[29.8629,37.1452,2157.3337],[29.846,37.1168,1733.1084],[29.8412,37.0894,1396.8545],[29.8302,37.0673,1394.5917],[29.8267,37.0195,1425.6564],[29.8091,36.991,1478.8606],[29.7754,36.9611,1367.5635],[29.7618,36.9428,1387.725],[29.7522,36.9354,1317.7761],[29.7307,36.9248,1275.5381],[29.6843,36.919,1246.9854],[29.6768,36.8827,1282.4863],[29.6736,36.8748,1263.4207],[29.645,36.8306,1388.0248],[29.6207,36.8055,1141.2302],[29.6073,36.7844,1175.6367],[29.6036,36.7732,1439.4651],[29.6001,36.7522,1666.6917],[29.5911,36.7355,1921.1272],[29.5882,36.7236,2126.3066],[29.5868,36.6415,1617.2518],[29.5843,36.6327,1525.5865],[29.574,36.6149,1868.9183],[29.5615,36.6006,1814.8638],[29.5423,36.5851,2354.7129],[29.529,36.577,2617.9797],[29.5135,36.5714,2382.8772],[29.5021,36.5652,1984.3296],[29.4294,36.5104,624.3032],[29.3969,36.4955,258.4297],[29.3271,36.4423,41.7131],[29.3214,36.4357,36.3024],[29.3192,36.4269,41.235],[29.3212,36.4206,35.1396],[29.3277,36.41,42.0881],[29.3285,36.4019,35.5084],[29.3193,36.384,54.5465],[29.3144,36.3559,17.5623],[29.3052,36.3397,20.0589],[29.2988,36.3188,5.0298],[29.288,36.3091,4.3427],[29.2624,36.301,4.2172],[29.2626,36.2985,2.3833],[29.2651,36.2968,2.7119],[29.2646,36.2954,1.391],[29.2613,36.296,1.1542],[29.256,36.3018,1.1185],[29.259,36.2949,0.0],[29.2638,36.2935,0.74],[29.2629,36.2915,0.3319],[29.2646,36.2899,0.4489],[29.3149,36.2515,13.655],[29.3163,36.2487,12.6342],[29.3137,36.2468,0.0],[29.3307,36.2476,17.9018],[29.3301,36.246,0.9865],[29.3326,36.2432,0.9928],[29.3388,36.2418,0.0],[29.3468,36.2365,3.0447],[29.3496,36.2346,10.1235],[29.3501,36.2313,3.5575],[29.3532,36.2296,0.0],[29.3585,36.2304,0.0],[29.3599,36.2326,2.1311],[29.3676,36.236,0.0],[29.3713,36.2446,0.0],[29.3749,36.2487,4.3733],[29.3743,36.2562,2.0685],[29.3685,36.2596,1.5764],[29.3685,36.2626,11.6916],[29.3874,36.2607,8.7369],[29.3904,36.264,6.7647],[29.3929,36.264,3.9795],[29.3957,36.2632,0.0],[29.401,36.2576,0.0],[29.409,36.2615,0.0],[29.4171,36.2607,20.0101],[29.4149,36.251,16.638],[29.4107,36.249,16.9718],[29.4085,36.2435,48.6978],[29.4043,36.2443,4.6228],[29.4065,36.2332,0.0],[29.4118,36.2243,0.6521],[29.416,36.2254,0.0],[29.4232,36.2313,2.028],[29.4293,36.2318,7.0918],[29.431,36.2301,0.0],[29.4496,36.2285,12.4985],[29.4551,36.2257,5.5046],[29.4535,36.2207,0.0],[29.4471,36.2193,0.0],[29.4426,36.2163,0.0],[29.4415,36.2104,0.0],[29.4485,36.214,0.0],[29.4535,36.2204,1.955],[29.4588,36.2212,0.0],[29.4674,36.2151,0.0],[29.4774,36.211,0.0],[29.4826,36.2118,0.0],[29.4988,36.2088,20.7322],[29.5382,36.211,7.0786],[29.5663,36.2093,6.2655],[29.5707,36.2082,1.6325],[29.5707,36.2038,2.5201],[29.5799,36.201,1.0971],[29.5965,36.2024,2.7025],[29.6015,36.2049,2.9164],[29.6015,36.2071,45.1015],[29.6113,36.2082,1.7831],[29.6304,36.2054,0.0],[29.6338,36.2024,0.452],[29.6288,36.2029,0.0],[29.6246,36.2013,2.5808],[29.6168,36.2051,2.1352],[29.6118,36.2043,0.0],[29.6054,36.1982,15.9396],[29.594,36.1954,13.6467],[29.5915,36.1924,2.9896],[29.5851,36.191,0.0],[29.5838,36.186,0.0],[29.5907,36.1838,9.7644],[29.5963,36.1874,9.7078],[29.6096,36.1874,6.7206],[29.6099,36.1924,1.2548],[29.6135,36.1971,18.3547],[29.6207,36.1974,2.0441],[29.6243,36.1993,4.2853],[29.6315,36.196,0.0],[29.6346,36.1982,0.0],[29.6449,36.1963,7.1291],[29.6465,36.1924,0.0],[29.6501,36.1913,0.0],[29.6504,36.1735,2.4452],[29.6468,36.1757,0.0],[29.6437,36.1749,1.5196],[29.6413,36.1782,0.8684],[29.6429,36.1829,0.0],[29.6418,36.1838,0.0],[29.6396,36.1826,6.2142],[29.6354,36.1757,5.8149],[29.6324,36.1746,0.0],[29.6304,36.1696,0.0],[29.6418,36.1654,2.751],[29.6443,36.159,5.0342],[29.6493,36.159,11.8325],[29.6543,36.1557,10.7376],[29.654,36.1535,0.0],[29.6563,36.1521,0.0],[29.6521,36.1496,0.0],[29.6546,36.1471,3.6439],[29.6646,36.146,0.0],[29.6665,36.1474,0.0],[29.6654,36.1504,48.1604],[29.6696,36.1524,24.6465],[29.6782,36.1529,6.1196],[29.676,36.1518,4.3397],[29.6751,36.1488,0.0],[29.679,36.1465,0.0],[29.6774,36.1435,0.0],[29.6796,36.1418,0.9468],[29.679,36.1387,0.0],[29.6829,36.1343,6.1444],[29.6826,36.1304,0.0],[29.6874,36.134,3.0427],[29.6882,36.1379,5.9914],[29.6915,36.1396,4.4011],[29.6943,36.1479,1.8254],[29.7013,36.144,0.0],[29.7015,36.1474,1.6437],[29.7101,36.1482,0.0],[29.7138,36.1518,0.0],[29.7138,36.1568,0.0],[29.7229,36.1635,0.0],[29.729,36.1629,0.0],[29.7324,36.1571,0.0],[29.7354,36.156,0.0],[29.7415,36.1568,0.0],[29.7476,36.161,4.7039],[29.7546,36.1543,1.7378],[29.7626,36.1554,0.0],[29.7638,36.1568,0.0]]],
[[[30.4071,36.1907,5.3039],[30.4079,36.1924,0.0],[30.4029,36.1918,5.2693],[30.4046,36.1857,4.7966],[30.4026,36.1843,4.4683],[30.4026,36.1815,0.0],[30.404,36.181,0.0],[30.4043,36.1768,0.0],[30.4079,36.1754,0.0],[30.409,36.1799,0.0],[30.4065,36.1829,1.0462],[30.4079,36.1874,9.7925],[30.4071,36.1907,5.3039]]],
[[[30.4051,36.2021,0.6636],[30.4018,36.2024,0.0],[30.3993,36.1976,0.0],[30.4029,36.1968,0.0],[30.4063,36.2007,0.0],[30.4051,36.2021,0.6636]]],
[[[30.4743,36.2399,0.0],[30.4704,36.2401,8.1989],[30.4699,36.2368,0.0],[30.474,36.2354,0.0],[30.4782,36.2299,0.0],[30.4796,36.2301,0.0],[30.481,36.2321,0.0],[30.4776,36.234,0.4553],[30.4743,36.2399,0.0]]],
[[[30.1432,36.2643,0.0],[30.1443,36.2654,0.0],[30.1399,36.2654,0.0],[30.1415,36.2637,0.0],[30.1432,36.2643,0.0]]],
[[[31.6632,36.646,0.0],[31.6643,36.646,0.0],[31.6637,36.6476,0.0],[31.6612,36.6476,0.0],[31.6612,36.6471,0.0],[31.6632,36.646,0.0]]],
[[[30.5543,36.4588,3.4843],[30.5535,36.461,0.0],[30.5507,36.461,0.0],[30.5471,36.4574,0.0],[30.5493,36.4562,0.0],[30.5504,36.459,11.8432],[30.5524,36.4574,2.1072],[30.5543,36.4588,3.4843]]],
[[[30.5904,36.8032,14.8533],[30.5885,36.8043,0.0],[30.5885,36.801,5.565],[30.5904,36.8007,5.1683],[30.5904,36.8032,14.8533]]]]}}