{"type": "Feature","id": "2271","bbox": [29.26122,36.09397,32.65168,37.42784],"geometry": {"type": "MultiPolygon","coordinates": [[[[29.66057,36.13227,21.7548],[29.65569,36.13618,0.0],[29.65659,36.13101,0.0],[29.66057,36.13227,21.7548]]],
[[[29.73951,36.1223,3.2242],[29.74708,36.12547,12.1128],[29.75758,36.13174,0.0],[29.76409,36.13569,0.0],[29.76067,36.13752,0.0],[29.75066,36.13882,0.0],[29.74252,36.13166,0.0],[29.73862,36.1223,3.2242],[29.73951,36.1223,3.2242]]],
[[[29.50847,36.15469,7.2155],[29.50294,36.15872,12.9959],[29.49399,36.16108,0.0],[29.48536,36.1553,0.0],[29.49147,36.1516,7.4835],[29.49903,36.14968,0.0],[29.49993,36.15221,20.4871],[29.50449,36.15213,0.0],[29.50847,36.15469,7.2155]]],
[[[29.56007,36.12104,0.0],[29.57496,36.12417,35.845],[29.57781,36.12543,45.4716],[29.5822,36.12861,32.8597],[29.58432,36.12979,32.7193],[29.58554,36.13414,17.5245],[29.60304,36.14163,41.2395],[29.60214,36.14781,0.0],[29.59905,36.14932,0.0],[29.59327,36.15217,0.0],[29.59417,36.15847,21.1193],[29.59531,36.16669,11.1706],[29.58872,36.16714,0.0],[29.5796,36.16189,0.0],[29.56959,36.15091,0.0],[29.56739,36.14427,0.0],[29.56373,36.13211,0.0],[29.56031,36.12694,0.0],[29.55917,36.12104,0.0],[29.56007,36.12104,0.0]]],
[[[29.89153,36.18264,6.2537],[29.89226,36.18431,39.3917],[29.89772,36.1846,58.3287],[29.90105,36.1894,9.8688],[29.90919,36.19359,30.6035],[29.91196,36.19949,0.0],[29.893,36.19107,0.0],[29.87395,36.18643,0.0],[29.86118,36.18134,0.0],[29.85442,36.17849,0.0],[29.84596,36.17276,0.0],[29.83969,36.17056,0.0],[29.84278,36.16714,8.0752],[29.85019,36.16995,7.3715],[29.86036,36.17149,16.477],[29.87078,36.17385,8.8744],[29.87827,36.17491,0.0],[29.88461,36.17308,0.0],[29.89153,36.18264,6.2537]]],
[[[29.35743,36.21345,0.0],[29.35873,36.21821,2.2386],[29.35263,36.21577,0.0],[29.34588,36.21385,0.0],[29.34897,36.20824,0.0],[29.35743,36.21345,0.0]]],
[[[29.44809,36.21568,2.4912],[29.45216,36.22036,1.955],[29.44361,36.218,0.0],[29.44361,36.21259,2.8619],[29.44809,36.21568,2.4912]]],
[[[31.41548,37.35485,1468.6979],[31.37641,37.37994,1691.2777],[31.35285,37.39984,1965.3685],[31.33187,37.42224,2069.2974],[31.27771,37.42784,1065.9487],[31.22738,37.41389,894.8505],[31.18066,37.38671,1396.6453],[31.1265,37.3801,1786.7311],[31.02346,37.35139,1811.7118],[30.93499,37.38025,1174.1427],[30.86461,37.33157,410.7585],[30.84631,37.28873,582.909],[30.78554,37.23525,222.6331],[30.74813,37.2284,471.5171],[30.67061,37.22757,770.3121],[30.57997,37.23535,833.3085],[30.44086,37.23083,955.9244],[30.4174,37.2385,977.8787],[30.3558,37.29845,806.3197],[30.29493,37.30493,850.2899],[30.14693,37.25522,2166.0034],[30.08564,37.24662,1827.1084],[29.90601,37.17215,1851.4941],[29.85123,37.11246,1430.9667],[29.83594,37.03712,1409.7123],[29.79646,36.97878,1490.7133],[29.76876,36.95749,1350.6724],[29.74447,36.93085,1294.2317],[29.71842,36.91865,1263.4846],[29.68887,36.91431,1245.9795],[29.58024,36.71605,2240.5918],[29.59378,36.65433,2139.749],[29.57549,36.59895,1963.4816],[29.52691,36.5702,2564.5215],[29.48113,36.53715,1436.8353],[29.47203,36.50932,1232.7417],[29.4773,36.4824,1268.4895],[29.45487,36.47325,880.8027],[29.42439,36.48354,659.7034],[29.36196,36.46312,73.5807],[29.32889,36.40842,49.3842],[29.32248,36.39067,40.7175],[29.31328,36.37633,64.3458],[29.31287,36.36429,78.5216],[29.31369,36.35153,16.0222],[29.30708,36.32502,7.0423],[29.2892,36.30471,7.1643],[29.26122,36.29358,0.0],[29.26124,36.29357,0.0],[29.32228,36.24689,0.0],[29.32936,36.2541,205.0079],[29.33473,36.24771,74.8019],[29.34083,36.23737,0.0],[29.34962,36.23261,15.7297],[29.35711,36.23566,82.5219],[29.36134,36.24152,138.1303],[29.36492,36.24828,196.7927],[29.36997,36.25434,73.5846],[29.37525,36.25886,0.0],[29.37761,36.26162,0.0],[29.3816,36.2639,201.8358],[29.39186,36.2674,91.9026],[29.39812,36.26618,92.4271],[29.40187,36.26179,86.5864],[29.40577,36.26016,8.4208],[29.41163,36.2674,76.7697],[29.41521,36.23973,70.1378],[29.42042,36.23062,144.2353],[29.43214,36.24006,195.0523],[29.49448,36.211,33.3855],[29.52149,36.20596,0.0],[29.60222,36.20702,1.0725],[29.62387,36.19912,4.2853],[29.61297,36.19986,73.5801],[29.60231,36.19868,0.0],[29.59254,36.19579,0.0],[29.58351,36.19164,0.0],[29.58351,36.18545,0.0],[29.63453,36.19164,0.0],[29.6421,36.18696,0.0],[29.64324,36.17792,0.0],[29.63738,36.17243,125.0689],[29.62387,36.17796,0.0],[29.63396,36.15705,0.0],[29.66822,36.14378,0.0],[29.67237,36.12336,0.0],[29.68873,36.14126,79.6491],[29.6893,36.14448,111.258],[29.69996,36.14614,6.4719],[29.70314,36.14997,37.7186],[29.70387,36.15445,142.4852],[29.70704,36.15815,96.3497],[29.71925,36.16267,1.1893],[29.73146,36.16425,103.5886],[29.74342,36.16096,46.7679],[29.75489,36.1507,0.0],[29.75929,36.15502,0.0],[29.76238,36.15656,0.0],[29.7754,36.15815,0.0],[29.77223,36.1542,0.0],[29.77019,36.15082,23.9569],[29.76726,36.14777,115.9764],[29.76173,36.14448,53.0081],[29.76173,36.13703,30.1703],[29.77955,36.13935,11.3862],[29.79526,36.14521,0.0],[29.80958,36.154,25.8212],[29.82309,36.16498,32.9763],[29.80258,36.16498,0.0],[29.80258,36.17182,76.44],[29.82732,36.17805,0.0],[29.83692,36.17796,0.0],[29.83758,36.18285,0.0],[29.83611,36.18427,2.0165],[29.83334,36.18448,23.9957],[29.83009,36.18545,4.175],[29.844,36.19139,24.3473],[29.88136,36.19843,84.8758],[29.8982,36.20596,1.8016],[29.91163,36.21703,0.0],[29.91651,36.21906,0.0],[29.92555,36.21963,0.0],[29.93832,36.21768,0.0],[29.95004,36.21442,0.0],[29.96127,36.21385,0.0],[29.9734,36.21963,0.0],[29.98845,36.21776,9.3449],[30.05592,36.24689,0.0],[30.05592,36.25434,0.0],[30.03484,36.25434,2.5511],[30.04819,36.25878,-0.1069],[30.05787,36.2556,0.2155],[30.0656,36.24995,0.0],[30.07301,36.24689,0.0],[30.11061,36.24006,0.0],[30.11109,36.24722,7.239],[30.11061,36.25434,225.9663],[30.12477,36.24689,0.0],[30.12477,36.25507,0.0],[30.13103,36.27424,51.0759],[30.13722,36.26065,0.0],[30.13844,36.25434,0.0],[30.1447,36.25434,0.0],[30.14552,36.27513,63.2079],[30.14926,36.28986,0.0],[30.15854,36.29865,0.0],[30.23373,36.30891,0.0],[30.25457,36.30829,0.0],[30.36052,36.26862,0.0],[30.38429,36.27424,24.6372],[30.39601,36.26553,0.0],[30.4004,36.24811,109.7436],[30.39861,36.20596,0.0],[30.42742,36.22639,0.0],[30.44077,36.23933,0.0],[30.45167,36.26179,122.4139],[30.46388,36.27114,231.6305],[30.47779,36.27949,294.7926],[30.48797,36.28783,0.0],[30.48064,36.28954,201.6745],[30.47885,36.29194,317.1658],[30.4782,36.2923,166.218],[30.47364,36.28783,287.4955],[30.46681,36.28783,141.5507],[30.47877,36.30858,0.0],[30.50563,36.32738,82.872],[30.51987,36.34186,14.9119],[30.49415,36.34931,321.2238],[30.50164,36.36359,25.6496],[30.48715,36.37027,558.9058],[30.47633,36.38422,366.5204],[30.47462,36.4016,14.2402],[30.48797,36.41816,0.0],[30.48699,36.42695,4.7886],[30.5088,36.45429,133.8719],[30.52084,36.48973,30.7923],[30.53598,36.50519,1.8511],[30.56983,36.52802,0.0],[30.56723,36.53986,0.0],[30.58107,36.57518,7.4389],[30.58351,36.59634,0.0],[30.57667,36.5895,146.4165],[30.57106,36.60114,0.0],[30.56381,36.60932,0.0],[30.55787,36.61961,0.8924],[30.55616,36.63788,9.8942],[30.55836,36.65233,0.0],[30.56267,36.66254,0.0],[30.56886,36.6706,0.0],[30.57667,36.6789,0.0],[30.57667,36.68513,0.0],[30.56577,36.70018,5.1473],[30.56463,36.71796,11.2059],[30.56983,36.75056,0.0],[30.56983,36.78132,23.6944],[30.57447,36.78954,9.3385],[30.58766,36.80707,0.0],[30.60174,36.83812,4.3151],[30.62859,36.85956,2.9587],[30.68653,36.89118,55.1084],[30.7269,36.86587,34.7365],[30.74806,36.85566,47.2066],[30.77589,36.84955,37.145],[30.93971,36.857,1.1709],[31.34083,36.80858,7.5433],[31.37631,36.79194,12.3237],[31.37859,36.76765,0.0],[31.40756,36.76341,6.6083],[31.5962,36.69571,3.4711],[31.61069,36.68203,0.0],[31.62761,36.67084,0.0],[31.70346,36.64362,4.5995],[31.72429,36.64102,11.0247],[31.73658,36.64228,38.1217],[31.74936,36.63227,0.0],[31.76905,36.61001,0.0],[31.80738,36.59683,0.0],[31.81674,36.5895,0.0],[31.83465,36.59235,0.0],[31.86248,36.58869,5.6863],[31.88803,36.58112,35.0418],[31.89942,36.57246,39.1849],[31.90797,36.56265,0.0],[31.92807,36.56025,0.0],[31.96827,36.56159,58.3242],[31.97413,36.55899,54.5369],[31.98015,36.55439,11.0754],[31.9878,36.54995,14.4477],[31.99871,36.54792,24.3585],[32.01002,36.54776,16.8056],[32.01881,36.54654,21.9283],[32.02605,36.54344,8.0923],[32.08717,36.49331,0.0],[32.10206,36.48615,11.9613],[32.11451,36.46967,7.5167],[32.13209,36.43867,0.0],[32.13502,36.43822,6.9352],[32.14845,36.43366,13.7294],[32.15162,36.43032,3.7782],[32.16285,36.41478,0.0],[32.17433,36.40241,6.2467],[32.1784,36.39533,0.0],[32.17994,36.38715,0.0],[32.19215,36.35838,0.0],[32.2527,36.31533,103.2848],[32.27613,36.28783,0.4397],[32.27898,36.27904,29.839],[32.28297,36.25064,0.0],[32.28728,36.24482,0.0],[32.30592,36.23456,193.9761],[32.31031,36.22948,28.619],[32.3187,36.22858,150.62],[32.36549,36.17796,0.0],[32.38152,36.17015,0.0],[32.40203,36.16551,127.6218],[32.41961,36.15949,145.188],[32.42701,36.14761,1.1361],[32.43727,36.13866,0.0],[32.51344,36.10301,4.9081],[32.53142,36.09882,221.4592],[32.56788,36.0961,0.0],[32.57179,36.09398,0.0],[32.57181,36.09397,0.0],[32.5751,36.1011,44.4272],[32.59029,36.11994,142.8328],[32.59783,36.14412,223.071],[32.60197,36.16934,375.5159],[32.61478,36.1964,407.4961],[32.63132,36.22133,499.2188],[32.64724,36.26926,1203.8282],[32.64259,36.37938,2089.7598],[32.65168,36.43803,1868.9575],[32.63204,36.47031,1802.0698],[32.59225,36.48744,1702.9976],[32.55866,36.5062,1786.829],[32.53159,36.53379,1819.9196],[32.49055,36.60156,1368.9674],[32.45624,36.67339,1461.4653],[32.46317,36.74158,1440.5519],[32.44746,36.80827,1516.2295],[32.42637,36.83212,1446.2463],[32.39485,36.83786,1518.7456],[32.34865,36.84124,2290.9187],[32.30535,36.85418,2178.5854],[32.29026,36.88139,2123.2078],[32.30163,36.9116,2131.104],[32.32715,36.92764,1843.875],[32.32354,36.95821,1837.3762],[32.2916,36.97395,1892.2106],[32.25305,36.98694,1813.2999],[32.18587,37.03717,1871.8293],[32.15548,37.05464,2027.0054],[32.12789,37.07624,1909.1222],[32.08324,37.12662,2004.9697],[32.03311,37.16864,1875.3539],[31.96304,37.2076,1773.3641],[31.89865,37.25517,1824.4385],[31.81535,37.2985,1593.5472],[31.55873,37.34072,1496.001],[31.45899,37.34129,1765.4088],[31.41548,37.35485,1468.6979]]]]}
,"properties": {"ISO3166-1-Alpha-3": "TUR","country": "Turkey","fill": "#F0F","name": "Antalya","area_km2": 21212.24,"hist_schema_id": "Elevation0-9000","hist_area_km2": {"0": 740.34,"25": 640.2,"50": 514.33,"75": 391.33,"100": 305.6,"125": 268.23,"150": 258.57,"175": 258.24,"200": 248.88,"225": 249.06,"250": 248.45,"275": 253.97,"300": 446.55,"325": 265.05,"350": 217.51,"375": 196.19,"400": 186.29,"425": 184.7,"450": 198.45,"475": 198.16,"500": 202.14,"525": 197.16,"550": 195.73,"575": 197.54,"600": 199.91,"625": 202.66,"650": 199.14,"675": 188.31,"700": 184.82,"725": 183.63,"750": 178.25,"775": 190.88,"800": 193.28,"825": 267.56,"850": 235.71,"875": 231.12,"900": 213.0,"925": 219.91,"950": 248.77,"975": 233.55,"1000": 231.08,"1025": 374.28,"1050": 289.88,"1075": 259.58,"1100": 263.68,"1125": 266.2,"1150": 277.14,"1175": 266.43,"1200": 272.11,"1225": 252.82,"1250": 241.5,"1275": 235.52,"1300": 238.7,"1325": 237.63,"1350": 232.55,"1375": 235.76,"1400": 289.33,"1425": 261.0,"1450": 245.0,"1475": 236.63,"1500": 229.04,"1525": 219.28,"1550": 216.76,"1575": 214.3,"1600": 215.35,"1625": 204.49,"1650": 197.48,"1675": 196.82,"1700": 199.09,"1725": 213.92,"1750": 189.79,"1775": 183.95,"1800": 180.16,"1825": 170.85,"1850": 172.0,"1875": 167.42,"1900": 159.03,"1925": 150.22,"1950": 148.17,"1975": 148.59,"2000": 147.66,"2025": 143.9,"2050": 139.7,"2075": 131.0,"2100": 117.34,"2125": 104.27,"2150": 101.0,"2175": 89.62,"2200": 91.32,"2225": 89.98,"2250": 81.07,"2275": 71.27,"2300": 63.54,"2325": 55.79,"2350": 50.73,"2375": 42.38,"2400": 35.2,"2425": 30.5,"2450": 26.57,"2475": 23.78,"2500": 22.5,"2525": 20.8,"2550": 18.56,"2575": 16.51,"2600": 14.77,"2625": 12.82,"2650": 10.95,"2675": 9.54,"2700": 8.2,"2725": 6.14,"2750": 4.9,"2775": 3.51,"2800": 2.47,"2825": 2.2,"2850": 1.4,"2875": 1.26,"2900": 0.8,"2925": 0.65,"2950": 0.46,"2975": 0.17}}}