{"type":"Feature","properties":{"GID_2":"TUR.50.5_1","GID_0":"TUR","country":"Turkey","GID_1":"TUR.50_1","province":"Kirklareli","NL_NAME_1":"NA","county":"Merkez","VARNAME_2":"Kirklareli","NL_NAME_2":"NA","TYPE_2":"District","ENGTYPE_2":"District","CC_2":"NA","HASC_2":"TR.KL.KL","name":"Merkez.county"},
"geometry":{"type": "MultiPolygon","coordinates": [[[[27.3368,42.0755,268.1457],[27.3276,42.0455,367.3046],[27.3103,42.0199,347.8755],[27.2828,41.9969,507.0999],[27.2743,41.9879,639.179],[27.2597,41.9645,687.7508],[27.2535,41.943,609.278],[27.2458,41.9292,677.4717],[27.2404,41.9152,661.6224],[27.2368,41.9112,659.2159],[27.231,41.9083,539.179],[27.2169,41.9065,526.6654],[27.194,41.9075,551.6358],[27.1828,41.9096,513.8471],[27.161,41.9168,491.0553],[27.1264,41.9207,383.2328],[27.0713,41.9405,378.9108],[27.0289,41.9431,298.7922],[27.0177,41.945,321.93],[26.9836,41.9602,401.6107],[26.9889,41.9179,294.89],[26.9837,41.8883,357.1749],[26.9745,41.8715,278.5665],[26.9721,41.8627,268.5202],[26.9699,41.8126,240.8326],[26.9674,41.8038,230.9809],[26.9576,41.784,179.121],[26.9536,41.7368,145.1071],[26.9384,41.7103,126.3747],[26.9235,41.6906,146.3783],[26.9096,41.6798,140.0318],[26.9117,41.6696,135.5932],[26.9172,41.6601,128.4293],[26.927,41.6533,93.2132],[26.9725,41.6366,133.4833],[26.9913,41.6276,127.2695],[26.9974,41.6227,125.7248],[27.0005,41.6164,114.1728],[27.0141,41.6192,117.3888],[27.0352,41.6266,123.5566],[27.0458,41.6279,81.1163],[27.0676,41.6272,99.4315],[27.0805,41.6236,151.4088],[27.1188,41.6081,151.9952],[27.1289,41.6057,131.2336],[27.2322,41.6036,156.2841],[27.2876,41.589,166.7385],[27.2995,41.5821,147.1548],[27.3158,41.5696,160.6078],[27.3308,41.5696,139.8536],[27.3316,41.5838,168.6542],[27.3339,41.592,177.7666],[27.3637,41.6385,204.3931],[27.4016,41.6729,225.0414],[27.4237,41.7084,260.7673],[27.4338,41.719,299.6204],[27.4523,41.7306,291.0359],[27.5584,41.7708,417.6954],[27.6001,41.8005,674.7553],[27.5609,41.8359,449.7437],[27.5321,41.8796,354.5551],[27.5296,41.8842,354.263],[27.5291,41.8927,393.4572],[27.5328,41.8994,438.8445],[27.5416,41.9075,409.48],[27.5354,41.9131,442.0815],[27.5216,41.9367,383.2425],[27.5157,41.944,442.1497],[27.5053,41.9532,440.482],[27.4899,41.9511,479.8355],[27.4807,41.9524,561.8984],[27.4709,41.9592,518.3641],[27.4635,41.9683,645.0026],[27.4605,41.9696,662.7186],[27.4528,41.9685,623.1022],[27.4414,41.9699,642.7007],[27.4361,41.9748,649.803],[27.4319,41.9869,536.739],[27.4282,41.9899,529.2583],[27.4197,41.9889,466.506],[27.4159,41.9901,457.8781],[27.4108,41.9998,556.0904],[27.3943,42.0133,586.7633],[27.387,42.0248,492.7798],[27.3842,42.0344,463.4441],[27.3769,42.0495,429.1862],[27.3647,42.0581,416.3073],[27.3396,42.0622,317.7744],[27.3381,42.064,279.4742],[27.3396,42.0657,300.0822],[27.3368,42.0755,268.1457]]]]}}