{"type": "Feature","id": 141459.0,"bbox": [39.308604362896233,38.462164617962827,39.509043816021233,38.534979559369077],"geometry": {"type": "Polygon","coordinates": [[[39.308604362896233,38.463629461712827,1237.5],[39.308604362896233,38.463629461712827,1237.5],[39.362071159771233,38.462164617962827,1237.5],[39.409678581646233,38.477606512494077,1237.5],[39.434947136333733,38.485602117962827,1237.5],[39.479502800396233,38.498114324994077,1237.5],[39.509043816021233,38.516852117962827,1237.5],[39.503916862896233,38.529913641400327,1343.1414],[39.470957878521233,38.534979559369077,1283.9819],[39.432383659771233,38.533453680462827,1438.853],[39.407969597271233,38.521612860150327,1408.1429],[39.367198112896233,38.501105047650327,1363.0422],[39.331187370708733,38.491827703900327,1289.3313],[39.310679558208733,38.485296942181577,1276.6121],[39.308604362896233,38.463629461712827,1237.5]]]}
,"properties": {"name": "Hazar Dagi","lge_id": null,"pfafstette": 49993.0,"lke_type": "N","altitude": 1239,"objectid": 88386,"scalerank": 10,"featurecla": "Lake","note": null,"funkyname": 0,"min_zoom": 6.0,"min_label": 7.0,"area_km2": 70.15658,"hist_schema_id": "Elevation0-9000","hist_area_km2": {"1250": 58.64351,"1275": 2.96973,"1300": 2.27281,"1325": 1.92431,"1350": 1.72524,"1375": 1.24414,"1400": 0.58059,"1425": 0.49765,"1450": 0.16589,"1475": 0.08295,"1500": 0.04977}}}