{"type": "Feature","id": 139482.0,"bbox": [31.299815300396233,38.444342352337827,31.504161003521233,38.604864813275327],"geometry": {"type": "Polygon","coordinates": [[[31.503428581646233,38.528692938275327,953.3128],[31.503428581646233,38.528692938275327,953.3128],[31.499888542583733,38.558478094525327,953.4409],[31.504161003521233,38.589361883587827,953.2916],[31.503550651958733,38.602423407025327,953.8206],[31.471202019146233,38.604864813275327,963.0117],[31.432383659771233,38.596197821087827,963.652],[31.400645378521233,38.576605535931577,956.3785],[31.374766472271233,38.565619207806577,954.5482],[31.358775261333733,38.565008856244077,954.4448],[31.340830925396233,38.567999578900327,954.0734],[31.316783073833733,38.570990301556577,954.558],[31.299815300396233,38.556402899212827,953.2318],[31.307627800396233,38.533209539837827,952.4056],[31.338877800396233,38.497198797650327,953.0537],[31.365855339458733,38.461249090619077,953.3439],[31.405406120708733,38.444342352337827,952.2689],[31.453257683208733,38.447577215619077,953.0075],[31.470469597271233,38.472845770306577,953.1963],[31.481455925396233,38.491583563275327,952.9061],[31.496958855083733,38.507635809369077,953.1605],[31.503428581646233,38.528692938275327,953.3128]]]}
,"properties": {"ISO3166-1-Alpha-3": "SWE","country": "Sweden","name": "Aksehir Gl","lge_id": "tr","pfafstette": 9379.0,"lke_type": "N","altitude": 953,"objectid": 87455,"scalerank": 10,"featurecla": "Lake","note": null,"funkyname": 0,"min_zoom": 6.0,"min_label": 7.0,"area_km2": 209.6933,"hist_schema_id": "Elevation0-9000","hist_area_km2": {"950": 209.3287,"975": 0.3646}}}