{"type": "Feature","id": 139893.0,"bbox": [27.935679558208733,38.603766180462827,28.084971550396233,38.660284735150327],"geometry": {"type": "Polygon","coordinates": [[[27.974375847271233,38.607428289837827,76.5],[27.974375847271233,38.607428289837827,76.5],[27.997080925396233,38.607428289837827,76.5],[28.026866081646233,38.609259344525327,76.5],[28.049693230083733,38.603766180462827,76.5],[28.072520378521233,38.617438055462827,76.5],[28.084971550396233,38.641485907025327,98.8208],[28.066905144146233,38.653021551556577,157.9114],[28.040293816021233,38.660284735150327,134.603],[28.028697136333733,38.653326727337827,76.5],[28.002574089458733,38.648443914837827,77.9032],[27.954234245708733,38.648443914837827,80.1681],[27.935679558208733,38.637213446087827,76.7559],[27.944834831646233,38.627447821087827,76.5],[27.958262566021233,38.617743231244077,76.5],[27.974375847271233,38.607428289837827,76.5]]]}
,"properties": {"name": "Marmara Golu","lge_id": null,"pfafstette": 5623.0,"lke_type": "N","altitude": 74,"objectid": 87099,"scalerank": 11,"featurecla": "Lake","note": null,"funkyname": 1,"min_zoom": 6.7,"min_label": 7.7,"area_km2": 53.46474,"hist_schema_id": "Elevation0-9000","hist_area_km2": {"75": 50.43454,"100": 1.12602,"125": 0.72857,"150": 0.66232,"175": 0.21525,"200": 0.24837,"225": 0.04967}}}