{"type": "Feature","id": 138582.0,"bbox": [34.366587761333733,39.193854071087827,34.420420769146233,39.249396063275327],"geometry": {"type": "Polygon","coordinates": [[[34.386851433208733,39.193854071087827,1113.0],[34.386851433208733,39.193854071087827,1113.0],[34.401133659771233,39.195013739056577,1113.0],[34.420420769146233,39.209295965619077,1113.0],[34.411265495708733,39.229498602337827,1116.2151],[34.386851433208733,39.249396063275327,1118.4331],[34.366587761333733,39.238104559369077,1113.0],[34.368418816021233,39.217596746869077,1113.0],[34.383555534771233,39.207525946087827,1113.0],[34.386851433208733,39.193854071087827,1113.0]]]}
,"properties": {"name": "Seyfe Golu","lge_id": null,"pfafstette": 4871.0,"lke_type": "N","altitude": 1115,"objectid": 86543,"scalerank": 12,"featurecla": "Lake","note": null,"funkyname": 1,"min_zoom": 7.0,"min_label": 8.0,"area_km2": 17.54255,"hist_schema_id": "Elevation0-9000","hist_area_km2": {"1125": 17.54255}}}