{"type": "Feature","id": 138504.0,"bbox": [29.336924675396233,40.390631414837827,29.710459831646233,40.512213446087827],"geometry": {"type": "Polygon","coordinates": [[[29.631114128521233,40.395209051556577,83.0],[29.631114128521233,40.395209051556577,83.0],[29.651744011333733,40.398871160931577,83.0],[29.669444206646233,40.402228094525327,83.0],[29.689707878521233,40.407965399212827,83.0],[29.710459831646233,40.432867742962827,83.0],[29.710093620708733,40.454474188275327,89.597],[29.690928581646233,40.457525946087827,89.5133],[29.671885612896233,40.466315008587827,89.4768],[29.650889519146233,40.487311102337827,89.7472],[29.624522331646233,40.499457098431577,128.1597],[29.594004753521233,40.494024969525327,121.5374],[29.554209831646233,40.490057684369077,203.1281],[29.523203972271233,40.492193914837827,326.0253],[29.499766472271233,40.495489813275327,163.3834],[29.484629753521233,40.499457098431577,145.3943],[29.446055534771233,40.505865789837827,104.176],[29.400401237896233,40.512213446087827,125.6461],[29.381846550396233,40.504034735150327,96.0259],[29.359141472271233,40.493414617962827,91.4334],[29.341441276958733,40.479742742962827,87.368],[29.336924675396233,40.457220770306577,83.0],[29.349375847271233,40.434698797650327,83.0],[29.369639519146233,40.421942449994077,83.0],[29.395762566021233,40.425909735150327,83.0],[29.421153191021233,40.428351141400327,83.0],[29.440562370708733,40.414679266400327,83.0],[29.483164909771233,40.399176336712827,83.0],[29.518321159771233,40.395819403119077,83.0],[29.534800651958733,40.394293524212827,83.0],[29.571543816021233,40.390631414837827,83.0],[29.607920769146233,40.393377996869077,83.0],[29.631114128521233,40.395209051556577,83.0]]]}
,"properties": {"name": "Iznik Gl","lge_id": null,"pfafstette": 171.0,"lke_type": "N","altitude": 83,"objectid": 86450,"scalerank": 10,"featurecla": "Lake","note": null,"funkyname": 0,"min_zoom": 6.0,"min_label": 7.0,"area_km2": 298.4855,"hist_schema_id": "Elevation0-9000","hist_area_km2": {"75": 277.8785,"100": 14.8344,"125": 2.3703,"150": 1.5319,"175": 0.5321,"200": 0.3225,"225": 0.3386,"250": 0.1612,"275": 0.1935,"300": 0.2257,"325": 0.0806,"350": 0.0161}}}