{"type":"Feature","properties":{"GID_2":"TUR.2.3_1","GID_0":"TUR","country":"Turkey","GID_1":"TUR.2_1","province":"Adiyaman","NL_NAME_1":"NA","county":"Gerger","VARNAME_2":"NA","NL_NAME_2":"NA","TYPE_2":"District","ENGTYPE_2":"District","CC_2":"NA","HASC_2":"TR.AD.GE","name":"Gerger.county"},
"geometry":{"type": "MultiPolygon","coordinates": [[[[38.9781,37.7954,576.8145],[38.9758,37.8214,537.0],[38.9764,37.8844,650.8234],[38.9801,37.8953,537.0],[38.992,37.9138,677.0114],[39.0021,37.9252,798.1058],[39.0292,37.9483,840.7742],[39.0408,37.965,632.2941],[39.0472,37.9717,570.7794],[39.0734,37.9918,537.8655],[39.1425,38.0197,537.0],[39.1692,38.0291,664.8315],[39.1787,38.0307,537.0],[39.1941,38.0398,668.4814],[39.2101,38.0525,694.6301],[39.2296,38.0835,537.0],[39.234,38.1111,537.0],[39.2412,38.1246,551.7779],[39.246,38.1439,885.0446],[39.2473,38.1583,860.3953],[39.2463,38.1667,900.5116],[39.2408,38.1766,835.7185],[39.2337,38.182,863.3705],[39.2107,38.1902,799.1391],[39.202,38.1913,830.6438],[39.193,38.1886,805.1322],[39.1705,38.1756,753.9401],[39.1493,38.1726,722.8138],[39.128,38.1753,1331.0812],[39.1117,38.1847,1183.785],[39.1016,38.1742,1434.5248],[39.0901,38.1575,1522.0337],[39.0746,38.145,1502.4529],[39.0655,38.1401,1476.4136],[39.0051,38.1175,1448.4222],[38.9663,38.1129,1490.157],[38.9376,38.1046,1877.2864],[38.8913,38.1014,2058.0103],[38.8699,38.0943,1753.7369],[38.8589,38.0924,1874.604],[38.7963,38.0925,1208.7002],[38.7973,38.0507,1757.1655],[38.795,38.0085,1837.8245],[38.7924,37.9997,1878.1755],[38.7833,37.983,1748.6844],[38.781,37.9706,1717.1823],[38.78,37.9253,941.2493],[38.7833,37.911,1262.9817],[38.7898,37.9052,837.7947],[38.8056,37.8977,1069.1532],[38.8233,37.8939,915.8569],[38.8509,37.8957,922.9982],[38.878,37.9047,901.8762],[38.8876,37.9048,920.7439],[38.8964,37.9017,962.6666],[38.9001,37.8969,870.0137],[38.9014,37.8915,975.9829],[38.9012,37.8637,671.622],[38.9027,37.8512,637.4419],[38.9182,37.8249,537.0],[38.9321,37.8143,554.2916],[38.9781,37.7954,576.8145]]]]}}