{"type": "Feature","bbox": [43.7164,38.8679,44.2323,39.372],"geometry": {"type": "MultiPolygon","coordinates": [[[[44.0497,39.3608,2573.1658],[44.0328,39.372,2658.478],[43.9899,39.3586,2598.1655],[43.9621,39.3565,2764.5596],[43.9175,39.3577,3105.8145],[43.9062,39.3597,3177.4231],[43.8883,39.3658,3236.7954],[43.8652,39.3686,3302.3479],[43.7576,39.3687,2825.8015],[43.7164,39.3702,2738.2673],[43.7462,39.3301,2597.5938],[43.7801,39.3004,2516.8462],[43.7954,39.2771,2416.1465],[43.7985,39.2693,2387.8125],[43.8,39.2522,2340.5706],[43.799,39.2292,2316.196],[43.7961,39.2184,2319.2312],[43.7876,39.2047,2336.2944],[43.7851,39.1966,2357.2798],[43.7838,39.1506,2516.1245],[43.7852,39.1422,2476.8098],[43.7889,39.1343,2356.5068],[43.8205,39.1071,2028.7893],[43.8261,39.1,1983.3848],[43.828,39.0947,2020.7415],[43.8271,39.081,1979.3414],[43.8175,39.065,2077.6929],[43.8154,39.057,2099.5923],[43.8164,39.0462,2167.9202],[43.8238,39.0326,2335.1655],[43.8256,39.0252,2367.2336],[43.8237,39.0179,2502.1938],[43.8152,39.0018,2217.1597],[43.8146,38.9936,2252.6367],[43.8167,38.9854,2215.165],[43.8296,38.9716,2566.7954],[43.91,38.9091,2693.709],[43.9158,38.9019,2535.1367],[43.926,38.8792,2193.6536],[43.9814,38.8788,2240.6609],[43.9924,38.8768,2201.325],[44.0101,38.8702,2074.9753],[44.024,38.8679,2042.5929],[44.0458,38.8683,2065.4702],[44.0594,38.8726,2148.2041],[44.0681,38.8781,2099.4353],[44.0793,38.8896,2142.082],[44.0826,38.8976,2161.4629],[44.0862,38.9221,2154.1365],[44.0889,38.927,2154.9646],[44.0952,38.9329,2196.1025],[44.13,38.9476,2280.3774],[44.1605,38.9584,2447.123],[44.1742,38.9609,2365.9744],[44.1911,38.9612,2439.5798],[44.1903,38.967,2579.0823],[44.1978,38.9782,2515.5876],[44.1971,38.9805,2476.0249],[44.1846,38.9881,2409.7756],[44.1815,38.9942,2466.2483],[44.1816,39.0045,2563.6501],[44.1874,39.0125,2607.1787],[44.211,39.0141,2739.7549],[44.2191,39.0213,2800.7178],[44.2188,39.0288,2742.7144],[44.2005,39.069,2671.1379],[44.1947,39.0738,2658.3232],[44.1836,39.0793,2586.2329],[44.1545,39.0882,2411.3872],[44.1521,39.092,2347.7812],[44.1542,39.0981,2367.9736],[44.1724,39.1111,2386.9141],[44.1869,39.1163,2610.0505],[44.196,39.1168,2667.8945],[44.2082,39.1136,2791.3127],[44.2275,39.0993,2895.8833],[44.2323,39.1003,2729.6047],[44.2323,39.1094,2791.9644],[44.2278,39.1204,2948.5964],[44.2184,39.1386,2885.8188],[44.2015,39.1505,2893.3179],[44.1927,39.1548,2956.8213],[44.1764,39.1724,2781.8394],[44.1266,39.1894,2552.1958],[44.1133,39.2021,2449.0488],[44.1073,39.2145,2436.8027],[44.1089,39.2247,2505.3926],[44.1149,39.2355,2662.6836],[44.1151,39.2387,2670.8535],[44.1013,39.2486,2692.6936],[44.0981,39.2542,2639.7954],[44.0981,39.2583,2612.7202],[44.1023,39.2694,2512.7354],[44.1089,39.2751,2557.4551],[44.1117,39.2864,2554.0396],[44.109,39.2898,2520.3877],[44.0962,39.2923,2565.5659],[44.0879,39.2974,2611.4312],[44.087,39.3011,2603.9834],[44.091,39.3216,2600.5691],[44.0885,39.3295,2528.4038],[44.0796,39.3374,2608.4785],[44.0614,39.3475,2492.8716],[44.0514,39.3567,2554.5671],[44.0497,39.3608,2573.1658]]]]}
,"properties": {"GID_2": "TUR.78.3_1","GID_0": "TUR","country": "Turkey","GID_1": "TUR.78_1","province": "Van","NL_NAME_1": "NA","county": "Çaldıran","VARNAME_2": "NA","NL_NAME_2": "NA","TYPE_2": "District","ENGTYPE_2": "District","CC_2": "NA","HASC_2": "TR.VA.CD","name": "Çaldıran.county","area_km2": 1543.667,"hist_schema_id": "Elevation0-9000","hist_area_km2": {"1975": 0.757,"2000": 2.764,"2025": 88.939,"2050": 171.414,"2075": 52.605,"2100": 36.314,"2125": 39.218,"2150": 66.216,"2175": 72.468,"2200": 65.285,"2225": 67.14,"2250": 56.962,"2275": 59.897,"2300": 55.206,"2325": 52.809,"2350": 54.151,"2375": 51.309,"2400": 47.056,"2425": 40.554,"2450": 40.034,"2475": 36.521,"2500": 33.49,"2525": 31.784,"2550": 30.127,"2575": 26.023,"2600": 25.735,"2625": 26.452,"2650": 25.451,"2675": 22.021,"2700": 18.461,"2725": 15.042,"2750": 13.806,"2775": 11.551,"2800": 11.629,"2825": 9.213,"2850": 9.241,"2875": 8.192,"2900": 5.877,"2925": 5.204,"2950": 5.187,"2975": 4.58,"3000": 4.431,"3025": 4.037,"3050": 3.56,"3075": 3.132,"3100": 2.755,"3125": 3.197,"3150": 3.689,"3175": 3.328,"3200": 3.623,"3225": 3.886,"3250": 2.804,"3275": 2.262,"3300": 2.148,"3325": 1.344,"3350": 1.098,"3375": 0.721,"3400": 0.541,"3425": 0.213,"3450": 0.098,"3475": 0.049,"3500": 0.066}}}