{"type":"Feature","properties":{"GID_2":"TUR.40.17_1","GID_0":"TUR","country":"Turkey","GID_1":"TUR.40_1","province":"Istanbul","NL_NAME_1":"NA","county":"Esenler","VARNAME_2":"NA","NL_NAME_2":"NA","TYPE_2":"District","ENGTYPE_2":"District","CC_2":"NA","HASC_2":"TR.IB.ES","name":"Esenler.county"},
"geometry":{"type": "MultiPolygon","coordinates": [[[[28.8715,41.0386,46.7067],[28.8804,41.0393,92.2446],[28.883,41.0367,89.9152],[28.8832,41.0339,77.2234],[28.8809,41.0267,38.4543],[28.8824,41.0246,42.487],[28.8931,41.0218,68.0116],[28.8941,41.0369,44.1253],[28.8822,41.048,72.2533],[28.8809,41.0519,97.8068],[28.8863,41.0596,94.9423],[28.8863,41.0627,111.0098],[28.8812,41.0709,148.7404],[28.8817,41.0798,134.2913],[28.8759,41.0851,105.8266],[28.8711,41.086,129.258],[28.8678,41.0889,138.5774],[28.854,41.1045,159.6891],[28.8505,41.1007,145.5745],[28.8494,41.0893,122.8128],[28.8465,41.0806,120.2022],[28.8353,41.0689,125.4561],[28.8431,41.0634,97.1942],[28.8465,41.0634,84.0699],[28.857,41.0727,124.4053],[28.8622,41.0719,131.3772],[28.8565,41.0632,114.9614],[28.8573,41.0539,83.1534],[28.8715,41.0386,46.7067]]]]}}