{"type": "Feature","bbox": [27.2027,38.0129,27.5011,38.3211],"geometry": {"type": "MultiPolygon","coordinates": [[[[27.4728,38.2801,521.3654],[27.4457,38.2945,484.7299],[27.427,38.3021,309.3005],[27.4008,38.3177,267.1825],[27.387,38.321,327.5457],[27.3241,38.3211,411.4478],[27.2951,38.3017,263.4503],[27.2514,38.2916,238.1483],[27.2429,38.2923,230.1778],[27.2045,38.3037,171.8964],[27.2027,38.2182,170.5836],[27.2051,38.1974,125.1401],[27.2149,38.1845,60.6517],[27.2486,38.158,42.6021],[27.2584,38.1485,42.6744],[27.3039,38.0785,611.083],[27.3076,38.0673,578.976],[27.3082,38.055,604.0768],[27.3066,38.0427,458.2969],[27.3027,38.032,267.0844],[27.3592,38.0292,291.0953],[27.3884,38.0208,431.2288],[27.4162,38.0167,121.6715],[27.4308,38.0129,7.9441],[27.4446,38.0391,9.393],[27.4496,38.0457,9.7141],[27.497,38.0844,57.1362],[27.5011,38.0934,74.1684],[27.5003,38.0998,41.6005],[27.491,38.1151,17.7288],[27.4813,38.1386,17.4057],[27.4686,38.1596,16.1844],[27.4481,38.1799,50.5019],[27.4457,38.1876,117.1011],[27.4475,38.1953,196.785],[27.4612,38.2157,299.7041],[27.4826,38.2361,397.5812],[27.487,38.2433,491.3627],[27.4885,38.2516,444.8285],[27.4873,38.2599,524.0392],[27.4835,38.267,447.1818],[27.4728,38.2801,521.3654]]]]}
,"properties": {"GID_2": "TUR.41.27_1","GID_0": "TUR","country": "Turkey","GID_1": "TUR.41_1","province": "Izmir","NL_NAME_1": "NA","county": "Torbalı","VARNAME_2": "NA","NL_NAME_2": "NA","TYPE_2": "District","ENGTYPE_2": "District","CC_2": "NA","HASC_2": "TR.IZ.TO","name": "Torbalı.county","area_km2": 615.5203,"hist_schema_id": "Elevation0-9000","hist_area_km2": {"0": 32.0579,"25": 115.4009,"50": 82.352,"75": 34.7638,"100": 32.3431,"125": 46.3089,"150": 36.396,"175": 31.614,"200": 30.6112,"225": 26.8178,"250": 21.6764,"275": 21.7276,"300": 20.0439,"325": 14.3788,"350": 11.995,"375": 11.1945,"400": 9.1307,"425": 6.9315,"450": 6.6829,"475": 5.6676,"500": 3.8684,"525": 3.4516,"550": 3.0519,"575": 2.4015,"600": 1.8176,"625": 1.434,"650": 0.5837,"675": 0.4168,"700": 0.2501,"725": 0.1336,"750": 0.0167}}}