{"type": "Feature","id": "2291","bbox": [33.96416,39.90762,35.45792,41.31081],"geometry": {"type": "Polygon","coordinates": [[[34.49849,41.28585,1404.729],[34.47193,41.31081,1449.6606],[34.41943,41.302,1332.0872],[34.38522,41.26425,1592.698],[34.35742,41.20942,1435.1752],[34.33375,41.18875,1550.2156],[34.28714,41.15723,1800.963],[34.2522,41.09134,742.3818],[34.21768,41.05941,596.2605],[34.20766,41.0393,479.4021],[34.22637,41.0021,1160.526],[34.24797,40.99603,1357.4199],[34.28021,40.9691,1444.7104],[34.25644,40.91939,1515.5869],[34.11454,40.87474,1729.287],[34.02721,40.86076,1498.0098],[34.07661,40.79823,1468.8336],[34.06493,40.75875,1384.7687],[34.04415,40.71912,1199.9966],[34.05046,40.67633,1038.3212],[34.07464,40.6391,925.8119],[34.08167,40.60414,729.4137],[34.07867,40.56874,670.7857],[34.09139,40.53109,700.8464],[34.11661,40.49939,600.9971],[34.13159,40.47495,534.6677],[34.14275,40.44823,552.1896],[34.15019,40.42296,538.9284],[34.147709999999996,40.39689,544.9208],[34.13356,40.38965,546.9969],[34.1104,40.34811,552.0218],[34.08178,40.31018,652.973],[34.06359,40.30348,735.8615],[34.04302,40.29994,709.8434],[33.96416,40.2655,770.2119],[33.97522,40.21801,895.3596],[34.01635,40.1467,702.2262],[34.04167,40.12716,643.226],[34.06565,40.12463,605.3761],[34.08446,40.1091,598.2469],[34.08684,40.09784,599.6499],[34.08808,40.08598,602.1851],[34.10131,40.05688,609.977],[34.09759,40.02433,614.0704],[34.07764,40.00019,635.6421],[34.05087,39.95862,637.0353],[34.05253,39.90762,659.1495],[34.10896,39.9286,1026.4155],[34.26585,39.94273,1138.8512],[34.36134,39.97624,1320.2235],[34.4585,40.00071,1406.6875],[34.61167,39.97994,1420.4539],[34.67109,39.99766,1394.9001],[34.71078,39.99438,1373.321],[34.7916,39.99771,1366.5457],[34.94146,40.05389,980.5343],[35.02663,40.03484,1115.4387],[35.07262,40.039,1302.0759],[35.15096,40.07544,1316.4524],[35.17794,40.10254,1142.3318],[35.18011,40.12215,977.8199],[35.19013,40.14388,879.9244],[35.19406,40.16096,1023.9744],[35.18114,40.17223,893.0397],[35.19137,40.21736,1298.2593],[35.28708,40.22276,905.8446],[35.32728,40.23403,1017.2502],[35.33865,40.30266,542.741],[35.33906,40.3287,666.8444],[35.34847,40.35232,745.7916],[35.43466,40.45272,525.6327],[35.45792,40.52538,1135.0176],[35.45751,40.56223,758.5554],[35.43239,40.60765,1087.2063],[35.41585,40.61297,1073.4143],[35.38164,40.61809,1094.6838],[35.3064,40.65217,980.299],[35.14011,40.67406,1118.6515],[35.10879,40.68912,1360.3762],[35.08161,40.72478,1468.863],[35.0412,40.7911,761.4708],[35.03148,40.81821,852.6104],[35.04657,40.8836,1413.9277],[35.04926,40.98367,745.619],[35.06187,41.01383,958.7487],[35.08316,41.03434,926.8531],[35.09804,41.05912,1295.3315],[35.08926,41.08692,1202.469],[35.05164,41.09418,1122.7552],[34.97485,41.08741,1386.0898],[34.95903,41.12475,1610.6395],[34.95242,41.16317,1018.9708],[34.9395,41.20028,1374.0178],[34.88803,41.26981,315.0],[34.88524,41.26286,315.0],[34.88348,41.24614,316.2436],[34.88069,41.23857,315.0],[34.87615,41.23304,315.0],[34.85837,41.22079,323.5843],[34.83728,41.20162,377.4501],[34.72391,41.22927,1411.3965],[34.70665,41.23748,1188.0544],[34.69579,41.25244,1149.6509],[34.67037,41.26614,845.3759],[34.64102,41.27211,863.3024],[34.60815,41.2658,1377.7842],[34.57415,41.2705,1313.2935],[34.55751,41.28456,1463.8676],[34.5357,41.28771,1495.9921],[34.49849,41.28585,1404.729]]]}
,"properties": {"ISO3166-1-Alpha-3": "TUR","country": "Turkey","fill": "#FF0","name": "Çorum","area_km2": 12503.591,"hist_schema_id": "Elevation0-9000","hist_area_km2": {"325": 41.162,"350": 28.878,"375": 29.123,"400": 43.438,"425": 84.803,"450": 69.846,"475": 64.601,"500": 122.973,"525": 187.046,"550": 202.282,"575": 242.43,"600": 261.109,"625": 287.89,"650": 318.478,"675": 339.399,"700": 358.816,"725": 359.619,"750": 356.827,"775": 336.702,"800": 320.9,"825": 314.7,"850": 319.647,"875": 324.924,"900": 350.58,"925": 401.378,"950": 404.531,"975": 400.03,"1000": 376.953,"1025": 381.545,"1050": 402.153,"1075": 401.573,"1100": 403.198,"1125": 392.729,"1150": 363.284,"1175": 354.852,"1200": 321.873,"1225": 291.198,"1250": 251.932,"1275": 221.49,"1300": 190.481,"1325": 164.549,"1350": 146.8,"1375": 131.52,"1400": 119.099,"1425": 110.723,"1450": 102.978,"1475": 93.347,"1500": 87.492,"1525": 80.631,"1550": 74.418,"1575": 70.055,"1600": 63.177,"1625": 55.558,"1650": 47.485,"1675": 40.167,"1700": 35.289,"1725": 29.376,"1750": 25.144,"1775": 20.547,"1800": 16.499,"1825": 14.293,"1850": 12.647,"1875": 10.393,"1900": 7.384,"1925": 5.159,"1950": 4.711,"1975": 3.765,"2000": 2.739,"2025": 1.506,"2050": 0.544,"2075": 0.176}}}