{"type":"Feature","properties":{"GID_1":"TUR.24_1","GID_0":"TUR","country":"Turkey","province":"Çorum","VARNAME_1":"NA","NL_NAME_1":"NA","TYPE_1":"Il","ENGTYPE_1":"Province","CC_1":"NA","HASC_1":"TR.CM","ISO_1":"NA","name":"Çorum.province"},
"geometry":{"type": "MultiPolygon","coordinates": [[[[35.0799,40.7176,1456.2676],[35.0745,40.7362,1448.7584],[35.0651,40.7526,1030.9871],[35.0595,40.7711,819.8357],[35.0513,40.7849,768.6101],[35.0446,40.8061,817.3204],[35.0361,40.8198,926.6754],[35.0251,40.8434,1069.4843],[35.036,40.8499,1012.2697],[35.046,40.8529,1101.0006],[35.0478,40.8724,1195.8094],[35.048,40.9353,1474.5803],[35.0496,40.9514,1279.9604],[35.0606,40.9739,994.9088],[35.0668,40.9923,886.542],[35.0913,41.0323,889.3135],[35.0938,41.0514,1134.293],[35.0932,41.0905,1067.5208],[35.0533,41.0845,1258.8616],[35.0323,41.0771,1267.8885],[35.0182,41.0748,1284.6451],[34.9932,41.076,1387.9869],[34.9792,41.0833,1506.3386],[34.9737,41.0898,1297.2834],[34.9603,41.1135,1631.6221],[34.9571,41.1615,1209.8499],[34.9462,41.1835,1239.3792],[34.9406,41.202,1314.8792],[34.9221,41.2303,1303.1926],[34.8921,41.2537,343.905],[34.889,41.2442,447.2086],[34.8792,41.2248,365.3759],[34.8521,41.1977,503.8845],[34.8449,41.1958,328.9745],[34.7982,41.2049,891.5232],[34.777,41.2121,1248.4152],[34.7498,41.2174,1538.9803],[34.7021,41.2356,1239.0369],[34.6781,41.24,1093.525],[34.657,41.2471,1167.5226],[34.63,41.2524,1143.5861],[34.6134,41.2615,1326.5664],[34.5916,41.2629,1264.4589],[34.5635,41.2711,1402.5682],[34.5215,41.2765,1227.4989],[34.4919,41.2884,1489.2537],[34.4824,41.2956,1410.7362],[34.4756,41.3039,1396.4865],[34.4665,41.3065,1476.5645],[34.4414,41.3076,1217.0977],[34.4311,41.3049,1283.7288],[34.4168,41.2962,1236.8796],[34.3947,41.2771,1441.1931],[34.3792,41.2558,1699.6279],[34.3497,41.2304,1529.8762],[34.3383,41.2139,1639.0951],[34.3177,41.193,1824.4453],[34.3083,41.1792,1829.3008],[34.3017,41.1734,1893.614],[34.291,41.1674,1893.0941],[34.2798,41.1463,1652.098],[34.2106,41.04,473.6082],[34.2105,41.0294,473.9361],[34.2261,41.0086,1037.395],[34.2451,40.9985,1303.4235],[34.2791,40.9763,1496.9762],[34.2821,40.964,1496.2118],[34.2832,40.9459,1650.613],[34.2819,40.9346,1624.7029],[34.2778,40.9272,1600.7148],[34.2544,40.9153,1568.2878],[34.2142,40.9029,1532.4795],[34.1907,40.892,1390.62],[34.1635,40.8866,1493.5443],[34.1156,40.8686,1716.1952],[34.0884,40.8633,1587.5945],[34.0672,40.8561,1544.7094],[34.0359,40.851,1542.2826],[34.0538,40.8186,1806.2385],[34.0572,40.8008,1684.3977],[34.0554,40.7797,1370.6401],[34.0452,40.7602,1366.6407],[34.0421,40.7481,1230.2772],[34.0414,40.6995,1187.4023],[34.0449,40.6808,1084.4622],[34.0538,40.6641,894.696],[34.0589,40.6372,848.0355],[34.0688,40.6176,761.7227],[34.0738,40.5906,788.904],[34.0828,40.5739,699.6435],[34.0896,40.5528,645.9984],[34.0979,40.539,649.2204],[34.1035,40.5205,647.0501],[34.1128,40.5041,611.7365],[34.1162,40.4935,610.7028],[34.1312,40.4935,632.7583],[34.1345,40.4829,555.4518],[34.144,40.4666,536.6505],[34.1497,40.4481,606.6837],[34.1593,40.4317,568.9087],[34.161,40.4121,541.669],[34.1569,40.3988,543.6732],[34.1133,40.3315,555.4915],[34.1072,40.3255,563.6042],[34.0994,40.3209,565.6608],[34.0538,40.3035,745.8075],[34.0275,40.2877,672.7039],[33.9818,40.2701,702.2629],[33.9655,40.2608,795.5469],[33.9689,40.255,923.3196],[33.9755,40.2508,1000.1252],[34.016,40.2405,838.0038],[34.0545,40.2354,594.5649],[34.0812,40.2228,607.371],[34.0854,40.2133,576.1132],[34.0879,40.183,662.0927],[34.0978,40.1638,677.152],[34.1018,40.139,665.6652],[34.1054,40.1311,694.201],[34.1253,40.1107,690.5085],[34.1498,40.0734,703.2452],[34.1592,40.0663,667.1111],[34.1776,40.0594,659.1503],[34.1892,40.0527,729.6052],[34.196,40.0469,743.0507],[34.1992,40.0397,751.1768],[34.1974,40.0352,736.7473],[34.1914,40.0302,707.2238],[34.1711,40.0222,699.9385],[34.1348,39.9982,748.1083],[34.1042,39.9841,711.9097],[34.066,39.9551,723.6313],[34.0595,39.948,662.2656],[34.0558,39.94,663.0283],[34.0543,39.9049,661.8475],[34.0863,39.9204,845.6732],[34.1247,39.9252,1099.1282],[34.154,39.9335,1256.3066],[34.2671,39.9352,1296.8273],[34.2789,39.9371,1339.7517],[34.2969,39.9432,1413.0066],[34.3207,39.9477,1479.3318],[34.3514,39.9608,1362.4652],[34.3805,39.9865,1349.2233],[34.3947,39.9918,1520.9344],[34.4193,39.9932,1345.835],[34.4603,39.9919,1449.6677],[34.7894,39.9924,1454.97],[34.808,39.9962,1277.9374],[34.8175,40.0015,1237.4657],[34.8638,40.0354,1074.6807],[34.8972,40.0483,1033.2673],[34.9197,40.0508,1022.2107],[34.9777,40.0494,1014.2938],[35.0438,40.0307,1238.8883],[35.057,40.0298,1317.0792],[35.0687,40.034,1331.1151],[35.0896,40.0468,1243.6553],[35.108,40.0539,1325.7952],[35.1351,40.0698,1340.9504],[35.1535,40.0765,1312.7231],[35.1768,40.0884,1345.05],[35.1811,40.0961,1244.9554],[35.1822,40.1019,1074.3423],[35.1821,40.1239,954.6605],[35.1782,40.1423,888.59],[35.1701,40.1562,1010.3301],[35.1672,40.1677,925.0724],[35.1664,40.189,901.3383],[35.1678,40.2132,1007.0481],[35.2886,40.2137,790.0515],[35.3043,40.2171,812.2884],[35.3323,40.2289,754.8431],[35.333,40.2728,578.957],[35.3357,40.2819,731.2171],[35.3447,40.2987,667.6303],[35.347,40.3113,535.6328],[35.347,40.3375,674.857],[35.3437,40.3583,817.094],[35.3637,40.3679,960.7095],[35.3708,40.3731,974.1678],[35.3844,40.3914,1441.5643],[35.4026,40.4096,1197.7209],[35.4124,40.4241,943.1991],[35.4349,40.4468,585.7993],[35.4484,40.4677,698.0858],[35.4526,40.4839,897.3463],[35.454,40.541,1103.8239],[35.4566,40.5496,924.8793],[35.4641,40.563,711.0172],[35.4648,40.5709,618.9823],[35.462,40.5782,655.7007],[35.4503,40.5965,812.5227],[35.4422,40.604,1096.9922],[35.4297,40.6115,1093.7417],[35.4277,40.6152,1090.5919],[35.3943,40.6231,1270.0703],[35.3464,40.6412,923.6914],[35.3042,40.6466,1026.1913],[35.2726,40.6578,929.9774],[35.257,40.6661,998.6452],[35.2218,40.669,1076.5343],[35.1726,40.6673,1055.6293],[35.1507,40.6707,1086.7633],[35.1235,40.6807,1270.5062],[35.0966,40.6937,1347.1938],[35.0821,40.7126,1408.5568],[35.0799,40.7176,1456.2676]]]]}}