{"type": "Feature","bbox": [35.298,38.5911,35.4938,38.7693],"geometry": {"type": "MultiPolygon","coordinates": [[[[35.4729,38.5963,2179.4844],[35.4819,38.617,1686.1597],[35.4901,38.6309,1599.5663],[35.4924,38.6389,1446.2611],[35.4938,38.6761,1172.5663],[35.4918,38.6842,1100.3776],[35.4889,38.689,1088.4292],[35.4799,38.6963,1137.6624],[35.4581,38.7068,1087.9651],[35.4521,38.7127,1057.6178],[35.4422,38.7268,1061.2043],[35.4351,38.7334,1058.0878],[35.4207,38.7425,1047.8085],[35.407,38.7457,1046.6731],[35.3754,38.7493,1038.0547],[35.3488,38.7642,1036.3682],[35.339,38.7678,1083.6541],[35.3211,38.7693,1180.7549],[35.3008,38.767,1036.1099],[35.298,38.7436,1039.2125],[35.2987,38.7355,1030.8081],[35.3033,38.7261,1029.1299],[35.3268,38.7146,1028.4125],[35.342,38.7093,1035.2465],[35.3517,38.7026,1035.1127],[35.3564,38.6957,1037.4584],[35.3602,38.6749,1230.4529],[35.3637,38.6683,1280.0338],[35.3814,38.6557,1300.3582],[35.3976,38.637,1461.4153],[35.4197,38.6263,1509.1853],[35.4268,38.6212,1551.8037],[35.4334,38.6121,1644.7588],[35.4416,38.5911,2160.2808],[35.4729,38.5963,2179.4844]]]]}
,"properties": {"GID_2": "TUR.47.5_1","GID_0": "TUR","country": "Turkey","GID_1": "TUR.47_1","province": "Kayseri","NL_NAME_1": "NA","county": "Hacılar","VARNAME_2": "NA","NL_NAME_2": "NA","TYPE_2": "District","ENGTYPE_2": "District","CC_2": "NA","HASC_2": "TR.KY.HA","name": "Hacılar.county","area_km2": 165.5787,"hist_schema_id": "Elevation0-9000","hist_area_km2": {"1025": 25.8495,"1050": 19.0218,"1075": 12.8704,"1100": 10.0597,"1125": 8.8695,"1150": 8.3902,"1175": 5.3785,"1200": 5.6273,"1225": 5.396,"1250": 4.6511,"1275": 4.4031,"1300": 4.1055,"1325": 4.4367,"1350": 4.9668,"1375": 4.7517,"1400": 5.116,"1425": 5.3813,"1450": 2.7322,"1475": 2.2853,"1500": 2.0039,"1525": 1.8547,"1550": 1.5898,"1575": 1.6396,"1600": 1.5238,"1625": 1.5405,"1650": 1.259,"1675": 1.0602,"1700": 1.3253,"1725": 1.0106,"1750": 0.9278,"1775": 0.845,"1800": 0.6627,"1825": 0.7953,"1850": 0.5468,"1875": 0.4971,"1900": 0.464,"1925": 0.5468,"1950": 0.3148,"1975": 0.2817,"2000": 0.2651,"2025": 0.1989,"2050": 0.0663,"2075": 0.0166,"2100": 0.0331,"2125": 0.0166}}}