{"type": "Feature","bbox": [34.8353,38.4206,35.074,38.7983],"geometry": {"type": "MultiPolygon","coordinates": [[[[34.9532,38.7983,978.0],[34.9417,38.7855,1036.1635],[34.9131,38.7596,1210.4795],[34.9097,38.7518,1105.3075],[34.9064,38.727,937.4096],[34.8982,38.7153,991.8846],[34.8886,38.7077,1011.5804],[34.8769,38.7023,999.7994],[34.8665,38.7008,974.0826],[34.8498,38.7018,950.3069],[34.8481,38.6772,1012.7281],[34.8473,38.6048,1262.8093],[34.8442,38.5917,1289.1935],[34.8367,38.5772,1310.6169],[34.8565,38.5527,1317.9897],[34.86,38.5428,1309.4497],[34.8582,38.5353,1359.6376],[34.8505,38.5217,1522.4525],[34.8446,38.4943,1533.7164],[34.8359,38.4785,1559.9001],[34.8353,38.4706,1520.2288],[34.8374,38.4654,1532.7594],[34.8432,38.4585,1524.368],[34.8769,38.4321,1581.131],[34.8878,38.4255,1544.1589],[34.9008,38.4216,1526.8923],[34.9225,38.4206,1529.9513],[34.9225,38.4323,1540.808],[34.9191,38.4426,1552.9906],[34.9088,38.4619,1558.0021],[34.907,38.4905,1585.7787],[34.908,38.5048,1594.9539],[34.9103,38.513,1610.4576],[34.9249,38.5361,1290.8135],[34.9312,38.542,1226.6793],[34.9394,38.5464,1282.7927],[34.9663,38.5515,1570.8105],[34.9843,38.5576,1299.0869],[35.0082,38.5617,1496.6509],[35.018,38.5654,1540.8015],[35.0364,38.5796,1324.1812],[35.0524,38.6011,1582.7954],[35.0701,38.6135,1509.1914],[35.0722,38.6272,1406.7749],[35.074,38.7239,1118.8979],[35.0727,38.7396,1074.9871],[35.069,38.7483,1075.4814],[35.0601,38.7575,1112.0474],[35.0454,38.7663,1064.4661],[35.0345,38.769,1018.4129],[35.0073,38.7711,1083.7107],[34.9966,38.7733,1134.9363],[34.9674,38.7853,978.0],[34.9532,38.7983,978.0]]]]}
,"properties": {"GID_2": "TUR.61.8_1","GID_0": "TUR","country": "Turkey","GID_1": "TUR.61_1","province": "Nevsehir","NL_NAME_1": "NA","county": "Ürgüp","VARNAME_2": "NA","NL_NAME_2": "NA","TYPE_2": "District","ENGTYPE_2": "District","CC_2": "NA","HASC_2": "TR.NV.UR","name": "Ürgüp.county","area_km2": 499.7157,"hist_schema_id": "Elevation0-9000","hist_area_km2": {"925": 1.9349,"950": 8.0047,"975": 20.9208,"1000": 24.5953,"1025": 24.0193,"1050": 23.6782,"1075": 22.8867,"1100": 20.4087,"1125": 20.2465,"1150": 23.062,"1175": 22.4855,"1200": 24.7407,"1225": 23.6703,"1250": 22.7268,"1275": 19.0678,"1300": 17.8411,"1325": 16.8984,"1350": 14.33,"1375": 12.359,"1400": 13.0202,"1425": 9.3781,"1450": 9.2129,"1475": 10.5217,"1500": 11.1885,"1525": 17.8451,"1550": 30.8767,"1575": 23.8896,"1600": 7.4323,"1625": 1.5769,"1650": 0.7473,"1675": 0.0664,"1700": 0.0498,"1725": 0.0332}}}