{"type": "Feature","bbox": [28.8555,41.009,28.8931,41.0393],"geometry": {"type": "MultiPolygon","coordinates": [[[[28.8582,41.0214,86.9469],[28.865,41.0157,82.0157],[28.8727,41.018,47.206],[28.8735,41.009,70.2114],[28.8861,41.009,54.2477],[28.8931,41.0218,68.0116],[28.8824,41.0246,42.487],[28.8809,41.0293,54.9319],[28.8827,41.0316,77.9907],[28.883,41.0367,89.9152],[28.8804,41.0393,92.2446],[28.8773,41.0393,66.844],[28.8715,41.0386,46.7067],[28.867,41.0344,99.7083],[28.8555,41.0341,89.3313],[28.8606,41.0252,73.0937],[28.8582,41.0214,86.9469]]]]}
,"properties": {"GID_2": "TUR.40.22_1","GID_0": "TUR","country": "Turkey","GID_1": "TUR.40_1","province": "Istanbul","NL_NAME_1": "NA","county": "Güngören","VARNAME_2": "NA","NL_NAME_2": "NA","TYPE_2": "District","ENGTYPE_2": "District","CC_2": "NA","HASC_2": "TR.IB.GU","name": "Güngören.county","area_km2": 6.078357,"hist_schema_id": "Elevation0-9000","hist_area_km2": {"25": 0.783852,"50": 2.095459,"75": 2.623274,"100": 0.575772}}}