{"type":"Feature","properties":{"GID_2":"TUR.59.9_1","GID_0":"TUR","country":"Turkey","GID_1":"TUR.59_1","province":"Mugla","NL_NAME_1":"NA","county":"Milas","VARNAME_2":"NA","NL_NAME_2":"NA","TYPE_2":"District","ENGTYPE_2":"District","CC_2":"NA","HASC_2":"TR.MG.MI","name":"Milas.county"},
"geometry":{"type": "MultiPolygon","coordinates": [[[[27.5329,37.1646,14.2543],[27.5307,37.1643,1.6699],[27.5299,37.1615,19.4524],[27.5265,37.1629,4.2146],[27.5235,37.1613,7.6442],[27.5199,37.1629,4.1133],[27.5171,37.1585,35.4093],[27.5149,37.1593,0.0],[27.511,37.1571,2.0126],[27.5076,37.1529,6.1699],[27.5051,37.1532,18.7057],[27.5024,37.1576,1.9666],[27.4971,37.1582,9.4956],[27.4943,37.1565,0.0],[27.4943,37.1546,0.0],[27.4971,37.151,11.6186],[27.4899,37.1413,0.0],[27.5015,37.1407,0.0],[27.5079,37.1476,9.8884],[27.5121,37.1476,3.9591],[27.5138,37.1496,5.5542],[27.5179,37.1504,14.901],[27.5176,37.1457,23.7048],[27.5201,37.1437,4.9366],[27.5204,37.1415,0.0],[27.5287,37.1413,1.9811],[27.5324,37.1482,2.5687],[27.531,37.1507,8.5448],[27.5357,37.1515,0.0],[27.5338,37.1554,0.0],[27.5335,37.1613,4.8872],[27.5365,37.1615,0.0],[27.5329,37.1646,14.2543]]],
[[[27.5221,37.1968,0.0],[27.5213,37.1974,0.0],[27.519,37.1971,0.0],[27.5229,37.1957,0.0],[27.5221,37.1968,0.0]]],
[[[27.5504,37.2021,0.0],[27.5496,37.2026,0.0],[27.5507,37.1985,0.0],[27.5524,37.1979,0.0],[27.5518,37.201,0.0],[27.5504,37.2021,0.0]]],
[[[27.3688,37.2824,9.5771],[27.3704,37.2849,0.0],[27.3665,37.2849,0.0],[27.3632,37.2804,0.0],[27.3654,37.2799,0.0],[27.3688,37.2824,9.5771]]],
[[[27.5504,37.2535,3.6688],[27.5479,37.2538,0.0],[27.5488,37.2507,3.6565],[27.5551,37.2485,1.3635],[27.5579,37.2454,0.0],[27.5637,37.2446,1.1848],[27.5637,37.2471,0.0],[27.5615,37.2465,5.7151],[27.5504,37.2535,3.6688]]],
[[[27.5604,37.2546,0.0],[27.5588,37.2551,0.5476],[27.5588,37.254,0.5476],[27.5613,37.2532,0.0],[27.5604,37.2546,0.0]]],
[[[27.9369,37.4475,698.5018],[27.9348,37.4595,615.3051],[27.885,37.457,559.1274],[27.8424,37.4694,432.4024],[27.7923,37.4731,845.7153],[27.7708,37.4802,1191.5569],[27.747,37.4847,734.3854],[27.7259,37.492,648.9406],[27.6986,37.4972,716.4916],[27.6511,37.5159,807.8627],[27.6176,37.5249,851.7236],[27.594,37.5379,909.0757],[27.5457,37.5568,239.86],[27.5197,37.5728,184.4599],[27.5098,37.5748,194.6204],[27.5027,37.574,184.7399],[27.4889,37.5669,70.4993],[27.4798,37.5591,134.3155],[27.445,37.5056,1.0],[27.4421,37.4946,1.0],[27.4402,37.4689,122.0647],[27.4382,37.4609,268.4427],[27.4177,37.4268,233.2307],[27.4149,37.4157,2.9585],[27.4221,37.4132,1.9583],[27.4246,37.4076,5.51],[27.4299,37.4032,1.2077],[27.4318,37.3988,4.6191],[27.4307,37.3924,0.0],[27.4326,37.3812,1.2503],[27.4229,37.3821,0.0],[27.4204,37.3804,47.2029],[27.4179,37.3838,0.0],[27.4135,37.3838,0.0],[27.4121,37.3826,0.0],[27.4129,37.3771,13.7102],[27.4037,37.3674,1.5738],[27.3915,37.3654,0.0],[27.3874,37.359,0.4956],[27.3843,37.3582,0.0],[27.3824,37.3554,0.0],[27.3829,37.3535,0.0],[27.386,37.3524,3.1378],[27.3849,37.3504,0.0],[27.3863,37.3496,3.9026],[27.3835,37.3443,1.1907],[27.3843,37.3421,0.0],[27.3829,37.339,0.0],[27.3843,37.3396,4.4271],[27.3843,37.3365,0.0],[27.3863,37.3349,6.2471],[27.3851,37.3329,0.0],[27.3888,37.3321,2.2246],[27.3857,37.3274,9.3004],[27.394,37.326,12.7552],[27.389,37.3246,0.0],[27.3893,37.3224,0.5974],[27.3918,37.3226,6.5859],[27.3946,37.3213,7.2813],[27.3943,37.3199,0.0],[27.3979,37.3193,0.0],[27.3993,37.3213,15.0364],[27.4015,37.3213,1.2128],[27.4001,37.3185,0.0],[27.4018,37.3185,0.0],[27.4018,37.3171,0.0],[27.399,37.314,0.0],[27.4051,37.3138,15.4276],[27.4049,37.3115,3.3272],[27.4074,37.3112,1.9894],[27.4068,37.3085,0.0],[27.4107,37.309,7.2371],[27.4118,37.3049,0.0],[27.4235,37.3071,5.4808],[27.426,37.3054,0.0],[27.4296,37.3057,10.1094],[27.4324,37.3018,0.0],[27.4432,37.3024,3.2217],[27.4471,37.3082,21.8074],[27.4496,37.3074,0.0],[27.4507,37.3099,0.3827],[27.4571,37.3101,0.0],[27.4638,37.3154,0.0],[27.4638,37.3174,4.4682],[27.4671,37.316,0.0],[27.4654,37.3196,5.4322],[27.4707,37.3193,2.2964],[27.4715,37.3218,9.2763],[27.4701,37.3224,9.6484],[27.4776,37.3288,1.1317],[27.4768,37.3349,0.0],[27.4732,37.3368,5.425],[27.4713,37.3443,0.8522],[27.4779,37.3443,2.1301],[27.4774,37.3401,0.0],[27.4779,37.339,0.0],[27.4804,37.3399,3.9249],[27.4804,37.3354,0.0],[27.4818,37.3368,1.6414],[27.4874,37.3357,1.7852],[27.4824,37.3338,1.1476],[27.4846,37.3285,0.0],[27.4871,37.3288,3.9006],[27.4896,37.3329,2.3609],[27.4932,37.3318,0.8575],[27.4957,37.3232,0.0],[27.4982,37.3199,0.0],[27.4974,37.316,1.1546],[27.4921,37.3135,1.104],[27.4929,37.3104,34.8339],[27.4879,37.3049,0.0],[27.4896,37.3015,0.0],[27.4863,37.2954,0.0],[27.4874,37.2932,5.266],[27.4849,37.291,9.5298],[27.4813,37.2915,2.799],[27.4796,37.2893,0.0],[27.4757,37.2885,6.0926],[27.4732,37.2846,6.7759],[27.4737,37.2813,5.1104],[27.4713,37.2807,0.0],[27.4724,37.279,19.1068],[27.4713,37.2724,0.0],[27.4615,37.2665,0.0],[27.4599,37.2621,26.2654],[27.4568,37.2604,25.7294],[27.4543,37.2554,0.0],[27.4574,37.2504,0.0],[27.466,37.2568,0.0],[27.4754,37.2549,0.0],[27.4799,37.2646,1.8998],[27.4765,37.2679,1.5074],[27.4768,37.2696,1.1744],[27.4846,37.266,0.0],[27.4857,37.2674,11.422],[27.4893,37.2668,0.0],[27.4929,37.2704,9.4109],[27.4943,37.2676,1.8097],[27.4982,37.271,12.4857],[27.4982,37.2768,13.9356],[27.5051,37.2779,1.3214],[27.5071,37.2801,0.0],[27.5093,37.2799,1.6519],[27.5104,37.276,0.6814],[27.5126,37.2749,0.0],[27.5185,37.2768,1.0741],[27.519,37.2751,0.0],[27.5224,37.274,0.5994],[27.5213,37.2704,14.8589],[27.5174,37.2679,15.019],[27.5168,37.2624,0.0],[27.5204,37.2618,6.9864],[27.519,37.2585,0.0],[27.5238,37.259,2.7661],[27.5249,37.2574,0.0],[27.5238,37.2557,0.9331],[27.5151,37.2543,0.0],[27.5146,37.251,0.0],[27.5163,37.2501,0.0],[27.5221,37.2521,3.7774],[27.5224,37.2504,10.7049],[27.5199,37.2499,4.2681],[27.5207,37.2476,2.7772],[27.5163,37.2443,1.113],[27.5138,37.2443,0.3628],[27.5138,37.2418,6.4695],[27.5107,37.2382,16.1999],[27.5054,37.239,0.0],[27.5035,37.2371,8.4707],[27.4988,37.2374,0.0],[27.4996,37.2343,6.8204],[27.5063,37.2329,3.4278],[27.5051,37.2293,3.1497],[27.5104,37.2299,2.623],[27.5107,37.2276,3.7869],[27.5135,37.2301,0.0],[27.5176,37.2274,3.606],[27.5196,37.2285,5.9873],[27.5226,37.2268,0.0],[27.5268,37.2285,0.0],[27.5276,37.2301,0.0],[27.521,37.2399,5.0912],[27.5251,37.2404,0.0],[27.528199999999998,37.2435,0.0],[27.5326,37.241,1.9187],[27.5338,37.2451,0.0],[27.5371,37.2451,0.0],[27.5335,37.2499,24.1059],[27.5349,37.2515,1.8063],[27.5382,37.2515,2.5546],[27.5379,37.2493,1.1426],[27.5404,37.2501,4.7644],[27.5418,37.2468,0.0],[27.5454,37.2479,3.4224],[27.546,37.2451,0.0],[27.5476,37.2454,0.0],[27.549,37.2435,0.0],[27.5524,37.2449,0.0],[27.5457,37.2513,2.3789],[27.5413,37.2515,5.2736],[27.541,37.254,3.9318],[27.5418,37.2596,35.1031],[27.5451,37.2596,0.0],[27.544,37.2629,1.2635],[27.5499,37.2643,14.478],[27.5515,37.2713,2.2747],[27.5551,37.2715,0.0],[27.5568,37.2776,1.9571],[27.5604,37.276,1.2507],[27.5649,37.2768,1.6992],[27.5699,37.274,2.5876],[27.5724,37.2746,0.3864],[27.5765,37.2724,0.8234],[27.5785,37.2732,3.3111],[27.5812,37.2713,0.0],[27.5829,37.2782,4.7376],[27.5851,37.2735,0.0],[27.5871,37.2732,0.0],[27.589,37.2804,0.0],[27.586,37.2824,0.626],[27.589,37.286,0.1061],[27.5946,37.2879,0.2854],[27.6013,37.2863,0.7151],[27.6024,37.2846,0.016],[27.5993,37.2788,0.0],[27.6004,37.2749,0.0],[27.6079,37.2818,0.5901],[27.6129,37.2799,0.0],[27.6101,37.2771,0.8137],[27.6107,37.2746,0.9107],[27.6157,37.2746,2.7637],[27.6165,37.2732,7.4117],[27.6076,37.2693,0.0],[27.6099,37.2657,0.0],[27.6129,37.2657,1.1607],[27.6099,37.2632,-0.1046],[27.6115,37.2579,0.0],[27.6074,37.2551,1.4997],[27.6057,37.2501,22.1681],[27.5993,37.2462,0.0],[27.6007,37.2438,0.0],[27.599,37.2429,0.0],[27.5993,37.2412,0.4018],[27.5949,37.2399,0.0],[27.5935,37.2374,0.9035],[27.589,37.2374,0.0],[27.590699999999998,37.2349,8.1198],[27.589,37.2346,1.479],[27.5901,37.2326,9.7445],[27.5874,37.2229,17.3079],[27.584,37.2221,0.0],[27.584,37.2199,8.9164],[27.5815,37.2176,6.8777],[27.5776,37.2182,1.6814],[27.5754,37.214,5.934],[27.5799,37.2132,14.718],[27.5871,37.2088,1.9392],[27.5876,37.2054,6.0921],[27.5918,37.2024,1.9845],[27.5932,37.199,0.0],[27.5951,37.2007,5.8497],[27.5999,37.2001,0.0],[27.6015,37.2015,0.5326],[27.6043,37.2012,0.1873],[27.6057,37.1979,0.0],[27.6085,37.1996,-0.3889],[27.6076,37.1957,-0.0259],[27.6046,37.1963,-0.0995],[27.6035,37.1949,-0.0841],[27.6151,37.1893,0.122],[27.6149,37.1879,0.543],[27.6101,37.1871,-0.0014],[27.6076,37.1904,-0.4984],[27.6021,37.1929,-0.395],[27.6015,37.196,-0.4219],[27.5999,37.1963,-0.4219],[27.6007,37.1946,-0.7961],[27.5993,37.1929,-0.1683],[27.6015,37.191,0.0],[27.599,37.1896,-0.0798],[27.5999,37.1876,-0.0811],[27.5976,37.1854,-0.2509],[27.5976,37.1826,-0.4058],[27.5951,37.1832,0.0],[27.5904,37.179,0.0],[27.5857,37.1787,-0.3018],[27.5838,37.1813,0.0],[27.5807,37.1815,0.0],[27.5746,37.179,-0.0437],[27.574,37.184,0.8139],[27.5774,37.1851,0.0],[27.5785,37.1876,0.8201],[27.581,37.1874,0.0],[27.5849,37.1921,0.9281],[27.5915,37.1915,0.0],[27.5935,37.1935,0.0],[27.5932,37.1954,11.2676],[27.5888,37.1974,0.0631],[27.5893,37.1993,0.0],[27.5832,37.2038,0.0],[27.5812,37.2071,0.0],[27.5707,37.2115,0.0],[27.5676,37.2104,0.0],[27.5679,37.2082,23.011],[27.5651,37.2076,7.9227],[27.5637,37.2051,1.4775],[27.5646,37.2024,4.3614],[27.561,37.2026,0.0],[27.5582,37.2007,0.0],[27.5593,37.1949,13.3207],[27.5549,37.1929,18.4727],[27.5446,37.1951,15.6997],[27.5432,37.1918,0.0],[27.5449,37.1901,30.7928],[27.5429,37.189,12.3857],[27.5343,37.1932,0.0],[27.5263,37.194,1.1306],[27.5274,37.1921,5.9675],[27.5326,37.1913,1.3324],[27.5374,37.1868,0.0],[27.5465,37.1843,11.5676],[27.5443,37.1824,3.7154],[27.5443,37.1799,41.4414],[27.5407,37.1785,0.9543],[27.5443,37.1749,17.6116],[27.5376,37.1732,1.1102],[27.5401,37.1729,12.8342],[27.5415,37.1674,0.0],[27.5446,37.1682,2.6405],[27.5501,37.1665,1.3186],[27.5396,37.1621,0.0],[27.5404,37.1585,0.0],[27.5426,37.1565,1.5784],[27.5415,37.154,0.0],[27.544,37.1512,11.8572],[27.5476,37.1501,0.0],[27.5529,37.1521,0.0],[27.5549,37.1549,0.0],[27.5546,37.1579,2.3063],[27.561,37.1546,17.8785],[27.5607,37.1532,1.4711],[27.5568,37.1535,12.6397],[27.5532,37.149,4.9161],[27.5543,37.146,17.8483],[27.5532,37.1421,3.985],[27.5563,37.1368,8.489],[27.5532,37.1357,0.0],[27.5507,37.1368,4.0378],[27.5507,37.1351,0.0],[27.5574,37.1342,11.3257],[27.5582,37.1368,8.489],[27.5618,37.1354,0.0],[27.5718,37.139,7.5878],[27.5812,37.1385,6.3808],[27.5812,37.1363,6.5897],[27.5768,37.1354,0.0],[27.5774,37.1336,1.0051],[27.6166,37.1355,38.2388],[27.6628,37.1539,61.3364],[27.6716,37.1548,81.5536],[27.6774,37.1527,88.6443],[27.6816,37.146,74.2666],[27.6823,37.1204,127.8343],[27.6864,37.1091,147.3745],[27.7006,37.0958,209.831],[27.7241,37.0821,239.5682],[27.7394,37.0633,624.733],[27.753,37.0402,452.7615],[27.7535,37.0322,388.3661],[27.7516,37.0271,380.1074],[27.7295,37.0004,0.0],[27.7346,37.0007,1.4193],[27.7346,36.9951,13.0894],[27.7329,36.9932,0.0],[27.7404,36.9938,14.1139],[27.7438,36.9979,6.5587],[27.7471,36.9982,0.8237],[27.7507,36.9963,5.2602],[27.7543,37.001,10.2328],[27.7563,37.001,11.271],[27.7596,36.999,11.8564],[27.7565,36.994,13.8956],[27.7579,36.9904,0.0],[27.7607,36.9912,3.207],[27.7626,36.9943,16.246],[27.7649,36.9938,54.8838],[27.7657,36.9915,0.0],[27.7682,36.9915,0.0],[27.7696,36.9935,15.2046],[27.7749,36.9921,4.359],[27.7743,36.9963,26.2879],[27.7765,36.999,7.3325],[27.778199999999998,36.9985,0.0],[27.779,36.9926,2.2739],[27.7813,36.9924,0.0],[27.7893,36.9985,0.0],[27.7888,37.001,0.0],[27.786,37.0018,22.1647],[27.7876,37.0035,0.0],[27.7868,37.006,4.7829],[27.8001,37.0029,5.3647],[27.8004,37.001,8.6316],[27.7974,36.9963,35.5515],[27.7996,36.9949,0.0],[27.8046,36.9985,6.6411],[27.8054,37.001,5.9331],[27.8099,37.0015,0.0],[27.8132,37.0054,54.931],[27.814,37.0046,5.321],[27.8207,37.0118,0.3064],[27.8349,37.0115,0.0],[27.8437,37.0185,0.0],[27.8607,37.019,4.6548],[27.8846,37.0271,26.1254],[27.8929,37.0285,0.0],[27.9079,37.0221,0.4146],[27.9088,37.0238,2.1922],[27.926,37.031,0.5127],[27.9346,37.0268,0.0],[27.9438,37.0168,0.0],[27.9518,37.0165,0.0],[27.969,37.0213,0.4896],[27.9718,37.024,1.3073],[27.9732,37.0296,0.3205],[27.976,37.0315,1.0989],[28.0002,37.0278,129.8592],[27.9968,37.0461,427.2163],[27.9972,37.0546,117.6392],[27.9998,37.0627,329.3811],[28.0216,37.0856,480.1893],[28.0337,37.1023,424.9328],[28.0523,37.1203,1051.4445],[28.0677,37.1436,1043.1851],[28.0716,37.157,1140.1909],[28.0716,37.179,1126.7183],[28.0102,37.2285,687.8124],[27.993,37.2469,663.2068],[27.9455,37.2681,837.6509],[27.9393,37.2743,916.0172],[27.9251,37.2975,613.0088],[27.9193,37.316,696.4113],[27.909,37.3353,697.4498],[27.9073,37.3536,730.3965],[27.9102,37.3655,604.812],[27.9185,37.3793,715.1198],[27.9248,37.3976,678.5624],[27.9361,37.4197,634.9205],[27.9369,37.4475,698.5018]]]]}}