{"type": "Feature","bbox": [32.3633,36.7511,32.7306,36.9092],"geometry": {"type": "MultiPolygon","coordinates": [[[[32.4706,36.7511,1536.2753],[32.4952,36.7639,1883.0773],[32.5061,36.7676,2080.6099],[32.5528,36.7699,1921.0449],[32.5774,36.7784,1929.9487],[32.608,36.7846,1839.9132],[32.6466,36.8104,1868.3917],[32.6664,36.8157,1793.7987],[32.6695,36.822,1764.7738],[32.6756,36.827,1731.3621],[32.6973,36.8371,1817.3351],[32.7306,36.8472,1693.2825],[32.7238,36.873,1760.0519],[32.7117,36.8904,1808.8744],[32.7029,36.8973,1727.3593],[32.6806,36.9067,1353.774],[32.6566,36.9092,1340.8281],[32.4692,36.9085,1720.075],[32.4576,36.9066,1836.9019],[32.4272,36.8957,1895.0885],[32.3972,36.8839,1956.0631],[32.3852,36.8773,2044.6581],[32.375,36.8688,1883.4939],[32.3693,36.8614,1888.5874],[32.3633,36.8411,1724.9553],[32.395,36.8371,1518.7456],[32.4224,36.8246,1655.4928],[32.4373,36.8058,1384.3113],[32.4706,36.7511,1536.2753]]]]}
,"properties": {"GID_2": "TUR.53.28_1","GID_0": "TUR","country": "Turkey","GID_1": "TUR.53_1","province": "Konya","NL_NAME_1": "NA","county": "Taşkent","VARNAME_2": "NA","NL_NAME_2": "NA","TYPE_2": "District","ENGTYPE_2": "District","CC_2": "NA","HASC_2": "TR.KO.TA","name": "Taşkent.county","area_km2": 365.1957,"hist_schema_id": "Elevation0-9000","hist_area_km2": {"1150": 0.017,"1175": 0.5595,"1200": 1.0512,"1225": 1.6616,"1250": 1.6955,"1275": 2.1025,"1300": 2.0347,"1325": 2.2043,"1350": 2.9168,"1375": 3.6123,"1400": 4.2574,"1425": 4.5123,"1450": 4.6991,"1475": 5.9883,"1500": 5.8185,"1525": 6.0055,"1550": 6.4635,"1575": 6.6327,"1600": 7.3457,"1625": 9.1103,"1650": 12.572,"1675": 14.5572,"1700": 13.8612,"1725": 17.2558,"1750": 21.1253,"1775": 22.0253,"1800": 23.1462,"1825": 20.9068,"1850": 22.3479,"1875": 24.314,"1900": 22.8047,"1925": 22.4483,"1950": 19.6986,"1975": 12.6758,"2000": 7.9928,"2025": 4.0392,"2050": 2.0876,"2075": 1.545,"2100": 0.9678,"2125": 0.1358}}}