{"type":"Feature","properties":{"GID_2":"TUR.31.14_1","GID_0":"TUR","country":"Turkey","GID_1":"TUR.31_1","province":"Erzurum","NL_NAME_1":"NA","county":"Pasinler","VARNAME_2":"NA","NL_NAME_2":"NA","TYPE_2":"District","ENGTYPE_2":"District","CC_2":"NA","HASC_2":"TR.EM.PL","name":"Pasinler.county"},
"geometry":{"type": "MultiPolygon","coordinates": [[[[41.9425,40.1749,2476.4905],[41.9025,40.172,2195.6743],[41.8779,40.1643,2222.459],[41.8668,40.1623,2252.6653],[41.8355,40.162,2427.7195],[41.8206,40.1644,2399.5549],[41.8028,40.1707,2493.2397],[41.7916,40.1727,2502.3169],[41.7234,40.1734,2510.3335],[41.704,40.1751,2316.4197],[41.6699,40.187,2295.7754],[41.6457,40.1979,2504.7549],[41.6122,40.1971,2753.0208],[41.5857,40.1984,2749.491],[41.5756,40.1747,2887.1658],[41.5525,40.1492,3088.8511],[41.5457,40.128,3044.0718],[41.5331,40.1072,2929.7461],[41.5275,40.1007,2936.6279],[41.5138,40.0935,2924.4011],[41.4901,40.0894,2656.8379],[41.4721,40.0834,2388.4893],[41.4422,40.0771,2278.127],[41.4307,40.068,2191.5205],[41.4161,40.0449,2324.5657],[41.4134,40.0339,2328.9551],[41.4127,40.0166,2108.8306],[41.4134,39.9993,2065.5249],[41.4161,39.9884,1970.1826],[41.4348,39.9602,1857.5057],[41.4819,39.9217,1894.2769],[41.4868,39.914,1976.2538],[41.4888,39.9057,2064.8965],[41.4883,39.8917,2214.1455],[41.4838,39.881,2390.1162],[41.4494,39.8515,2715.0334],[41.4349,39.8344,2669.667],[41.4511,39.8197,2443.0676],[41.467,39.8136,2433.6482],[41.5613,39.8123,2606.2732],[41.573,39.8108,2602.9062],[41.5945,39.8036,2687.9651],[41.6137,39.8012,2773.2124],[41.64,39.8043,2827.7927],[41.7372,39.8349,2118.7297],[41.8185,39.8358,1690.8398],[41.818,39.9045,1915.0721],[41.8149,39.9163,1700.7164],[41.8059,39.9325,1653.8542],[41.8051,39.9461,1617.2286],[41.8079,39.9538,1612.7986],[41.8312,39.988,1693.8383],[41.8468,40.0143,1846.0452],[41.8488,40.0265,1812.5967],[41.8486,40.0643,2173.739],[41.8506,40.0765,2061.8535],[41.8599,40.0891,2090.8906],[41.877,40.1001,2169.0632],[41.8873,40.1029,2306.1472],[41.9247,40.107,2306.9131],[41.9347,40.1184,2238.6982],[41.9381,40.126,2293.6038],[41.9425,40.1749,2476.4905]]]]}}