{"type": "Feature","bbox": [26.1599,39.9158,26.8171,40.2329],"geometry": {"type": "MultiPolygon","coordinates": [[[[26.7886,40.063,359.6823],[26.7946,40.0719,339.4853],[26.8121,40.0898,466.7195],[26.8159,40.0982,546.2738],[26.8171,40.1198,441.2968],[26.8121,40.1396,299.2764],[26.7652,40.1368,586.0947],[26.7371,40.1282,563.3566],[26.722,40.1264,564.1581],[26.6868,40.1263,525.7458],[26.665,40.1298,651.5743],[26.6078,40.1516,417.7829],[26.5905,40.1624,322.0526],[26.5836,40.1691,347.4308],[26.579,40.1769,381.2587],[26.5755,40.2015,156.9437],[26.572,40.2095,71.4536],[26.5602,40.2209,105.1741],[26.539,40.2329,0.0],[26.5368,40.2324,0.0],[26.5346,40.2287,26.4118],[26.529,40.2262,0.0],[26.5246,40.2176,0.0],[26.5157,40.2168,0.2031],[26.5138,40.2149,1.0564],[26.5018,40.2118,0.3789],[26.4868,40.204,0.0],[26.4826,40.2001,1.2113],[26.4732,40.2024,0.0],[26.4662,40.1971,0.0],[26.4538,40.1993,0.0],[26.449,40.194,0.0],[26.4429,40.1937,12.5241],[26.4349,40.1957,0.0],[26.4299,40.1943,2.9897],[26.4151,40.201,0.0],[26.403199999999998,40.1968,0.0],[26.4043,40.1949,0.0],[26.4079,40.194,1.6429],[26.4085,40.1893,8.5523],[26.4054,40.1876,0.2899],[26.4068,40.1799,13.2124],[26.4029,40.1738,0.118],[26.4029,40.1685,0.0],[26.4046,40.1651,11.4874],[26.4029,40.1629,0.0],[26.4076,40.1593,1.204],[26.4088,40.1549,2.6877],[26.3996,40.1515,0.0],[26.3974,40.1457,0.0],[26.3999,40.1437,3.5169],[26.3976,40.1426,0.0],[26.4001,40.1407,3.0945],[26.401,40.1365,0.0],[26.4046,40.1343,4.2433],[26.4074,40.1296,0.3532],[26.4099,40.1193,0.0],[26.4057,40.114,0.3612],[26.399,40.1096,0.0],[26.3996,40.1071,0.0],[26.3971,40.1046,0.6758],[26.384,40.1015,2.0762],[26.3788,40.1046,0.0],[26.3746,40.1032,0.5266],[26.371,40.1046,0.0682],[26.3646,40.0985,0.0],[26.361,40.0929,0.6497],[26.3657,40.0826,0.5376],[26.3582,40.0757,0.0],[26.3582,40.0707,0.0],[26.356,40.0676,0.0],[26.356,40.0574,0.0],[26.3487,40.0513,0.0],[26.3482,40.0462,0.0],[26.3412,40.0451,0.0],[26.3379,40.0429,0.0],[26.3374,40.0349,0.0],[26.3349,40.0318,1.1209],[26.3349,40.0293,12.0755],[26.3285,40.0262,0.4439],[26.326,40.0213,38.2705],[26.3221,40.0201,0.0],[26.3213,40.0174,0.0],[26.3113,40.0176,0.0],[26.3082,40.0154,24.9541],[26.2968,40.0137,0.0],[26.2879,40.0051,6.6915],[26.279,40.0054,10.2654],[26.2696,40.0007,0.0],[26.261,40.0004,5.1321],[26.2574,40.0018,5.6675],[26.2504,39.999,0.0],[26.241,40.001,0.0],[26.2368,39.999,0.2067],[26.2257,40.0043,0.0],[26.2126,40.0054,0.3372],[26.1982,40.0099,0.0],[26.1963,40.006,1.2058],[26.1868,40.001,0.0],[26.184,39.9949,11.5854],[26.1774,39.989,0.0],[26.1707,39.9674,0.0],[26.1663,39.9615,17.3484],[26.1668,39.9549,12.1779],[26.1624,39.9415,0.212],[26.1638,39.939,6.7361],[26.1599,39.9299,24.4719],[26.1872,39.92,21.0239],[26.2078,39.9173,22.8095],[26.4038,39.9171,308.879],[26.4415,39.9158,396.3298],[26.4581,39.9201,414.8098],[26.4901,39.9337,448.8258],[26.4978,39.9418,433.9069],[26.5062,39.9644,416.8188],[26.5124,39.9703,433.5433],[26.5206,39.9747,471.6144],[26.5443,39.9838,417.4472],[26.5548,39.9861,384.7772],[26.6162,39.9861,543.6242],[26.6286,39.9886,404.729],[26.6326,39.9924,296.574],[26.6333,39.9969,301.3238],[26.6252,40.0105,231.84],[26.6241,40.018,265.1339],[26.6277,40.0252,353.0866],[26.6378,40.0318,194.2355],[26.6482,40.0336,207.4124],[26.6624,40.0323,432.4454],[26.7059,40.0156,515.2702],[26.7175,40.0154,611.1083],[26.7375,40.0221,450.2017],[26.7457,40.0265,427.4856],[26.7522,40.0322,454.8217],[26.7658,40.0498,493.4862],[26.7886,40.063,359.6823]]]]}
,"properties": {"GID_2": "TUR.22.11_1","GID_0": "TUR","country": "Turkey","GID_1": "TUR.22_1","province": "Çanakkale","NL_NAME_1": "NA","county": "Merkez","VARNAME_2": "Çanakkale","NL_NAME_2": "NA","TYPE_2": "District","ENGTYPE_2": "District","CC_2": "NA","HASC_2": "TR.CK.CK","name": "Merkez.county","area_km2": 925.2814,"hist_schema_id": "Elevation0-9000","hist_area_km2": {"0": 82.5537,"25": 73.7093,"50": 56.4366,"75": 45.9861,"100": 43.1317,"125": 37.8626,"150": 36.5954,"175": 35.6405,"200": 38.3216,"225": 38.8741,"250": 34.5876,"275": 36.3412,"300": 39.4427,"325": 42.3844,"350": 47.1409,"375": 45.5338,"400": 44.1053,"425": 41.4615,"450": 27.005,"475": 21.4654,"500": 14.5674,"525": 11.0784,"550": 7.9147,"575": 6.6491,"600": 5.2541,"625": 3.6972,"650": 3.373,"675": 2.0758,"700": 1.2163,"725": 0.5028,"750": 0.2758,"775": 0.0487,"800": 0.0487}}}