{"type":"Feature","properties":{"GID_2":"TUR.8.13_1","GID_0":"TUR","country":"Turkey","GID_1":"TUR.8_1","province":"Antalya","NL_NAME_1":"NA","county":"Manavgat","VARNAME_2":"NA","NL_NAME_2":"NA","TYPE_2":"District","ENGTYPE_2":"District","CC_2":"NA","HASC_2":"TR.AL.MA","name":"Manavgat.county"},
"geometry":{"type": "MultiPolygon","coordinates": [[[[31.6637,36.6474,0.0],[31.6612,36.6476,0.0],[31.6612,36.6471,0.0],[31.6643,36.646,0.0],[31.6637,36.6474,0.0]]],
[[[31.6445,36.8967,457.2134],[31.6311,36.902,624.411],[31.6116,36.8985,434.6973],[31.5933,36.8988,326.9289],[31.5832,36.9011,307.4992],[31.554,36.9131,165.5],[31.5449,36.9204,165.5],[31.5312,36.9375,446.3726],[31.5055,36.9499,570.2963],[31.4892,36.9617,722.4338],[31.4828,36.9687,711.4714],[31.4697,36.9898,896.2686],[31.4668,36.9976,800.0585],[31.4628,37.0224,662.3632],[31.4521,37.0445,1066.917],[31.4503,37.0836,1268.8396],[31.4477,37.0951,1015.9505],[31.431,37.121,1241.1294],[31.3958,37.1528,1386.2037],[31.3871,37.1765,1390.2743],[31.3651,37.2111,1850.5446],[31.3619,37.2191,1878.8701],[31.3601,37.2432,1595.2765],[31.362,37.2642,1755.9017],[31.3654,37.2722,1689.6736],[31.385,37.3017,1761.7925],[31.3879,37.3088,1782.2123],[31.3879,37.3141,1808.8804],[31.3774,37.338,1744.7662],[31.3746,37.3703,1578.8917],[31.3587,37.3979,2023.6429],[31.3488,37.4082,1798.6338],[31.3233,37.4244,2184.9238],[31.2994,37.4224,1470.2113],[31.2388,37.4218,926.4172],[31.2248,37.4182,949.1277],[31.2154,37.4117,1192.3175],[31.2043,37.4009,862.2271],[31.1797,37.3897,1388.4541],[31.1525,37.3844,1681.5114],[31.1308,37.3776,1722.5272],[31.096,37.3738,1323.6543],[31.0743,37.3668,1261.5977],[31.0608,37.3641,1317.3248],[31.0634,37.345,1529.8552],[31.074,37.322,2147.6582],[31.0774,37.2775,1655.4075],[31.0883,37.2553,1389.6317],[31.0906,37.243,1173.3336],[31.0909,37.2238,1484.7998],[31.089,37.2081,845.5355],[31.0783,37.1884,1255.1619],[31.075,37.1766,1404.2701],[31.0749,37.1645,1230.8882],[31.0777,37.1557,1867.3635],[31.0861,37.1476,1454.1813],[31.0993,37.1431,1353.0037],[31.1639,37.1427,498.9625],[31.1825,37.1397,208.9405],[31.2018,37.1313,129.666],[31.2089,37.1265,134.3797],[31.2214,37.1094,176.4431],[31.2245,37.1011,141.1901],[31.2257,37.0404,36.9462],[31.2233,37.0186,84.1385],[31.2073,36.9923,44.8522],[31.1829,36.9673,33.9974],[31.1693,36.9464,18.3086],[31.1655,36.9352,14.648],[31.1644,36.9104,12.7199],[31.1653,36.8762,5.4624],[31.1682,36.8645,5.2591],[31.1771,36.848,5.5583],[31.1799,36.829,1.3979],[31.2096,36.826,3.6872],[31.2199,36.8207,0.4931],[31.2318,36.8232,2.2693],[31.2593,36.8207,3.8207],[31.2646,36.819,2.8375],[31.2657,36.8168,0.0],[31.2787,36.8187,0.9625],[31.2835,36.8171,10.8582],[31.2946,36.8168,0.7266],[31.3229,36.811,11.9216],[31.3457,36.8043,3.1651],[31.3624,36.7976,2.718],[31.3726,36.7888,0.9196],[31.3874,36.7804,0.7102],[31.3904,36.7762,2.1768],[31.391,36.7718,0.4508],[31.3896,36.7693,0.0],[31.384,36.7668,3.1608],[31.3863,36.764,6.1811],[31.3887,36.7632,0.0],[31.3932,36.766,3.6509],[31.401,36.7646,3.2584],[31.416,36.7549,0.0],[31.4215,36.7549,0.0],[31.424,36.7565,2.133],[31.4365,36.7551,2.2251],[31.4912,36.7374,0.0],[31.4968,36.7368,1.4586],[31.5071,36.7318,0.0],[31.5215,36.7279,1.1463],[31.528199999999998,36.7235,0.0],[31.5329,36.7232,1.2322],[31.5485,36.716,0.7294],[31.5526,36.7154,1.9955],[31.5543,36.7135,0.0],[31.5613,36.7118,3.2628],[31.5826,36.7018,1.5753],[31.589,36.6971,5.3907],[31.5904,36.6943,1.9372],[31.5979,36.6913,4.2498],[31.606,36.6843,1.7869],[31.6365,36.6715,0.0],[31.6457,36.6646,0.0],[31.651,36.6626,1.1144],[31.6646,36.6493,0.0],[31.6721,36.6496,3.3719],[31.6746,36.6463,22.807],[31.6721,36.644,0.0],[31.6757,36.6437,0.0],[31.6815,36.646,18.3423],[31.6817,36.6519,24.2033],[31.6956,36.6688,57.7893],[31.7126,36.6821,32.99],[31.7483,36.6965,372.7512],[31.7609,36.6993,365.4919],[31.7651,36.7259,333.3311],[31.7645,36.7954,496.6364],[31.739,36.8134,739.8052],[31.7138,36.8338,907.4715],[31.708,36.8407,765.8383],[31.6879,36.8737,1189.1504],[31.6819,36.8797,1040.4962],[31.6742,36.8844,855.4709],[31.6445,36.8967,457.2134]]]]}}