{"type": "Feature","bbox": [33.5554,41.5347,33.7732,41.6945],"geometry": {"type": "MultiPolygon","coordinates": [[[[33.5554,41.6029,977.1619],[33.5688,41.5847,1159.9899],[33.5929,41.5649,1396.6779],[33.6065,41.5622,1474.382],[33.6208,41.557,1429.2142],[33.6338,41.5559,1363.5062],[33.6571,41.5625,1332.5339],[33.6671,41.562,1254.7839],[33.697,41.5513,1276.1069],[33.714,41.5433,1134.9327],[33.7429,41.5347,1189.0569],[33.7515,41.5367,1208.3391],[33.7731,41.5481,1173.3033],[33.7712,41.5701,1215.1455],[33.7632,41.5865,1141.2953],[33.7615,41.5939,1123.9412],[33.7634,41.6014,1105.4786],[33.7718,41.6177,1054.5542],[33.7732,41.6288,1065.875],[33.7723,41.64,1087.0356],[33.7692,41.6478,1140.7511],[33.7558,41.6688,1094.1482],[33.7381,41.6903,1141.3507],[33.7184,41.6924,1139.2617],[33.6463,41.6945,1195.4058],[33.6352,41.6707,1135.5447],[33.6119,41.6452,1016.8546],[33.6063,41.6269,1112.3228],[33.6016,41.6201,1095.0667],[33.5886,41.6122,1022.8152],[33.5554,41.6029,977.1619]]]]}
,"properties": {"GID_2": "TUR.46.18_1","GID_0": "TUR","country": "Turkey","GID_1": "TUR.46_1","province": "Kastamonu","NL_NAME_1": "NA","county": "Seydiler","VARNAME_2": "NA","NL_NAME_2": "NA","TYPE_2": "District","ENGTYPE_2": "District","CC_2": "NA","HASC_2": "TR.KS.SD","name": "Seydiler.county","area_km2": 212.4235,"hist_schema_id": "Elevation0-9000","hist_area_km2": {"975": 0.222,"1000": 10.1721,"1025": 25.1457,"1050": 25.4191,"1075": 27.2433,"1100": 21.0322,"1125": 16.9408,"1150": 12.9503,"1175": 12.6519,"1200": 13.3039,"1225": 13.4799,"1250": 8.6908,"1275": 7.5015,"1300": 6.1223,"1325": 3.9495,"1350": 2.522,"1375": 1.729,"1400": 1.2849,"1425": 0.9042,"1450": 0.7139,"1475": 0.3649,"1500": 0.0793}}}