{"type":"Feature","properties":{"GID_2":"TUR.80.2_1","GID_0":"TUR","country":"Turkey","GID_1":"TUR.80_1","province":"Yozgat","NL_NAME_1":"NA","county":"Aydıncık","VARNAME_2":"NA","NL_NAME_2":"NA","TYPE_2":"District","ENGTYPE_2":"District","CC_2":"NA","HASC_2":"TR.YZ.AY","name":"Aydıncık.county"},
"geometry":{"type": "MultiPolygon","coordinates": [[[[35.3323,40.2289,754.8431],[35.3043,40.2171,812.2884],[35.2886,40.2137,790.0515],[35.1678,40.2132,1007.0481],[35.1664,40.189,901.3383],[35.1672,40.1677,925.0724],[35.1701,40.1562,1010.3301],[35.1782,40.1423,888.59],[35.181,40.1333,929.8347],[35.1826,40.1112,1000.0759],[35.1811,40.0961,1244.9554],[35.1787,40.0908,1341.1628],[35.1721,40.0852,1398.3308],[35.1351,40.0698,1340.9504],[35.1213,40.062,1288.7142],[35.1374,40.0524,1343.9824],[35.1642,40.0417,1349.3879],[35.1778,40.0392,1301.9843],[35.1954,40.0408,1295.9915],[35.2396,40.0585,1466.45],[35.2531,40.0615,1507.2134],[35.29,40.0616,1484.0736],[35.3222,40.0551,1368.1805],[35.3452,40.0636,1352.6278],[35.357,40.0724,1518.6672],[35.3612,40.0827,1331.0291],[35.3621,40.108,1182.4038],[35.3648,40.119,1098.2742],[35.3747,40.1308,945.8663],[35.3958,40.1467,938.0643],[35.4081,40.1527,889.5154],[35.4191,40.1547,924.7671],[35.4771,40.1547,969.2745],[35.4921,40.1563,978.9743],[35.5052,40.1617,932.3573],[35.5271,40.1781,913.6395],[35.5121,40.1898,790.2576],[35.4056,40.1894,830.0621],[35.3819,40.1913,800.5108],[35.3714,40.1952,771.9722],[35.3593,40.2029,798.5092],[35.3432,40.2167,749.848],[35.3323,40.2289,754.8431]]]]}}