{"type": "Feature","bbox": [32.5388,40.0114,32.7948,40.2625],"geometry": {"type": "MultiPolygon","coordinates": [[[[32.5405,40.1052,872.4559],[32.5506,40.0864,840.9557],[32.5557,40.0675,831.1217],[32.5648,40.0511,815.8427],[32.5715,40.0301,805.8013],[32.5812,40.0198,897.0717],[32.5886,40.0146,971.914],[32.5944,40.0114,980.2792],[32.6179,40.0157,925.6379],[32.6502,40.0183,902.2943],[32.6636,40.0226,940.8134],[32.6871,40.0364,981.8683],[32.7074,40.0458,1108.3083],[32.7152,40.0537,1164.7787],[32.7223,40.0696,1264.0068],[32.7262,40.0727,1262.2111],[32.7337,40.0754,1363.8663],[32.7339,40.1094,1205.8232],[32.7379,40.1235,1258.1145],[32.7512,40.1445,1122.8031],[32.7575,40.1515,1223.7791],[32.7736,40.1639,1344.5342],[32.7948,40.175,1315.3308],[32.7941,40.1941,1111.6857],[32.7911,40.2077,991.3386],[32.7861,40.2115,971.2108],[32.7501,40.2173,914.3725],[32.7234,40.2276,903.5107],[32.7108,40.2357,935.1506],[32.6955,40.2548,912.5999],[32.6875,40.2593,957.1415],[32.6803,40.2612,1003.6084],[32.661,40.2625,1118.7209],[32.6338,40.2604,1237.9241],[32.6123,40.2532,1222.1008],[32.5819,40.2466,1258.6823],[32.57,40.2396,1281.6897],[32.5599,40.2309,1258.4016],[32.5474,40.2126,1258.2118],[32.5525,40.1995,1202.0438],[32.5539,40.1769,1112.9534],[32.5513,40.1611,1017.0234],[32.5422,40.1443,962.7443],[32.5396,40.1356,994.5449],[32.5388,40.1202,899.5962],[32.5405,40.1052,872.4559]]]]}
,"properties": {"GID_2": "TUR.7.16_1","GID_0": "TUR","country": "Turkey","GID_1": "TUR.7_1","province": "Ankara","NL_NAME_1": "NA","county": "Kazan","VARNAME_2": "NA","NL_NAME_2": "NA","TYPE_2": "District","ENGTYPE_2": "District","CC_2": "NA","HASC_2": "TR.AN.KN","name": "Kazan.county","area_km2": 414.7212,"hist_schema_id": "Elevation0-9000","hist_area_km2": {"800": 3.8144,"825": 27.3856,"850": 40.5554,"875": 42.8054,"900": 44.1938,"925": 40.9373,"950": 37.2532,"975": 29.7149,"1000": 23.155,"1025": 17.0947,"1050": 14.179,"1075": 12.1537,"1100": 11.3758,"1125": 11.0675,"1150": 11.1478,"1175": 10.3212,"1200": 9.9154,"1225": 7.5508,"1250": 5.5744,"1275": 3.8742,"1300": 2.8688,"1325": 2.3013,"1350": 1.7186,"1375": 1.476,"1400": 1.1031,"1425": 0.7948,"1450": 0.3406,"1475": 0.0487}}}