{"type":"Feature","properties":{"GID_2":"TUR.70.9_1","GID_0":"TUR","country":"Turkey","GID_1":"TUR.70_1","province":"Sinop","NL_NAME_1":"NA","county":"Türkeli","VARNAME_2":"NA","NL_NAME_2":"NA","TYPE_2":"District","ENGTYPE_2":"District","CC_2":"NA","HASC_2":"TR.SP.TU","name":"Türkeli.county"},
"geometry":{"type": "MultiPolygon","coordinates": [[[[34.2691,41.7507,1444.5103],[34.2691,41.7391,1568.8649],[34.3158,41.7393,1718.2476],[34.3409,41.7411,1344.894],[34.3471,41.7613,1314.3022],[34.3637,41.7872,881.4324],[34.3731,41.7962,1148.0956],[34.4031,41.8193,1064.0568],[34.4172,41.8329,845.2031],[34.4301,41.8536,946.3718],[34.4317,41.8586,733.9342],[34.4316,41.8638,795.2361],[34.4221,41.8823,452.1997],[34.4199,41.8933,342.0082],[34.4209,41.9362,129.0347],[34.4263,41.9635,12.8935],[34.421,41.964,0.0],[34.4188,41.9615,1.7217],[34.4165,41.9621,0.1769],[34.4129,41.9593,2.5348],[34.4051,41.9588,0.0],[34.3935,41.9518,6.368],[34.3851,41.9538,0.0],[34.3832,41.9524,0.0],[34.3763,41.9526,0.0],[34.371,41.949,0.9581],[34.3571,41.9457,1.0943],[34.3476,41.9463,8.0697],[34.3443,41.9474,3.4962],[34.3443,41.9501,1.2489],[34.339,41.9515,0.3559],[34.334,41.949,0.0],[34.3318,41.9443,10.1494],[34.3182,41.9421,0.0],[34.3143,41.9429,0.0],[34.3099,41.941,1.5665],[34.2985,41.941,0.0],[34.294,41.9429,0.0],[34.2904,41.9418,18.1131],[34.2863,41.9443,0.0],[34.2785,41.9451,65.1422],[34.2796,41.9479,0.0],[34.2657,41.9474,0.0],[34.241,41.9499,17.7198],[34.2304,41.9549,0.3076],[34.2265,41.9551,0.923],[34.2243,41.9249,266.3427],[34.224,41.8896,430.9616],[34.2256,41.874,643.7285],[34.2288,41.8657,584.7647],[34.2517,41.8314,433.1406],[34.2672,41.805,768.5225],[34.2694,41.7895,1042.3065],[34.2691,41.7507,1444.5103]]]]}}