{"type": "Feature","bbox": [42.1347,40.2896,42.5705,40.8258],"geometry": {"type": "MultiPolygon","coordinates": [[[[42.3847,40.8258,2299.292],[42.2946,40.8242,1820.6917],[42.2842,40.8218,1748.6414],[42.2603,40.8127,1996.8246],[42.2423,40.8029,2088.2932],[42.2096,40.7776,1444.7141],[42.2003,40.7685,1446.8602],[42.184,40.7427,1131.679],[42.1793,40.715,1070.988],[42.1668,40.6908,1108.8707],[42.1655,40.6796,1100.5833],[42.1666,40.6684,1187.043],[42.1697,40.6606,1168.9675],[42.2065,40.6054,1566.2758],[42.2096,40.5976,1577.6823],[42.2106,40.5864,1701.3118],[42.2084,40.5725,1900.9717],[42.1991,40.554,2112.4824],[42.199,40.549,2086.2485],[42.2034,40.5363,2168.6343],[42.2033,40.532,2187.2419],[42.1823,40.4957,1924.1409],[42.1799,40.4845,2156.4214],[42.1799,40.4673,2257.0066],[42.181399999999996,40.4589,2202.5244],[42.1853,40.4511,1988.4597],[42.2034,40.4333,2066.4578],[42.2084,40.4257,2231.9124],[42.2108,40.4146,2263.3574],[42.2104,40.4033,2551.5603],[42.2059,40.3925,2462.0542],[42.2016,40.3878,2376.9048],[42.1882,40.378,2645.8201],[42.1733,40.3725,2668.7935],[42.1383,40.335,2781.5098],[42.1347,40.3195,2635.1201],[42.1348,40.2896,2549.1362],[42.1567,40.2907,2344.5483],[42.1846,40.2995,2373.5068],[42.2085,40.3039,2307.8726],[42.2297,40.311,2370.9023],[42.2687,40.3154,2171.5195],[42.2991,40.3264,2027.4214],[42.5092,40.4077,2714.4268],[42.5214,40.4162,2632.4648],[42.5365,40.4391,2367.4907],[42.5394,40.4497,2236.7827],[42.5383,40.4642,2343.4958],[42.5433,40.4834,2428.0093],[42.5542,40.5061,2085.3188],[42.5571,40.5584,2709.2737],[42.5598,40.5676,2546.3716],[42.5663,40.5786,2710.4209],[42.5703,40.5902,2795.1797],[42.5705,40.6054,2719.8169],[42.5679,40.6143,2650.335],[42.5481,40.6407,2192.9133],[42.5385,40.661,2158.0735],[42.5234,40.6843,1884.5898],[42.5008,40.7072,2022.9127],[42.4917,40.7214,1996.0898],[42.4576,40.7516,2176.2095],[42.4448,40.7701,2403.6494],[42.4148,40.7962,2205.9717],[42.3996,40.8164,2539.3677],[42.3847,40.8258,2299.292]]]]}
,"properties": {"GID_2": "TUR.31.16_1","GID_0": "TUR","country": "Turkey","GID_1": "TUR.31_1","province": "Erzurum","NL_NAME_1": "NA","county": "Şenkaya","VARNAME_2": "NA","NL_NAME_2": "NA","TYPE_2": "District","ENGTYPE_2": "District","CC_2": "NA","HASC_2": "TR.EM.SE","name": "Şenkaya.county","area_km2": 1465.721,"hist_schema_id": "Elevation0-9000","hist_area_km2": {"1025": 0.707,"1050": 1.559,"1075": 1.238,"1100": 4.196,"1125": 6.335,"1150": 8.925,"1175": 9.665,"1200": 11.353,"1225": 11.032,"1250": 10.919,"1275": 11.545,"1300": 12.092,"1325": 12.928,"1350": 12.478,"1375": 11.772,"1400": 13.012,"1425": 12.98,"1450": 13.431,"1475": 13.836,"1500": 15.028,"1525": 16.799,"1550": 17.299,"1575": 18.604,"1600": 19.538,"1625": 20.361,"1650": 21.569,"1675": 22.988,"1700": 23.407,"1725": 23.664,"1750": 23.649,"1775": 25.936,"1800": 26.79,"1825": 26.368,"1850": 26.358,"1875": 27.999,"1900": 27.515,"1925": 25.826,"1950": 23.859,"1975": 24.099,"2000": 24.999,"2025": 27.288,"2050": 27.094,"2075": 26.342,"2100": 27.711,"2125": 26.765,"2150": 25.319,"2175": 26.289,"2200": 26.066,"2225": 26.152,"2250": 28.027,"2275": 28.248,"2300": 29.825,"2325": 31.504,"2350": 38.391,"2375": 31.357,"2400": 37.106,"2425": 34.026,"2450": 36.249,"2475": 39.892,"2500": 39.822,"2525": 33.724,"2550": 28.588,"2575": 24.061,"2600": 18.278,"2625": 16.033,"2650": 14.224,"2675": 11.515,"2700": 10.144,"2725": 8.385,"2750": 5.837,"2775": 4.047,"2800": 2.949,"2825": 2.078,"2850": 1.578,"2875": 1.45,"2900": 1.24,"2925": 1.337,"2950": 1.063,"2975": 0.773,"3000": 0.741,"3025": 0.58,"3050": 0.451,"3075": 0.37,"3100": 0.113,"3125": 0.032}}}