{"type": "Feature","bbox": [28.463,37.8366,28.7931,38.1148],"geometry": {"type": "MultiPolygon","coordinates": [[[[28.7431,38.0651,1214.2234],[28.7168,38.0754,1242.849],[28.7079,38.0814,1065.5415],[28.7047,38.0876,856.4786],[28.7197,38.0993,780.8826],[28.7091,38.106,863.3626],[28.6968,38.1111,839.229],[28.683,38.1148,771.3218],[28.6684,38.1136,612.3709],[28.6421,38.0812,1151.35],[28.6258,38.0711,986.8572],[28.6197,38.0654,893.3636],[28.6159,38.0581,888.6284],[28.6112,38.0423,1157.3551],[28.6058,38.0351,1369.4171],[28.5962,38.0265,1613.6594],[28.5743,38.0113,1321.807],[28.5468,37.9993,878.3213],[28.5139,37.9767,732.0284],[28.4867,37.9652,871.3726],[28.47,37.9519,716.012],[28.4655,37.9446,700.5168],[28.463,37.9277,289.0357],[28.4637,37.9134,117.0416],[28.467,37.9025,71.5568],[28.4909,37.8772,98.4999],[28.5086,37.8485,664.8199],[28.5551,37.8763,113.0592],[28.585,37.8879,89.6526],[28.5991,37.8896,106.219],[28.6161,37.8864,258.9119],[28.6426,37.8701,410.4827],[28.6724,37.8582,362.6855],[28.7029,37.8521,780.2608],[28.7435,37.8372,1178.822],[28.7492,37.8366,1078.3157],[28.7572,37.8389,894.8151],[28.7642,37.8431,806.6518],[28.7653,37.8573,915.5406],[28.7676,37.8654,868.1385],[28.7931,37.9065,461.7833],[28.7825,37.9255,192.9215],[28.7749,37.9492,136.7559],[28.7228,38.0299,787.6963],[28.7222,38.0378,994.7817],[28.7241,38.0429,1164.4702],[28.7431,38.0651,1214.2234]]]]}
,"properties": {"GID_2": "TUR.11.12_1","GID_0": "TUR","country": "Turkey","GID_1": "TUR.11_1","province": "Aydin","NL_NAME_1": "NA","county": "Kuyucak","VARNAME_2": "NA","NL_NAME_2": "NA","TYPE_2": "District","ENGTYPE_2": "District","CC_2": "NA","HASC_2": "TR.AY.KY","name": "Kuyucak.county","area_km2": 498.4053,"hist_schema_id": "Elevation0-9000","hist_area_km2": {"75": 29.1301,"100": 26.5992,"125": 27.8631,"150": 22.0412,"175": 16.9405,"200": 15.3016,"225": 13.73,"250": 11.6064,"275": 10.7868,"300": 9.2819,"325": 9.6167,"350": 8.7467,"375": 8.2787,"400": 8.2281,"425": 7.8936,"450": 7.7428,"475": 6.756,"500": 7.0231,"525": 7.2405,"550": 7.2237,"575": 7.3405,"600": 7.6246,"625": 7.5068,"650": 7.5898,"675": 7.7571,"700": 7.2376,"725": 7.8387,"750": 7.7047,"775": 7.5536,"800": 9.0245,"825": 9.5092,"850": 9.7591,"875": 10.4772,"900": 10.1269,"925": 9.3081,"950": 8.4057,"975": 8.7391,"1000": 7.6531,"1025": 7.0672,"1050": 7.0503,"1075": 6.0967,"1100": 6.4973,"1125": 5.4121,"1150": 4.9438,"1175": 6.0124,"1200": 5.2778,"1225": 4.9432,"1250": 4.2751,"1275": 3.791,"1300": 3.2232,"1325": 2.9727,"1350": 2.7057,"1375": 2.3551,"1400": 1.5535,"1425": 1.2863,"1450": 1.1359,"1475": 1.0523,"1500": 1.1358,"1525": 1.4866,"1550": 1.0523,"1575": 1.3029,"1600": 1.1525,"1625": 0.6681,"1650": 0.451,"1675": 0.167,"1700": 0.1169,"1725": 0.0334}}}