{"type": "Feature","bbox": [34.5376,40.6427,34.7855,40.9513],"geometry": {"type": "MultiPolygon","coordinates": [[[[34.6197,40.9144,670.4763],[34.6105,40.9161,674.3135],[34.581,40.9271,570.1586],[34.5679,40.9353,723.9241],[34.5487,40.9513,867.4192],[34.5411,40.9371,721.2385],[34.5376,40.9238,820.0713],[34.5376,40.9125,990.955],[34.5404,40.9015,815.8114],[34.5793,40.8415,1008.869],[34.582,40.8299,1309.5225],[34.5828,40.7967,1452.4078],[34.5855,40.7851,1242.9963],[34.6167,40.7363,1033.3241],[34.6357,40.7177,1021.663],[34.6469,40.7014,1161.5757],[34.6676,40.6807,830.291],[34.6765,40.6664,625.2614],[34.6953,40.6427,1110.9684],[34.7099,40.6511,886.8123],[34.7397,40.6725,897.8591],[34.7633,40.686,1040.6592],[34.7625,40.7094,861.1473],[34.7645,40.7219,1063.7242],[34.7855,40.7628,537.4886],[34.7456,40.7757,1229.6438],[34.7322,40.784,989.3096],[34.7127,40.7996,832.2543],[34.705,40.8082,898.5083],[34.6683,40.867,1397.4739],[34.6335,40.8972,1177.9989],[34.6197,40.9144,670.4763]]]]}
,"properties": {"GID_2": "TUR.24.10_1","GID_0": "TUR","country": "Turkey","GID_1": "TUR.24_1","province": "Çorum","NL_NAME_1": "NA","county": "Oğuzlar","VARNAME_2": "NA","NL_NAME_2": "NA","TYPE_2": "District","ENGTYPE_2": "District","CC_2": "NA","HASC_2": "TR.CM.OG","name": "Oğuzlar.county","area_km2": 297.6972,"hist_schema_id": "Elevation0-9000","hist_area_km2": {"500": 10.7669,"525": 3.3746,"550": 4.6419,"575": 5.1875,"600": 5.7807,"625": 6.5985,"650": 6.3734,"675": 6.7262,"700": 7.112,"725": 7.1428,"750": 6.0197,"775": 6.3407,"800": 6.4367,"825": 6.5818,"850": 6.1317,"875": 6.3889,"900": 6.9346,"925": 6.6296,"950": 6.3561,"975": 7.1752,"1000": 7.2552,"1025": 8.3783,"1050": 8.0575,"1075": 9.2134,"1100": 9.1495,"1125": 8.9088,"1150": 10.0159,"1175": 10.1928,"1200": 10.0806,"1225": 9.2779,"1250": 9.3585,"1275": 8.6999,"1300": 8.2027,"1325": 8.2504,"1350": 7.6887,"1375": 7.9132,"1400": 6.5647,"1425": 5.842,"1450": 4.2684,"1475": 3.5938,"1500": 2.9999,"1525": 2.3261,"1550": 1.508,"1575": 0.9625,"1600": 0.2888}}}