{"type": "Feature","bbox": [29.0176,37.855,29.1556,38.0408],"geometry": {"type": "MultiPolygon","coordinates": [[[[29.0231,38.0003,206.1346],[29.0337,37.9759,148.8812],[29.0351,37.935,155.6138],[29.0324,37.9167,156.0748],[29.0221,37.8974,158.4596],[29.0176,37.8787,201.2864],[29.06,37.8761,262.6877],[29.1137,37.8556,197.1903],[29.127,37.855,194.5183],[29.1385,37.8594,198.7774],[29.1512,37.876,227.2039],[29.1542,37.8842,243.6253],[29.1556,37.9022,338.2014],[29.1541,37.9264,488.3709],[29.1516,37.935,639.4518],[29.1427,37.9517,665.4659],[29.1365,37.9814,872.7278],[29.1167,38.0072,778.3807],[29.0366,38.0373,721.4957],[29.02,38.0408,564.263],[29.0204,38.0169,319.5683],[29.0231,38.0003,206.1346]]]]}
,"properties": {"GID_2": "TUR.25.2_1","GID_0": "TUR","country": "Turkey","GID_1": "TUR.25_1","province": "Denizli","NL_NAME_1": "NA","county": "Akköy","VARNAME_2": "NA","NL_NAME_2": "NA","TYPE_2": "District","ENGTYPE_2": "District","CC_2": "NA","HASC_2": "TR.DN.AK","name": "Akköy.county","area_km2": 175.4027,"hist_schema_id": "Elevation0-9000","hist_area_km2": {"150": 25.5677,"175": 35.2619,"200": 23.4216,"225": 11.4236,"250": 8.5621,"275": 6.2531,"300": 5.0317,"325": 5.9679,"350": 5.7837,"375": 4.4296,"400": 3.46,"425": 3.8107,"450": 3.3427,"475": 3.3926,"500": 4.5451,"525": 3.7595,"550": 3.8096,"575": 3.1746,"600": 2.6733,"625": 2.0385,"650": 1.8381,"675": 1.8548,"700": 1.571,"725": 1.0697,"750": 0.7355,"775": 0.5348,"800": 0.4179,"825": 0.6184,"850": 0.468,"875": 0.351,"900": 0.1337,"925": 0.1003}}}