{"type": "Feature","bbox": [42.3308,40.6386,43.2822,41.598],"geometry": {"type": "MultiPolygon","coordinates": [[[[42.8903,40.8934,2134.5527],[42.9002,40.9113,2113.8267],[42.9089,40.9215,2117.7979],[42.925,40.9347,2092.1365],[42.9333,40.9391,2085.167],[42.9935,40.9618,2413.1968],[43.0422,40.9705,2775.1694],[43.0598,40.9812,2837.175],[43.0721,40.9858,2802.5835],[43.0901,40.9872,2921.6458],[43.1126,40.9845,2945.3623],[43.144,40.9962,2624.751],[43.1678,41.0009,2601.2075],[43.219,41.0257,1958.5],[43.2262,41.0309,1958.5],[43.2456,41.0578,1958.5],[43.2608,41.0842,1958.5],[43.263,41.0993,1958.5],[43.2626,41.1432,1923.9526],[43.2638,41.1554,1941.2561],[43.2684,41.1659,1984.2109],[43.2822,41.1819,2286.4082],[43.2806,41.1832,2347.0901],[43.248,41.1774,2285.8562],[43.2265,41.1761,2199.272],[43.2336,41.1873,1925.5264],[43.2318,41.1927,1796.5],[43.1981,41.2475,1985.6516],[43.1921,41.2521,2025.4021],[43.176,41.2547,1996.9414],[43.1533,41.2456,1847.9742],[43.1315,41.2497,1495.2528],[43.1239,41.2541,1462.7021],[43.1282,41.2575,1469.1589],[43.1406,41.263,1508.0576],[43.1594,41.2682,1360.9072],[43.1749,41.275,1397.9473],[43.188,41.2851,1405.8467],[43.1965,41.2894,1454.5088],[43.1971,41.2924,1469.6639],[43.2029,41.2974,1442.7614],[43.2023,41.3004,1477.1956],[43.199,41.3036,1541.131],[43.1848,41.3084,1626.5925],[43.1666,41.3091,1652.1898],[43.1599,41.3105,1818.2822],[43.1551,41.3156,1678.3787],[43.1296,41.3179,1853.5825],[43.1015,41.3546,2000.6353],[43.0663,41.3688,2349.1816],[43.0472,41.3698,2607.656],[43.0366,41.375,2672.2651],[43.0248,41.3783,2872.583],[43.0096,41.3973,2881.0037],[42.9935,41.4071,2870.3645],[42.9896,41.4124,2881.1934],[42.9899,41.4183,2844.8574],[42.9842,41.4268,2781.2495],[42.9735,41.4337,2657.1121],[42.9735,41.4462,2402.8267],[42.9696,41.4515,2476.6221],[42.945,41.4582,2558.623],[42.9313,41.4726,2450.6155],[42.9045,41.4808,2441.6707],[42.9024,41.4847,2415.3547],[42.9033,41.492,2431.3848],[42.9021,41.4991,2568.156],[42.8954,41.5037,2494.3118],[42.8759,41.5028,2194.3342],[42.8662,41.4991,2098.8047],[42.8613,41.484,2018.3887],[42.8562,41.4753,1693.7808],[42.8519,41.4728,1539.6404],[42.8471,41.4726,1504.2319],[42.8358,41.4806,1570.5371],[42.8306,41.4833,1507.641],[42.8227,41.4847,1426.8452],[42.8096,41.4927,1399.575],[42.8099,41.4984,1594.8385],[42.8072,41.5032,1419.6296],[42.7944,41.5123,1268.6667],[42.7935,41.5164,1245.6044],[42.7977,41.5251,1299.5654],[42.812,41.5306,1276.6688],[42.8208,41.5359,1297.5332],[42.8184,41.5577,1316.3335],[42.8205,41.5604,1279.9426],[42.8324,41.565,1140.4441],[42.8388,41.5707,1234.2025],[42.8363,41.5828,1122.4664],[42.8293,41.5879,1189.5067],[42.7933,41.5885,1588.7095],[42.7836,41.5782,1347.7911],[42.7726,41.5828,1394.8596],[42.7629,41.5844,1497.7146],[42.74,41.5942,1723.0162],[42.7083,41.598,1886.9309],[42.6779,41.5973,1999.1106],[42.6215,41.5843,2119.3188],[42.6062,41.5854,2390.2617],[42.6023,41.5838,2453.9631],[42.5969,41.5763,2453.3008],[42.5841,41.5702,2362.8262],[42.5799,41.5661,2450.8276],[42.5781,41.5618,2434.6423],[42.5787,41.5503,2454.7046],[42.5775,41.5444,2387.9143],[42.5652,41.5253,2368.4358],[42.5682,41.5221,2372.283],[42.5695,41.5109,2392.9148],[42.5628,41.5088,2178.95],[42.556399999999996,41.5045,2218.832],[42.5489,41.4935,2161.1699],[42.5358,41.4943,2173.5107],[42.5316,41.4916,2230.9399],[42.5304,41.4863,2237.248],[42.5161,41.4792,2389.624],[42.5101,41.4686,2553.689],[42.5208,41.4549,2638.8042],[42.5233,41.4469,2920.4636],[42.523,41.4433,2949.2183],[42.5203,41.44,2732.0688],[42.5136,41.4398,2666.6006],[42.5045,41.4455,2499.1965],[42.4966,41.4452,2511.21],[42.4728,41.4397,2232.8843],[42.4798,41.4212,2129.2505],[42.4848,41.399,2671.0088],[42.4941,41.3826,2498.0481],[42.5008,41.3615,2135.1704],[42.5243,41.322,2007.5983],[42.5319,41.3008,2106.4873],[42.574,41.236,2474.55],[42.5832,41.2264,2370.8315],[42.5699,41.1981,2149.5662],[42.5574,41.1856,2102.8481],[42.5442,41.1773,2244.8738],[42.4983,41.1605,2400.2607],[42.4896,41.156,2492.9141],[42.4248,41.1064,2409.6912],[42.405,41.0869,2556.2581],[42.3984,41.0853,2629.7722],[42.3885,41.0589,1995.24],[42.3647,41.0335,2079.686],[42.3439,41.0005,2370.2466],[42.3308,40.9829,2390.5051],[42.3308,40.9349,2104.7158],[42.3348,40.9192,2149.7454],[42.358,40.8821,2343.5859],[42.3647,40.861,2238.7651],[42.3847,40.8258,2299.292],[42.3996,40.8164,2539.3677],[42.4148,40.7962,2205.9717],[42.4448,40.7701,2403.6494],[42.4576,40.7516,2176.2095],[42.4917,40.7214,1996.0898],[42.5008,40.7072,2022.9127],[42.5234,40.6843,1884.5898],[42.5385,40.661,2158.0735],[42.5481,40.6407,2192.9133],[42.5674,40.6389,2486.334],[42.5996,40.6386,2667.4785],[42.6149,40.6411,2663.7915],[42.6476,40.6594,2567.2385],[42.7046,40.6815,2541.6348],[42.75,40.6877,2616.5896],[42.7679,40.6939,2790.125],[42.7951,40.6992,2603.5693],[42.836,40.7135,2738.5305],[42.8532,40.7326,2642.9346],[42.8605,40.7536,2432.8918],[42.8696,40.7703,2358.5269],[42.8718,40.7857,2266.9016],[42.8717,40.837,2256.2209],[42.8733,40.8527,2222.8086],[42.8843,40.875,2202.9065],[42.8903,40.8934,2134.5527]]]]}
,"properties": {"GID_1": "TUR.9_1","GID_0": "TUR","country": "Turkey","province": "Ardahan","VARNAME_1": "NA","NL_NAME_1": "NA","TYPE_1": "Il","ENGTYPE_1": "Province","CC_1": "NA","HASC_1": "TR.AR","ISO_1": "TR-75","name": "Ardahan.province","area_km2": 4780.453,"hist_schema_id": "Elevation0-9000","hist_area_km2": {"1125": 0.444,"1150": 0.539,"1175": 0.841,"1200": 1.079,"1225": 1.126,"1250": 1.967,"1275": 2.11,"1300": 2.698,"1325": 2.682,"1350": 3.46,"1375": 3.985,"1400": 4.924,"1425": 5.8,"1450": 6.022,"1475": 7.262,"1500": 7.98,"1525": 8.49,"1550": 9.333,"1575": 10.017,"1600": 12.515,"1625": 14.835,"1650": 15.807,"1675": 16.952,"1700": 17.175,"1725": 20.613,"1750": 27.158,"1775": 49.534,"1800": 162.792,"1825": 125.889,"1850": 107.846,"1875": 95.78,"1900": 119.188,"1925": 111.799,"1950": 160.072,"1975": 250.488,"2000": 226.36,"2025": 183.259,"2050": 225.903,"2075": 206.379,"2100": 198.441,"2125": 175.208,"2150": 170.025,"2175": 174.931,"2200": 160.474,"2225": 149.299,"2250": 140.265,"2275": 128.348,"2300": 123.931,"2325": 116.823,"2350": 106.909,"2375": 99.04,"2400": 86.78,"2425": 78.31,"2450": 72.042,"2475": 63.382,"2500": 60.461,"2525": 57.346,"2550": 49.404,"2575": 43.534,"2600": 40.312,"2625": 37.138,"2650": 34.973,"2675": 31.968,"2700": 24.939,"2725": 21.327,"2750": 18.772,"2775": 17.753,"2800": 16.764,"2825": 13.97,"2850": 10.447,"2875": 8.47,"2900": 6.509,"2925": 4.166,"2950": 2.636,"2975": 1.677,"3000": 1.023,"3025": 0.719,"3050": 0.527,"3075": 0.207,"3125": 0.048}}}