{"type":"Feature","properties":{"featurecla":"River","scalerank":8,"rivernum":747,"dissolve":"747River","name":"Kura1","name_alt":null,"note":null,"min_zoom":7.0,"strokeweig":0.2,"name_en":"Kura","min_label":8.0},
"geometry":{"type": "LineString","coordinates": [[42.822265625,40.920672918744117,2024.118],[42.809667968750006,40.918231512494117,2013.3682],[42.799707031250023,40.910907293744117,2007.5586],[42.79150390625,40.90314362186912,1982.9824],[42.78466796875,40.89960358280662,1982.8389],[42.763671875,40.90228912968162,1981.2275],[42.724023437500023,40.91303131718162,2029.6732],[42.699316406250006,40.913836981244117,2002.2944],[42.63125,40.901385809369117,1973.5211],[42.607177734375,40.89960358280662,1971.3137],[42.60107421875,40.90497467655662,1972.1409],[42.595800781250006,40.92890045780662,2041.0231],[42.593164062500023,40.934344793744117,2093.8713]]}}