{"type":"Feature","properties":{"GID_2":"TUR.79.4_1","GID_0":"TUR","country":"Turkey","GID_1":"TUR.79_1","province":"Yalova","NL_NAME_1":"NA","county":"Çınarcık","VARNAME_2":"NA","NL_NAME_2":"NA","TYPE_2":"District","ENGTYPE_2":"District","CC_2":"NA","HASC_2":"TR.YL.CN","name":"Çınarcık.county"},
"geometry":{"type": "MultiPolygon","coordinates": [[[[29.1334,40.5554,559.9932],[29.1304,40.5799,314.3292],[29.1325,40.5982,347.0591],[29.1486,40.6244,153.8162],[29.1608,40.6369,51.4924],[29.1608,40.6557,0.0],[29.1551,40.6565,35.8803],[29.1513,40.6601,0.0],[29.1476,40.661,0.0],[29.1437,40.6607,0.542],[29.1449,40.6563,4.0584],[29.1376,40.6496,0.0],[29.1304,40.6479,4.684],[29.1296,40.6499,0.0],[29.1182,40.6468,9.3799],[29.1157,40.6476,0.0],[29.1154,40.6457,0.0],[29.1129,40.6446,5.6894],[29.1049,40.6432,6.9439],[29.0804,40.6465,0.9805],[29.0668,40.6437,0.8559],[29.0593,40.6454,1.8747],[29.0549,40.6485,0.287],[29.0365,40.646,11.6263],[29.0235,40.6471,0.0],[29.0132,40.6437,36.3486],[29.0074,40.6468,5.0724],[29.0065,40.6449,34.0691],[29.0018,40.6443,15.5481],[28.996,40.646,0.0],[28.9657,40.6335,11.9269],[28.9526,40.6196,0.0],[28.9538,40.6154,14.5147],[28.9524,40.6135,11.6881],[28.9415,40.6087,6.5046],[28.9332,40.6012,28.7591],[28.919,40.5951,19.2084],[28.906,40.5921,0.0],[28.9021,40.589,2.4495],[28.9133,40.5877,141.8182],[28.9365,40.581,536.8944],[28.9641,40.5761,852.7974],[28.9852,40.569,903.8879],[29.021,40.5655,719.7745],[29.0569,40.5569,886.2352],[29.1334,40.5554,559.9932]]]]}}