{"type": "Feature","bbox": [28.0889,38.0479,28.5599,38.3637],"geometry": {"type": "MultiPolygon","coordinates": [[[[28.5599,38.1087,1315.0955],[28.5435,38.1199,911.6178],[28.5312,38.1306,1124.8809],[28.512,38.1584,529.9713],[28.4979,38.182,568.8535],[28.4912,38.2031,642.7026],[28.4832,38.2169,954.7575],[28.4767,38.2498,1673.2443],[28.4626,38.2734,1552.124],[28.4564,38.2805,1308.7451],[28.44,38.2923,1357.0905],[28.4268,38.2968,1181.3522],[28.4065,38.3004,1199.7078],[28.385,38.3074,1124.308],[28.3232,38.3103,955.7753],[28.2946,38.3188,1266.5598],[28.2654,38.3223,1260.9634],[28.2585,38.3266,1360.2673],[28.2293,38.3339,1371.4102],[28.1957,38.3461,1745.2549],[28.1663,38.3582,1753.4254],[28.1566,38.3637,1767.6388],[28.143,38.3594,1510.074],[28.1211,38.3484,1348.5061],[28.1058,38.3426,1593.6466],[28.0959,38.3359,1550.0189],[28.0923,38.3315,1582.1432],[28.0889,38.3179,1678.1362],[28.0911,38.3012,1217.0448],[28.1007,38.2848,1140.2266],[28.1077,38.2638,851.9321],[28.1171,38.2474,480.4279],[28.1228,38.2289,388.5781],[28.1309,38.2151,518.5094],[28.1368,38.1849,292.2548],[28.147,38.1659,200.0285],[28.1521,38.1473,164.6255],[28.2379,38.1462,219.8879],[28.2495,38.1449,287.4015],[28.2621,38.1406,424.4844],[28.2803,38.1313,475.306],[28.2936,38.1169,530.3397],[28.3067,38.1069,871.7147],[28.3304,38.096,1016.7207],[28.3377,38.0909,924.7061],[28.3565,38.0645,517.2978],[28.3639,38.0479,522.4122],[28.3992,38.0547,525.2939],[28.4208,38.0618,974.5735],[28.448,38.0671,952.0576],[28.5257,38.0972,1175.6128],[28.5599,38.1087,1315.0955]]]]}
,"properties": {"GID_2": "TUR.41.18_1","GID_0": "TUR","country": "Turkey","GID_1": "TUR.41_1","province": "Izmir","NL_NAME_1": "NA","county": "Kiraz","VARNAME_2": "NA","NL_NAME_2": "NA","TYPE_2": "District","ENGTYPE_2": "District","CC_2": "NA","HASC_2": "TR.IZ.KR","name": "Kiraz.county","area_km2": 794.4975,"hist_schema_id": "Elevation0-9000","hist_area_km2": {"150": 0.0333,"175": 1.6838,"200": 5.0678,"225": 11.984,"250": 17.7467,"275": 20.1606,"300": 18.2604,"325": 14.8778,"350": 13.3617,"375": 12.3954,"400": 12.2457,"425": 11.6796,"450": 12.1633,"475": 13.1806,"500": 13.3136,"525": 12.781,"550": 13.882,"575": 14.8658,"600": 14.9155,"625": 16.4498,"650": 16.8672,"675": 17.1176,"700": 18.5185,"725": 18.269,"750": 18.252,"775": 18.0513,"800": 17.585,"825": 17.9006,"850": 18.5005,"875": 18.4665,"900": 20.5321,"925": 20.5489,"950": 18.5495,"975": 16.6316,"1000": 17.0626,"1025": 17.0612,"1050": 16.3612,"1075": 17.6253,"1100": 16.2587,"1125": 15.0742,"1150": 14.839,"1175": 13.8549,"1200": 12.2552,"1225": 11.7214,"1250": 9.7893,"1275": 9.7891,"1300": 9.673,"1325": 8.557,"1350": 9.5217,"1375": 7.6064,"1400": 6.9558,"1425": 6.872,"1450": 5.3579,"1475": 4.9253,"1500": 5.4907,"1525": 4.7253,"1550": 4.3425,"1575": 4.4589,"1600": 4.1594,"1625": 3.3441,"1650": 3.4272,"1675": 3.0447,"1700": 2.9115,"1725": 2.7783,"1750": 2.5621,"1775": 2.1793,"1800": 2.2457,"1825": 1.7299,"1850": 1.7465,"1875": 1.4303,"1900": 1.314,"1925": 1.2142,"1950": 0.8649,"1975": 0.7818,"2000": 0.4325,"2025": 0.4325,"2050": 0.3659,"2075": 0.2994,"2100": 0.1164,"2125": 0.0832,"2150": 0.0166}}}