{"type":"Feature","properties":{"GID_2":"TUR.32.2_1","GID_0":"TUR","country":"Turkey","GID_1":"TUR.32_1","province":"Eskisehir","NL_NAME_1":"NA","county":"Beylikova","VARNAME_2":"NA","NL_NAME_2":"NA","TYPE_2":"District","ENGTYPE_2":"District","CC_2":"NA","HASC_2":"TR.ES.BE","name":"Beylikova.county"},
"geometry":{"type": "MultiPolygon","coordinates": [[[[31.1185,39.6606,809.5574],[31.1399,39.6557,840.4755],[31.1647,39.6443,844.8903],[31.1847,39.624,935.4657],[31.2295,39.588,1115.2732],[31.2679,39.6153,964.5521],[31.2865,39.626,942.7548],[31.2953,39.6354,926.2396],[31.3049,39.6418,897.247],[31.3145,39.6446,903.7948],[31.3497,39.6484,894.3864],[31.3979,39.6663,922.9792],[31.4193,39.672,956.5198],[31.4251,39.6895,737.9858],[31.4266,39.7017,775.769],[31.4268,39.7201,841.8421],[31.4251,39.7321,919.6625],[31.4193,39.7427,906.8917],[31.4003,39.7633,914.1365],[31.3974,39.772,973.6317],[31.394,39.793,1000.0127],[31.3853,39.8098,990.4478],[31.3797,39.8283,1092.5552],[31.3748,39.8361,1111.5591],[31.3652,39.8455,1029.8953],[31.3422,39.8617,1095.4302],[31.3318,39.8655,1109.5483],[31.3128,39.8673,1104.9794],[31.255,39.867,1012.9322],[31.2357,39.8451,960.7901],[31.2039,39.7963,894.1689],[31.1895,39.7728,919.0334],[31.1816,39.7493,790.582],[31.1383,39.6817,777.0639],[31.1185,39.6606,809.5574]]]]}}