{"type":"Feature","properties":{"GID_2":"TUR.71.5_1","GID_0":"TUR","country":"Turkey","GID_1":"TUR.71_1","province":"Sirnak","NL_NAME_1":"NA","county":"Merkez","VARNAME_2":"Şirnak","NL_NAME_2":"NA","TYPE_2":"District","ENGTYPE_2":"District","CC_2":"NA","HASC_2":"TR.SR.SR","name":"Merkez.county"},
"geometry":{"type": "MultiPolygon","coordinates": [[[[42.1591,37.6818,1688.3259],[42.1686,37.6718,1731.9176],[42.171,37.6617,1749.0757],[42.1682,37.6544,1482.8635],[42.147,37.6227,1007.4667],[42.144,37.6118,1288.9653],[42.144,37.6005,1460.7648],[42.1468,37.5896,1420.8048],[42.1551,37.5759,1247.8525],[42.1621,37.5548,1484.8428],[42.1704,37.541,1414.5459],[42.1773,37.52,1591.4026],[42.1866,37.5034,1431.2074],[42.1889,37.4855,1604.7443],[42.1878,37.4436,855.8818],[42.2167,37.4289,504.9222],[42.2469,37.4175,503.7781],[42.2884,37.4119,909.7261],[42.3174,37.4034,887.937],[42.3491,37.4019,920.5606],[42.3973,37.4027,1511.7922],[42.4124,37.4051,1430.9419],[42.43,37.4113,1442.5731],[42.4508,37.4125,1448.8917],[42.4855,37.4032,1407.9479],[42.5563,37.4022,1513.1455],[42.5744,37.4006,1500.3007],[42.6551,37.3693,1511.2565],[42.6692,37.3671,1311.4993],[42.6945,37.3684,931.5657],[42.7611,37.3939,1328.3831],[42.7952,37.4182,1157.064],[42.7766,37.4524,1340.9602],[42.7723,37.4883,1815.6182],[42.7621,37.5076,2196.4358],[42.76,37.5156,2595.4165],[42.7605,37.5237,2661.6614],[42.7626,37.5288,2604.2407],[42.7731,37.5373,2384.4866],[42.7816,37.5393,2323.5747],[42.7912,37.5613,2042.7128],[42.7963,37.5688,2029.4426],[42.8406,37.6054,1496.4172],[42.8566,37.6267,1683.2788],[42.8838,37.6499,1890.0176],[42.8922,37.6589,2016.6429],[42.9069,37.6823,2407.2346],[42.9134,37.7035,2084.8003],[42.9218,37.7172,2000.4716],[42.9285,37.7384,1842.8982],[42.9367,37.7521,2001.2535],[42.9434,37.785,2198.3906],[42.9636,37.8105,2509.3181],[42.9392,37.8186,2539.262],[42.9001,37.823,2583.9385],[42.879,37.8301,2634.0813],[42.8682,37.832,2637.4412],[42.7835,37.8325,1875.9814],[42.7649,37.8343,1584.1901],[42.7549,37.838,1563.9573],[42.7318,37.8521,1532.1448],[42.7134,37.86,1851.3976],[42.6933,37.8724,2124.8916],[42.6803,37.8778,2040.3684],[42.6615,37.8797,2065.4319],[42.6034,37.8785,1992.2429],[42.5931,37.8761,1957.532],[42.5059,37.8425,1653.0226],[42.4935,37.8357,1883.3505],[42.4688,37.8161,2468.1831],[42.4548,37.7968,2210.5449],[42.4345,37.776,2019.5533],[42.4268,37.7641,1870.2188],[42.4105,37.7482,1558.3425],[42.3744,37.7218,1308.2581],[42.3528,37.7125,1638.0261],[42.3264,37.6972,1954.3474],[42.3118,37.6937,1695.0372],[42.2961,37.693,1461.7822],[42.1798,37.6936,2135.7773],[42.1665,37.6908,2071.3572],[42.1622,37.6876,1924.0618],[42.1591,37.6818,1688.3259]]]]}}