{"type": "Feature","bbox": [37.6751,40.851,38.09,40.9896],"geometry": {"type": "MultiPolygon","coordinates": [[[[38.09,40.8865,574.3828],[38.0577,40.8862,626.3117],[38.0376,40.8889,611.0701],[38.027,40.8937,801.2842],[37.9962,40.9129,520.4406],[37.9921,40.9205,255.6757],[37.9911,40.9263,210.6319],[37.9915,40.9611,212.874],[37.9937,40.9804,2.796],[37.9912,40.9813,0.0],[37.9426,40.9829,1.5423],[37.9346,40.9851,0.0],[37.9349,40.9782,2.0668],[37.9332,40.9843,4.2155],[37.9301,40.9863,0.0],[37.9093,40.9837,6.82],[37.8932,40.9843,1.344],[37.8832,40.9854,7.1143],[37.8763,40.9894,0.0],[37.8647,40.9896,342.1334],[37.8369,40.9814,229.978],[37.7977,40.9771,253.6566],[37.7497,40.9593,195.6965],[37.7231,40.9536,573.2604],[37.7129,40.9478,694.6685],[37.6992,40.9356,755.1716],[37.6751,40.9268,777.1911],[37.6761,40.8983,1000.6743],[37.7013,40.9003,918.0911],[37.7225,40.9073,530.2786],[37.7373,40.9097,513.7037],[37.7841,40.9097,295.3608],[37.8013,40.9057,280.1832],[37.8224,40.8952,193.237],[37.8461,40.8625,92.9468],[37.8526,40.8568,338.6319],[37.8628,40.851,202.4889],[37.9072,40.853,663.793],[37.9325,40.8606,221.85],[37.9463,40.8621,599.203],[37.9601,40.8605,617.7007],[37.9777,40.8545,359.4935],[37.993,40.8521,633.9594],[38.0664,40.8515,653.9105],[38.0713,40.8643,575.1614],[38.09,40.8865,574.3828]]]]}
,"properties": {"GID_2": "TUR.63.14_1","GID_0": "TUR","country": "Turkey","GID_1": "TUR.63_1","province": "Ordu","NL_NAME_1": "NA","county": "Merkez","VARNAME_2": "OduMerkez","NL_NAME_2": "NA","TYPE_2": "District","ENGTYPE_2": "District","CC_2": "NA","HASC_2": "TR.OR.OR","name": "Merkez.county","area_km2": 304.1289,"hist_schema_id": "Elevation0-9000","hist_area_km2": {"0": 15.896,"25": 10.1685,"50": 9.9941,"75": 11.7729,"100": 12.766,"125": 13.616,"150": 14.3373,"175": 15.0747,"200": 15.0588,"225": 13.3447,"250": 13.5696,"275": 13.8583,"300": 13.3295,"325": 11.6639,"350": 10.4141,"375": 10.1422,"400": 8.5881,"425": 8.9247,"450": 8.1722,"475": 6.5059,"500": 6.0738,"525": 4.776,"550": 4.9044,"575": 3.5582,"600": 3.3018,"625": 3.2375,"650": 3.622,"675": 3.4137,"700": 3.3976,"725": 3.2854,"750": 2.9168,"775": 2.8848,"800": 2.5482,"825": 2.3881,"850": 2.2757,"875": 2.2918,"900": 2.2439,"925": 1.4747,"950": 1.0419,"975": 1.1382,"1000": 0.9458,"1025": 1.026,"1050": 0.5451,"1075": 0.7375,"1100": 0.5452,"1125": 0.6895,"1150": 0.7376,"1175": 0.5933,"1200": 0.3368}}}