{"type": "Feature","bbox": [43.216,40.1843,43.6833,40.6029],"geometry": {"type": "MultiPolygon","coordinates": [[[[43.5969,40.4404,1354.7992],[43.5904,40.4471,1398.4993],[43.5756,40.4565,1342.8983],[43.557,40.4598,1405.3508],[43.5538,40.4642,1365.7114],[43.5467,40.4681,1359.568],[43.5456,40.4771,1399.1921],[43.5549,40.4795,1361.0719],[43.5562,40.4907,1405.8752],[43.5757,40.4981,1481.9465],[43.6083,40.5178,1446.7693],[43.6152,40.5237,1450.0543],[43.6194,40.5251,1398.7996],[43.6218,40.5214,1446.0551],[43.6269,40.5195,1392.5554],[43.6318,40.5307,1411.2548],[43.6311,40.5325,1396.3544],[43.5335,40.5702,1558.8376],[43.5219,40.5789,1603.0146],[43.513,40.5924,1612.9525],[43.5038,40.5996,1645.6243],[43.4906,40.6029,1676.2891],[43.4799,40.6026,1696.5269],[43.4697,40.5998,1716.8833],[43.461,40.5947,1741.2327],[43.4288,40.5716,1833.9235],[43.3957,40.5587,1993.7664],[43.3809,40.5566,1990.5764],[43.3151,40.5557,2173.1016],[43.2776,40.5431,2230.9788],[43.263,40.5343,2226.3037],[43.251,40.5233,2248.3733],[43.2413,40.5088,2274.6626],[43.2212,40.4884,2353.7251],[43.2174,40.4804,2413.9917],[43.216,40.472,2483.3789],[43.2167,40.452,2590.3542],[43.2187,40.4438,2502.415],[43.2265,40.4302,2461.9929],[43.2284,40.4227,2464.2991],[43.2267,40.4151,2399.2664],[43.2199,40.404,2337.6638],[43.2163,40.3936,2253.2075],[43.233,40.3901,2297.0122],[43.2776,40.3728,2606.4602],[43.3081,40.3669,2220.936],[43.3414,40.3538,1970.3008],[43.3605,40.3404,1926.8679],[43.377,40.3252,1879.5908],[43.3989,40.2896,1904.2808],[43.4093,40.2786,1840.3147],[43.4611,40.2389,1753.6018],[43.4696,40.2341,1749.9958],[43.4909,40.2258,1748.3022],[43.5082,40.213,1777.3596],[43.5133,40.2062,1804.5159],[43.5152,40.2008,1808.1141],[43.5157,40.1845,1856.8375],[43.5637,40.1843,1696.9534],[43.575,40.1862,1669.7686],[43.5928,40.1925,1542.3313],[43.6131,40.1964,1475.1892],[43.6263,40.201,1421.6277],[43.65,40.2147,1319.02],[43.6628,40.2187,1182.9939],[43.6592,40.2218,1180.9596],[43.6581,40.2287,1202.192],[43.673,40.2282,1283.1646],[43.682,40.2299,1234.6021],[43.6806,40.2382,1223.3501],[43.6833,40.2429,1247.929],[43.6813,40.2452,1254.2888],[43.6817,40.2585,1240.4143],[43.6675,40.268,1253.6626],[43.6541,40.2708,1293.0886],[43.6399,40.2766,1263.2109],[43.6399,40.2823,1292.4343],[43.6364,40.2856,1288.8518],[43.632,40.295,1265.5317],[43.617,40.3138,1289.7139],[43.5937,40.3373,1291.8169],[43.5964,40.3665,1279.0596],[43.6034,40.3788,1283.682],[43.6137,40.3891,1287.2491],[43.621,40.3993,1304.3638],[43.6134,40.4135,1287.944],[43.6188,40.4181,1298.287],[43.6126,40.4288,1300.2952],[43.6085,40.4339,1386.619],[43.5969,40.4404,1354.7992]]]]}
,"properties": {"GID_2": "TUR.45.3_1","GID_0": "TUR","country": "Turkey","GID_1": "TUR.45_1","province": "Kars","NL_NAME_1": "NA","county": "Digor","VARNAME_2": "NA","NL_NAME_2": "NA","TYPE_2": "District","ENGTYPE_2": "District","CC_2": "NA","HASC_2": "TR.KA.DI","name": "Digor.county","area_km2": 1031.8161,"hist_schema_id": "Elevation0-9000","hist_area_km2": {"1175": 0.1781,"1200": 0.3238,"1225": 0.8902,"1250": 1.9415,"1275": 11.4384,"1300": 13.567,"1325": 16.0528,"1350": 19.0241,"1375": 23.8111,"1400": 25.6676,"1425": 22.7548,"1450": 30.3163,"1475": 35.2989,"1500": 32.1527,"1525": 36.2409,"1550": 39.6289,"1575": 40.0264,"1600": 32.811,"1625": 33.5262,"1650": 28.9072,"1675": 26.4711,"1700": 26.743,"1725": 27.1687,"1750": 25.1537,"1775": 21.3103,"1800": 20.8229,"1825": 17.1829,"1850": 14.95,"1875": 12.4153,"1900": 11.5594,"1925": 10.5081,"1950": 10.4096,"1975": 11.4601,"2000": 10.119,"2025": 7.9697,"2050": 8.1306,"2075": 9.1474,"2100": 31.831,"2125": 25.8137,"2150": 22.7464,"2175": 24.6772,"2200": 28.9988,"2225": 23.964,"2250": 26.3195,"2275": 30.2034,"2300": 23.0326,"2325": 15.4852,"2350": 12.9849,"2375": 10.8067,"2400": 8.3713,"2425": 5.9358,"2450": 5.0974,"2475": 3.9198,"2500": 3.2421,"2525": 2.6291,"2550": 2.2744,"2575": 2.3387,"2600": 2.4838,"2625": 1.9998,"2650": 0.4677,"2675": 0.0968,"2700": 0.0161}}}