{"type":"Feature","properties":{"GID_2":"TUR.12.15_1","GID_0":"TUR","country":"Turkey","GID_1":"TUR.12_1","province":"Balikesir","NL_NAME_1":"NA","county":"Marmara","VARNAME_2":"NA","NL_NAME_2":"NA","TYPE_2":"District","ENGTYPE_2":"District","CC_2":"NA","HASC_2":"TR.BK.MR","name":"Marmara.county"},
"geometry":{"type": "MultiPolygon","coordinates": [[[[27.5665,40.469,5.9079],[27.5618,40.4682,1.8994],[27.5646,40.4654,0.0],[27.5668,40.4674,0.9682],[27.5665,40.469,5.9079]]],
[[[27.5179,40.5371,0.0],[27.514,40.5371,0.0],[27.511,40.5315,11.9341],[27.5074,40.5304,2.7951],[27.5032,40.5268,2.9538],[27.5018,40.5232,3.2203],[27.4971,40.5213,0.6976],[27.4976,40.5185,1.4985],[27.4943,40.5057,0.0],[27.4904,40.5024,0.0],[27.4879,40.5024,0.0],[27.4865,40.4999,18.1285],[27.4815,40.4987,0.0],[27.4813,40.496,4.3609],[27.4782,40.494,4.0374],[27.481,40.491,0.0],[27.4807,40.4868,0.0],[27.4846,40.486,13.3992],[27.4907,40.4807,12.6843],[27.4868,40.4701,2.603],[27.4896,40.4679,0.0],[27.4982,40.4707,6.1856],[27.501,40.4771,1.3568],[27.5038,40.4796,3.1853],[27.511,40.4793,0.0],[27.5193,40.4843,12.6464],[27.5299,40.4854,0.0],[27.5326,40.4882,3.1987],[27.5371,40.4882,1.6333],[27.5382,40.4929,0.0],[27.5354,40.4904,27.2082],[27.5315,40.4921,0.6263],[27.5235,40.5004,1.0908],[27.5279,40.5068,0.0],[27.5376,40.511,2.9816],[27.5388,40.514,11.7069],[27.5454,40.5154,0.0],[27.5529,40.5213,0.0],[27.5515,40.5221,0.0],[27.5462,40.5201,28.8928],[27.5454,40.5224,0.0],[27.5432,40.5204,18.2772],[27.5393,40.5218,8.1977],[27.5351,40.5249,2.1712],[27.5338,40.5299,0.0],[27.5296,40.5276,3.6135],[27.5271,40.5282,3.224],[27.5215,40.5349,0.0],[27.5187,40.5349,3.0561],[27.5179,40.5371,0.0]]],
[[[27.5846,40.5276,4.9946],[27.5829,40.5282,2.9054],[27.5812,40.5262,16.816],[27.5832,40.524,22.0862],[27.5821,40.5193,13.5701],[27.5768,40.5176,0.0],[27.5774,40.5146,5.5453],[27.5751,40.5118,3.1428],[27.5765,40.5088,0.0],[27.5754,40.5071,2.4652],[27.5774,40.5051,13.7649],[27.5724,40.4982,1.449],[27.574,40.4963,0.4373],[27.5765,40.4968,0.0],[27.5804,40.4946,1.392],[27.5824,40.4951,0.9796],[27.5826,40.5004,25.81],[27.5863,40.5057,2.4978],[27.5851,40.5062,2.4978],[27.5829,40.5054,45.6139],[27.5812,40.5074,0.0],[27.5818,40.5107,10.0112],[27.5849,40.5118,0.0],[27.584,40.5143,6.4402],[27.5865,40.5165,7.9736],[27.584,40.5218,4.6377],[27.5857,40.524,20.0008],[27.5876,40.5238,0.0],[27.5879,40.526,0.0],[27.5854,40.5257,5.0382],[27.5846,40.5276,4.9946]]],
[[[27.5024,40.5532,21.9783],[27.4924,40.5526,5.1521],[27.4893,40.551,21.2891],[27.4821,40.5515,0.0],[27.4782,40.549,7.5793],[27.4671,40.5476,4.5838],[27.4651,40.539,5.2529],[27.4688,40.5374,9.2709],[27.4835,40.5457,5.5787],[27.4882,40.5471,7.5937],[27.4938,40.546,3.2673],[27.4988,40.5476,0.0],[27.5004,40.5499,5.7866],[27.5065,40.5476,1.792],[27.5057,40.5524,1.2541],[27.5024,40.5532,21.9783]]],
[[[27.664,40.4657,4.4051],[27.6621,40.4665,11.9],[27.6607,40.4629,0.6481],[27.6574,40.461,6.6545],[27.6568,40.4574,0.0],[27.6507,40.4529,0.0],[27.6557,40.4487,3.3892],[27.6557,40.4454,0.0],[27.6624,40.4443,3.6559],[27.6671,40.4463,0.0],[27.6629,40.4512,19.2149],[27.6665,40.456,0.0],[27.6665,40.4604,0.0],[27.6685,40.4626,0.0],[27.6646,40.4629,25.2224],[27.664,40.4657,4.4051]]],
[[[27.6213,40.5107,2.5789],[27.6182,40.5113,0.0],[27.6138,40.5074,5.7774],[27.6076,40.5085,0.0],[27.606,40.5068,15.9185],[27.6013,40.5093,4.6503],[27.5993,40.5088,1.3407],[27.6013,40.5057,3.8165],[27.601,40.4993,0.0],[27.6038,40.4957,16.5171],[27.6035,40.4921,0.0],[27.6087,40.4857,1.3194],[27.6079,40.4815,4.0326],[27.5987,40.4782,0.1895],[27.5929,40.4787,3.0945],[27.5826,40.4826,0.0],[27.5832,40.4763,11.7909],[27.5804,40.474,2.2723],[27.5812,40.4696,26.8793],[27.5779,40.4626,0.0],[27.5874,40.4624,43.6093],[27.596,40.4582,0.0],[27.6071,40.4604,0.0],[27.6118,40.4574,0.0],[27.6204,40.4588,17.7248],[27.6254,40.4615,0.4764],[27.6288,40.4601,4.5189],[27.6279,40.4576,0.0],[27.634,40.4571,27.0506],[27.6371,40.4543,2.5881],[27.641,40.4557,1.53],[27.6426,40.4532,0.0],[27.6496,40.4521,0.0],[27.6468,40.454,22.9782],[27.6476,40.4588,0.0],[27.6429,40.4574,0.0],[27.6421,40.4596,1.7359],[27.6376,40.4607,2.9882],[27.6371,40.4629,4.8432],[27.6407,40.4654,0.0],[27.6351,40.4668,26.0543],[27.6324,40.4721,12.2819],[27.641,40.4815,1.3898],[27.6435,40.4815,0.0],[27.6457,40.4854,1.3492],[27.6474,40.4851,0.0],[27.6501,40.4879,0.0],[27.6515,40.4932,0.0],[27.6496,40.4946,0.0],[27.6443,40.4935,12.3776],[27.6399,40.4993,0.0],[27.6318,40.4949,3.1114],[27.6238,40.4976,4.4981],[27.6218,40.5013,30.4151],[27.6238,40.5038,0.0],[27.6193,40.5043,25.4199],[27.6213,40.5107,2.5789]]],
[[[27.636,40.6674,15.5583],[27.6338,40.6682,12.0672],[27.6326,40.6657,27.3424],[27.6249,40.6651,14.1051],[27.6224,40.6593,48.3003],[27.6151,40.6615,0.0],[27.6165,40.6593,16.6323],[27.6118,40.6554,1.8248],[27.6074,40.6563,1.2853],[27.6079,40.6582,0.0],[27.6051,40.6585,20.2612],[27.604,40.6615,0.0],[27.599,40.6596,0.0],[27.599,40.6571,8.9677],[27.5938,40.6576,0.0],[27.589,40.6554,44.6062],[27.5718,40.6535,0.0],[27.5743,40.6518,8.3217],[27.5713,40.6507,2.4982],[27.571,40.646,4.9228],[27.5624,40.6432,35.8375],[27.5576,40.6426,7.0581],[27.5493,40.6446,14.1023],[27.5521,40.6476,38.772],[27.5565,40.649,0.0],[27.5565,40.6501,0.0],[27.5521,40.6499,45.573],[27.5537,40.6535,2.0409],[27.5513,40.6535,35.7782],[27.5496,40.6565,6.211],[27.5474,40.6557,0.0],[27.5488,40.6532,41.6386],[27.5462,40.6529,11.6348],[27.5413,40.6471,1.7559],[27.5326,40.6468,2.7917],[27.5318,40.6446,22.6284],[27.5263,40.6418,3.669],[27.5299,40.6396,15.4051],[27.5265,40.6351,41.3538],[27.5246,40.6349,0.0],[27.5276,40.6315,57.1097],[27.5246,40.6301,0.0],[27.5285,40.6288,81.3304],[27.531,40.626,1.3015],[27.5299,40.6229,12.0161],[27.5349,40.6201,4.4063],[27.5346,40.6135,12.8653],[27.5324,40.6107,0.0],[27.5335,40.6079,0.0],[27.5318,40.606,24.2051],[27.528199999999998,40.606,5.606],[27.5285,40.6035,0.0],[27.5307,40.6021,9.1456],[27.5293,40.5968,0.0],[27.534,40.5951,0.0],[27.5374,40.5957,29.3996],[27.5393,40.5938,3.7062],[27.5474,40.5918,0.0],[27.5524,40.584,1.4972],[27.5576,40.5854,0.0],[27.5599,40.5835,0.0],[27.5629,40.5835,0.6862],[27.5665,40.5812,0.0],[27.5688,40.5771,47.4367],[27.574,40.5754,0.0],[27.579,40.5779,6.4726],[27.5821,40.5765,1.5776],[27.5821,40.5799,16.2647],[27.5863,40.579,7.4747],[27.5882,40.581,7.5868],[27.5901,40.5796,3.8849],[27.5982,40.5799,1.2259],[27.6021,40.5768,0.0],[27.6054,40.5779,3.4983],[27.6071,40.5743,2.0762],[27.6087,40.5743,3.6141],[27.611,40.5782,4.6305],[27.6151,40.5788,11.0611],[27.6193,40.5765,0.0],[27.6229,40.5812,7.2624],[27.6321,40.579,8.1684],[27.6365,40.5846,17.0039],[27.641,40.5846,0.0],[27.6635,40.5915,0.0],[27.6663,40.5946,0.0],[27.6621,40.5965,26.5402],[27.6612,40.5996,1.3103],[27.6651,40.604,14.6253],[27.6665,40.6024,0.0],[27.6699,40.6049,0.0],[27.6793,40.6057,12.7797],[27.6835,40.6035,0.0],[27.6893,40.6074,3.1386],[27.6935,40.6074,3.293],[27.6965,40.6099,0.0],[27.7007,40.6096,0.0],[27.7046,40.6154,0.0],[27.7135,40.614,12.8791],[27.7213,40.619,14.8762],[27.7271,40.6193,0.0],[27.7274,40.6224,7.7778],[27.7324,40.6229,1.6353],[27.7326,40.6249,7.489],[27.7351,40.6263,23.5631],[27.7388,40.6263,2.0809],[27.7393,40.6296,16.3866],[27.744,40.6326,2.8292],[27.7424,40.6338,0.0],[27.7407,40.6321,2.489],[27.736,40.6318,44.9188],[27.7351,40.6349,19.95],[27.7379,40.6368,0.0],[27.7354,40.6382,0.0],[27.7357,40.6413,0.0],[27.7337,40.6418,26.5772],[27.7313,40.6396,26.7788],[27.7285,40.6421,0.0],[27.7232,40.6415,21.2067],[27.721,40.644,0.0],[27.7138,40.6454,47.639],[27.711,40.6499,0.0],[27.7062,40.6518,28.9031],[27.7032,40.6521,0.0],[27.7018,40.6499,5.961],[27.6924,40.654,0.0],[27.6882,40.6515,2.9458],[27.6887,40.649,1.1928],[27.6843,40.649,0.0],[27.6779,40.6529,0.0],[27.6738,40.6532,14.137],[27.6729,40.6554,1.4006],[27.6754,40.6574,1.8226],[27.6732,40.6615,23.748],[27.6685,40.6601,2.1868],[27.6712,40.6582,0.0],[27.6704,40.6554,2.3484],[27.6638,40.6565,0.0],[27.6615,40.654,0.5818],[27.6596,40.6549,0.0],[27.6621,40.6574,0.0],[27.6596,40.6582,0.0],[27.6604,40.6601,1.6895],[27.6588,40.6629,4.8015],[27.6518,40.6585,75.0705],[27.6465,40.6593,0.0],[27.6424,40.6568,46.4722],[27.6415,40.6579,2.7918],[27.644,40.6601,5.6505],[27.6435,40.6629,0.0],[27.636,40.6674,15.5583]]],
[[[27.7596,40.6324,2.5034],[27.7588,40.6335,2.5034],[27.7565,40.6318,0.0],[27.7588,40.6312,0.0],[27.7596,40.6324,2.5034]]],
[[[27.4857,40.6468,24.0059],[27.484,40.6471,0.0],[27.4832,40.6437,69.3267],[27.4807,40.6437,2.9833],[27.4796,40.6415,0.0],[27.4843,40.6374,9.7899],[27.4882,40.6365,0.0],[27.486,40.6421,58.6359],[27.4899,40.6443,13.7917],[27.4899,40.6463,18.4909],[27.4857,40.6468,24.0059]]],
[[[27.6799,40.6638,0.0],[27.6779,40.664,0.0],[27.6768,40.6585,0.0],[27.6793,40.6599,4.1999],[27.6799,40.6638,0.0]]]]}}