{"type": "Feature","bbox": [35.7412,40.843,36.19,40.9934],"geometry": {"type": "MultiPolygon","coordinates": [[[[36.061,40.8431,1565.5189],[36.1009,40.8564,1150.6733],[36.1278,40.8725,1099.8846],[36.1522,40.8828,1139.4974],[36.1763,40.9004,1107.8867],[36.1849,40.9094,1153.9766],[36.1885,40.9174,1124.2131],[36.19,40.9315,924.7088],[36.1895,40.9576,717.2919],[36.1762,40.9653,798.065],[36.1628,40.9687,860.9276],[36.0226,40.9701,1068.0101],[36.0107,40.9721,1084.6505],[35.989,40.979,965.1825],[35.9436,40.9825,891.9453],[35.9145,40.9904,914.5935],[35.8657,40.9934,766.7276],[35.842,40.993,758.1541],[35.8273,40.9892,751.8719],[35.8169,40.9798,805.2213],[35.8139,40.9647,907.5637],[35.8142,40.9371,858.6186],[35.8126,40.9316,875.0027],[35.8088,40.9269,889.6307],[35.7963,40.9232,951.5502],[35.7594,40.922,846.33],[35.7491,40.918,758.5765],[35.7439,40.9134,792.9026],[35.7412,40.9079,835.0676],[35.7412,40.9025,897.0641],[35.7435,40.8971,914.5265],[35.7604,40.8801,1032.5302],[35.8078,40.8657,916.7013],[35.8406,40.8643,1194.9658],[35.861,40.8653,1335.3593],[35.8726,40.8674,1528.3928],[35.8941,40.8746,1395.604],[35.906,40.8761,1508.1533],[35.9553,40.8756,1217.8955],[35.9851,40.8693,1390.0851],[36.0073,40.8562,1445.5701],[36.0373,40.8449,1859.9697],[36.0472,40.843,1619.381],[36.061,40.8431,1565.5189]]]]}
,"properties": {"GID_2": "TUR.67.8_1","GID_0": "TUR","country": "Turkey","GID_1": "TUR.67_1","province": "Samsun","NL_NAME_1": "NA","county": "Ladik","VARNAME_2": "NA","NL_NAME_2": "NA","TYPE_2": "District","ENGTYPE_2": "District","CC_2": "NA","HASC_2": "TR.SS.LA","name": "Ladik.county","area_km2": 418.3037,"hist_schema_id": "Elevation0-9000","hist_area_km2": {"700": 0.3523,"725": 1.2327,"750": 4.8343,"775": 8.997,"800": 10.5189,"825": 11.929,"850": 14.9564,"875": 50.35,"900": 42.8012,"925": 43.3643,"950": 36.6366,"975": 28.5795,"1000": 26.2092,"1025": 22.7017,"1050": 17.351,"1075": 14.3725,"1100": 12.0834,"1125": 10.6586,"1150": 8.4474,"1175": 7.3578,"1200": 6.5405,"1225": 5.146,"1250": 4.3286,"1275": 3.7033,"1300": 3.1423,"1325": 2.7736,"1350": 2.6775,"1375": 2.3408,"1400": 2.6775,"1425": 1.6675,"1450": 1.6034,"1475": 1.8919,"1500": 1.4911,"1525": 1.2506,"1550": 1.2346,"1575": 0.6093,"1600": 0.449,"1625": 0.3047,"1650": 0.2085,"1675": 0.1925,"1700": 0.0642,"1725": 0.0802,"1750": 0.0642,"1775": 0.0321,"1800": 0.0481,"1825": 0.0321,"1850": 0.016}}}