{"type": "Feature","bbox": [29.7076,38.8551,30.2608,39.1954],"geometry": {"type": "MultiPolygon","coordinates": [[[[30.2608,39.0795,1076.1371],[30.2246,39.0896,1050.0497],[30.2084,39.0993,1121.2092],[30.1961,39.1118,1115.0441],[30.1727,39.1496,1054.1396],[30.1542,39.1656,1078.1791],[30.1357,39.1779,1089.0433],[30.1063,39.189,1303.5179],[30.0947,39.1917,1131.1174],[30.0216,39.1954,1049.5194],[30.0134,39.1743,1004.5143],[30.0074,39.1661,1003.6824],[29.9973,39.1595,1009.7261],[29.9516,39.1429,1066.5706],[29.9281,39.127,1153.7939],[29.9125,39.1127,1215.9304],[29.8871,39.0728,1375.5051],[29.8584,39.049,1191.8158],[29.8348,39.0331,1431.5758],[29.7808,39.0119,1398.2119],[29.7076,38.9551,1729.905],[29.715,38.9292,2189.2148],[29.7244,38.9124,2128.4358],[29.7354,38.8819,1583.3671],[29.7389,38.8796,1536.6527],[29.7769,38.8685,1465.9501],[29.801,38.864,1413.8207],[29.8265,38.8563,1247.4445],[29.8627,38.8551,1119.5291],[29.8746,38.8678,1285.4235],[29.8969,38.9028,1559.7953],[29.9064,38.9098,1468.0522],[29.9165,38.9128,1524.1128],[29.9703,38.9142,1170.8693],[29.9811,38.9135,1140.8726],[29.9906,38.9109,1131.3887],[29.9951,38.9072,1136.7241],[29.9971,38.9026,1149.9148],[30.0001,38.8802,1324.7677],[30.0052,38.8745,1354.474],[30.0135,38.8717,1341.0068],[30.0256,38.8758,1186.7878],[30.0526,38.8959,1142.4019],[30.0666,38.9006,1146.0328],[30.1711,38.9026,1211.5684],[30.1815,38.9353,1278.8182],[30.2068,38.9777,1078.2058],[30.2209,38.9954,1051.26],[30.2339,39.0165,1036.8386],[30.2369,39.0242,1032.5724],[30.242,39.0517,1053.2773],[30.2608,39.0795,1076.1371]]]]}
,"properties": {"GID_2": "TUR.54.1_1","GID_0": "TUR","country": "Turkey","GID_1": "TUR.54_1","province": "Kütahya","NL_NAME_1": "NA","county": "Altıntaş","VARNAME_2": "NA","NL_NAME_2": "NA","TYPE_2": "District","ENGTYPE_2": "District","CC_2": "NA","HASC_2": "TR.KU.AL","name": "Altıntaş.county","area_km2": 1051.2912,"hist_schema_id": "Elevation0-9000","hist_area_km2": {"1000": 51.3477,"1025": 160.7953,"1050": 91.7085,"1075": 58.9778,"1100": 63.8829,"1125": 86.3319,"1150": 69.0123,"1175": 60.3566,"1200": 53.0577,"1225": 41.7981,"1250": 33.7871,"1275": 29.682,"1300": 27.0613,"1325": 24.3105,"1350": 20.9327,"1375": 18.2303,"1400": 16.3351,"1425": 16.17,"1450": 14.6221,"1475": 13.7312,"1500": 12.6292,"1525": 9.4646,"1550": 8.2949,"1575": 6.6959,"1600": 5.0638,"1625": 4.7344,"1650": 4.6521,"1675": 4.6025,"1700": 4.4048,"1725": 3.7614,"1750": 3.0851,"1775": 2.9695,"1800": 2.656,"1825": 2.7715,"1850": 2.392,"1875": 2.491,"1900": 2.062,"1925": 2.1444,"1950": 1.831,"1975": 1.3856,"2000": 1.1382,"2025": 1.3031,"2050": 1.2371,"2075": 1.1877,"2100": 1.4351,"2125": 1.666,"2150": 1.4845,"2175": 1.0392,"2200": 0.4949,"2225": 0.0825}}}