{"type": "Feature","bbox": [34.3632,38.1655,34.6225,38.4389],"geometry": {"type": "MultiPolygon","coordinates": [[[[34.3632,38.2909,1468.2955],[34.379,38.2689,1553.2184],[34.3945,38.2426,1647.8557],[34.3968,38.2247,1600.2988],[34.3951,38.1947,1536.7001],[34.4275,38.1786,1568.4968],[34.4613,38.1702,1541.9934],[34.4759,38.1747,1540.8242],[34.49,38.1753,1555.6293],[34.5003,38.1738,1565.5308],[34.521,38.1666,1606.3857],[34.535,38.1655,1820.3999],[34.5487,38.1678,1900.7001],[34.5754,38.1782,1812.8969],[34.5891,38.1891,1723.2324],[34.6176,38.2331,1392.3433],[34.6219,38.2472,1376.3188],[34.6225,38.2594,1382.9663],[34.62,38.2774,1391.2323],[34.5964,38.3147,1348.2601],[34.5932,38.3226,1326.2698],[34.5917,38.3374,1303.1838],[34.592,38.386,1357.9437],[34.5665,38.3836,1399.5928],[34.5393,38.3757,1294.2219],[34.5278,38.3761,1306.8118],[34.5238,38.3778,1307.9347],[34.5221,38.3808,1302.3735],[34.4881,38.3882,1290.0717],[34.458,38.3997,1285.104],[34.4464,38.4063,1263.6572],[34.4168,38.4278,1206.9678],[34.3944,38.4389,1202.5884],[34.384,38.4172,1190.2339],[34.3791,38.3902,1182.3149],[34.3683,38.3677,1181.0166],[34.3666,38.3523,1212.6969],[34.366,38.3081,1448.3088],[34.3632,38.2909,1468.2955]]]]}
,"properties": {"GID_2": "TUR.62.4_1","GID_0": "TUR","country": "Turkey","GID_1": "TUR.62_1","province": "Nigde","NL_NAME_1": "NA","county": "Çiftlik","VARNAME_2": "NA","NL_NAME_2": "NA","TYPE_2": "District","ENGTYPE_2": "District","CC_2": "NA","HASC_2": "TR.NG.CI","name": "Çiftlik.county","area_km2": 482.738,"hist_schema_id": "Elevation0-9000","hist_area_km2": {"1175": 3.0414,"1200": 20.5711,"1225": 13.296,"1250": 8.4266,"1275": 7.1972,"1300": 26.7983,"1325": 18.7717,"1350": 16.6284,"1375": 16.5477,"1400": 19.1641,"1425": 14.2409,"1450": 11.7125,"1475": 10.6985,"1500": 10.4173,"1525": 24.8983,"1550": 30.0633,"1575": 22.2635,"1600": 16.8658,"1625": 16.4323,"1650": 14.2011,"1675": 15.8654,"1700": 14.3837,"1725": 16.7642,"1750": 18.0459,"1775": 19.6268,"1800": 16.4314,"1825": 10.8052,"1850": 7.0102,"1875": 6.5611,"1900": 7.3442,"1925": 6.1286,"1950": 5.4456,"1975": 4.0472,"2000": 3.2981,"2025": 3.0814,"2050": 2.2152,"2075": 1.5158,"2100": 1.0659,"2125": 0.4997,"2150": 0.3165,"2175": 0.0333,"2200": 0.0167}}}