{"type":"Feature","properties":{"GID_2":"TUR.25.18_1","GID_0":"TUR","country":"Turkey","GID_1":"TUR.25_1","province":"Denizli","NL_NAME_1":"NA","county":"Serinhisar","VARNAME_2":"NA","NL_NAME_2":"NA","TYPE_2":"District","ENGTYPE_2":"District","CC_2":"NA","HASC_2":"TR.DN.SE","name":"Serinhisar.county"},
"geometry":{"type": "MultiPolygon","coordinates": [[[[29.3494,37.6331,1500.0817],[29.3106,37.6226,1328.0493],[29.2341,37.6197,1178.3502],[29.2251,37.6165,1239.812],[29.2128,37.6093,1199.7679],[29.2143,37.5813,1672.8201],[29.2139,37.5451,1635.9133],[29.2116,37.5325,1625.3081],[29.2026,37.5157,1711.3639],[29.2,37.507,1470.2361],[29.1989,37.4916,1376.6493],[29.2002,37.4698,1313.5583],[29.2358,37.4714,1366.4033],[29.2639,37.4798,1087.2324],[29.2878,37.4842,944.6813],[29.3213,37.4967,871.4343],[29.3329,37.504,863.2493],[29.3429,37.5126,865.114],[29.3614,37.5409,898.6219],[29.3647,37.5583,933.3434],[29.3647,37.5885,1126.1511],[29.363,37.6033,1320.7081],[29.353,37.6227,1563.313],[29.3494,37.6331,1500.0817]]]]}}