{"type":"Feature","properties":{"GID_1":"TUR.19_1","GID_0":"TUR","country":"Turkey","province":"Bolu","VARNAME_1":"NA","NL_NAME_1":"NA","TYPE_1":"Il","ENGTYPE_1":"Province","CC_1":"NA","HASC_1":"TR.BL","ISO_1":"TR-14","name":"Bolu.province"},
"geometry":{"type": "MultiPolygon","coordinates": [[[[31.0385,40.3847,1344.7019],[31.0418,40.3925,1153.2946],[31.0607,40.4158,1008.1071],[31.0929,40.4125,1284.7021],[31.1141,40.4054,1217.9011],[31.1443,40.3991,1088.7371],[31.1716,40.389,1088.5166],[31.2013,40.3769,1246.9624],[31.2306,40.3596,960.8792],[31.2639,40.3468,1201.2883],[31.3027,40.3421,1072.7615],[31.3311,40.3338,933.9013],[31.4005,40.3318,891.6643],[31.4114,40.3299,864.0104],[31.4326,40.3229,927.7862],[31.4939,40.3196,901.3046],[31.5267,40.3103,807.0597],[31.5669,40.3086,799.5366],[31.6028,40.3109,850.546],[31.6099,40.3132,922.7393],[31.6396,40.3293,625.9376],[31.671,40.3345,684.0494],[31.6862,40.3384,821.1124],[31.6947,40.3426,656.21],[31.7051,40.3439,635.186],[31.7375,40.3429,965.5416],[31.7642,40.3343,1270.6346],[31.7936,40.3318,1224.1511],[31.8283,40.3339,1280.4663],[31.857,40.3425,1317.0227],[31.9034,40.3456,1474.5505],[31.9249,40.3527,1434.0472],[31.952,40.358,1601.506],[31.9698,40.3644,1733.6274],[31.9938,40.3688,1674.1049],[32.0149,40.3759,1588.6992],[32.0422,40.3812,1613.8097],[32.1023,40.4043,1749.3516],[32.1257,40.4181,1743.6008],[32.1352,40.4224,1643.761],[32.1456,40.4247,1692.6709],[32.1669,40.4269,1564.9067],[32.2463,40.425,1123.2],[32.2607,40.4238,1251.5183],[32.2852,40.416,1173.3284],[32.2999,40.4137,1199.8179],[32.3542,40.4129,993.0601],[32.3728,40.4155,963.5],[32.388,40.4238,1003.0224],[32.3978,40.4325,1036.6208],[32.4093,40.4495,1142.7161],[32.4293,40.47,1206.9922],[32.4392,40.4845,1203.2234],[32.4618,40.5072,1365.0707],[32.4759,40.5302,1258.356],[32.4759,40.5407,1301.6796],[32.4672,40.5567,1405.5841],[32.4624,40.5726,1613.2861],[32.4529,40.5889,1659.4197],[32.4461,40.61,1514.4301],[32.4366,40.6264,1522.0098],[32.4304,40.6518,1455.7583],[32.4449,40.6655,1437.9277],[32.4746,40.6888,1506.8667],[32.4903,40.6994,1444.0835],[32.5013,40.7043,1498.0011],[32.5168,40.7217,1678.0499],[32.5214,40.7286,1740.3396],[32.5241,40.7374,1714.8434],[32.527,40.7675,1617.8177],[32.5389,40.792,1477.3274],[32.5401,40.8088,1393.0214],[32.5391,40.8144,1321.0825],[32.5322,40.8265,1204.4514],[32.5193,40.8392,1248.0756],[32.5157,40.8492,1291.6348],[32.508,40.8623,1288.6523],[32.5011,40.8672,1317.5642],[32.4757,40.8776,1421.8682],[32.457,40.8814,1421.4749],[32.4429,40.8883,1198.5813],[32.4123,40.8929,1338.4856],[32.3983,40.8998,1345.0085],[32.3765,40.9047,1422.3513],[32.3465,40.9163,1723.4271],[32.3136,40.9346,1245.046],[32.282,40.9411,873.9999],[32.2849,40.9635,985.2354],[32.2852,41.0083,1150.7167],[32.252,41.007,1023.0371],[32.2087,41.0079,1574.6415],[32.1929,41.0111,1443.3834],[32.1787,41.016,1225.0984],[32.1538,41.0189,1106.7495],[31.9122,41.0195,374.2953],[31.8962,41.0218,339.5529],[31.8707,41.0293,235.3134],[31.8138,41.0321,696.7127],[31.7766,41.0416,718.8158],[31.7363,41.0427,1318.2341],[31.7538,41.0229,1070.9558],[31.7579,41.0156,829.4551],[31.7599,41.0016,748.5728],[31.7579,40.9877,557.3636],[31.7486,40.9712,710.5712],[31.7436,40.9557,869.3159],[31.7395,40.9485,1132.2893],[31.7306,40.9412,1228.2764],[31.7081,40.9307,1284.2596],[31.6909,40.9147,1436.1898],[31.6382,40.893,1294.9377],[31.6042,40.8813,1035.7388],[31.5579,40.8781,1096.0273],[31.5327,40.8706,1224.3232],[31.5175,40.8683,1236.9301],[31.4935,40.8682,1040.2507],[31.4693,40.871,956.4073],[31.4562,40.8456,1026.7439],[31.4466,40.8322,1092.8102],[31.4315,40.8051,1054.5359],[31.429,40.785,1066.1125],[31.4293,40.7156,939.8751],[31.4271,40.7013,944.3685],[31.4238,40.6966,1007.9469],[31.4192,40.6934,1066.5974],[31.3789,40.6763,1324.8154],[31.3609,40.6615,1352.0355],[31.3166,40.6572,1440.9995],[31.2884,40.6483,1486.7231],[31.2649,40.6468,1469.0271],[31.2461,40.6507,1527.8053],[31.2086,40.6765,1296.1447],[31.1908,40.6818,1201.0369],[31.1556,40.6816,1101.1079],[31.12,40.6717,1513.7502],[31.0649,40.6693,1367.0544],[31.0266,40.6595,1474.8293],[31.0159,40.6598,1483.7493],[31.006,40.662,1459.9473],[30.9546,40.6823,1077.0851],[30.9497,40.6698,1283.5972],[30.948,40.657,1393.8937],[30.9484,40.5886,576.1646],[30.9468,40.5728,541.0498],[30.9428,40.5641,774.5778],[30.9256,40.5485,1296.1091],[30.9108,40.5386,1503.2986],[30.8996,40.5376,1451.5432],[30.8293,40.5199,1243.2632],[30.6762,40.5183,1318.1909],[30.6426,40.492,1256.1235],[30.6366,40.4857,1253.2709],[30.6255,40.4694,964.9384],[30.5997,40.4484,600.7831],[30.5944,40.4425,586.7196],[30.593,40.4379,562.1165],[30.5976,40.4293,605.532],[30.6368,40.3993,632.6963],[30.6444,40.3905,565.569],[30.6474,40.3803,548.5591],[30.6477,40.3725,627.8314],[30.6455,40.3596,693.2536],[30.6393,40.3504,650.8608],[30.6238,40.3352,831.1445],[30.6362,40.3085,838.0256],[30.6796,40.2409,873.6063],[30.702,40.2181,962.619],[30.7174,40.1947,949.4723],[30.7268,40.1719,1156.4028],[30.7468,40.1682,1173.0232],[30.7717,40.1603,1409.8341],[30.8217,40.1565,563.0179],[30.874,40.1403,524.0443],[30.888,40.1665,774.6908],[30.8934,40.1739,1055.4534],[30.955,40.2229,767.7031],[30.9751,40.2362,797.4348],[31.0276,40.256,806.7806],[31.0389,40.2635,926.9082],[31.0475,40.2726,991.9026],[31.0497,40.2778,973.0311],[31.0497,40.2832,953.0871],[31.0399,40.3015,1193.5581],[31.0377,40.3125,1348.6707],[31.0369,40.3648,1327.2579],[31.0385,40.3847,1344.7019]]]]}}