{"type": "Feature","id": "2268","bbox": [30.59496,40.1428,32.52952,41.0418],"geometry": {"type": "Polygon","coordinates": [[[32.14936,41.01923,1044.9667],[31.93472,41.02411,625.2578],[31.87219,41.03649,225.729],[31.79911,41.0418,680.6337],[31.78192,40.95496,1065.8346],[31.73343,40.91051,1424.7189],[31.64049,40.89434,1158.4377],[31.51118,40.87818,1120.4801],[31.46269,40.84989,913.2847],[31.45865,40.79736,1121.1907],[31.42228,40.72463,875.1211],[31.3455,40.68018,1234.1643],[31.24852,40.67209,1325.8667],[31.13537,40.70846,1312.8127],[30.97374,40.70442,962.1954],[30.89117,40.72679,1000.0875],[30.82781,40.68896,606.2697],[30.8305,40.6569,1364.0629],[30.83732,40.62548,1429.026],[30.82523,40.59579,549.0872],[30.76074,40.5721,401.7396],[30.69077,40.57437,407.7367],[30.65005,40.52833,1278.3533],[30.62245,40.46616,850.9829],[30.60685,40.45882,748.1752],[30.59496,40.44888,625.4373],[30.60106,40.42286,549.5439],[30.62162,40.40299,591.8673],[30.64478,40.36725,777.9637],[30.62597,40.33149,883.0658],[30.64002,40.28723,948.7594],[30.7011,40.20395,1012.8599],[30.73862,40.16781,1225.1699],[30.79877,40.15093,730.7916],[30.86357,40.1428,600.9506],[30.92538,40.20574,825.1013],[31.00723,40.2416,745.7701],[31.03824,40.29217,1089.6782],[31.03411,40.35242,1338.5314],[31.04392,40.38989,1262.8486],[31.06925,40.41133,1123.2721],[31.16299,40.38694,1100.709],[31.25094,40.34596,1091.2899],[31.41972,40.35966,1017.0937],[31.45238,40.33201,934.2289],[31.47501,40.3241,899.9075],[31.50446,40.32105,905.9066],[31.53557,40.31162,791.2429],[31.56792,40.3085,799.5366],[31.65774,40.33614,749.7592],[31.69649,40.33999,683.9099],[31.82145,40.33842,1144.0452],[31.90609,40.35335,1459.7759],[31.97513,40.3771,1550.4105],[32.09306,40.39888,1685.6018],[32.13492,40.42102,1674.9475],[32.17678,40.43128,1537.1288],[32.31537,40.41518,1086.7399],[32.39609,40.44828,1155.0421],[32.42389,40.48559,1137.1995],[32.45945,40.5159,1371.6322],[32.47671,40.53897,1281.8848],[32.43898,40.61899,1574.8029],[32.4427,40.67302,1481.3601],[32.47133,40.69392,1521.2476],[32.50709,40.70516,1540.7142],[32.52249,40.75989,1662.0248],[32.52456,40.7762,1432.4532],[32.52616,40.78875,1393.0684],[32.52952,40.81516,1268.5328],[32.49221,40.86779,1392.585],[32.37687,40.91058,1455.8333],[32.33025,40.9328,1318.7933],[32.30266,40.9367,1058.6974],[32.27827,40.94856,907.4736],[32.27858,40.97616,1426.6833],[32.28395,41.00385,1230.3767],[32.19827,41.01812,1390.426],[32.14936,41.01923,1044.9667]]]}
,"properties": {"ISO3166-1-Alpha-3": "TUR","country": "Turkey","fill": "#00F","name": "Bolu","area_km2": 8565.031,"hist_schema_id": "Elevation0-9000","hist_area_km2": {"200": 0.113,"225": 2.005,"250": 4.466,"275": 5.509,"300": 5.891,"325": 6.677,"350": 7.673,"375": 8.218,"400": 11.519,"425": 11.058,"450": 13.458,"475": 14.969,"500": 17.211,"525": 23.311,"550": 30.02,"575": 37.212,"600": 46.096,"625": 56.401,"650": 65.428,"675": 78.773,"700": 124.969,"725": 154.212,"750": 150.358,"775": 155.386,"800": 163.125,"825": 168.035,"850": 164.661,"875": 167.889,"900": 168.557,"925": 172.015,"950": 174.485,"975": 174.298,"1000": 195.597,"1025": 189.94,"1050": 194.51,"1075": 198.178,"1100": 206.102,"1125": 214.23,"1150": 259.357,"1175": 308.634,"1200": 258.833,"1225": 247.996,"1250": 238.408,"1275": 228.266,"1300": 211.734,"1325": 221.476,"1350": 215.249,"1375": 211.066,"1400": 202.401,"1425": 196.73,"1450": 206.645,"1475": 198.597,"1500": 192.417,"1525": 188.4,"1550": 182.475,"1575": 172.946,"1600": 159.152,"1625": 133.443,"1650": 111.735,"1675": 100.439,"1700": 86.818,"1725": 73.896,"1750": 62.273,"1775": 53.292,"1800": 45.331,"1825": 33.845,"1850": 28.578,"1875": 23.924,"1900": 20.14,"1925": 16.501,"1950": 14.631,"1975": 12.246,"2000": 11.634,"2025": 10.265,"2050": 8.895,"2075": 7.525,"2100": 6.349,"2125": 5.414,"2150": 5.156,"2175": 3.658,"2200": 2.401,"2225": 1.209,"2250": 1.16,"2275": 0.5,"2300": 0.161,"2325": 0.081,"2350": 0.161}}}