{"type": "Feature","bbox": [26.7413,41.6798,26.9889,41.9186],"geometry": {"type": "MultiPolygon","coordinates": [[[[26.9096,41.6798,140.0318],[26.9235,41.6906,146.3783],[26.9384,41.7103,126.3747],[26.9536,41.7368,145.1071],[26.9576,41.784,179.121],[26.9674,41.8038,230.9809],[26.9699,41.8126,240.8326],[26.9721,41.8627,268.5202],[26.9745,41.8715,278.5665],[26.9837,41.8883,357.1749],[26.9889,41.9179,294.89],[26.9691,41.9186,274.6695],[26.9573,41.9168,342.0761],[26.9276,41.8996,281.6709],[26.9065,41.8911,355.4171],[26.8307,41.8342,254.7335],[26.8196,41.8283,222.2981],[26.8041,41.8227,223.0009],[26.7908,41.8145,199.0182],[26.7611,41.7915,153.8774],[26.7413,41.774,153.3688],[26.7775,41.768,151.3529],[26.7857,41.7643,137.3867],[26.7893,41.7595,138.5378],[26.7909,41.7509,161.6984],[26.7898,41.7416,149.0663],[26.785,41.728,137.879],[26.814,41.7223,135.5707],[26.8645,41.7215,158.3392],[26.882,41.7177,145.5867],[26.8934,41.7086,123.8738],[26.9096,41.6798,140.0318]]]]}
,"properties": {"GID_2": "TUR.28.8_1","GID_0": "TUR","country": "Turkey","GID_1": "TUR.28_1","province": "Edirne","NL_NAME_1": "NA","county": "Süleoğlu","VARNAME_2": "NA","NL_NAME_2": "NA","TYPE_2": "District","ENGTYPE_2": "District","CC_2": "NA","HASC_2": "TR.ED.SU","name": "Süleoğlu.county","area_km2": 265.022,"hist_schema_id": "Elevation0-9000","hist_area_km2": {"125": 8.4024,"150": 48.0782,"175": 53.579,"200": 47.013,"225": 26.4359,"250": 27.8492,"275": 23.3085,"300": 14.4287,"325": 10.0392,"350": 4.4198,"375": 1.4681}}}