{"type": "Feature","bbox": [42.5383,40.2587,42.9994,40.7135],"geometry": {"type": "MultiPolygon","coordinates": [[[[42.5481,40.6407,2192.9133],[42.5679,40.6143,2650.335],[42.5705,40.6054,2719.8169],[42.5709,40.5963,2747.3889],[42.5689,40.5842,2694.6162],[42.5598,40.5676,2546.3716],[42.5571,40.5584,2709.2737],[42.5542,40.5061,2085.3188],[42.5433,40.4834,2428.0093],[42.5383,40.4642,2343.4958],[42.6041,40.4633,1975.9907],[42.6145,40.4615,1970.282],[42.6356,40.4542,2042.9294],[42.6595,40.4499,2030.1055],[42.6927,40.4371,2032.3927],[42.7285,40.4128,1927.9246],[42.7494,40.4037,1909.7351],[42.7592,40.397,1930.626],[42.7639,40.39,1939.5021],[42.7687,40.3629,2120.2419],[42.7743,40.3474,2341.1895],[42.7633,40.3249,2614.145],[42.7406,40.2931,2830.5432],[42.7357,40.2831,2525.8718],[42.7352,40.2723,2708.7354],[42.737,40.2671,2679.6453],[42.7453,40.2599,2457.1375],[42.7543,40.2587,2378.0544],[42.7968,40.2749,2286.5718],[42.8278,40.2802,2119.1042],[42.9386,40.3639,1965.8197],[42.9745,40.3727,2075.0713],[42.991,40.3821,2132.4932],[42.976,40.3938,1945.2312],[42.9762,40.4127,1870.2823],[42.9786,40.4248,1866.0554],[42.9835,40.4325,1867.2245],[42.9976,40.4473,1850.2158],[42.9994,40.4521,1852.4332],[42.9978,40.4587,1853.0332],[42.9904,40.4721,1783.145],[42.9664,40.4973,1778.6411],[42.9559,40.514,1784.453],[42.942,40.5298,1803.819],[42.9291,40.5331,1828.5267],[42.9028,40.5337,1868.9424],[42.885,40.5372,1854.8597],[42.8752,40.544,1909.717],[42.8602,40.5669,1991.7654],[42.8567,40.5783,2033.5029],[42.8566,40.651,2253.6807],[42.8551,40.6665,2446.1914],[42.8437,40.6885,2586.8318],[42.836,40.7135,2738.5305],[42.7951,40.6992,2603.5693],[42.7679,40.6939,2790.125],[42.75,40.6877,2616.5896],[42.7046,40.6815,2541.6348],[42.6476,40.6594,2567.2385],[42.6213,40.6439,2703.7952],[42.6112,40.6401,2672.1006],[42.5836,40.6382,2591.0376],[42.5481,40.6407,2192.9133]]]]}
,"properties": {"GID_2": "TUR.45.7_1","GID_0": "TUR","country": "Turkey","GID_1": "TUR.45_1","province": "Kars","NL_NAME_1": "NA","county": "Selim","VARNAME_2": "NA","NL_NAME_2": "NA","TYPE_2": "District","ENGTYPE_2": "District","CC_2": "NA","HASC_2": "TR.KA.SE","name": "Selim.county","area_km2": 1025.3979,"hist_schema_id": "Elevation0-9000","hist_area_km2": {"1775": 11.8857,"1800": 21.6092,"1825": 51.7824,"1850": 70.3426,"1875": 82.409,"1900": 74.0409,"1925": 58.0666,"1950": 62.2106,"1975": 45.9681,"2000": 41.6842,"2025": 47.7817,"2050": 40.4758,"2075": 37.5334,"2100": 32.8426,"2125": 27.1233,"2150": 22.5623,"2175": 20.867,"2200": 20.4958,"2225": 17.7093,"2250": 14.6325,"2275": 12.7644,"2300": 11.1853,"2325": 11.6676,"2350": 10.5718,"2375": 9.9275,"2400": 9.5087,"2425": 8.7023,"2450": 8.4911,"2475": 7.8306,"2500": 7.4272,"2525": 7.2022,"2550": 6.8304,"2575": 7.2151,"2600": 7.0849,"2625": 7.6956,"2650": 8.9009,"2675": 9.6711,"2700": 11.6002,"2725": 12.5332,"2750": 8.9945,"2775": 8.7377,"2800": 6.7586,"2825": 6.3883,"2850": 4.4408,"2875": 3.5394,"2900": 2.2524,"2925": 2.1397,"2950": 1.1099,"2975": 1.1903,"3000": 0.8364,"3025": 0.1769}}}