{"type":"Feature","properties":{"GID_2":"TUR.40.15_1","GID_0":"TUR","country":"Turkey","GID_1":"TUR.40_1","province":"Istanbul","NL_NAME_1":"NA","county":"Çatalca","VARNAME_2":"NA","NL_NAME_2":"NA","TYPE_2":"District","ENGTYPE_2":"District","CC_2":"NA","HASC_2":"TR.IB.CA","name":"Çatalca.county"},
"geometry":{"type": "MultiPolygon","coordinates": [[[[28.5456,41.3885,6.8644],[28.5151,41.3985,32.4224],[28.4615,41.4212,8.2661],[28.4543,41.4226,19.8151],[28.409,41.4393,41.2885],[28.4076,41.441,5.0882],[28.4007,41.4426,18.4458],[28.3868,41.4496,1.9283],[28.3838,41.4493,13.5247],[28.3826,41.451,13.524],[28.3493,41.4643,19.4856],[28.344,41.4679,0.0],[28.3332,41.4718,14.7466],[28.3332,41.4732,0.0],[28.331,41.4726,0.0],[28.3051,41.4826,4.0369],[28.3007,41.4857,0.0],[28.2868,41.4899,5.6753],[28.2787,41.4951,2.9418],[28.2729,41.4957,11.4871],[28.2687,41.4999,7.2686],[28.2618,41.5021,36.7897],[28.2604,41.5071,0.0],[28.2557,41.5079,19.5395],[28.2515,41.5112,10.266],[28.2476,41.5107,22.6246],[28.2485,41.5135,0.069],[28.2474,41.5146,2.854],[28.2399,41.5157,12.3599],[28.2362,41.519,0.0],[28.2329,41.5193,15.6407],[28.2315,41.524,0.0],[28.2251,41.5249,4.6059],[28.2235,41.5226,10.5363],[28.2193,41.5232,4.0274],[28.2165,41.5274,19.38],[28.2215,41.5296,0.557],[28.2154,41.5321,1.5079],[28.2085,41.5385,41.564],[28.2054,41.539,21.172],[28.199,41.5454,47.3661],[28.1993,41.5482,13.4589],[28.1879,41.5446,109.5857],[28.1829,41.542,154.0784],[28.1779,41.5365,101.784],[28.1779,41.5316,42.5416],[28.1808,41.5277,84.9746],[28.2084,41.5158,148.3856],[28.2317,41.4991,147.327],[28.2225,41.489,181.3308],[28.2204,41.4846,170.4553],[28.2148,41.4473,309.7252],[28.205,41.4282,321.0357],[28.2025,41.4194,307.2916],[28.2012,41.3754,202.8446],[28.1991,41.3633,229.7013],[28.1888,41.344,203.2053],[28.1828,41.3256,194.5112],[28.1747,41.3117,191.2099],[28.1687,41.2819,220.3956],[28.1596,41.2652,213.506],[28.1517,41.2435,233.263],[28.1977,41.2444,205.0489],[28.2057,41.2461,190.0538],[28.2272,41.2667,214.2655],[28.2227,41.2721,181.7111],[28.2227,41.2829,195.8892],[28.2263,41.2891,170.72],[28.2272,41.2954,168.2601],[28.2317,41.3008,190.418],[28.2585,41.3008,185.8521],[28.2872,41.2927,219.168],[28.2988,41.2918,206.3975],[28.3293,41.2927,236.2899],[28.34,41.2963,257.7087],[28.3454,41.3035,272.7988],[28.357,41.3035,230.6346],[28.3642,41.2963,269.9149],[28.3642,41.2927,279.3585],[28.3508,41.2864,261.1015],[28.3472,41.2829,223.1474],[28.3463,41.2703,181.5636],[28.3499,41.2667,147.2307],[28.3893,41.2641,214.2359],[28.3893,41.2578,137.2931],[28.3758,41.2417,148.1922],[28.3705,41.2327,106.8251],[28.3731,41.2229,81.2204],[28.3848,41.2041,45.126],[28.4045,41.2041,90.4588],[28.409,41.2005,85.7597],[28.409,41.1942,70.7024],[28.4134,41.1879,34.3488],[28.4179,41.1826,78.9853],[28.4261,41.1769,79.2069],[28.4247,41.1601,163.5836],[28.4207,41.1554,263.2137],[28.4194,41.1466,230.0135],[28.4227,41.1399,268.6566],[28.4308,41.1366,208.4522],[28.4341,41.1272,144.2025],[28.4348,41.107,138.6903],[28.4321,41.0929,108.7389],[28.4313,41.068,203.8763],[28.4436,41.0701,178.8004],[28.4503,41.0661,187.2713],[28.463,41.0661,147.4568],[28.4758,41.062,85.9466],[28.4838,41.062,90.7397],[28.4959,41.0573,45.7746],[28.5107,41.0607,76.4995],[28.5114,41.0734,25.7955],[28.5147,41.0815,23.6807],[28.5127,41.0875,31.813],[28.5127,41.0963,52.3904],[28.5147,41.099,49.8477],[28.5221,41.0996,3.5468],[28.5248,41.1057,3.5067],[28.5295,41.105,4.9619],[28.5389,41.0902,4.0],[28.5443,41.0882,4.0],[28.549,41.0916,4.0],[28.5671,41.0929,40.3282],[28.5658,41.0983,30.2968],[28.5732,41.1077,40.3475],[28.5732,41.1205,31.1838],[28.5698,41.1258,14.9818],[28.5691,41.1446,96.5362],[28.5711,41.1513,91.9217],[28.5691,41.156,87.3913],[28.5644,41.1607,65.5354],[28.5644,41.1742,36.1707],[28.5799,41.1903,107.6369],[28.5886,41.193,115.7691],[28.594,41.1916,144.8951],[28.6041,41.1957,127.9572],[28.6101,41.2004,167.0102],[28.6135,41.2004,167.6104],[28.6168,41.2138,99.7377],[28.6155,41.2219,82.7112],[28.6108,41.2272,118.6656],[28.5933,41.2286,157.6783],[28.5879,41.2346,184.872],[28.5873,41.2386,183.3835],[28.5873,41.2454,185.6084],[28.594,41.2501,176.6059],[28.5973,41.2608,154.4925],[28.5973,41.2682,108.4613],[28.6034,41.2789,48.6761],[28.6034,41.2924,52.6394],[28.6074,41.2944,24.9336],[28.6121,41.3038,15.1931],[28.6121,41.3118,79.8814],[28.6094,41.3186,35.3434],[28.602,41.3246,22.6507],[28.5839,41.3253,50.47],[28.5772,41.328,46.1291],[28.5711,41.3354,1.5],[28.545,41.3427,67.47],[28.5423,41.3495,39.3093],[28.5423,41.3555,55.9826],[28.5456,41.3885,6.8644]]]]}}