{"type":"Feature","properties":{"GID_2":"TUR.26.2_1","GID_0":"TUR","country":"Turkey","GID_1":"TUR.26_1","province":"Diyarbakir","NL_NAME_1":"NA","county":"Çermik","VARNAME_2":"NA","NL_NAME_2":"NA","TYPE_2":"District","ENGTYPE_2":"District","CC_2":"NA","HASC_2":"TR.DY.CE","name":"Çermik.county"},
"geometry":{"type": "MultiPolygon","coordinates": [[[[39.1787,38.0307,537.0],[39.2152,38.0192,1094.542],[39.2413,38.0036,959.2063],[39.2548,37.9992,958.526],[39.2772,37.9979,928.4957],[39.3886,37.9984,825.982],[39.4136,37.995,759.7545],[39.4497,37.9797,993.0207],[39.5209,37.9255,1081.606],[39.5297,37.9203,1174.2228],[39.5509,37.9116,1253.5343],[39.5799,37.8919,1086.4144],[39.5895,37.9055,1133.0348],[39.5998,37.926,1115.2012],[39.5998,37.9304,1108.9742],[39.594,37.9438,1077.0073],[39.5918,37.9554,1022.125],[39.5911,37.9765,918.8967],[39.5928,37.9876,793.3196],[39.5954,37.9923,760.2485],[39.5996,37.9956,778.3043],[39.6165,38.0017,785.5599],[39.6202,38.0081,794.7896],[39.6196,38.018,801.9355],[39.6118,38.031,808.181],[39.6096,38.0385,808.9646],[39.6105,38.0438,789.9767],[39.6153,38.0514,804.1499],[39.6283,38.0615,804.3712],[39.6418,38.0668,798.5284],[39.6615,38.0683,788.8336],[39.728,38.0671,783.8213],[39.737,38.0704,776.574],[39.7397,38.0776,774.8958],[39.7359,38.0841,775.8064],[39.7291,38.0887,783.7728],[39.7111,38.0954,787.6826],[39.684,38.1106,814.4883],[39.6623,38.1186,813.088],[39.642,38.1294,821.7047],[39.6377,38.1394,870.8143],[39.6362,38.1656,903.8282],[39.6306,38.1757,959.8558],[39.6208,38.1825,862.3002],[39.5759,38.1989,814.9639],[39.5691,38.2042,836.2638],[39.5661,38.2086,867.5126],[39.5659,38.2189,954.2642],[39.5738,38.2319,900.8331],[39.5765,38.2425,921.1793],[39.5758,38.2508,805.9909],[39.5708,38.2604,832.826],[39.5583,38.2742,1014.3866],[39.5496,38.2772,1067.9977],[39.5349,38.2794,912.2062],[39.5073,38.2765,991.2782],[39.501,38.2742,1055.7191],[39.4937,38.269,1212.0767],[39.4883,38.2593,1073.7854],[39.4865,38.2403,836.1575],[39.484,38.2324,799.0872],[39.4785,38.226,801.9327],[39.4709,38.2211,867.7788],[39.4108,38.1986,918.3005],[39.3868,38.1944,932.5072],[39.3656,38.1873,973.3534],[39.3384,38.1819,1116.9247],[39.3265,38.1759,1256.9028],[39.2937,38.1533,1377.4547],[39.2432,38.1321,750.6056],[39.2412,38.1246,551.7779],[39.234,38.1111,537.0],[39.2296,38.0835,537.0],[39.2157,38.0598,806.8064],[39.2026,38.0459,591.2324],[39.1787,38.0307,537.0]]]]}}