{"type":"Feature","properties":{"GID_1":"TUR.48_1","GID_0":"TUR","country":"Turkey","province":"Kilis","VARNAME_1":"NA","NL_NAME_1":"NA","TYPE_1":"Il","ENGTYPE_1":"Province","CC_1":"NA","HASC_1":"TR.KI","ISO_1":"TR-79","name":"Kilis.province"},
"geometry":{"type": "MultiPolygon","coordinates": [[[[37.3903,36.651,492.9575],[37.4272,36.6458,494.2836],[37.4611,36.6381,516.1509],[37.4725,36.638,508.1522],[37.485,36.6411,513.2072],[37.502,36.6493,558.295],[37.5085,36.6554,572.6447],[37.4964,36.6854,525.4303],[37.4764,36.7059,545.9246],[37.4611,36.7293,567.1162],[37.4536,36.753,597.1227],[37.4357,36.7814,744.529],[37.423,36.7921,678.4797],[37.4105,36.7983,644.4684],[37.4,36.8002,619.7527],[37.3817,36.8006,608.8378],[37.3817,36.8122,640.7996],[37.3681,36.8148,652.7257],[37.3378,36.8259,698.53],[37.3033,36.8415,739.0106],[37.2777,36.8491,731.6671],[37.248,36.8607,740.119],[37.2404,36.8655,766.6113],[37.2347,36.8718,789.8344],[37.2279,36.8926,788.1956],[37.2191,36.9091,794.5676],[37.2136,36.9394,886.3336],[37.1981,36.9652,891.7976],[37.179,36.9906,972.5259],[37.1704,36.9965,885.947],[37.1446,37.0069,952.2366],[37.137,37.0089,875.0023],[37.1126,37.0106,832.4665],[37.0133,37.0105,721.6422],[36.9723,36.9938,976.1399],[36.9617,36.9872,965.4568],[36.9584,36.9766,988.8557],[36.949,36.9602,946.6566],[36.9454,36.9469,827.9778],[36.9416,36.9392,763.7072],[36.9217,36.9186,891.3611],[36.91,36.9026,709.5358],[36.9,36.8961,657.3586],[36.8544,36.8788,748.9197],[36.8282,36.8629,680.317],[36.8058,36.8526,705.7878],[36.7879,36.8394,729.9602],[36.7826,36.8295,714.8141],[36.7821,36.8182,724.7855],[36.784,36.8065,848.1672],[36.8042,36.7986,1152.5178],[36.8796,36.7814,605.7],[36.9027,36.7777,527.6586],[36.9444,36.7812,455.5566],[36.9888,36.762,386.0444],[36.9989,36.7553,369.4809],[37.0095,36.7431,447.8935],[37.0199,36.737,464.2555],[37.0518,36.7268,631.4276],[37.056,36.7243,672.4379],[37.0581,36.7207,731.1604],[37.0566,36.7127,782.9006],[37.0332,36.6784,641.9061],[37.0279,36.6655,701.8313],[37.028,36.6606,723.9575],[37.0314,36.6577,686.7491],[37.0485,36.6532,658.2103],[37.0646,36.6423,630.2632],[37.0799,36.6294,575.4739],[37.091,36.6236,558.9235],[37.0963,36.6235,548.9158],[37.1036,36.627,552.951],[37.1126,36.6463,560.6403],[37.1219,36.6594,569.1252],[37.1268,36.6617,558.2288],[37.1511,36.6635,548.5027],[37.1744,36.6546,513.169],[37.185,36.6536,508.9913],[37.1962,36.6543,508.7976],[37.2256,36.6633,511.461],[37.2664,36.6649,490.9843],[37.3031,36.6616,505.611],[37.3348,36.6551,495.0224],[37.3727,36.6535,500.8113],[37.3903,36.651,492.9575]]]]}}