{"type": "Feature","id": "4841","bbox": [36.65956,36.61994,37.52214,37.02396],"geometry": {"type": "Polygon","coordinates": [[[37.24101,36.79156,662.9929],[37.1997,36.83288,748.088],[37.11707,36.90001,925.626],[37.0396,36.94133,655.3882],[36.97246,36.95166,776.7851],[36.94148,37.00847,926.6637],[36.90533,37.02396,911.8981],[36.87434,37.0033,851.1829],[36.86401,36.93616,782.4508],[36.79687,36.90001,859.7736],[36.71424,36.86903,504.9047],[36.65956,36.82724,372.8534],[36.84367,36.77584,726.6924],[36.90682,36.77259,517.6216],[36.92594,36.76897,465.8589],[36.94589,36.76267,392.1069],[36.9647,36.75383,368.6309],[36.9801,36.74225,412.398],[37.01059,36.71952,502.0983],[37.01844,36.70665,573.9412],[37.01948,36.68582,580.1536],[37.01079,36.65373,645.3724],[37.01452,36.64226,729.7997],[37.03333,36.62872,699.4436],[37.05307,36.61994,597.9703],[37.06237,36.62211,589.3268],[37.07012,36.63151,590.2316],[37.08562,36.64417,590.2668],[37.10443,36.65099,577.9841],[37.12097,36.64991,558.4363],[37.1374,36.64588,531.6935],[37.15611,36.64391,508.6109],[37.21967,36.65714,505.1097],[37.24189,36.65859,482.7713],[37.40447,36.63446,488.6294],[37.44612,36.6342,507.506],[37.52214,36.6736,534.2119],[37.43726,36.73475,595.408],[37.3443,36.77607,733.658],[37.272,36.80705,664.5478],[37.24101,36.79156,662.9929]]]}
,"properties": {"ISO3166-1-Alpha-3": "TUR","country": "Turkey","fill": "#F0F","name": "Kilis","area_km2": 1351.784,"hist_schema_id": "Elevation0-9000","hist_area_km2": {"350": 0.951,"375": 7.131,"400": 10.562,"425": 18.236,"450": 30.494,"475": 36.186,"500": 109.712,"525": 110.263,"550": 104.994,"575": 93.435,"600": 93.241,"625": 91.883,"650": 90.345,"675": 77.532,"700": 68.625,"725": 62.302,"750": 59.801,"775": 49.442,"800": 41.568,"825": 40.803,"850": 35.883,"875": 33.521,"900": 25.733,"925": 17.15,"950": 12.06,"975": 7.121,"1000": 5.917,"1025": 3.643,"1050": 2.761,"1075": 2.27,"1100": 1.881,"1125": 2.423,"1150": 1.576,"1175": 0.966,"1200": 0.746,"1225": 0.492,"1250": 0.136}}}