{"type":"Feature","properties":{"GID_2":"TUR.17.6_1","GID_0":"TUR","country":"Turkey","GID_1":"TUR.17_1","province":"Bingöl","NL_NAME_1":"NA","county":"Solhan","VARNAME_2":"NA","NL_NAME_2":"NA","TYPE_2":"District","ENGTYPE_2":"District","CC_2":"NA","HASC_2":"TR.BG.SO","name":"Solhan.county"},
"geometry":{"type": "MultiPolygon","coordinates": [[[[41.1636,38.6831,1675.9233],[41.2019,38.699,1637.3871],[41.2315,38.7164,1798.9398],[41.2663,38.7256,1769.5795],[41.2576,38.7526,1772.7855],[41.2429,38.776,1657.2795],[41.2344,38.785,1546.97],[41.207,38.8081,1282.3483],[41.1879,38.8359,1422.9667],[41.1736,38.8594,1647.7034],[41.1669,38.8805,1491.2594],[41.1582,38.894,1718.514],[41.1559,38.9049,1595.5221],[41.1573,38.9131,1550.3901],[41.1619,38.9207,1806.175],[41.194,38.9479,1756.5166],[41.2076,38.9668,1704.7612],[41.2392,38.9944,1776.7239],[41.2544,39.015,2036.9546],[41.2745,39.0296,2408.3259],[41.2767,39.0923,2113.9297],[41.2757,39.1046,2207.4272],[41.2729,39.1135,2041.7637],[41.2376,39.1541,1602.4801],[41.2262,39.1596,1646.9144],[41.2044,39.1636,1814.0583],[41.1993,39.1413,1873.2582],[41.19,39.1249,1819.7432],[41.1836,39.108,1937.4933],[41.1772,39.1027,1979.2847],[41.1518,39.0923,2127.03],[41.134,39.092,2161.1458],[41.1271,39.0934,2173.1108],[41.1062,39.1009,2130.3035],[41.0856,39.1045,2164.094],[41.0644,39.1118,2278.7361],[41.0409,39.1165,2170.4263],[41.03,39.1218,2252.1953],[41.0193,39.1327,2097.6465],[41.0117,39.1365,2075.9675],[40.9985,39.1373,2047.6816],[40.9918,39.1361,2074.5857],[40.962,39.1245,2332.998],[40.9419,39.1119,2482.7231],[40.8945,39.0742,2346.7307],[40.8696,39.0384,1971.1788],[40.8981,38.9975,1767.4586],[40.9135,38.9711,1497.0034],[40.9158,38.9525,1386.0039],[40.9153,38.8819,1274.7341],[40.9176,38.8739,1478.4031],[40.9219,38.8668,1428.4998],[40.9405,38.8481,1543.4823],[40.9498,38.834,1692.52],[40.9706,38.8132,1567.8428],[40.9798,38.799,1951.0626],[40.9985,38.7803,1577.6993],[41.0077,38.7664,2023.7939],[41.0138,38.7604,1982.2216],[41.0215,38.7557,2249.7573],[41.0785,38.734,2059.4795],[41.1055,38.7289,2042.0989],[41.1151,38.7253,2054.1543],[41.1446,38.7038,1887.0173],[41.1636,38.6831,1675.9233]]]]}}