{"type":"Feature","properties":{"GID_2":"TUR.34.1_1","GID_0":"TUR","country":"Turkey","GID_1":"TUR.34_1","province":"Giresun","NL_NAME_1":"NA","county":"Alucra","VARNAME_2":"NA","NL_NAME_2":"NA","TYPE_2":"District","ENGTYPE_2":"District","CC_2":"NA","HASC_2":"TR.GI.AL","name":"Alucra.county"},
"geometry":{"type": "MultiPolygon","coordinates": [[[[38.9073,40.1836,1693.047],[38.9055,40.2338,2019.2156],[38.907,40.2508,1908.0413],[38.9107,40.2588,1676.7562],[38.9222,40.2702,1713.5273],[38.9612,40.2985,1882.5171],[39.043,40.3302,2615.5483],[39.0561,40.3384,2722.2983],[39.0715,40.3507,3023.6868],[39.071,40.3643,3020.1909],[39.0672,40.3749,2997.5818],[39.0591,40.3833,2871.9526],[39.049,40.3905,2922.1162],[39.0219,40.402,2875.4429],[38.9834,40.4282,2444.6426],[38.9504,40.4417,1981.8431],[38.9316,40.4477,2034.6003],[38.9138,40.4441,1952.1616],[38.8959,40.4447,2089.6257],[38.8599,40.458,2216.709],[38.851,40.4655,2180.1582],[38.8471,40.4736,2441.1558],[38.8459,40.4888,2562.2131],[38.8495,40.5131,2013.7317],[38.8061,40.5149,2255.6016],[38.7848,40.5219,2158.4705],[38.7583,40.5276,2328.9578],[38.7461,40.5358,2462.5791],[38.7366,40.549,2150.1433],[38.7276,40.5561,2114.3008],[38.6829,40.5734,1958.4896],[38.6731,40.58,2097.3015],[38.6696,40.5844,1911.2958],[38.6668,40.5924,2021.5962],[38.6666,40.6182,2267.1328],[38.65,40.6224,1854.6393],[38.6202,40.6388,1647.1566],[38.5835,40.6434,869.2681],[38.5794,40.6366,842.4999],[38.5768,40.6246,984.4084],[38.5766,40.5717,1849.4329],[38.5735,40.5492,1963.7695],[38.5656,40.5311,1949.873],[38.5487,40.5128,1913.464],[38.5461,40.5047,1799.1204],[38.5472,40.4937,2062.0464],[38.5502,40.4888,1989.9137],[38.5599,40.4817,2120.4883],[38.5731,40.4786,2455.2144],[38.5995,40.4763,2278.0603],[38.6231,40.464,2110.3262],[38.6297,40.4586,2080.8086],[38.6331,40.4541,2156.439],[38.6357,40.4461,1942.8286],[38.6387,40.4124,1475.8497],[38.6492,40.3905,1544.0845],[38.6512,40.3624,1445.2302],[38.6533,40.3542,1674.7014],[38.6562,40.3494,1722.0516],[38.6627,40.3438,1675.6608],[38.6839,40.3344,1780.8625],[38.6896,40.3267,1648.3756],[38.6882,40.3201,1561.9559],[38.6807,40.3069,1596.1467],[38.6726,40.2975,1953.54],[38.6559,40.2858,1847.0471],[38.6338,40.2771,1642.0562],[38.6249,40.2721,1697.1052],[38.6168,40.266,1519.882],[38.6084,40.2565,1518.5699],[38.6051,40.2455,1586.7751],[38.6045,40.2341,1772.3964],[38.6052,40.2227,1869.5095],[38.6102,40.2091,1978.2371],[38.6221,40.1977,2060.5894],[38.6357,40.1875,2045.9264],[38.6491,40.1903,2220.6475],[38.6669,40.1965,2285.104],[38.6831,40.1988,2252.8181],[38.8458,40.1992,1627.92],[38.8746,40.1963,1552.4614],[38.9073,40.1836,1693.047]]]]}}