{"type":"Feature","properties":{"GID_2":"TUR.65.12_1","GID_0":"TUR","country":"Turkey","GID_1":"TUR.65_1","province":"Rize","NL_NAME_1":"NA","county":"Pazar","VARNAME_2":"NA","NL_NAME_2":"NA","TYPE_2":"District","ENGTYPE_2":"District","CC_2":"NA","HASC_2":"TR.RI.PA","name":"Pazar.county"},
"geometry":{"type": "MultiPolygon","coordinates": [[[[40.9504,41.1849,2.4206],[40.931,41.1757,2.4798],[40.9154,41.1768,9.4491],[40.9085,41.1804,2.8478],[40.9085,41.1824,0.0],[40.8957,41.1843,0.0],[40.8818,41.1813,1.5353],[40.8743,41.1832,0.0],[40.8682,41.1779,18.1283],[40.8571,41.1774,0.0],[40.8429,41.1712,21.6083],[40.8385,41.1754,0.0],[40.8351,41.1715,7.1179],[40.8324,41.1721,0.0],[40.8293,41.1685,41.0741],[40.8237,41.1685,0.0],[40.8179,41.1629,8.9139],[40.8138,41.1615,40.3525],[40.8032,41.1626,0.0],[40.7979,41.1599,1.3397],[40.7887,41.1515,18.2827],[40.7846,41.1507,0.0],[40.7762,41.1415,12.3418],[40.7637,41.1338,0.0],[40.7956,41.1102,606.285],[40.8293,41.0985,409.5003],[40.8537,41.094,424.873],[40.8697,41.0937,377.2501],[40.889,41.0963,274.2841],[40.9324,41.1161,285.9272],[40.9503,41.1287,253.3681],[40.9504,41.1849,2.4206]]]]}}