{"type": "Feature","bbox": [39.8372,40.0228,40.7979,40.5353],"geometry": {"type": "MultiPolygon","coordinates": [[[[39.9884,40.369,1927.9426],[39.9679,40.3628,1683.3424],[39.9322,40.3593,1922.9941],[39.9109,40.3524,1716.6423],[39.887,40.3482,1965.0967],[39.8772,40.3444,1835.9182],[39.8658,40.337,1828.2439],[39.8546,40.3256,1980.5234],[39.8404,40.302,1975.3696],[39.8372,40.2913,1989.8817],[39.8372,40.2797,1861.8136],[39.8504,40.2771,1964.7864],[39.8584,40.2728,1933.146],[39.8645,40.267,1801.9889],[39.876,40.2507,1654.7151],[39.9113,40.2219,1650.1349],[39.9283,40.2118,1642.2153],[39.9745,40.1952,1668.9303],[39.9876,40.1873,1689.2023],[39.995,40.1797,1698.1024],[39.9957,40.1727,1680.4905],[39.9906,40.1671,1693.3882],[39.9678,40.1583,1731.821],[39.95,40.1459,1875.0574],[39.9433,40.1365,1941.6599],[39.9413,40.1253,2050.7134],[39.9419,40.1139,1919.8669],[39.9457,40.1034,1899.2069],[39.9614,40.0804,1880.0409],[39.9785,40.0642,2328.4189],[39.9837,40.0574,2103.4526],[39.9864,40.0465,2201.9097],[39.9855,40.0295,2158.5708],[40.0186,40.0385,2253.7466],[40.09,40.0668,2057.2698],[40.1109,40.07,1953.5405],[40.1325,40.0685,1899.8756],[40.1536,40.0611,2051.6816],[40.1806,40.0555,2227.75],[40.2019,40.0483,2225.2837],[40.2637,40.0455,2286.5386],[40.3029,40.0361,2539.5981],[40.3421,40.0329,2626.9736],[40.3636,40.0258,2928.2151],[40.3751,40.0239,2848.3499],[40.4533,40.0228,2545.4521],[40.4774,40.0246,2409.6555],[40.5113,40.0369,2438.0557],[40.5407,40.0542,2216.1069],[40.5791,40.0696,2270.7744],[40.589,40.0803,2284.5796],[40.5984,40.0878,2356.7837],[40.6219,40.098,2220.4004],[40.6461,40.1126,2357.2271],[40.7063,40.1357,2418.5024],[40.7397,40.1426,2694.9146],[40.7591,40.151,2167.6301],[40.7662,40.1558,2107.5298],[40.7795,40.1725,2275.7375],[40.7959,40.1981,1994.3474],[40.7977,40.2035,1985.453],[40.7979,40.2145,2150.9893],[40.796,40.2198,2272.6431],[40.7924,40.2243,2442.4524],[40.7818,40.2307,2593.187],[40.7678,40.2329,2534.3723],[40.7298,40.2311,2424.1152],[40.7062,40.2332,2228.5696],[40.6689,40.2427,1895.9072],[40.6378,40.2457,2291.3577],[40.6042,40.2574,2551.9719],[40.5926,40.2664,2368.9971],[40.5885,40.2768,2131.7798],[40.5881,40.2908,2092.7444],[40.5783,40.2924,2054.7983],[40.5696,40.296,2224.9551],[40.563,40.3016,2464.3843],[40.5599,40.3066,2488.0776],[40.558,40.3152,2327.8257],[40.5561,40.3421,1882.5785],[40.5466,40.3617,1676.3633],[40.5442,40.3705,1616.6852],[40.5423,40.4206,1638.8436],[40.5398,40.4295,1752.7377],[40.5302,40.449,2098.4421],[40.5269,40.482,2538.0613],[40.5238,40.4901,2415.0605],[40.502,40.5248,2711.3452],[40.4985,40.5353,2725.0884],[40.4835,40.5353,3166.6069],[40.4446,40.5249,3123.0525],[40.3761,40.5229,2925.8784],[40.3356,40.5129,2789.8384],[40.3117,40.5122,2687.8008],[40.2859,40.5144,2744.3782],[40.2884,40.4781,1897.9409],[40.2883,40.4497,1704.9366],[40.286,40.4345,1936.2041],[40.246,40.3716,1490.4163],[40.2433,40.36,1504.6704],[40.2423,40.3211,1577.147],[40.2385,40.3132,1634.0503],[40.2261,40.3047,1638.9978],[40.2038,40.302,1750.0968],[40.1165,40.3024,1565.9301],[40.0975,40.3043,1592.4014],[40.0841,40.31,1674.2456],[40.0525,40.3321,1634.579],[40.0275,40.3433,1592.5319],[39.9884,40.369,1927.9426]]]]}
,"properties": {"GID_2": "TUR.15.3_1","GID_0": "TUR","country": "Turkey","GID_1": "TUR.15_1","province": "Bayburt","NL_NAME_1": "NA","county": "Merkez","VARNAME_2": "Bayburt","NL_NAME_2": "NA","TYPE_2": "District","ENGTYPE_2": "District","CC_2": "NA","HASC_2": "TR.BB.BB","name": "Merkez.county","area_km2": 2482.462,"hist_schema_id": "Elevation0-9000","hist_area_km2": {"1400": 0.21,"1425": 2.455,"1450": 10.643,"1475": 16.975,"1500": 22.582,"1525": 19.981,"1550": 21.797,"1575": 29.5,"1600": 42.321,"1625": 95.777,"1650": 87.096,"1675": 83.0,"1700": 89.882,"1725": 87.042,"1750": 84.914,"1775": 85.978,"1800": 82.958,"1825": 84.614,"1850": 83.844,"1875": 89.806,"1900": 91.951,"1925": 89.914,"1950": 84.66,"1975": 77.783,"2000": 72.929,"2025": 67.739,"2050": 61.23,"2075": 55.743,"2100": 54.469,"2125": 51.332,"2150": 49.668,"2175": 49.023,"2200": 46.917,"2225": 46.123,"2250": 43.287,"2275": 42.265,"2300": 39.93,"2325": 37.21,"2350": 35.847,"2375": 32.399,"2400": 28.457,"2425": 24.993,"2450": 21.508,"2475": 17.99,"2500": 15.545,"2525": 13.097,"2550": 11.898,"2575": 10.31,"2600": 9.03,"2625": 8.494,"2650": 7.798,"2675": 7.195,"2700": 5.917,"2725": 5.271,"2750": 4.88,"2775": 4.04,"2800": 3.569,"2825": 3.245,"2850": 2.679,"2875": 2.776,"2900": 2.84,"2925": 2.241,"2950": 2.225,"2975": 1.918,"3000": 1.805,"3025": 1.854,"3050": 1.708,"3075": 1.322,"3100": 1.354,"3125": 1.225,"3150": 0.903,"3175": 0.709,"3200": 0.483,"3225": 0.371,"3250": 0.355,"3275": 0.242,"3300": 0.258,"3325": 0.081,"3350": 0.081}}}