{"type":"Feature","properties":{"GID_2":"TUR.33.1_1","GID_0":"TUR","country":"Turkey","GID_1":"TUR.33_1","province":"Gaziantep","NL_NAME_1":"NA","county":"Araban","VARNAME_2":"NA","NL_NAME_2":"NA","TYPE_2":"District","ENGTYPE_2":"District","CC_2":"NA","HASC_2":"TR.GA.AR","name":"Araban.county"},
"geometry":{"type": "MultiPolygon","coordinates": [[[[37.623,37.5121,826.5522],[37.6236,37.445,558.3206],[37.6216,37.4328,543.6725],[37.6059,37.4068,561.098],[37.5947,37.3975,588.3669],[37.562,37.3845,626.8163],[37.5428,37.3802,770.2811],[37.5516,37.3697,745.8881],[37.5644,37.3614,945.5627],[37.5857,37.3586,937.921],[37.6036,37.3606,957.9728],[37.6155,37.3658,927.1304],[37.6394,37.38,703.4494],[37.6498,37.3819,727.774],[37.664,37.3811,729.4512],[37.6849,37.3738,774.6744],[37.7151,37.3673,750.9896],[37.8321,37.3219,510.4258],[37.8484,37.3125,519.9735],[37.861,37.3177,448.8151],[37.8724,37.3298,429.8378],[37.8998,37.353,477.4763],[37.9058,37.3599,397.8685],[37.93,37.3976,648.3032],[37.9494,37.4145,525.0438],[37.9758,37.434,381.6544],[37.9884,37.4391,389.5922],[38.0028,37.4407,463.6181],[38.0288,37.4403,426.6232],[38.0515,37.4376,380.5],[38.042,37.4512,492.9709],[38.0303,37.4627,534.7362],[38.0006,37.4861,666.5685],[37.9858,37.4949,598.0789],[37.9554,37.5015,620.7352],[37.9342,37.5087,612.7181],[37.9103,37.513,671.1419],[37.8891,37.5201,688.9412],[37.8502,37.5247,651.0092],[37.8058,37.5421,678.5763],[37.7958,37.5447,713.0264],[37.7777,37.5456,721.5344],[37.7599,37.5433,810.6793],[37.6791,37.512,848.9244],[37.6536,37.5103,995.3113],[37.623,37.5121,826.5522]]]]}}