{"type":"Feature","properties":{"GID_2":"TUR.11.9_1","GID_0":"TUR","country":"Turkey","GID_1":"TUR.11_1","province":"Aydin","NL_NAME_1":"NA","county":"Koçarlı","VARNAME_2":"NA","NL_NAME_2":"NA","TYPE_2":"District","ENGTYPE_2":"District","CC_2":"NA","HASC_2":"TR.AY.KO","name":"Koçarlı.county"},
"geometry":{"type": "MultiPolygon","coordinates": [[[[27.8709,37.7295,34.7563],[27.8474,37.7516,29.4061],[27.8231,37.769,28.7342],[27.8097,37.7731,27.538],[27.7686,37.7762,25.4847],[27.7616,37.7801,24.6845],[27.7528,37.7929,23.8899],[27.7401,37.7969,23.2491],[27.6961,37.7986,20.2557],[27.668,37.8036,19.906],[27.6579,37.8012,18.9494],[27.6355,37.7911,17.6578],[27.626,37.7905,17.9769],[27.6154,37.7935,17.4619],[27.5952,37.8053,14.6523],[27.5821,37.8069,15.8165],[27.5708,37.8024,16.2815],[27.5559,37.7883,15.0129],[27.5266,37.7817,13.4171],[27.543,37.7638,12.9718],[27.5508,37.7403,13.1684],[27.567,37.7145,18.605],[27.601,37.6847,391.6599],[27.6272,37.6446,514.9929],[27.654,37.6219,474.3289],[27.6608,37.6134,551.9631],[27.6605,37.6064,557.0523],[27.6518,37.591,615.7648],[27.6253,37.552,784.5944],[27.6176,37.5249,851.7236],[27.6511,37.5159,807.8627],[27.6926,37.4993,865.1385],[27.7053,37.4957,680.0663],[27.7123,37.4946,668.5894],[27.7121,37.512,638.6008],[27.7088,37.5286,552.5977],[27.7002,37.5422,707.1793],[27.6977,37.5502,731.7715],[27.698,37.5663,675.9341],[27.7019,37.5731,608.8232],[27.7254,37.5867,481.8942],[27.7489,37.6049,391.9851],[27.7564,37.6144,376.3124],[27.7692,37.6403,512.9088],[27.7832,37.6564,681.5552],[27.7943,37.6722,706.0371],[27.8135,37.6841,560.7608],[27.8265,37.6984,396.3157],[27.8443,37.7129,258.4357],[27.8709,37.7295,34.7563]]]]}}