{"type":"Feature","properties":{"GID_2":"TUR.31.17_1","GID_0":"TUR","country":"Turkey","GID_1":"TUR.31_1","province":"Erzurum","NL_NAME_1":"NA","county":"Tekman","VARNAME_2":"NA","NL_NAME_2":"NA","TYPE_2":"District","ENGTYPE_2":"District","CC_2":"NA","HASC_2":"TR.EM.TE","name":"Tekman.county"},
"geometry":{"type": "MultiPolygon","coordinates": [[[[41.2187,39.3553,2483.908],[41.2451,39.3669,2473.4609],[41.2555,39.3694,2543.0664],[41.298,39.372,2670.0015],[41.3345,39.3814,2655.364],[41.3863,39.3836,2849.1663],[41.3822,39.3995,2661.0681],[41.3836,39.4135,2643.1333],[41.3905,39.4236,2620.1567],[41.4068,39.4355,2469.9978],[41.4736,39.4611,2482.979],[41.5008,39.4663,2223.1353],[41.5221,39.4732,2122.7341],[41.5609,39.4778,2363.1758],[41.5737,39.4842,2568.0544],[41.6054,39.5065,2621.6135],[41.6385,39.5196,2611.1411],[41.649,39.521,2547.8711],[41.6632,39.5202,2434.833],[41.6841,39.5129,2161.6384],[41.7111,39.5072,2036.0659],[41.7324,39.4998,2261.397],[41.7592,39.4978,2086.8586],[41.7979,39.4997,2478.7166],[41.8104,39.5043,2791.7073],[41.8324,39.5164,2528.2334],[41.8328,39.5405,2188.6523],[41.8297,39.5555,2183.6228],[41.7754,39.6387,1807.1128],[41.7601,39.6649,2036.592],[41.7564,39.7014,2194.1875],[41.7449,39.7259,2074.0134],[41.743,39.7541,2327.4446],[41.7385,39.7676,2283.752],[41.727,39.7791,2408.7659],[41.6794,39.8159,2616.9521],[41.6547,39.8099,2610.187],[41.6332,39.8026,2818.9194],[41.6058,39.8016,2756.6206],[41.5945,39.8036,2687.9651],[41.573,39.8108,2602.9062],[41.5613,39.8123,2606.2732],[41.467,39.8136,2433.6482],[41.4511,39.8197,2443.0676],[41.4349,39.8344,2669.667],[41.4119,39.8267,2620.4287],[41.398,39.8252,2634.3818],[41.3842,39.827,2533.6992],[41.3599,39.8352,2604.8057],[41.3382,39.8362,2738.0176],[41.324,39.8341,2759.6003],[41.2939,39.8226,2908.3625],[41.2647,39.807,2654.3838],[41.2629,39.7897,2903.8242],[41.2637,39.7754,2708.9495],[41.2661,39.7674,2757.2434],[41.2749,39.7539,2669.4797],[41.2771,39.7459,2664.3501],[41.2768,39.7377,2755.7505],[41.2734,39.7297,2809.2632],[41.2647,39.7207,2741.8159],[41.246,39.7068,2795.8599],[41.2344,39.7001,2794.4636],[41.21,39.6898,2709.2151],[41.1649,39.6567,2753.0239],[41.1561,39.6522,2822.239],[41.1135,39.6365,2526.8315],[41.1013,39.628,2424.3594],[41.0851,39.6026,2556.0342],[41.0774,39.579,2735.3042],[41.0552,39.5443,2785.9868],[41.0495,39.5258,2591.8896],[41.0402,39.5094,2542.3198],[41.0339,39.488,2320.0703],[41.0243,39.4693,2404.9033],[41.0295,39.466,2411.3569],[41.0384,39.4643,2378.9216],[41.1109,39.464,2072.8965],[41.1219,39.4625,2141.4172],[41.131,39.4588,2082.3838],[41.1396,39.4511,1989.4922],[41.1616,39.4158,2335.2666],[41.1817,39.3953,2411.1084],[41.1936,39.3784,2447.5315],[41.2187,39.3553,2483.908]]]]}}