{"type": "Feature","bbox": [40.9503,40.8201,41.3329,41.2357],"geometry": {"type": "MultiPolygon","coordinates": [[[[41.3329,41.0269,2754.3882],[41.2967,41.0375,2412.636],[41.2671,41.0551,1914.7902],[41.2186,41.0737,1193.5575],[41.202,41.0844,971.4225],[41.1738,41.1068,1284.675],[41.1651,41.1155,1216.439],[41.1577,41.1276,650.1446],[41.1497,41.1365,733.2619],[41.1009,41.1745,478.2262],[41.09,41.1853,205.165],[41.0865,41.1927,203.5979],[41.0852,41.2032,303.8445],[41.0879,41.2357,0.0],[41.0793,41.2307,0.0],[41.0693,41.2212,1.5681],[41.0449,41.211,3.7076],[41.0363,41.2107,0.0],[41.0262,41.2074,0.0],[41.019,41.2029,7.6297],[40.9957,41.194,5.1174],[40.9876,41.1932,3.5186],[40.9865,41.1963,0.461],[40.9721,41.191,5.0757],[40.9562,41.1879,0.0],[40.9504,41.1849,2.4206],[40.9503,41.1287,253.3681],[41.0086,41.0837,682.5255],[41.0221,41.0694,470.4989],[41.029,41.0483,667.179],[41.0379,41.0319,696.5647],[41.0427,41.0044,1082.1177],[41.0537,40.9824,1036.5516],[41.055,40.9706,1391.0424],[41.0551,40.9344,1564.6216],[41.058,40.92,1699.1536],[41.0951,40.8621,2594.2395],[41.1033,40.8387,2597.8604],[41.1106,40.83,2770.0503],[41.1223,40.8201,3181.1499],[41.1385,40.8341,3127.3103],[41.1494,40.8505,2898.5723],[41.1555,40.8568,3225.9194],[41.1967,40.8902,3119.499],[41.2157,40.915,3172.2153],[41.272,40.9599,2367.7661],[41.2868,40.9806,3215.8115],[41.3196,41.0085,2729.8003],[41.3329,41.0269,2754.3882]]]]}
,"properties": {"GID_2": "TUR.65.1_1","GID_0": "TUR","country": "Turkey","GID_1": "TUR.65_1","province": "Rize","NL_NAME_1": "NA","county": "Ardeşen","VARNAME_2": "NA","NL_NAME_2": "NA","TYPE_2": "District","ENGTYPE_2": "District","CC_2": "NA","HASC_2": "TR.RI.AR","name": "Ardeşen.county","area_km2": 632.9275,"hist_schema_id": "Elevation0-9000","hist_area_km2": {"0": 3.462,"25": 4.5472,"50": 5.6007,"75": 5.6809,"100": 5.4893,"125": 4.628,"150": 5.3626,"175": 5.4425,"200": 5.427,"225": 5.6668,"250": 5.4275,"275": 5.6354,"300": 5.4761,"325": 5.0452,"350": 5.86,"375": 5.4768,"400": 5.9404,"425": 6.148,"450": 6.2599,"475": 6.4842,"500": 6.2927,"525": 6.165,"550": 5.6701,"575": 6.2777,"600": 5.8304,"625": 5.3994,"650": 5.4796,"675": 5.9432,"700": 5.6877,"725": 5.9758,"750": 5.3205,"775": 5.4327,"800": 5.625,"825": 5.2571,"850": 5.1619,"875": 5.0985,"900": 4.5071,"925": 4.3795,"950": 4.284,"975": 4.0444,"1000": 4.4762,"1025": 3.9488,"1050": 3.8211,"1075": 3.8533,"1100": 4.0932,"1125": 3.9174,"1150": 3.8696,"1175": 3.9496,"1200": 4.0295,"1225": 3.6461,"1250": 4.0301,"1275": 4.0298,"1300": 4.0458,"1325": 4.2379,"1350": 4.3018,"1375": 4.3183,"1400": 4.6539,"1425": 4.3662,"1450": 4.5261,"1475": 4.3343,"1500": 4.3663,"1525": 4.4943,"1550": 4.5584,"1575": 4.5428,"1600": 4.4469,"1625": 4.8308,"1650": 4.6712,"1675": 4.5595,"1700": 4.4637,"1725": 4.3677,"1750": 4.3361,"1775": 4.5923,"1800": 4.736,"1825": 4.3366,"1850": 4.7843,"1875": 4.4329,"1900": 4.9931,"1925": 4.4653,"1950": 4.5774,"1975": 4.1451,"2000": 4.8015,"2025": 4.5137,"2050": 4.4333,"2075": 5.0579,"2100": 4.3377,"2125": 4.6099,"2150": 4.7224,"2175": 4.8986,"2200": 4.4982,"2225": 4.9949,"2250": 5.1867,"2275": 5.4588,"2300": 5.2353,"2325": 5.2192,"2350": 5.8596,"2375": 5.7634,"2400": 5.7001,"2425": 5.8119,"2450": 5.6516,"2475": 5.9723,"2500": 5.8444,"2525": 5.8283,"2550": 6.5489,"2575": 6.3413,"2600": 6.2763,"2625": 6.1647,"2650": 6.8214,"2675": 6.6456,"2700": 6.5496,"2725": 6.4058,"2750": 6.1977,"2775": 6.3426,"2800": 5.7499,"2825": 5.5099,"2850": 5.5423,"2875": 5.0944,"2900": 4.9021,"2925": 4.7264,"2950": 4.2137,"2975": 3.9415,"3000": 3.5247,"3025": 3.5246,"3050": 2.788,"3075": 2.4353,"3100": 2.5477,"3125": 2.0346,"3150": 1.8583,"3175": 1.2014,"3200": 1.0572,"3225": 0.929,"3250": 0.8648,"3275": 0.5766,"3300": 0.4163,"3325": 0.2402,"3350": 0.1922,"3375": 0.1281,"3400": 0.0641,"3425": 0.0801,"3450": 0.032,"3475": 0.016}}}