{"type": "Feature","bbox": [29.8684,38.2744,30.4286,38.6689],"geometry": {"type": "MultiPolygon","coordinates": [[[[30.4286,38.3949,2003.4493],[30.427,38.4024,2082.4216],[30.4147,38.423,1878.2458],[30.3919,38.446,1882.9385],[30.3769,38.4692,1738.1299],[30.3691,38.4928,1962.9216],[30.3458,38.5299,1614.3345],[30.3413,38.5456,1593.5723],[30.325,38.5746,1453.2412],[30.3079,38.6002,1210.6066],[30.2877,38.6206,1177.2528],[30.2741,38.6397,1203.9121],[30.2568,38.6545,1302.0713],[30.2365,38.6663,1507.0061],[30.2181,38.6689,1378.7955],[30.1026,38.6687,1896.4291],[30.1072,38.6558,1647.641],[30.1297,38.6213,1393.4899],[30.1317,38.6077,1220.5029],[30.1284,38.5973,1248.7791],[30.0985,38.5507,1090.2349],[30.0854,38.5338,1045.3289],[30.081,38.5304,1073.2863],[30.0592,38.5204,1081.449],[29.9833,38.4919,1019.8967],[29.9507,38.4732,1028.14],[29.9051,38.456,1200.0453],[29.8845,38.4417,1069.1018],[29.8684,38.4237,1077.3063],[29.8915,38.4243,952.5971],[29.9057,38.4222,1181.012],[29.9172,38.4165,1231.0137],[29.929,38.4069,1375.7742],[29.9345,38.4003,1309.2985],[29.9696,38.3438,1711.1433],[29.9939,38.3186,1649.3003],[30.009,38.2954,1437.6495],[30.0184,38.2744,1892.5687],[30.0557,38.2865,1875.4551],[30.0884,38.2995,1580.2578],[30.1301,38.3277,1082.8356],[30.1508,38.3314,1046.1826],[30.1758,38.329,1033.4792],[30.2533,38.2986,1250.0953],[30.2923,38.2943,1453.9016],[30.3203,38.2851,1535.3732],[30.3244,38.2863,1641.9362],[30.3395,38.2943,1686.9048],[30.3789,38.3253,1456.8058],[30.3919,38.3437,1532.8113],[30.4145,38.3667,1951.1311],[30.4286,38.3949,2003.4493]]]]}
,"properties": {"GID_2": "TUR.3.15_1","GID_0": "TUR","country": "Turkey","GID_1": "TUR.3_1","province": "Afyon","NL_NAME_1": "NA","county": "Sandıklı","VARNAME_2": "NA","NL_NAME_2": "NA","TYPE_2": "District","ENGTYPE_2": "District","CC_2": "NA","HASC_2": "TR.AF.SA","name": "Sandıklı.county","area_km2": 1199.6365,"hist_schema_id": "Elevation0-9000","hist_area_km2": {"925": 0.8803,"950": 7.2893,"975": 73.8053,"1000": 117.5014,"1025": 106.1635,"1050": 69.9656,"1075": 58.4341,"1100": 57.1196,"1125": 45.6027,"1150": 39.0931,"1175": 45.1407,"1200": 44.3872,"1225": 34.0906,"1250": 28.3339,"1275": 26.7418,"1300": 25.6016,"1325": 23.0322,"1350": 21.8696,"1375": 21.753,"1400": 20.4564,"1425": 21.9829,"1450": 20.4231,"1475": 21.2028,"1500": 24.6431,"1525": 27.6132,"1550": 28.4958,"1575": 24.7166,"1600": 23.2731,"1625": 20.3518,"1650": 18.8894,"1675": 15.9164,"1700": 13.3769,"1725": 11.8977,"1750": 8.7075,"1775": 7.279,"1800": 6.2487,"1825": 6.2818,"1850": 4.8029,"1875": 4.9851,"1900": 3.689,"1925": 4.2709,"1950": 3.9721,"1975": 2.8583,"2000": 1.7282,"2025": 1.6615,"2050": 1.1297,"2075": 0.4983,"2100": 0.3821,"2125": 0.3987,"2150": 0.1994,"2175": 0.2991,"2200": 0.1994}}}