{"type":"Feature","properties":{"GID_2":"TUR.5.2_1","GID_0":"TUR","country":"Turkey","GID_1":"TUR.5_1","province":"Aksaray","NL_NAME_1":"NA","county":"Eskil","VARNAME_2":"NA","NL_NAME_2":"NA","TYPE_2":"District","ENGTYPE_2":"District","CC_2":"NA","HASC_2":"TR.AK.ES","name":"Eskil.county"},
"geometry":{"type": "MultiPolygon","coordinates": [[[[33.2402,38.2473,967.3856],[33.2401,38.2154,981.8849],[33.2431,38.2016,995.658],[33.2805,38.1438,1009.5328],[33.2895,38.1179,1018.4083],[33.3626,38.0036,1051.4193],[33.3978,37.9712,1017.631],[33.4074,37.9572,1020.6848],[33.4134,37.9512,1022.455],[33.4243,37.9453,1036.6697],[33.4544,37.9359,1031.1202],[33.4782,37.9329,1069.0854],[33.5157,37.9338,1089.1044],[33.5451,37.9423,1100.647],[33.5813,37.9458,1069.7672],[33.5842,37.9598,1071.6919],[33.5852,37.9747,1072.3999],[33.5853,38.0048,1061.7064],[33.5837,38.0193,1071.7787],[33.5728,38.0412,1075.0061],[33.5668,38.0713,1058.0447],[33.5425,38.111,1025.374],[33.538,38.1503,973.3341],[33.5288,38.1667,1005.738],[33.5218,38.1877,991.1497],[33.5123,38.2041,969.5876],[33.5099,38.2266,964.2693],[33.5109,38.238,961.8315],[33.5134,38.2462,966.7604],[33.5279,38.2696,940.9981],[33.5473,38.2973,926.1127],[33.5837,38.3292,914.4573],[33.5941,38.3468,912.4417],[33.594,38.3536,911.46],[33.5868,38.3607,910.3029],[33.5695,38.3675,909.7387],[33.5576,38.3743,908.9092],[33.5221,38.4016,907.0804],[33.5136,38.411,906.6389],[33.4915,38.4463,906.973],[33.4706,38.4671,907.8544],[33.4597,38.4834,907.5271],[33.4145,38.521,907.566],[33.3974,38.5434,905.3193],[33.3757,38.556399999999996,902.5],[33.3641,38.5373,908.2236],[33.3575,38.516,916.5813],[33.3492,38.5022,919.3435],[33.3425,38.4811,924.7853],[33.3341,38.4674,929.5359],[33.3273,38.4462,932.6484],[33.3181,38.4295,940.984],[33.3129,38.4026,946.6771],[33.3039,38.3859,951.7648],[33.3016,38.3778,951.626],[33.3014,38.347,953.7654],[33.2888,38.3276,955.2179],[33.2809,38.3041,955.9363],[33.2655,38.2807,961.8292],[33.2455,38.2602,965.0295],[33.2402,38.2473,967.3856]]]]}}