{"type": "Feature","bbox": [33.2333,39.3172,33.4507,39.4877],"geometry": {"type": "MultiPolygon","coordinates": [[[[33.2867,39.3304,857.2029],[33.3236,39.3288,910.6398],[33.3526,39.3201,830.8975],[33.3694,39.3172,828.4514],[33.3865,39.3379,934.5316],[33.3907,39.3452,960.8966],[33.3965,39.3636,890.5759],[33.4053,39.3805,790.2426],[33.4086,39.4015,785.0413],[33.4117,39.41,837.7552],[33.4191,39.4181,837.0512],[33.4328,39.4267,898.9945],[33.4358,39.4304,928.7245],[33.4417,39.445,972.8132],[33.4497,39.4584,965.7369],[33.4507,39.4637,963.9731],[33.449,39.4714,939.9195],[33.439,39.4877,828.0482],[33.4292,39.4755,798.2704],[33.4172,39.4645,800.3354],[33.4038,39.4547,752.4681],[33.3916,39.4487,738.2205],[33.3529,39.4441,860.3117],[33.3317,39.4372,790.0182],[33.3212,39.4354,847.272],[33.2729,39.4347,803.8373],[33.268,39.4218,807.561],[33.2451,39.399,832.463],[33.2343,39.3812,843.4546],[33.2333,39.3767,824.0588],[33.2349,39.3722,817.8574],[33.2401,39.3663,817.9303],[33.2867,39.3304,857.2029]]]]}
,"properties": {"GID_2": "TUR.49.5_1","GID_0": "TUR","country": "Turkey","GID_1": "TUR.49_1","province": "Kinkkale","NL_NAME_1": "NA","county": "Karakeçili","VARNAME_2": "NA","NL_NAME_2": "NA","TYPE_2": "District","ENGTYPE_2": "District","CC_2": "NA","HASC_2": "TR.KK.KA","name": "Karakeçili.county","area_km2": 177.1105,"hist_schema_id": "Elevation0-9000","hist_area_km2": {"725": 0.2292,"750": 13.038,"775": 17.7918,"800": 36.6523,"825": 43.263,"850": 31.2029,"875": 19.1381,"900": 9.013,"925": 4.2108,"950": 2.0474,"975": 0.5075,"1000": 0.0164}}}