{"type": "Feature","bbox": [29.5535,37.6051,29.8453,37.8543],"geometry": {"type": "MultiPolygon","coordinates": [[[[29.8154,37.8191,836.0],[29.7987,37.8227,836.0],[29.7205,37.8526,1587.5055],[29.6969,37.8543,1400.2592],[29.6638,37.8526,1248.8739],[29.6548,37.8435,1099.0138],[29.6451,37.8295,870.6652],[29.627,37.8116,897.224],[29.6222,37.8038,913.2595],[29.62,37.7922,884.8025],[29.62,37.756,869.2278],[29.6179,37.7414,871.8569],[29.5932,37.7017,1043.531],[29.5861,37.6807,1311.3357],[29.578,37.6669,1242.0105],[29.5753,37.656,1353.7979],[29.5747,37.633,1348.1958],[29.5621,37.6203,1505.8154],[29.5535,37.6051,1462.0505],[29.5733,37.6116,1535.6128],[29.5897,37.6213,1546.3872],[29.6006,37.6231,1465.9854],[29.6092,37.6263,1424.6284],[29.6454,37.6512,1209.6648],[29.672,37.6627,1447.4407],[29.7055,37.6861,1226.564],[29.7321,37.6976,1270.4332],[29.7656,37.721,857.8235],[29.7868,37.7295,865.4208],[29.8108,37.7442,923.853],[29.8319,37.7527,1038.1774],[29.8453,37.7608,1121.4055],[29.833,37.7733,841.9982],[29.8196,37.7943,836.5],[29.8162,37.8049,836.0],[29.8154,37.8191,836.0]]]]}
,"properties": {"GID_2": "TUR.25.11_1","GID_0": "TUR","country": "Turkey","GID_1": "TUR.25_1","province": "Denizli","NL_NAME_1": "NA","county": "Çardak","VARNAME_2": "NA","NL_NAME_2": "NA","TYPE_2": "District","ENGTYPE_2": "District","CC_2": "NA","HASC_2": "TR.DN.CK","name": "Çardak.county","area_km2": 328.4284,"hist_schema_id": "Elevation0-9000","hist_area_km2": {"825": 36.9704,"850": 120.4836,"875": 40.5013,"900": 15.5392,"925": 6.1023,"950": 4.6774,"975": 3.4534,"1000": 3.5875,"1025": 3.6216,"1050": 3.6045,"1075": 3.6216,"1100": 3.9068,"1125": 3.8566,"1150": 3.8911,"1175": 4.0758,"1200": 4.0929,"1225": 4.966,"1250": 4.8492,"1275": 4.5974,"1300": 4.4127,"1325": 4.3287,"1350": 5.6208,"1375": 4.8827,"1400": 4.798,"1425": 4.6806,"1450": 4.3121,"1475": 3.3719,"1500": 3.2884,"1525": 2.5168,"1550": 2.2651,"1575": 1.3758,"1600": 1.2921,"1625": 1.5105,"1650": 1.4099,"1675": 1.2418,"1700": 0.6881,"1725": 0.0336}}}