{"type":"Feature","properties":{"GID_2":"TUR.2.8_1","GID_0":"TUR","country":"Turkey","GID_1":"TUR.2_1","province":"Adiyaman","NL_NAME_1":"NA","county":"Sincik","VARNAME_2":"NA","NL_NAME_2":"NA","TYPE_2":"District","ENGTYPE_2":"District","CC_2":"NA","HASC_2":"TR.AD.SI","name":"Sincik.county"},
"geometry":{"type": "MultiPolygon","coordinates": [[[[38.3975,37.9057,1301.1724],[38.4063,37.89,1061.7375],[38.4119,37.8842,1067.4954],[38.4336,37.8742,827.7939],[38.4503,37.8708,783.1164],[38.4533,37.8772,815.8376],[38.457,37.8808,804.034],[38.4784,37.8909,975.9982],[38.4884,37.8932,955.0433],[38.5208,37.8959,875.5071],[38.5638,37.9078,920.1794],[38.5703,37.9128,905.5585],[38.5817,37.9274,1050.1497],[38.5905,37.9419,738.1824],[38.6105,37.9626,813.7032],[38.6202,37.9765,860.5765],[38.6268,37.9821,1002.5762],[38.7046,38.0127,852.465],[38.7342,38.0296,1035.9108],[38.7646,38.0363,1163.3655],[38.7973,38.0507,1757.1655],[38.7963,38.0925,1208.7002],[38.6435,38.0924,1866.2903],[38.629,38.0953,1775.0267],[38.5724,38.1161,1538.3914],[38.5676,38.1188,1568.6218],[38.5629,38.1245,1726.3396],[38.563,38.1293,1686.8237],[38.5658,38.1332,1587.7537],[38.5725,38.1374,1394.8958],[38.5875,38.1426,1047.2357],[38.5968,38.1476,1243.9563],[38.6196,38.1644,1551.4388],[38.6281,38.1744,1596.0637],[38.6345,38.1992,1447.9298],[38.5849,38.2177,1651.9355],[38.5524,38.2259,1625.2354],[38.5387,38.1975,1724.8062],[38.5217,38.1724,1624.7245],[38.5124,38.1653,1658.7063],[38.4884,38.155,1515.3743],[38.4643,38.1373,1913.5787],[38.4554,38.1284,2200.8633],[38.4421,38.1095,1877.087],[38.3969,38.0726,1665.7787],[38.3779,38.0449,1265.7095],[38.3757,38.0312,1490.1045],[38.378,38.0229,1510.9624],[38.3813,38.0183,1646.5599],[38.3982,38.0053,994.8467],[38.427,37.9925,997.183],[38.4329,37.9862,1033.6383],[38.4357,37.9782,830.9041],[38.436,37.9641,954.316],[38.433,37.9532,1123.1422],[38.4163,37.9276,1244.6947],[38.3975,37.9057,1301.1724]]]]}}