{"type":"Feature","properties":{"featurecla":"Lake","scalerank":9,"name":"Egridir","name_abb":"Egridir","name_alt":null,"note":null,"delta":"New or modified in version 1.2","dam_name":null,"year":-99,"admin":null,"min_zoom":7.0,"min_label":8.0},
"geometry":{"type": "Polygon","coordinates": [[[30.809772560176526,38.270688310587531,1004.1666],[30.7732714084122,38.251260278196838,1024.8218],[30.752077191258735,38.2230013219922,921.2717],[30.751194098877335,38.195331094041819,916.5],[30.75502083253005,38.171193235617039,917.1813],[30.7741545007936,38.148527197827889,916.5],[30.813893657956385,38.138224453378285,916.5],[30.843624434796681,38.111142953682162,916.5],[30.852160994483512,38.076996714934893,917.3206],[30.831555505584276,38.049915215238769,1008.4901],[30.81271620144787,38.0166520688729,938.5448],[30.79682053858275,37.996340944100808,957.8278],[30.777098142064915,37.980150917108574,1102.031],[30.771799587776542,37.959251064082224,934.2256],[30.778569962700573,37.940117395818675,916.5],[30.794759989692835,37.931875200258986,916.5],[30.81183310906647,37.910386618978379,916.5],[30.834499146855592,37.885660032299313,916.5],[30.848039896703654,37.877123472612482,916.5],[30.855693364009085,37.861522173874505,916.5],[30.876593217035435,37.852396885933416,916.5],[30.898376162443185,37.868292548798536,916.5],[30.905146537367187,37.8947853202404,977.0507],[30.918098558960992,37.92804846660627,916.5],[30.948123699928431,37.9636665259892,916.5],[30.966668639937723,37.990159297431063,918.8438],[30.958132080250891,38.022833715542674,929.0739],[30.947534971674173,38.05079830762017,917.1451],[30.944002602148572,38.067871426993804,920.2097],[30.938409683733084,38.092303649545727,916.5],[30.924280205630765,38.122034426386051,919.4932],[30.891900151646269,38.143523007666658,933.7847],[30.856282092263342,38.150293382590689,1000.532],[30.855104635754827,38.175903061651127,916.5],[30.868939749730004,38.208283115635624,1071.1633],[30.882774863705208,38.240368805492977,916.5],[30.893077608154812,38.274809408367389,918.5098],[30.860108825916058,38.280991055037134,925.9187],[30.809772560176526,38.270688310587531,1004.1666]]]}}