{"type": "Feature","bbox": [42.6276,39.0371,43.1692,39.3813],"geometry": {"type": "MultiPolygon","coordinates": [[[[42.9526,39.3571,2281.8457],[42.9449,39.3439,2219.4177],[42.9396,39.3381,2105.7385],[42.9336,39.3355,2041.4755],[42.9233,39.3341,1949.3333],[42.8133,39.3347,1994.1462],[42.7983,39.3365,1865.2158],[42.7705,39.3451,1725.5405],[42.7494,39.3439,1664.6321],[42.6833,39.3178,1846.7363],[42.6498,39.2933,2215.2346],[42.6276,39.2727,2019.5515],[42.6567,39.2627,2260.4326],[42.6688,39.2542,1999.5994],[42.7299,39.159,1608.9032],[42.7329,39.1446,1609.8829],[42.7338,39.0995,1656.5312],[42.7362,39.0911,1711.9684],[42.7462,39.0721,1737.2637],[42.7498,39.0371,1919.2498],[42.8279,39.0651,1859.8368],[42.9042,39.0678,1826.0085],[42.9333,39.0762,1803.6682],[42.9716,39.081,1777.7045],[42.9895,39.0873,1780.7557],[43.0225,39.0955,1851.0492],[43.0497,39.1105,1939.4944],[43.0769,39.1159,1956.6486],[43.0982,39.1228,2004.7159],[43.1282,39.1291,1923.9366],[43.1497,39.1392,2022.5814],[43.1615,39.1535,2138.8359],[43.1658,39.1604,2140.437],[43.1688,39.1747,2302.4443],[43.1692,39.2259,2498.386],[43.1656,39.2399,2484.6006],[43.155,39.2496,2473.2805],[43.1371,39.2569,2396.0945],[43.1132,39.2704,2480.5308],[43.0893,39.2806,2749.2932],[43.0827,39.2863,2896.6394],[43.0788,39.2939,2984.1699],[43.0781,39.3021,2781.5188],[43.0794,39.3075,2659.6746],[43.0823,39.3125,2556.6262],[43.0893,39.3182,2456.875],[43.102,39.3225,2889.489],[43.1321,39.3239,2660.728],[43.1226,39.3339,3069.6409],[43.1011,39.3511,2847.5503],[43.0774,39.3615,2595.2134],[43.0536,39.3761,2180.7961],[43.0408,39.3803,2158.5005],[43.0226,39.3813,2477.8838],[43.0049,39.3789,2250.1729],[42.9718,39.3663,2153.1016],[42.9526,39.3571,2281.8457]]]]}
,"properties": {"GID_2": "TUR.4.6_1","GID_0": "TUR","country": "Turkey","GID_1": "TUR.4_1","province": "Agri","NL_NAME_1": "NA","county": "Patnos","VARNAME_2": "NA","NL_NAME_2": "NA","TYPE_2": "District","ENGTYPE_2": "District","CC_2": "NA","HASC_2": "TR.AG.PA","name": "Patnos.county","area_km2": 1121.102,"hist_schema_id": "Elevation0-9000","hist_area_km2": {"1600": 44.5379,"1625": 141.9125,"1650": 48.9591,"1675": 62.3115,"1700": 50.9144,"1725": 63.2407,"1750": 58.2323,"1775": 72.3715,"1800": 75.1833,"1825": 53.5537,"1850": 41.7011,"1875": 32.2557,"1900": 24.4855,"1925": 20.4093,"1950": 17.8579,"1975": 15.4739,"2000": 13.7809,"2025": 11.2017,"2050": 11.792,"2075": 10.1988,"2100": 9.4434,"2125": 8.9833,"2150": 9.4744,"2175": 10.1138,"2200": 10.0966,"2225": 9.9791,"2250": 10.1916,"2275": 10.4212,"2300": 10.1272,"2325": 10.3079,"2350": 10.7176,"2375": 10.8155,"2400": 10.1424,"2425": 10.9466,"2450": 12.1287,"2475": 11.6203,"2500": 10.1917,"2525": 8.3526,"2550": 6.9572,"2575": 6.3005,"2600": 5.8408,"2625": 4.9876,"2650": 4.6102,"2675": 4.5114,"2700": 3.9376,"2725": 3.5596,"2750": 3.1825,"2775": 2.6413,"2800": 2.6742,"2825": 2.5758,"2850": 2.1165,"2875": 2.1983,"2900": 1.5422,"2925": 1.739,"2950": 1.4108,"2975": 1.3289,"3000": 1.2468,"3025": 1.0499,"3050": 0.8858,"3075": 0.3936,"3100": 0.3608,"3125": 0.2624,"3150": 0.1968,"3175": 0.1148,"3200": 0.0492}}}