{"type": "Feature","bbox": [27.4308,37.9605,27.9387,38.1923],"geometry": {"type": "MultiPolygon","coordinates": [[[[27.7201,37.9855,660.037],[27.7446,37.9743,513.1534],[27.7639,37.9718,513.2593],[27.7758,37.9723,347.2161],[27.8152,37.9826,914.9435],[27.8667,37.9847,1322.6396],[27.8984,37.9931,919.9975],[27.9236,37.9951,1408.7422],[27.9288,38.0078,1216.7212],[27.9387,38.0184,1445.2771],[27.9378,38.0559,786.2206],[27.9343,38.0663,623.681],[27.9264,38.0804,460.8407],[27.9207,38.1105,191.6877],[27.9065,38.1341,105.9182],[27.8924,38.1483,90.4487],[27.866,38.166,73.5782],[27.8556,38.1688,71.7221],[27.8203,38.1725,97.4516],[27.7655,38.1923,413.9761],[27.7575,38.1552,57.7612],[27.7538,38.1506,53.5213],[27.7439,38.1468,51.4507],[27.7283,38.1457,49.173],[27.5252,38.1467,20.6305],[27.5044,38.1446,20.3573],[27.4813,38.1386,17.4057],[27.491,38.1151,17.7288],[27.5003,38.0998,41.6005],[27.5001,38.0892,92.2249],[27.4905,38.078,63.7247],[27.4496,38.0457,9.7141],[27.4446,38.0391,9.393],[27.4308,38.0129,7.9441],[27.4331,38.0054,110.0589],[27.4452,37.9845,213.0269],[27.4514,37.9774,383.7215],[27.4677,37.9655,545.8055],[27.4777,37.9619,448.6708],[27.4884,37.9607,412.7675],[27.5031,37.9605,310.9096],[27.5066,37.9703,352.1227],[27.5135,37.9776,482.2132],[27.5199,37.9811,475.0089],[27.5318,37.9837,402.174],[27.6802,37.9836,587.2446],[27.7201,37.9855,660.037]]]]}
,"properties": {"GID_2": "TUR.41.26_1","GID_0": "TUR","country": "Turkey","GID_1": "TUR.41_1","province": "Izmir","NL_NAME_1": "NA","county": "Tire","VARNAME_2": "NA","NL_NAME_2": "NA","TYPE_2": "District","ENGTYPE_2": "District","CC_2": "NA","HASC_2": "TR.IZ.TI","name": "Tire.county","area_km2": 773.8442,"hist_schema_id": "Elevation0-9000","hist_area_km2": {"0": 16.7498,"25": 72.1251,"50": 62.9081,"75": 86.9626,"100": 55.392,"125": 36.3777,"150": 23.114,"175": 19.0434,"200": 16.6904,"225": 15.2556,"250": 13.0029,"275": 11.7349,"300": 11.403,"325": 10.2184,"350": 9.4185,"375": 10.6041,"400": 9.8533,"425": 10.3046,"450": 11.0566,"475": 11.491,"500": 10.4726,"525": 13.0456,"550": 13.1292,"575": 12.2103,"600": 11.7926,"625": 11.1578,"650": 11.7923,"675": 11.2241,"700": 9.8879,"725": 9.5367,"750": 8.6347,"775": 8.451,"800": 8.6846,"825": 7.7323,"850": 7.8824,"875": 7.2645,"900": 7.0474,"925": 8.1495,"950": 7.8824,"975": 7.6319,"1000": 6.6969,"1025": 6.0956,"1050": 5.2443,"1075": 4.142,"1100": 3.9751,"1125": 3.324,"1150": 3.0403,"1175": 2.7562,"1200": 2.9734,"1225": 3.107,"1250": 3.0235,"1275": 3.0402,"1300": 3.0736,"1325": 3.6916,"1350": 3.4409,"1375": 2.539,"1400": 2.0213,"1425": 1.303,"1450": 1.3532,"1475": 0.8353,"1500": 0.4344,"1525": 0.2673,"1550": 0.117,"1575": 0.0167,"1600": 0.0167}}}