{"type":"Feature","properties":{"GID_2":"TUR.55.10_1","GID_0":"TUR","country":"Turkey","GID_1":"TUR.55_1","province":"Malatya","NL_NAME_1":"NA","county":"Kuluncak","VARNAME_2":"NA","NL_NAME_2":"NA","TYPE_2":"District","ENGTYPE_2":"District","CC_2":"NA","HASC_2":"TR.ML.KU","name":"Kuluncak.county"},
"geometry":{"type": "MultiPolygon","coordinates": [[[[37.8211,38.703,1760.2175],[37.8325,38.7196,1814.6733],[37.8356,38.7274,1794.5608],[37.8372,38.7473,1788.4686],[37.8348,38.7642,1739.9393],[37.7784,38.8528,1627.4194],[37.7769,38.8611,1539.5457],[37.7771,38.8724,1516.8494],[37.7801,38.8832,1685.2942],[37.788,38.8964,1782.5277],[37.7889,38.9043,1616.4929],[37.7873,38.9092,1754.6129],[37.7723,38.9323,1449.5065],[37.7521,38.9527,1754.5129],[37.7434,38.9762,1716.0701],[37.7249,39.0021,1403.1508],[37.6904,39.0005,1583.3837],[37.6474,39.001,1591.5469],[37.6317,39.0029,1677.0635],[37.6138,39.0093,1970.3558],[37.6008,39.0117,1973.1804],[37.5881,39.0099,1881.6354],[37.5831,39.0069,1862.6447],[37.5649,38.9841,1516.63],[37.5588,38.9811,1479.5303],[37.5536,38.9684,1479.2079],[37.5519,38.9594,1489.599],[37.5511,38.941,1319.5454],[37.5527,38.9259,1384.2549],[37.556,38.9178,1429.4414],[37.5782,38.8833,1553.0037],[37.5854,38.8623,1646.353],[37.5935,38.8485,1873.3667],[37.5963,38.8366,1841.4166],[37.5946,38.8183,1594.7722],[37.5849,38.8017,1773.573],[37.5739,38.7764,1658.3713],[37.6279,38.7641,1539.4187],[37.6633,38.7399,1174.8247],[37.6761,38.7345,1210.2944],[37.6948,38.7326,1301.1206],[37.7567,38.733,1693.3397],[37.7751,38.7304,1692.7585],[37.7846,38.726,1670.2141],[37.8211,38.703,1760.2175]]]]}}