{"type":"Feature","properties":{"GID_2":"TUR.1.12_1","GID_0":"TUR","country":"Turkey","GID_1":"TUR.1_1","province":"Adana","NL_NAME_1":"NA","county":"Yumurtalık","VARNAME_2":"NA","NL_NAME_2":"NA","TYPE_2":"District","ENGTYPE_2":"District","CC_2":"NA","HASC_2":"TR.AA.YU","name":"Yumurtalık.county"},
"geometry":{"type": "MultiPolygon","coordinates": [[[[35.4145,36.5884,0.0],[35.4144,36.5883,0.0],[35.4143,36.5882,0.0],[35.4146,36.5882,0.0],[35.4145,36.5884,0.0]]],
[[[35.5915,36.7032,0.0],[35.5899,36.7032,0.0],[35.5899,36.6999,0.0],[35.5915,36.6996,0.0],[35.5904,36.7026,0.0],[35.5915,36.7032,0.0]]],
[[[35.6076,36.7049,0.0],[35.6051,36.7054,0.0],[35.6013,36.7002,0.0],[35.6063,36.701,0.0],[35.606,36.7038,0.0],[35.6087,36.704,0.0],[35.6076,36.7049,0.0]]],
[[[35.4481,36.7163,3.3153],[35.4434,36.715,3.1538],[35.4437,36.6644,2.6671],[35.4406,36.6518,1.3999],[35.4309,36.6321,1.1352],[35.4291,36.6041,29.3567],[35.4145,36.5885,0.0],[35.4207,36.5907,5.8908],[35.4393,36.5918,0.0],[35.4496,36.5907,0.9177],[35.4512,36.589,0.0],[35.4554,36.5901,0.0],[35.5004,36.5857,0.937],[35.531,36.5774,1.5041],[35.5493,36.5699,0.0],[35.5579,36.5646,0.0],[35.566,36.5649,0.0],[35.5687,36.5668,0.0],[35.5674,36.5704,-0.7009],[35.5696,36.5749,-1.0],[35.5724,36.5732,0.3438],[35.5738,36.5793,-0.1649],[35.5818,36.5907,2.0205],[35.601,36.5957,2.0338],[35.6071,36.5996,2.3749],[35.6176,36.6021,1.6938],[35.6218,36.6043,0.852],[35.6304,36.6129,0.3051],[35.6365,36.6257,0.4042],[35.6374,36.6401,0.0],[35.6363,36.6476,1.0096],[35.6379,36.6576,0.1262],[35.6421,36.6651,0.181],[35.6482,36.6715,0.0],[35.661,36.6799,0.2028],[35.6901,36.6918,0.0],[35.7038,36.7001,0.0],[35.7068,36.7026,0.0805],[35.7071,36.7049,0.0],[35.7085,36.7032,0.0],[35.7126,36.7049,0.0],[35.7132,36.7065,0.0],[35.7146,36.7051,0.0],[35.7226,36.7107,0.0],[35.7218,36.7115,0.0],[35.7154,36.7093,0.0],[35.7096,36.7107,0.0],[35.7118,36.7135,0.0],[35.7163,36.7154,0.0],[35.7238,36.7121,0.0],[35.7043,36.7232,0.0],[35.7043,36.721,0.0],[35.7068,36.7196,0.0409],[35.6974,36.7207,0.0],[35.6954,36.719,0.0],[35.7001,36.7188,-0.0662],[35.7015,36.7154,0.0],[35.7057,36.7176,0.0],[35.7065,36.7132,-0.197],[35.7032,36.7143,0.0],[35.7012,36.7132,-0.1576],[35.701,36.7149,0.0],[35.6974,36.7137,-0.2364],[35.6946,36.7163,0.0],[35.6899,36.7165,0.0],[35.6882,36.716,0.0],[35.6893,36.7143,-0.0094],[35.6837,36.7135,-0.044],[35.6818,36.7115,-0.1293],[35.6749,36.7121,0.0],[35.6679,36.7104,-0.2639],[35.671,36.7137,-0.0024],[35.6674,36.7137,-0.2164],[35.6624,36.7096,-0.057],[35.654,36.7079,-0.0468],[35.6574,36.7124,0.0],[35.6538,36.7149,-0.093],[35.654,36.7171,-0.2446],[35.6621,36.7249,0.0],[35.6613,36.7274,0.0],[35.6568,36.729,0.0],[35.6551,36.726,0.0],[35.6551,36.721,0.0],[35.6515,36.7176,-0.0108],[35.6512,36.714,0.0],[35.6529,36.7126,0.0],[35.6454,36.7076,-0.1006],[35.644,36.7151,-0.0712],[35.6449,36.7193,-0.2779],[35.6476,36.7212,0.0],[35.6454,36.7229,0.0],[35.6457,36.7265,0.0],[35.6524,36.7313,-0.0979],[35.6557,36.731,0.0],[35.656,36.7365,0.0],[35.6543,36.7399,0.0],[35.6521,36.7393,0.0],[35.6532,36.7376,0.0],[35.6493,36.734,0.0],[35.6449,36.7324,0.0],[35.6357,36.734,0.0],[35.6243,36.7337,0.0],[35.6243,36.731,0.0],[35.6282,36.7293,0.0],[35.6263,36.7274,0.0],[35.631,36.7263,0.0],[35.6296,36.7215,0.0],[35.624,36.7176,0.0],[35.6213,36.7132,-0.236],[35.6193,36.714,0.0],[35.6171,36.7121,0.0],[35.6165,36.7154,0.0],[35.6138,36.7163,0.0],[35.6115,36.7132,0.0592],[35.6071,36.7129,-0.0478],[35.606,36.7076,0.0],[35.6093,36.7054,0.0],[35.6096,36.7035,0.002],[35.6071,36.7004,0.0],[35.6013,36.699,0.0],[35.6021,36.6918,0.0],[35.5976,36.6921,0.0],[35.5968,36.6871,0.0],[35.5926,36.686,0.0],[35.5904,36.6821,0.0],[35.5846,36.6796,0.0],[35.5815,36.6801,0.0],[35.5807,36.6818,-0.1334],[35.5838,36.684,0.0],[35.584,36.6862,0.0],[35.5771,36.6826,-0.0313],[35.574,36.6854,-0.0863],[35.5743,36.6893,-0.058],[35.5724,36.6932,0.0],[35.5696,36.6915,-0.319],[35.5671,36.6921,0.0],[35.5693,36.6976,0.0],[35.5729,36.6985,-0.032],[35.569,36.7012,-0.0701],[35.5701,36.7065,0.0],[35.5596,36.7024,-0.3121],[35.5582,36.6985,-0.1779],[35.5543,36.6996,-0.0808],[35.5574,36.7057,0.1361],[35.5615,36.7074,-0.1398],[35.5638,36.7132,0.0],[35.5696,36.714,-0.1199],[35.5751,36.7121,0.0316],[35.5762,36.7101,0.0],[35.5807,36.7121,0.2709],[35.5876,36.7096,0.0],[35.5915,36.711,0.0235],[35.5921,36.7085,0.0],[35.5982,36.7074,0.0055],[35.5971,36.7015,0.016],[35.5996,36.6999,0.0178],[35.5985,36.7015,0.0],[35.6004,36.7032,0.0],[35.5979,36.7051,0.0],[35.604,36.7054,0.0],[35.5962,36.7107,0.0],[35.5957,36.7157,-0.0833],[35.5965,36.7188,-0.0457],[35.6004,36.7207,0.0],[35.6032,36.7271,-0.1083],[35.6063,36.7265,0.0],[35.6079,36.731,-0.1108],[35.6129,36.7321,-0.1822],[35.6085,36.7276,-0.0224],[35.609,36.7263,-0.0026],[35.6121,36.726,0.1983],[35.6099,36.7221,0.0],[35.6096,36.7163,0.0713],[35.6071,36.7149,0.02],[35.6093,36.7143,0.0591],[35.6157,36.7229,0.0],[35.6193,36.7343,1.159],[35.6218,36.739,1.7389],[35.6257,36.7412,0.1301],[35.6271,36.7457,2.3928],[35.6351,36.7463,-0.0125],[35.6371,36.7496,0.0061],[35.6413,36.751,0.0],[35.6415,36.7549,0.0],[35.6443,36.7582,1.8069],[35.6504,36.7585,0.0],[35.6526,36.7621,2.276],[35.6582,36.7613,0.0],[35.6668,36.7671,8.6369],[35.6735,36.7676,4.279],[35.6818,36.7657,0.9935],[35.6835,36.7674,6.3413],[35.6965,36.7676,5.4493],[35.7026,36.7657,5.0684],[35.7043,36.7632,0.1652],[35.7035,36.761,-0.0171],[35.7057,36.759,0.733],[35.7113,36.759,0.7054],[35.7182,36.7629,2.9588],[35.7285,36.7635,0.0],[35.7396,36.7679,1.0907],[35.7585,36.7704,0.0],[35.7946,36.7657,0.0],[35.7924,36.7704,1.2421],[35.8026,36.7788,33.2952],[35.8107,36.7793,3.2295],[35.8135,36.7821,6.4715],[35.8199,36.7832,0.3037],[35.8215,36.7863,4.0933],[35.826,36.786,1.0308],[35.8307,36.7885,0.0],[35.836,36.794,6.5061],[35.8418,36.7951,0.0],[35.8449,36.7974,0.0],[35.8443,36.7996,6.2011],[35.8471,36.8018,0.0],[35.8504,36.8107,5.0595],[35.859,36.8154,0.7018],[35.8693,36.8185,0.0],[35.8693,36.8218,1.542],[35.8765,36.8288,11.9718],[35.8851,36.8324,0.0],[35.886,36.8371,4.0013],[35.8979,36.839,2.7607],[35.9004,36.8432,9.9496],[35.8993,36.8474,20.7384],[35.9101,36.858,1.3331],[35.8749,36.8603,9.835],[35.84,36.8583,23.962],[35.8299,36.8546,36.4402],[35.8036,36.8391,64.4628],[35.7468,36.8168,81.3436],[35.7326,36.8138,72.5482],[35.6859,36.8137,90.7304],[35.6711,36.8162,223.1201],[35.6533,36.8228,219.4683],[35.6421,36.825,330.8365],[35.6192,36.8264,198.0342],[35.6056,36.8251,176.31],[35.6001,36.8221,122.8074],[35.5979,36.815,146.3112],[35.6017,36.8085,115.2638],[35.6159,36.7955,107.6508],[35.6174,36.7909,86.113],[35.616,36.7865,86.8514],[35.6104,36.7814,74.7557],[35.5933,36.7746,101.0443],[35.5791,36.7655,78.7842],[35.5697,36.7567,37.0489],[35.562,36.7449,11.6904],[35.5559,36.739,24.5419],[35.5478,36.7347,23.8881],[35.5406,36.7329,14.5766],[35.4945,36.7303,5.2723],[35.4481,36.7163,3.3153]]],
[[[35.6835,36.7157,0.0],[35.681,36.7163,0.0],[35.6774,36.714,0.0],[35.6796,36.7126,-0.024],[35.6835,36.7143,0.0],[35.6835,36.7157,0.0]]],
[[[35.6976,36.7268,0.0],[35.6963,36.7274,0.0],[35.6974,36.7238,0.0],[35.7029,36.7235,0.0],[35.7029,36.7243,0.0],[35.6976,36.7268,0.0]]]]}}