{"type":"Feature","properties":{"GID_2":"TUR.40.24_1","GID_0":"TUR","country":"Turkey","GID_1":"TUR.40_1","province":"Istanbul","NL_NAME_1":"NA","county":"Kağıthane","VARNAME_2":"NA","NL_NAME_2":"NA","TYPE_2":"District","ENGTYPE_2":"District","CC_2":"NA","HASC_2":"TR.IB.KG","name":"Kağıthane.county"},
"geometry":{"type": "MultiPolygon","coordinates": [[[[29.0021,41.1034,101.075],[28.9874,41.1025,34.9194],[28.9778,41.1073,77.7641],[28.9582,41.1099,76.3405],[28.9571,41.1003,80.587],[28.9596,41.0828,41.1756],[28.9406,41.0649,18.1346],[28.9311,41.0601,92.2077],[28.9282,41.0572,111.2963],[28.9282,41.055,84.5509],[28.936,41.0475,3.4865],[28.9354,41.0524,7.038],[28.9379,41.0551,0.5456],[28.9463,41.0576,0.7054],[28.944,41.0646,1.7333],[28.9465,41.064,2.8416],[28.9487,41.0583,1.4019],[28.9555,41.0583,68.7268],[28.9559,41.0648,26.73],[28.974,41.0765,49.7995],[28.9826,41.0799,68.193],[28.9973,41.0813,87.0903],[29.0021,41.1034,101.075]]]]}}