{"type":"Feature","properties":{"GID_2":"TUR.7.10_1","GID_0":"TUR","country":"Turkey","GID_1":"TUR.7_1","province":"Ankara","NL_NAME_1":"NA","county":"Etimesgut","VARNAME_2":"NA","NL_NAME_2":"NA","TYPE_2":"District","ENGTYPE_2":"District","CC_2":"NA","HASC_2":"TR.AN.ET","name":"Etimesgut.county"},
"geometry":{"type": "MultiPolygon","coordinates": [[[[32.5747,39.8668,1212.9058],[32.6128,39.8659,1112.3898],[32.6235,39.8672,1078.7561],[32.6364,39.8724,1002.7283],[32.6555,39.8858,966.5928],[32.6694,39.8989,916.6505],[32.6729,39.9069,867.7734],[32.6735,39.9125,841.1929],[32.6707,39.9233,826.9476],[32.6598,39.9328,817.2504],[32.6376,39.9432,830.0508],[32.6318,39.949,816.0504],[32.6264,39.9579,797.649],[32.6182,39.9642,792.9943],[32.6097,39.9651,791.5865],[32.6025,39.962,795.7987],[32.5983,39.9591,800.6227],[32.5986,39.9126,947.1259],[32.597,39.8964,983.4356],[32.5911,39.8847,1028.2881],[32.5747,39.8668,1212.9058]]]]}}