{"type":"Feature","properties":{"GID_2":"TUR.69.5_1","GID_0":"TUR","country":"Turkey","GID_1":"TUR.69_1","province":"Siirt","NL_NAME_1":"NA","county":"Merkez","VARNAME_2":"Siirt","NL_NAME_2":"NA","TYPE_2":"District","ENGTYPE_2":"District","CC_2":"NA","HASC_2":"TR.SI.SI","name":"Merkez.county"},
"geometry":{"type": "MultiPolygon","coordinates": [[[[41.9946,38.0079,1188.4841],[41.9782,38.0165,821.9036],[41.9629,38.0189,706.2803],[41.9335,38.0177,732.8577],[41.8985,38.0196,571.7242],[41.7757,38.0197,545.1041],[41.8054,37.991,588.3814],[41.811,37.9836,626.1492],[41.8136,37.9756,608.7384],[41.8168,37.9535,647.3088],[41.8258,37.9371,734.7519],[41.8324,37.9159,640.6172],[41.8619,37.8692,859.4279],[41.8824,37.8441,657.0913],[41.8969,37.8516,657.9827],[41.9183,37.8675,822.3571],[41.9297,37.8785,619.0587],[41.9429,37.8976,782.9468],[41.9713,37.9199,977.3375],[41.9876,37.9257,884.1597],[42.0211,37.9275,1124.5432],[42.0248,37.9509,1220.1815],[42.0224,37.9691,1376.658],[42.0176,37.977,1324.9297],[42.0002,37.9951,1237.2415],[41.9946,38.0079,1188.4841]]]]}}