{"type": "Feature","bbox": [36.1747,40.9332,36.4747,41.0642],"geometry": {"type": "MultiPolygon","coordinates": [[[[36.3724,40.9521,983.1374],[36.3921,40.9403,1033.5449],[36.4046,40.9354,1095.7386],[36.4278,40.9332,862.7175],[36.4499,40.9348,1042.2891],[36.4585,40.939,1060.4076],[36.4686,40.9511,984.0171],[36.4745,40.9634,1055.7863],[36.4747,40.9717,787.5976],[36.4721,40.9799,582.4113],[36.466,40.9874,580.7004],[36.4373,41.0118,528.2318],[36.4336,41.0169,324.9394],[36.4268,41.0335,470.1278],[36.423,41.0371,338.0957],[36.4075,41.0449,429.9031],[36.3954,41.0492,471.0469],[36.3782,41.0519,597.0274],[36.3254,41.0503,1022.3469],[36.2927,41.0512,873.9297],[36.2775,41.0547,805.3589],[36.2579,41.0642,854.3011],[36.2315,41.0623,756.4197],[36.2177,41.059,662.0941],[36.2087,41.0542,682.1981],[36.185,41.0362,745.8943],[36.1759,41.0242,742.4224],[36.1747,41.0131,764.721],[36.1771,41.0049,843.8994],[36.1844,40.9963,840.418],[36.2039,40.98,932.1694],[36.2362,40.9811,895.275],[36.256,40.9799,942.3379],[36.2665,40.9774,872.1215],[36.311,40.9602,822.3628],[36.3724,40.9521,983.1374]]]]}
,"properties": {"GID_2": "TUR.67.2_1","GID_0": "TUR","country": "Turkey","GID_1": "TUR.67_1","province": "Samsun","NL_NAME_1": "NA","county": "Asarcik","VARNAME_2": "NA","NL_NAME_2": "NA","TYPE_2": "District","ENGTYPE_2": "District","CC_2": "NA","HASC_2": "TR.SS.AS","name": "Asarcik.county","area_km2": 230.1412,"hist_schema_id": "Elevation0-9000","hist_area_km2": {"300": 0.128,"325": 0.4959,"350": 1.0237,"375": 1.0717,"400": 1.5198,"425": 2.0796,"450": 2.2558,"475": 2.5597,"500": 3.6958,"525": 3.5839,"550": 4.0479,"575": 4.96,"600": 5.3763,"625": 5.9364,"650": 6.5603,"675": 8.352,"700": 9.4875,"725": 13.8066,"750": 18.4928,"775": 20.3012,"800": 18.5106,"825": 16.272,"850": 14.6407,"875": 12.0498,"900": 11.1063,"925": 9.4265,"950": 8.1308,"975": 6.851,"1000": 5.2025,"1025": 4.4505,"1050": 2.7697,"1075": 2.1776,"1100": 1.4411,"1125": 0.6886,"1150": 0.5285,"1175": 0.1602}}}