{"type": "Feature","bbox": [33.5474,41.8112,33.8737,41.9979],"geometry": {"type": "MultiPolygon","coordinates": [[[[33.8069,41.9757,0.0],[33.7976,41.9771,0.0],[33.7924,41.9735,23.8495],[33.7807,41.9732,24.2747],[33.779,41.9749,0.0],[33.7724,41.976,1.0748],[33.7701,41.9793,0.0],[33.7671,41.9785,2.1449],[33.7654,41.9799,5.2686],[33.7743,41.981,0.7485],[33.7687,41.9821,0.0],[33.7535,41.9779,2.8521],[33.7412,41.9774,1.226],[33.7254,41.9785,4.7005],[33.7199,41.9804,15.1067],[33.6785,41.9804,54.7444],[33.6601,41.9849,2.9152],[33.6457,41.9837,49.6314],[33.6338,41.9846,23.9611],[33.6318,41.9863,0.0],[33.6207,41.9851,48.9844],[33.6168,41.9865,1.5007],[33.6176,41.9885,0.3484],[33.6149,41.9868,2.9117],[33.5818,41.9888,16.2885],[33.5785,41.9912,6.3737],[33.5721,41.9904,95.8532],[33.5696,41.9921,0.0],[33.5679,41.9912,28.0036],[33.5665,41.9932,10.4607],[33.5593,41.994,10.8919],[33.5588,41.996,0.0],[33.5474,41.9979,6.1243],[33.5507,41.9671,179.0759],[33.5589,41.9508,349.2658],[33.5607,41.9433,617.1252],[33.5588,41.9358,634.8558],[33.5493,41.9205,956.542],[33.5798,41.9046,705.4419],[33.7125,41.8537,815.4204],[33.742,41.8361,872.2498],[33.7746,41.8226,1147.3206],[33.8042,41.8116,959.0245],[33.8152,41.8112,1030.1318],[33.827,41.8156,1467.3186],[33.8737,41.8506,1362.7692],[33.8612,41.8782,1218.6379],[33.8373,41.9151,792.993],[33.8306,41.9478,229.3698],[33.8069,41.9757,0.0]]]]}
,"properties": {"GID_2": "TUR.46.13_1","GID_0": "TUR","country": "Turkey","GID_1": "TUR.46_1","province": "Kastamonu","NL_NAME_1": "NA","county": "İnebolu","VARNAME_2": "NA","NL_NAME_2": "NA","TYPE_2": "District","ENGTYPE_2": "District","CC_2": "NA","HASC_2": "TR.KS.IN","name": "İnebolu.county","area_km2": 331.8873,"hist_schema_id": "Elevation0-9000","hist_area_km2": {"0": 2.0017,"25": 2.6323,"50": 2.7901,"75": 3.2315,"100": 3.7992,"125": 3.752,"150": 4.3198,"175": 5.1082,"200": 5.124,"225": 5.4712,"250": 6.4016,"275": 6.5596,"300": 7.5374,"325": 7.4748,"350": 8.0903,"375": 8.2008,"400": 7.8857,"425": 8.3116,"450": 8.6902,"475": 8.7378,"500": 8.8171,"525": 9.1324,"550": 9.3536,"575": 9.4172,"600": 9.0545,"625": 9.2444,"650": 8.472,"675": 8.3463,"700": 7.9207,"725": 8.4895,"750": 7.843,"775": 8.1593,"800": 7.4656,"825": 7.5451,"850": 7.2612,"875": 6.9618,"900": 6.4724,"925": 6.4099,"950": 6.2523,"975": 6.0314,"1000": 6.4893,"1025": 5.8108,"1050": 6.0634,"1075": 5.432,"1100": 4.7375,"1125": 4.4217,"1150": 4.2479,"1175": 3.5375,"1200": 3.2372,"1225": 2.9532,"1250": 1.9585,"1275": 2.2742,"1300": 1.753,"1325": 1.2003,"1350": 0.616,"1375": 0.5213,"1400": 0.3633,"1425": 0.4265,"1450": 0.3633,"1475": 0.3634,"1500": 0.2054,"1525": 0.079,"1550": 0.0632}}}