{"type":"Feature","properties":{"GID_2":"TUR.20.11_1","GID_0":"TUR","country":"Turkey","GID_1":"TUR.20_1","province":"Burdur","NL_NAME_1":"NA","county":"Yeşilova","VARNAME_2":"NA","NL_NAME_2":"NA","TYPE_2":"District","ENGTYPE_2":"District","CC_2":"NA","HASC_2":"TR.BD.YL","name":"Yeşilova.county"},
"geometry":{"type": "MultiPolygon","coordinates": [[[[29.8453,37.7608,1121.4055],[29.8319,37.7527,1038.1774],[29.8108,37.7442,923.853],[29.7868,37.7295,865.4208],[29.7656,37.721,857.8235],[29.7321,37.6976,1270.4332],[29.7055,37.6861,1226.564],[29.672,37.6627,1447.4407],[29.6454,37.6512,1209.6648],[29.6092,37.6263,1424.6284],[29.6006,37.6231,1465.9854],[29.5897,37.6213,1546.3872],[29.5733,37.6116,1535.6128],[29.5535,37.6051,1462.0505],[29.5524,37.6008,1422.4545],[29.5489,37.5983,1406.822],[29.5268,37.5914,1606.7354],[29.5295,37.5611,1467.9766],[29.5286,37.4783,977.4426],[29.531,37.4626,1000.5934],[29.5368,37.4545,1186.9966],[29.5488,37.4473,1331.9987],[29.5795,37.4354,1442.2446],[29.6057,37.4441,1889.9532],[29.6294,37.4487,1748.9152],[29.6584,37.4572,1988.209],[29.683,37.4585,1792.309],[29.8426,37.4583,1372.515],[29.8584,37.4607,1395.2935],[29.9096,37.4796,1451.2201],[29.9288,37.4815,1582.2764],[29.9648,37.4813,1499.2983],[29.965699999999998,37.4955,1526.8926],[29.9692,37.506,1427.679],[29.9848,37.5293,1109.3464],[30.0053,37.5494,992.9215],[30.0088,37.5574,1025.024],[30.0092,37.5656,1146.1516],[30.0072,37.5737,979.3234],[29.9981,37.5899,926.5303],[29.9944,37.6118,1073.4969],[29.9917,37.6199,1195.8073],[29.9838,37.6292,1414.4624],[29.9568,37.6516,1683.5652],[29.953,37.6591,1465.1666],[29.953,37.6645,1569.4089],[29.957,37.672,1686.2644],[29.9763,37.6921,1519.2357],[29.9792,37.7,1433.5338],[29.9837,37.7247,1232.0587],[30.0029,37.7549,1587.5316],[30.0105,37.7723,1452.4971],[30.0,37.7788,1639.5574],[29.9905,37.7824,1751.0374],[29.967,37.784,1744.545],[29.9517,37.7817,1478.0106],[29.9268,37.7738,1376.5347],[29.869,37.7713,1513.9165],[29.8587,37.7684,1277.6865],[29.8453,37.7608,1121.4055]]]]}}