{"type": "Feature","bbox": [40.3456,40.6286,40.5144,40.9545],"geometry": {"type": "MultiPolygon","coordinates": [[[[40.4692,40.8613,240.8538],[40.466,40.8719,314.4221],[40.4517,40.8955,310.1092],[40.4214,40.9419,152.8707],[40.4093,40.9545,112.0811],[40.3943,40.9545,201.524],[40.3781,40.9419,257.0176],[40.3687,40.9329,219.3887],[40.3521,40.9071,145.854],[40.3493,40.8956,237.2745],[40.3485,40.853,418.1686],[40.3456,40.8348,822.5754],[40.3593,40.8167,855.2341],[40.3614,40.809,956.7882],[40.3594,40.8013,1112.3373],[40.3471,40.7834,1415.8573],[40.3488,40.7363,1866.5065],[40.3516,40.7226,1878.4177],[40.368,40.6968,2041.2003],[40.3849,40.6816,2269.5991],[40.4171,40.6566,2607.5205],[40.4398,40.6422,2775.1956],[40.4789,40.6286,2075.7449],[40.4954,40.6528,2440.3447],[40.5026,40.6738,2689.2632],[40.5118,40.6904,2607.8669],[40.514,40.7021,2568.0645],[40.5144,40.7234,2122.2117],[40.5119,40.7411,1916.1072],[40.5026,40.7577,1361.4354],[40.4956,40.7787,924.1897],[40.4865,40.7954,843.5889],[40.4815,40.8224,480.8724],[40.471,40.8445,290.7073],[40.4692,40.8613,240.8538]]]]}
,"properties": {"GID_2": "TUR.75.9_1","GID_0": "TUR","country": "Turkey","GID_1": "TUR.75_1","province": "Trabzon","NL_NAME_1": "NA","county": "Hayrat","VARNAME_2": "NA","NL_NAME_2": "NA","TYPE_2": "District","ENGTYPE_2": "District","CC_2": "NA","HASC_2": "TR.TB.HA","name": "Hayrat.county","area_km2": 345.9742,"hist_schema_id": "Elevation0-9000","hist_area_km2": {"50": 0.6726,"75": 1.9701,"100": 2.7232,"125": 4.3413,"150": 5.223,"175": 5.704,"200": 6.3776,"225": 6.522,"250": 5.6892,"275": 5.6258,"300": 4.777,"325": 4.3444,"350": 4.0721,"375": 3.7677,"400": 3.8803,"425": 3.9444,"450": 3.7523,"475": 3.1911,"500": 3.2876,"525": 3.0472,"550": 3.272,"575": 3.3362,"600": 2.855,"625": 2.9034,"650": 2.5985,"675": 2.4383,"700": 2.6791,"725": 2.9038,"750": 2.5509,"775": 2.6792,"800": 2.7917,"825": 2.8238,"850": 3.0808,"875": 2.5834,"900": 2.9365,"925": 2.6637,"950": 2.9688,"975": 2.7442,"1000": 2.4876,"1025": 3.2579,"1050": 3.4989,"1075": 3.226,"1100": 2.5841,"1125": 2.6483,"1150": 2.8892,"1175": 2.6806,"1200": 2.7127,"1225": 2.6005,"1250": 2.8412,"1275": 2.6005,"1300": 2.5044,"1325": 2.4883,"1350": 2.36,"1375": 2.6169,"1400": 2.1033,"1425": 2.1515,"1450": 2.2962,"1475": 1.9911,"1500": 1.7503,"1525": 1.7664,"1550": 1.7504,"1575": 2.1841,"1600": 1.7505,"1625": 1.7344,"1650": 1.7827,"1675": 1.9112,"1700": 2.0237,"1725": 1.7346,"1750": 1.9756,"1775": 1.8792,"1800": 2.1684,"1825": 2.3451,"1850": 2.6021,"1875": 2.4577,"1900": 2.6827,"1925": 2.6669,"1950": 2.8917,"1975": 2.7955,"2000": 2.7794,"2025": 3.2455,"2050": 3.1812,"2075": 3.2293,"2100": 3.5347,"2125": 3.3259,"2150": 3.1494,"2175": 3.1174,"2200": 3.246,"2225": 2.8445,"2250": 3.3589,"2275": 3.0053,"2300": 3.3912,"2325": 3.2627,"2350": 3.5844,"2375": 3.3111,"2400": 3.7613,"2425": 3.6489,"2450": 3.3757,"2475": 3.3276,"2500": 3.9063,"2525": 3.9226,"2550": 4.2926,"2575": 4.0837,"2600": 3.9553,"2625": 3.2317,"2650": 2.8621,"2675": 2.5727,"2700": 3.1194,"2725": 2.8461,"2750": 2.637,"2775": 2.4925,"2800": 2.3478,"2825": 1.8976,"2850": 1.3348,"2875": 1.4314,"2900": 1.2223,"2925": 0.965,"2950": 0.949,"2975": 0.4664,"3000": 0.4182,"3025": 0.1448,"3050": 0.0483,"3075": 0.0322}}}