{"type":"Feature","properties":{"GID_2":"TUR.56.11_1","GID_0":"TUR","country":"Turkey","GID_1":"TUR.56_1","province":"Manisa","NL_NAME_1":"NA","county":"Salihli","VARNAME_2":"NA","NL_NAME_2":"NA","TYPE_2":"District","ENGTYPE_2":"District","CC_2":"NA","HASC_2":"TR.MN.SL","name":"Salihli.county"},
"geometry":{"type": "MultiPolygon","coordinates": [[[[28.2585,38.3266,1360.2673],[28.2725,38.3549,1189.9064],[28.2966,38.3917,733.1168],[28.3043,38.4153,362.1552],[28.3173,38.4365,190.3534],[28.3229,38.443,148.4023],[28.3324,38.4508,123.6502],[28.3434,38.457,119.6544],[28.3739,38.4629,138.6709],[28.4013,38.4751,197.0838],[28.4141,38.4894,279.2585],[28.4544,38.5223,527.3281],[28.4693,38.5397,693.1932],[28.4805,38.5484,799.6702],[28.4783,38.5732,722.8345],[28.4534,38.6125,764.5718],[28.4513,38.6261,624.0622],[28.4546,38.6366,598.1812],[28.4681,38.6575,640.5372],[28.4892,38.6815,552.8306],[28.4273,38.6816,338.1238],[28.4192,38.6504,585.944],[28.412,38.6416,568.0984],[28.4007,38.6362,534.5262],[28.3772,38.6318,454.503],[28.354,38.6189,356.8232],[28.3423,38.617,238.6143],[28.3337,38.6204,234.0],[28.3259,38.6257,282.2368],[28.3046,38.645,423.0662],[28.2886,38.671,635.2009],[28.2823,38.7039,668.07],[28.2752,38.7126,820.7957],[28.2617,38.7238,608.9791],[28.2532,38.7389,566.0712],[28.2406,38.7516,480.2276],[28.2256,38.7399,489.235],[28.1895,38.7386,590.5216],[28.1641,38.7311,557.9579],[28.1524,38.7292,627.0668],[28.1179,38.7304,613.8888],[28.1204,38.7167,587.3086],[28.1202,38.7026,563.7867],[28.1174,38.6946,566.5928],[28.1117,38.6883,531.108],[28.104,38.6837,494.6616],[28.0857,38.6765,432.5945],[28.0663,38.6635,346.0771],[28.0519,38.6506,77.5797],[28.0366,38.629,76.5],[28.0205,38.6169,76.5],[28.0105,38.6133,76.5],[27.9998,38.6122,76.5],[27.9747,38.6152,76.5],[27.9704,38.5976,98.0232],[27.9714,38.5835,149.4496],[27.977,38.5732,147.414],[27.9965,38.5528,77.7248],[27.9995,38.5442,71.0858],[28.0005,38.5351,71.535],[28.0003,38.5229,72.5407],[27.998,38.511,100.9763],[27.9757,38.4761,334.4182],[27.971,38.4661,468.56],[27.9689,38.4307,817.5299],[27.9719,38.4064,1017.1617],[27.9747,38.4013,958.9237],[27.9846,38.3909,1090.6771],[28.0011,38.3995,1017.6672],[28.0168,38.4023,892.6998],[28.1052,38.4031,1217.9576],[28.1254,38.402,1177.3364],[28.1331,38.4001,1273.8052],[28.1397,38.3966,1318.3643],[28.1471,38.3894,1433.299],[28.1566,38.3637,1767.6388],[28.1612,38.3608,1876.8612],[28.2229,38.3359,1552.7859],[28.2585,38.3266,1360.2673]]]]}}