{"type":"Feature","properties":{"GID_2":"TUR.64.1_1","GID_0":"TUR","country":"Turkey","GID_1":"TUR.64_1","province":"Osmaniye","NL_NAME_1":"NA","county":"Bahçe","VARNAME_2":"NA","NL_NAME_2":"NA","TYPE_2":"District","ENGTYPE_2":"District","CC_2":"NA","HASC_2":"TR.OS.BA","name":"Bahçe.county"},
"geometry":{"type": "MultiPolygon","coordinates": [[[[36.7286,37.2761,1266.6967],[36.7093,37.2886,1134.1483],[36.6693,37.3189,1326.4548],[36.651,37.33,1340.8696],[36.6247,37.3077,1283.5555],[36.5418,37.2436,1549.094],[36.5256,37.234,1152.8813],[36.4471,37.2038,637.4474],[36.4365,37.1971,446.9449],[36.4285,37.1893,395.9196],[36.4186,37.1728,276.716],[36.4358,37.177,307.5523],[36.4515,37.1855,621.5542],[36.6251,37.1855,971.4908],[36.6445,37.1956,1690.4346],[36.6643,37.2106,1571.151],[36.6725,37.2189,1285.7563],[36.6853,37.2374,1506.5057],[36.7163,37.2631,1235.3354],[36.7286,37.2761,1266.6967]]]]}}