{"type": "Feature","bbox": [39.8059,40.6925,39.9987,40.9649],"geometry": {"type": "MultiPolygon","coordinates": [[[[39.8402,40.6925,1815.2446],[39.8573,40.7234,1647.6392],[39.8676,40.7333,1640.5319],[39.9053,40.7633,1385.261],[39.9107,40.7696,1065.1238],[39.9391,40.8137,1225.4457],[39.9422,40.8217,848.5573],[39.9437,40.8608,350.735],[39.9469,40.8723,641.9319],[39.9529,40.8799,560.7424],[39.9769,40.8996,461.436],[39.9855,40.9093,296.965],[39.9934,40.9339,169.433],[39.9987,40.9615,6.8134],[39.9915,40.9649,2.7897],[39.9835,40.9615,6.4984],[39.9743,40.9635,1.2592],[39.9704,40.9613,3.3583],[39.9546,40.9593,1.5313],[39.9521,40.9604,0.0],[39.9435,40.9565,5.9171],[39.9393,40.9579,0.0],[39.9382,40.9557,3.9506],[39.9321,40.9546,4.8499],[39.9021,40.954,0.0],[39.8918,40.9554,16.5889],[39.8847,40.954,0.0],[39.8838,40.8725,762.7391],[39.8813,40.854,787.3683],[39.857,40.8141,1556.5107],[39.8517,40.7872,1238.1128],[39.8486,40.779,1376.6101],[39.8204,40.7346,1643.1091],[39.8059,40.7166,1891.2258],[39.8267,40.7057,1173.1605],[39.8402,40.6925,1815.2446]]]]}
,"properties": {"GID_2": "TUR.75.3_1","GID_0": "TUR","country": "Turkey","GID_1": "TUR.75_1","province": "Trabzon","NL_NAME_1": "NA","county": "Arsin","VARNAME_2": "NA","NL_NAME_2": "NA","TYPE_2": "District","ENGTYPE_2": "District","CC_2": "NA","HASC_2": "TR.TB.AS","name": "Arsin.county","area_km2": 178.265,"hist_schema_id": "Elevation0-9000","hist_area_km2": {"0": 1.6492,"25": 3.4908,"50": 3.2828,"75": 2.7386,"100": 3.6676,"125": 4.0522,"150": 4.6131,"175": 5.27,"200": 5.8628,"225": 4.5496,"250": 3.765,"275": 3.0443,"300": 2.2596,"325": 2.3078,"350": 1.9714,"375": 2.308,"400": 2.3243,"425": 2.2443,"450": 2.6292,"475": 2.2123,"500": 2.5492,"525": 2.4371,"550": 2.6136,"575": 2.4375,"600": 2.6941,"625": 2.8384,"650": 2.9348,"675": 3.0476,"700": 3.3363,"725": 2.9031,"750": 2.9516,"775": 3.2564,"800": 3.7217,"825": 3.2408,"850": 3.257,"875": 3.4336,"900": 3.0967,"925": 3.3536,"950": 3.2897,"975": 3.2896,"1000": 2.7766,"1025": 2.6966,"1050": 2.7609,"1075": 3.0981,"1100": 2.9538,"1125": 2.5045,"1150": 2.5044,"1175": 2.8096,"1200": 2.2316,"1225": 2.5367,"1250": 2.1516,"1275": 2.1677,"1300": 2.2799,"1325": 1.943,"1350": 2.2962,"1375": 1.8947,"1400": 1.4293,"1425": 1.4132,"1450": 1.0277,"1475": 1.0922,"1500": 1.0761,"1525": 0.8996,"1550": 0.8996,"1575": 0.8032,"1600": 0.7069,"1625": 0.7069,"1650": 0.6909,"1675": 0.6267,"1700": 0.3856,"1725": 0.6428,"1750": 0.4178,"1775": 0.3535,"1800": 0.2731,"1825": 0.1928,"1850": 0.0642,"1875": 0.0321}}}