{"type":"Feature","properties":{"GID_2":"TUR.7.13_1","GID_0":"TUR","country":"Turkey","GID_1":"TUR.7_1","province":"Ankara","NL_NAME_1":"NA","county":"Güdül","VARNAME_2":"NA","NL_NAME_2":"NA","TYPE_2":"District","ENGTYPE_2":"District","CC_2":"NA","HASC_2":"TR.AN.GU","name":"Güdül.county"},
"geometry":{"type": "MultiPolygon","coordinates": [[[[32.3807,40.1956,1215.0608],[32.3448,40.2055,1250.5591],[32.337,40.2102,1250.3046],[32.3313,40.2166,1279.6021],[32.3279,40.2311,1242.0919],[32.3288,40.2959,1027.2075],[32.3269,40.3048,1190.1073],[32.3223,40.3125,1427.5463],[32.297,40.3331,1257.0662],[32.28,40.3431,1327.5673],[32.2595,40.3424,1251.1343],[32.2344,40.3375,1262.5988],[32.2067,40.3286,1328.0151],[32.1873,40.316,1504.366],[32.1568,40.2917,1141.5806],[32.152,40.2846,992.2041],[32.1513,40.2768,934.7362],[32.1595,40.2614,837.3395],[32.1598,40.2512,785.264],[32.1459,40.228,823.8104],[32.1239,40.1964,938.1039],[32.1205,40.1865,765.4513],[32.1226,40.1788,676.4094],[32.1449,40.1448,849.8285],[32.1469,40.1339,839.1516],[32.1457,40.1229,791.2753],[32.1641,40.1128,827.4645],[32.1979,40.1005,723.3086],[32.2365,40.0985,715.5002],[32.2672,40.1012,898.51],[32.297,40.1126,1049.9283],[32.3046,40.1174,910.5563],[32.3105,40.1234,791.774],[32.3182,40.1352,816.0898],[32.3295,40.1462,966.7498],[32.3481,40.1601,978.2555],[32.3689,40.1722,1185.1608],[32.3733,40.1787,1199.5654],[32.3807,40.1956,1215.0608]]]]}}