{"type": "Feature","bbox": [33.0757,41.5653,33.4997,41.888],"geometry": {"type": "MultiPolygon","coordinates": [[[[33.49,41.7621,1127.29],[33.468,41.7781,854.9636],[33.4604,41.7888,1043.323],[33.4605,41.7954,1128.6354],[33.4644,41.8021,1181.9373],[33.4925,41.8245,983.4067],[33.4975,41.8329,1150.7354],[33.4966,41.8374,1132.6504],[33.4864,41.8553,1072.5803],[33.4651,41.8798,1130.1061],[33.4453,41.8712,826.934],[33.4349,41.8686,1056.2122],[33.3883,41.8676,902.6266],[33.3695,41.8701,827.9692],[33.3236,41.888,713.7086],[33.2938,41.868899999999996,762.0922],[33.2809,41.8553,606.3792],[33.2778,41.8415,629.9332],[33.2787,41.8303,521.9987],[33.2814,41.8223,512.6134],[33.2912,41.8063,990.1013],[33.2925,41.7953,847.9792],[33.2914,41.7899,890.9614],[33.2869,41.7822,1112.6976],[33.2802,41.7756,1168.0443],[33.2589,41.7597,1050.0262],[33.2501,41.7547,1267.0554],[33.2199,41.7431,1285.9561],[33.2057,41.7403,1313.8293],[33.0757,41.74,1040.5298],[33.093,41.7179,625.2483],[33.1004,41.7061,480.1451],[33.1064,41.7002,481.5554],[33.1319,41.6883,880.463],[33.143,41.6812,744.5012],[33.1993,41.6382,1421.5619],[33.2112,41.6274,1250.7347],[33.2159,41.6198,1074.4553],[33.2177,41.6116,1263.9966],[33.2176,41.5658,1212.1072],[33.2867,41.5653,957.0549],[33.3063,41.5678,1015.5145],[33.3279,41.5747,1168.1807],[33.3625,41.5788,1164.3499],[33.3878,41.5864,1096.9617],[33.4378,41.5901,1008.7498],[33.4475,41.5932,1084.5707],[33.4738,41.6065,1151.8173],[33.4969,41.6425,1193.2151],[33.4997,41.6497,1242.9562],[33.4991,41.6575,1367.6809],[33.4907,41.6738,1244.851],[33.4885,41.6861,1206.3014],[33.4881,41.7347,1016.1951],[33.49,41.7621,1127.29]]]]}
,"properties": {"GID_2": "TUR.46.4_1","GID_0": "TUR","country": "Turkey","GID_1": "TUR.46_1","province": "Kastamonu","NL_NAME_1": "NA","county": "Azdavay","VARNAME_2": "NA","NL_NAME_2": "NA","TYPE_2": "District","ENGTYPE_2": "District","CC_2": "NA","HASC_2": "TR.KS.AZ","name": "Azdavay.county","area_km2": 738.4366,"hist_schema_id": "Elevation0-9000","hist_area_km2": {"425": 0.1424,"450": 0.8062,"475": 1.723,"500": 1.9604,"525": 2.7512,"550": 3.068,"575": 3.6533,"600": 4.7921,"625": 5.8515,"650": 6.5487,"675": 7.9558,"700": 9.1107,"725": 10.2015,"750": 11.9093,"775": 13.1592,"800": 15.0736,"825": 21.4878,"850": 25.1125,"875": 27.9462,"900": 34.8036,"925": 39.4115,"950": 45.5731,"975": 48.2193,"1000": 49.9624,"1025": 49.312,"1050": 47.5529,"1075": 42.3891,"1100": 37.8916,"1125": 33.681,"1150": 28.9637,"1175": 26.9859,"1200": 21.6524,"1225": 16.1132,"1250": 13.4711,"1275": 10.6067,"1300": 8.9961,"1325": 5.6542,"1350": 2.0113,"1375": 0.8391,"1400": 0.3484,"1425": 0.3327,"1450": 0.301,"1475": 0.1109}}}