{"type":"Feature","properties":{"GID_2":"TUR.23.3_1","GID_0":"TUR","country":"Turkey","GID_1":"TUR.23_1","province":"Çankiri","NL_NAME_1":"NA","county":"Çerkeş","VARNAME_2":"NA","NL_NAME_2":"NA","TYPE_2":"District","ENGTYPE_2":"District","CC_2":"NA","HASC_2":"TR.CI.CE","name":"Çerkeş.county"},
"geometry":{"type": "MultiPolygon","coordinates": [[[[32.8621,40.632,1959.0747],[32.8803,40.6491,1850.8472],[32.8884,40.6679,1663.8411],[32.899,40.6795,1801.2314],[32.9101,40.6872,1702.1298],[32.9319,40.6963,1561.0591],[32.9614,40.7135,1531.42],[32.9884,40.7239,1354.1357],[33.0027,40.7268,1452.4557],[33.0738,40.7262,1450.7395],[33.0538,40.7515,1603.1788],[33.0471,40.7726,1386.9117],[33.0377,40.789,1179.2566],[33.0321,40.8075,1224.5603],[33.0227,40.8239,1316.4362],[33.0201,40.8407,1374.4131],[33.0206,40.8666,1417.1506],[33.0238,40.8775,1526.1306],[33.0296,40.8849,1506.9343],[33.0743,40.9211,996.6738],[33.093,40.9494,1200.1206],[33.0984,40.9679,1567.9783],[33.1056,40.9814,1444.8978],[33.1075,40.9889,1354.3169],[33.0975,41.0086,1135.8853],[33.092,41.0144,1088.7382],[33.0858,41.017,960.766],[33.0675,41.0188,992.8853],[33.0107,41.0158,907.3862],[32.9859,41.0086,1112.6525],[32.9511,41.0047,1086.014],[32.9258,40.997,1408.0725],[32.891,40.9931,1023.4548],[32.8694,40.9859,1400.7338],[32.8098,40.9737,1491.8918],[32.7437,40.9708,1344.6055],[32.7191,40.9631,1299.7902],[32.6919,40.9579,1317.4365],[32.6748,40.9483,1280.7003],[32.6255,40.9105,1011.1086],[32.6141,40.9043,993.9075],[32.5986,40.8985,1002.51],[32.5875,40.8919,1060.2552],[32.5193,40.8392,1248.0756],[32.5371,40.8197,1338.5725],[32.5401,40.8088,1393.0214],[32.5399,40.7976,1520.0542],[32.537,40.7867,1505.6062],[32.527,40.7675,1617.8177],[32.5241,40.7374,1714.8434],[32.5214,40.7286,1740.3396],[32.5013,40.7043,1498.0011],[32.6305,40.7044,1787.588],[32.6549,40.7026,1620.7557],[32.7334,40.6727,1656.5193],[32.7582,40.6668,1852.6595],[32.7718,40.6598,1755.4449],[32.7936,40.6549,1574.137],[32.8413,40.6367,1718.17],[32.8621,40.632,1959.0747]]]]}}