{"type": "Feature","bbox": [41.2115,41.1172,41.4693,41.3454],"geometry": {"type": "MultiPolygon","coordinates": [[[[41.2741,41.3454,22.6124],[41.2663,41.3421,0.0],[41.2571,41.3354,9.3936],[41.2529,41.3307,4.1748],[41.2529,41.3288,65.2401],[41.2465,41.3232,41.3452],[41.244,41.3229,0.2875],[41.241,41.3176,80.1909],[41.2329,41.3126,36.1182],[41.2254,41.3104,25.5876],[41.2201,41.3054,51.5433],[41.2115,41.3029,11.3949],[41.232,41.2813,59.1244],[41.2479,41.2556,266.24],[41.2503,41.2447,489.1987],[41.2515,41.2192,806.866],[41.2556,41.2085,684.3162],[41.2889,41.1786,1484.8132],[41.3003,41.1619,1920.0504],[41.3068,41.1552,1808.4146],[41.3357,41.1333,2176.7141],[41.3753,41.1182,2291.5637],[41.4093,41.1172,2408.613],[41.4273,41.1412,2650.675],[41.4364,41.1646,2627.0918],[41.4584,41.1874,2724.7759],[41.4693,41.2076,2176.3167],[41.4687,41.2142,1876.7494],[41.4629,41.2281,1435.5122],[41.4614,41.2396,1358.9713],[41.4621,41.3066,1129.6438],[41.4453,41.3125,1519.0122],[41.4309,41.3145,941.1636],[41.3978,41.314,390.0925],[41.3712,41.3083,498.7325],[41.3479,41.3131,332.807],[41.3195,41.3156,54.3906],[41.3031,41.3217,63.7974],[41.2811,41.338,81.6675],[41.2741,41.3454,22.6124]]]]}
,"properties": {"GID_2": "TUR.10.2_1","GID_0": "TUR","country": "Turkey","GID_1": "TUR.10_1","province": "Artvin","NL_NAME_1": "NA","county": "Arhavi","VARNAME_2": "NA","NL_NAME_2": "NA","TYPE_2": "District","ENGTYPE_2": "District","CC_2": "NA","HASC_2": "TR.AV.AH","name": "Arhavi.county","area_km2": 343.3628,"hist_schema_id": "Elevation0-9000","hist_area_km2": {"0": 0.2866,"25": 0.8599,"50": 1.5447,"75": 2.1182,"100": 2.4528,"125": 3.1695,"150": 3.2652,"175": 3.6155,"200": 3.4882,"225": 3.743,"250": 3.6636,"275": 3.7593,"300": 3.6638,"325": 3.8869,"350": 3.9668,"375": 4.0466,"400": 3.967,"425": 4.0945,"450": 4.2701,"475": 4.1906,"500": 3.7446,"525": 3.9679,"550": 4.0636,"575": 4.0,"600": 4.3667,"625": 4.2075,"650": 4.5104,"675": 4.3509,"700": 4.4308,"725": 4.8612,"750": 4.5266,"775": 5.2759,"800": 5.9294,"825": 4.957,"850": 5.4354,"875": 5.3239,"900": 5.6268,"925": 5.3719,"950": 5.0849,"975": 5.1013,"1000": 5.3083,"1025": 4.6869,"1050": 4.5912,"1075": 4.2888,"1100": 4.0814,"1125": 4.2092,"1150": 3.9705,"1175": 3.8906,"1200": 4.4328,"1225": 3.9709,"1250": 3.4445,"1275": 3.6199,"1300": 3.6362,"1325": 3.5244,"1350": 3.3493,"1375": 3.509,"1400": 3.3017,"1425": 3.3336,"1450": 3.1423,"1475": 3.1583,"1500": 2.7756,"1525": 2.999,"1550": 2.8875,"1575": 3.0947,"1600": 3.2703,"1625": 2.9352,"1650": 2.6961,"1675": 2.489,"1700": 2.5688,"1725": 2.154,"1750": 2.7765,"1775": 2.1223,"1800": 2.633,"1825": 2.3138,"1850": 2.0424,"1875": 2.4096,"1900": 2.0265,"1925": 2.298,"1950": 2.3619,"1975": 2.1543,"2000": 2.0266,"2025": 1.9949,"2050": 1.8832,"2075": 2.1544,"2100": 2.2023,"2125": 1.8515,"2150": 2.1387,"2175": 1.9631,"2200": 1.7077,"2225": 1.8195,"2250": 1.7714,"2275": 1.6119,"2300": 1.532,"2325": 2.1226,"2350": 1.5799,"2375": 1.8033,"2400": 1.4204,"2425": 1.4043,"2450": 1.5001,"2475": 1.564,"2500": 1.5321,"2525": 1.4682,"2550": 1.3565,"2575": 1.5321,"2600": 1.2608,"2625": 1.1332,"2650": 1.4045,"2675": 1.165,"2700": 1.3247,"2725": 1.0055,"2750": 1.0855,"2775": 0.814,"2800": 0.8939,"2825": 0.9737,"2850": 0.7184,"2875": 0.6225,"2900": 0.4469,"2925": 0.3352,"2950": 0.1276,"2975": 0.0957,"3000": 0.0957,"3025": 0.0957,"3050": 0.0957,"3075": 0.0479,"3100": 0.0319}}}