{"type":"Feature","properties":{"GID_2":"TUR.27.6_1","GID_0":"TUR","country":"Turkey","GID_1":"TUR.27_1","province":"Düzce","NL_NAME_1":"NA","county":"Kaynaşlı","VARNAME_2":"NA","NL_NAME_2":"NA","TYPE_2":"District","ENGTYPE_2":"District","CC_2":"NA","HASC_2":"TR.DU.KA","name":"Kaynaşlı.county"},
"geometry":{"type": "MultiPolygon","coordinates": [[[[31.4315,40.8051,1054.5359],[31.3853,40.8128,828.4985],[31.3588,40.8277,767.1645],[31.3488,40.8314,784.8902],[31.3299,40.8337,502.3011],[31.2986,40.8338,553.8959],[31.2835,40.8319,463.156],[31.2704,40.8263,421.0477],[31.2554,40.8137,242.3112],[31.2422,40.7955,214.5442],[31.2283,40.7882,219.7366],[31.2092,40.7862,195.4372],[31.1284,40.7868,150.257],[31.126,40.7675,150.4072],[31.1169,40.7506,331.4861],[31.1111,40.7322,803.1744],[31.0863,40.6926,1463.0255],[31.0784,40.6704,1476.8773],[31.12,40.6717,1513.7502],[31.1556,40.6816,1101.1079],[31.1908,40.6818,1201.0369],[31.2086,40.6765,1296.1447],[31.2461,40.6507,1527.8053],[31.2649,40.6468,1469.0271],[31.2884,40.6483,1486.7231],[31.3166,40.6572,1440.9995],[31.3609,40.6615,1352.0355],[31.3789,40.6763,1324.8154],[31.4192,40.6934,1066.5974],[31.4238,40.6966,1007.9469],[31.4271,40.7013,944.3685],[31.4293,40.7156,939.8751],[31.429,40.785,1066.1125],[31.4315,40.8051,1054.5359]]]]}}