{"type":"Feature","properties":{"GID_2":"TUR.43.1_1","GID_0":"TUR","country":"Turkey","GID_1":"TUR.43_1","province":"Karabük","NL_NAME_1":"NA","county":"Eflani","VARNAME_2":"NA","NL_NAME_2":"NA","TYPE_2":"District","ENGTYPE_2":"District","CC_2":"NA","HASC_2":"TR.KB.EF","name":"Eflani.county"},
"geometry":{"type": "MultiPolygon","coordinates": [[[[32.8232,41.5131,853.3044],[32.8344,41.5001,568.1533],[32.8359,41.4957,539.794],[32.8351,41.4912,510.4551],[32.8209,41.4686,657.5913],[32.7797,41.4362,606.2368],[32.7694,41.425,513.4849],[32.7668,41.4173,588.3425],[32.7657,41.4066,773.3336],[32.766,41.3932,1013.277],[32.7681,41.3827,984.5227],[32.7727,41.3754,928.1132],[32.7794,41.369,990.7654],[32.8307,41.3289,1021.5703],[32.8387,41.3201,1003.9301],[32.8477,41.3058,842.3888],[32.8709,41.2858,890.9933],[32.8817,41.2792,962.9556],[32.8906,41.2761,950.9865],[32.9138,41.2755,968.8947],[32.9511,41.3336,992.1132],[32.9604,41.3407,968.7756],[32.9872,41.3528,1063.3844],[33.0109,41.3708,1027.4288],[33.0192,41.3799,968.3649],[33.0264,41.3921,924.2853],[33.0448,41.4165,1016.0037],[33.0247,41.4382,974.1374],[32.9604,41.5394,851.3737],[32.9525,41.5464,874.8036],[32.945,41.5506,1079.0178],[32.9256,41.554,1178.1385],[32.8581,41.5285,735.0881],[32.8232,41.5131,853.3044]]]]}}