{"type": "Feature","bbox": [38.9048,37.1832,39.8836,38.0307],"geometry": {"type": "MultiPolygon","coordinates": [[[[38.9781,37.7954,576.8145],[38.9643,37.7761,537.0],[38.9587,37.7579,537.0],[38.954,37.751,537.0],[38.9469,37.7458,537.0],[38.9265,37.7373,537.0],[38.9048,37.7248,537.0],[38.9181,37.6967,583.3087],[38.9293,37.6846,572.4282],[38.9402,37.6758,582.106],[38.962,37.6634,543.7927],[38.9957,37.6589,537.0],[39.0095,37.6525,559.7949],[39.0188,37.6501,552.134],[39.0901,37.6494,571.1148],[39.1056,37.6477,577.8047],[39.122,37.6402,600.4718],[39.1569,37.613,624.9926],[39.1718,37.6049,630.7534],[39.1903,37.6024,655.8354],[39.2408,37.6028,724.8867],[39.2559,37.6014,721.5269],[39.2692,37.596,728.8192],[39.2775,37.5902,714.2791],[39.2881,37.5784,688.1614],[39.2907,37.5701,718.2142],[39.2913,37.5501,723.062],[39.2903,37.5416,713.0363],[39.2865,37.5311,734.4393],[39.2709,37.5078,718.6558],[39.2505,37.4874,684.3762],[39.2363,37.4683,659.5248],[39.2229,37.4583,678.8077],[39.199,37.4478,665.3645],[39.1899,37.4405,653.9076],[39.186,37.4331,660.3867],[39.1822,37.4152,683.1901],[39.201,37.4037,732.6921],[39.2119,37.3918,756.1744],[39.2144,37.3831,753.1061],[39.2157,37.3533,692.0543],[39.2214,37.3433,692.5035],[39.2289,37.3382,695.741],[39.2351,37.3361,699.826],[39.2732,37.3321,724.3835],[39.2815,37.3279,744.3018],[39.2878,37.3221,761.7974],[39.3021,37.2989,744.8091],[39.3085,37.2776,708.2897],[39.3164,37.2637,706.2456],[39.3229,37.2308,671.3887],[39.3368,37.2075,704.6755],[39.3456,37.2,697.1937],[39.3514,37.1973,685.9033],[39.3626,37.195,681.8337],[39.431,37.1938,669.4688],[39.4415,37.1909,666.7456],[39.4549,37.1832,613.538],[39.4656,37.1868,632.147],[39.4832,37.2046,640.92],[39.5298,37.2409,624.4449],[39.5438,37.2492,642.2734],[39.5618,37.2559,615.5493],[39.5705,37.2632,612.017],[39.5725,37.2673,612.1545],[39.5727,37.2734,613.9026],[39.5637,37.2889,616.8895],[39.5606,37.2996,642.62],[39.5602,37.3109,634.8328],[39.5631,37.322,667.8286],[39.5687,37.3292,676.7878],[39.5813,37.3397,703.3608],[39.5978,37.3509,706.2313],[39.6142,37.3593,708.7098],[39.6203,37.3646,707.3698],[39.6326,37.3819,747.2073],[39.6378,37.4122,815.3934],[39.6533,37.4384,839.363],[39.6889,37.4706,924.6182],[39.7004,37.4873,972.7221],[39.7096,37.4963,990.0869],[39.7269,37.5072,1013.9189],[39.7607,37.5192,1078.1211],[39.7794,37.5208,1119.5411],[39.8491,37.521,1218.5653],[39.8836,37.529,1286.5759],[39.8798,37.5439,1366.599],[39.8814,37.5563,1428.1031],[39.8728,37.5776,1487.6448],[39.8646,37.5914,1509.963],[39.8617,37.6036,1580.028],[39.8616,37.7401,1700.1394],[39.8582,37.7523,1607.9424],[39.8495,37.7629,1622.1438],[39.8232,37.788,1605.6857],[39.8122,37.793,1551.7673],[39.7992,37.8018,1441.972],[39.7616,37.8334,1243.4309],[39.6856,37.8348,1075.8423],[39.6748,37.8358,1072.9143],[39.6616,37.8402,1065.7115],[39.6262,37.8646,1080.1165],[39.5988,37.8772,1153.5825],[39.5509,37.9116,1253.5343],[39.5297,37.9203,1174.2228],[39.5209,37.9255,1081.606],[39.4497,37.9797,993.0207],[39.4406,37.9846,966.7561],[39.4105,37.996,799.3687],[39.3886,37.9984,825.982],[39.2772,37.9979,928.4957],[39.2548,37.9992,958.526],[39.2413,38.0036,959.2063],[39.2152,38.0192,1094.542],[39.1787,38.0307,537.0],[39.1692,38.0291,664.8315],[39.1425,38.0197,537.0],[39.0824,37.9964,537.0],[39.0598,37.9822,537.0],[39.0472,37.9717,570.7794],[39.0408,37.965,632.2941],[39.0292,37.9483,840.7742],[38.9954,37.9185,700.5902],[38.9801,37.8953,537.0],[38.9764,37.8844,650.8234],[38.9755,37.8696,537.0],[38.9758,37.8214,537.0],[38.9781,37.7954,576.8145]]]]}
,"properties": {"GID_2": "TUR.68.9_1","GID_0": "TUR","country": "Turkey","GID_1": "TUR.68_1","province": "Sanliurfa","NL_NAME_1": "NA","county": "Siverek","VARNAME_2": "NA","NL_NAME_2": "NA","TYPE_2": "District","ENGTYPE_2": "District","CC_2": "NA","HASC_2": "TR.SU.SI","name": "Siverek.county","area_km2": 4405.699,"hist_schema_id": "Elevation0-9000","hist_area_km2": {"525": 57.38,"550": 51.931,"575": 75.629,"600": 98.679,"625": 140.522,"650": 146.77,"675": 204.807,"700": 294.999,"725": 309.061,"750": 279.086,"775": 295.456,"800": 206.578,"825": 195.996,"850": 150.11,"875": 142.035,"900": 128.328,"925": 167.587,"950": 161.451,"975": 131.518,"1000": 97.849,"1025": 87.972,"1050": 81.068,"1075": 92.612,"1100": 120.6,"1125": 95.168,"1150": 78.659,"1175": 68.25,"1200": 57.204,"1225": 52.634,"1250": 39.584,"1275": 28.089,"1300": 20.587,"1325": 16.848,"1350": 15.275,"1375": 17.107,"1400": 14.236,"1425": 12.708,"1450": 12.389,"1475": 12.373,"1500": 10.675,"1525": 10.305,"1550": 10.422,"1575": 8.994,"1600": 8.892,"1625": 9.948,"1650": 8.741,"1675": 9.379,"1700": 9.53,"1725": 9.781,"1750": 8.942,"1775": 9.429,"1800": 11.46,"1825": 12.583,"1850": 5.1,"1875": 1.409,"1900": 0.721,"1925": 0.252}}}