{"type":"Feature","properties":{"GID_1":"TUR.21_1","GID_0":"TUR","country":"Turkey","province":"Bursa","VARNAME_1":"Burssa|Brusa|Brussa|Brousse","NL_NAME_1":"NA","TYPE_1":"Il","ENGTYPE_1":"Province","CC_1":"NA","HASC_1":"TR.BU","ISO_1":"TR-16","name":"Bursa.province"},
"geometry":{"type": "MultiPolygon","coordinates": [[[[28.9377,39.6115,538.7471],[28.9471,39.6058,600.6824],[28.9633,39.5893,591.7124],[28.9736,39.5852,550.7906],[28.9848,39.5745,388.831],[28.9976,39.5669,477.1699],[29.0214,39.5577,536.9915],[29.0321,39.5553,528.057],[29.0631,39.5521,512.0513],[29.0923,39.5436,658.96],[29.1167,39.5422,643.3699],[29.1455,39.5431,641.5039],[29.1571,39.5451,638.6441],[29.1787,39.552,671.0603],[29.2164,39.5542,869.8525],[29.2265,39.5563,857.3002],[29.2354,39.5632,1041.6133],[29.2434,39.5735,1015.5038],[29.2472,39.5812,1044.6829],[29.2489,39.5936,1004.4842],[29.2497,39.6375,901.925],[29.2521,39.6463,841.5345],[29.2612,39.6629,851.0612],[29.2671,39.6928,1126.861],[29.2833,39.7184,1159.1427],[29.3029,39.7373,986.8986],[29.3136,39.7532,915.4833],[29.3364,39.7762,947.4377],[29.3458,39.7993,630.2443],[29.366,39.8229,788.9113],[29.3729,39.844,952.3317],[29.382,39.8604,1055.2174],[29.3878,39.8789,1407.4939],[29.4068,39.9065,1686.6765],[29.4114,39.9099,1838.9899],[29.4452,39.9239,1574.0522],[29.4589,39.9239,1366.4564],[29.5395,39.8931,1250.6335],[29.5912,39.8911,1259.4858],[29.6272,39.892,1474.701],[29.6385,39.8939,1525.3347],[29.6562,39.9005,1159.5134],[29.677,39.9055,1115.7595],[29.7045,39.9031,1138.1975],[29.7457,39.9023,1221.8337],[29.7678,39.905,1102.5983],[29.7752,39.9101,943.4684],[29.786,39.9242,875.2929],[29.7886,39.9301,986.6835],[29.7903,39.9427,1102.7642],[29.7893,39.9677,1121.0708],[29.7644,39.9738,1006.2942],[29.755,39.9777,1012.7404],[29.7236,40.0017,872.656],[29.7176,40.0087,743.0786],[29.6909,40.0504,494.9361],[29.688,40.0576,562.677],[29.688,40.0628,533.8262],[29.6984,40.084,876.0781],[29.7003,40.101,882.4934],[29.7039,40.1114,754.3483],[29.7128,40.1279,675.8066],[29.716,40.1617,565.577],[29.7184,40.1698,489.587],[29.7314,40.1908,384.401],[29.739,40.2002,433.884],[29.7569,40.2147,399.3926],[29.7739,40.2253,493.7433],[29.792,40.2324,394.0717],[29.7993,40.2376,492.2369],[29.8172,40.2622,285.1731],[29.8332,40.2903,254.8734],[29.8325,40.2982,398.2951],[29.8106,40.3324,425.294],[29.8059,40.3454,446.8881],[29.8053,40.4101,245.4984],[29.8092,40.4258,407.0354],[29.8389,40.4725,1103.1748],[29.8569,40.4898,1090.377],[29.8916,40.5151,1056.6938],[29.9247,40.5282,1137.2974],[29.9415,40.5315,961.5704],[29.938,40.542,1167.7925],[29.9288,40.5585,1044.8069],[29.9249,40.5775,1024.8878],[29.9013,40.58,900.1328],[29.8801,40.5871,816.1118],[29.8563,40.5916,970.0906],[29.8053,40.6108,746.087],[29.7863,40.6134,811.2362],[29.7666,40.6134,798.9613],[29.7513,40.6117,774.405],[29.7073,40.5971,625.0875],[29.6725,40.5877,638.1434],[29.6249,40.5692,649.663],[29.5978,40.5638,498.5492],[29.5763,40.5568,520.916],[29.5648,40.5554,444.8455],[29.4526,40.5552,500.6991],[29.431,40.5603,374.4225],[29.3996,40.576,568.4843],[29.3627,40.58,372.9667],[29.3361,40.5687,647.2632],[29.3012,40.5649,320.6416],[29.2794,40.558,361.3815],[29.2676,40.556,371.9336],[29.0923,40.5553,627.0207],[29.07,40.5558,755.1844],[29.045,40.5592,845.6406],[29.0371,40.5333,794.7545],[29.0158,40.5102,725.1229],[29.0104,40.4973,495.357],[29.0324,40.4786,0.0],[29.0549,40.4787,0.0],[29.0601,40.4768,0.0],[29.0668,40.4782,2.0379],[29.0701,40.4765,0.0],[29.0824,40.4776,8.1161],[29.0854,40.4751,0.0],[29.0918,40.4746,2.8231],[29.0999,40.4668,0.0],[29.116,40.4562,1.6662],[29.1213,40.4551,0.0],[29.131,40.4476,40.0505],[29.1324,40.4446,0.0],[29.1507,40.4365,0.4841],[29.1515,40.4338,4.606],[29.1504,40.4321,0.0],[29.1543,40.4282,0.0],[29.1526,40.4238,0.0],[29.1446,40.4238,0.0],[29.1432,40.4224,4.0366],[29.1354,40.4232,3.7867],[29.1221,40.4179,0.0],[29.1087,40.4174,0.0],[29.1063,40.4151,27.5425],[29.0937,40.4193,0.0],[29.0907,40.4168,1.405],[29.0896,40.4182,0.0],[29.086,40.4176,0.0],[29.0857,40.4162,0.0],[29.0882,40.4162,1.7253],[29.0868,40.4129,2.8676],[29.0846,40.4124,0.7522],[29.0832,40.4093,3.2869],[29.0785,40.4079,1.7929],[29.0765,40.4012,0.0],[29.0674,40.391,0.0],[29.0674,40.3885,0.0],[29.0707,40.3838,0.2217],[29.0679,40.3732,0.6243],[29.0618,40.3665,10.6483],[29.0532,40.3629,2.8078],[29.0313,40.3646,0.0],[29.0221,40.3613,13.8178],[29.004,40.3601,8.9954],[28.9854,40.3565,16.0613],[28.9818,40.3574,0.0],[28.9801,40.356,0.0],[28.9735,40.356,4.6213],[28.9596,40.3593,0.0],[28.951,40.359,0.0],[28.9468,40.3563,14.152],[28.9279,40.3557,2.5347],[28.9126,40.3615,1.5435],[28.9015,40.369,0.0],[28.8946,40.3707,0.2893],[28.8799,40.3821,0.0],[28.874,40.3821,0.0],[28.8713,40.3849,0.0],[28.8596,40.3849,11.4818],[28.8549,40.3818,30.2341],[28.8493,40.381,7.3835],[28.8351,40.3843,0.0],[28.831,40.3838,0.0],[28.829,40.386,0.0],[28.8107,40.3924,0.0],[28.8037,40.391,8.3984],[28.8021,40.3935,0.0],[28.7968,40.3943,0.0],[28.7807,40.3935,41.7132],[28.7704,40.3946,0.0],[28.7626,40.391,25.9165],[28.7529,40.3904,6.6785],[28.7385,40.386,2.0706],[28.7343,40.3821,0.0],[28.7265,40.3835,0.0],[28.7232,40.3787,14.3643],[28.7207,40.3779,9.3424],[28.716,40.3785,1.9875],[28.7118,40.3763,10.1071],[28.6993,40.3776,0.0],[28.691,40.3751,25.85],[28.6782,40.3757,0.0],[28.674,40.3729,24.2679],[28.6779,40.3693,2.5726],[28.6776,40.3657,0.1897],[28.6754,40.3635,3.4391],[28.6612,40.3599,9.7299],[28.6551,40.3613,0.7428],[28.651,40.3593,11.1088],[28.6521,40.3621,0.0],[28.6499,40.3629,0.0],[28.6462,40.3607,1.6934],[28.6365,40.3629,35.3156],[28.6343,40.3649,9.0463],[28.606,40.3674,0.6484],[28.5568,40.3796,0.4741],[28.5285,40.3904,0.3005],[28.5196,40.3915,0.5641],[28.516,40.3949,0.0],[28.5135,40.3949,0.0],[28.5112,40.391,0.4217],[28.5079,40.391,0.2073],[28.4999,40.3868,0.2913],[28.489,40.3746,0.0],[28.4871,40.369,0.5412],[28.4824,40.3632,1.2549],[28.4907,40.3796,0.0],[28.4971,40.3863,0.4289],[28.5104,40.3951,0.0],[28.4632,40.3957,0.0],[28.4501,40.394,0.4035],[28.4121,40.3932,0.8467],[28.3951,40.3943,0.2638],[28.3723,40.3987,11.7191],[28.3646,40.3971,0.5472],[28.3446,40.4018,0.7102],[28.2954,40.396,0.0],[28.2862,40.3987,1.4634],[28.279,40.3985,18.1767],[28.2632,40.4018,3.4073],[28.2393,40.4018,8.7738],[28.2157,40.3982,9.4181],[28.1912,40.3736,660.4407],[28.1768,40.3544,431.0649],[28.1483,40.3299,125.7631],[28.141,40.3194,95.2354],[28.1395,40.3134,80.5692],[28.1378,40.2633,26.2308],[28.1353,40.2545,23.4051],[28.1261,40.2379,80.5733],[28.1239,40.2257,139.937],[28.1235,40.1138,25.391],[28.1326,40.1095,15.0617],[28.1361,40.1047,16.6367],[28.1382,40.0956,19.8525],[28.1385,40.0788,70.1762],[28.1511,40.0734,46.6576],[28.1684,40.0555,25.1602],[28.182,40.0477,23.3098],[28.1998,40.0405,24.2366],[28.2109,40.0312,25.9729],[28.2254,40.008,47.4398],[28.2317,39.9867,63.5711],[28.255,39.9496,464.4975],[28.2627,39.9261,616.6912],[28.278,39.9026,670.2427],[28.298,39.8821,732.7416],[28.3032,39.8692,704.123],[28.3258,39.8682,1088.8882],[28.3379,39.8643,1149.6316],[28.3738,39.8392,790.8394],[28.3948,39.8305,662.8463],[28.4216,39.8145,549.4832],[28.4426,39.8059,714.6669],[28.4786,39.7807,689.8094],[28.5212,39.7663,918.4092],[28.579,39.7628,832.2776],[28.6046,39.7552,978.9311],[28.6187,39.753,1052.8394],[28.6432,39.7527,975.3855],[28.6702,39.756,854.1909],[28.674,39.7447,1066.9792],[28.6828,39.7277,948.6951],[28.7165,39.6979,427.658],[28.73,39.6789,287.4113],[28.7592,39.6533,315.2126],[28.7726,39.6348,370.3571],[28.7874,39.6247,424.506],[28.8172,39.6147,327.9713],[28.8274,39.6153,314.9482],[28.8446,39.6215,330.9246],[28.8584,39.6238,415.1082],[28.9095,39.623,390.0459],[28.9256,39.6149,442.6987],[28.9377,39.6115,538.7471]]],
[[[28.5399,40.5665,21.5433],[28.5179,40.5651,14.6651],[28.5251,40.5596,0.0],[28.5265,40.5551,6.6557],[28.5254,40.5518,0.0],[28.5271,40.549,9.296],[28.524,40.5337,16.8302],[28.5157,40.5215,0.0],[28.5207,40.514,0.0],[28.5246,40.5113,0.0],[28.5415,40.5151,0.0],[28.5454,40.526,1.9432],[28.5424,40.5343,0.0],[28.5396,40.5371,14.116],[28.5393,40.5418,6.0764],[28.5365,40.5454,8.515],[28.5362,40.5488,0.0],[28.5393,40.5546,18.4608],[28.5432,40.554,0.614],[28.5501,40.556,7.1531],[28.5504,40.5593,7.1099],[28.5551,40.5649,0.0],[28.5399,40.5665,21.5433]]]]}}