{"type":"Feature","properties":{"featurecla":"River","scalerank":8,"rivernum":741,"dissolve":"741River","name":"Sakarya","name_alt":null,"note":null,"min_zoom":7.0,"strokeweig":0.15,"name_en":"Sakarya","min_label":8.0},
"geometry":{"type": "LineString","coordinates": [[29.534570312500023,40.03827545780662,329.7743],[29.532470703125,40.05951569218162,294.5107],[29.518164062500006,40.07538483280662,291.6698],[29.479882812500023,40.09784577030662,281.7687],[29.467675781250023,40.10748932499412,278.4099],[29.458740234375,40.11798737186912,288.8607],[29.452392578125,40.13031647343162,342.7246],[29.447509765625,40.145038153119117,491.5583],[29.44921875,40.17169830936912,464.6959],[29.467480468750011,40.183465887494116,384.7159],[29.490478515625,40.191034246869116,285.8659],[29.506933593750006,40.20490143436912,236.9141]]}}