{"type": "Feature","id": "2264","bbox": [28.09888,39.55157,29.94084,40.61468],"geometry": {"type": "MultiPolygon","coordinates": [[[[28.53159,40.51468,41.2787],[28.54184,40.55199,0.0],[28.54835,40.55614,7.1531],[28.54721,40.56102,72.3979],[28.542,40.5644,106.6416],[28.53631,40.56509,112.3989],[28.51905,40.56147,0.0],[28.52272,40.54499,0.0],[28.51612,40.51785,0.0],[28.51905,40.5102,0.0],[28.53159,40.51468,41.2787]]],
[[[29.93102,40.5545,950.6736],[29.92616,40.57703,1036.2821],[29.78891,40.61468,751.4404],[29.72039,40.60429,859.4965],[29.53528,40.55236,454.2018],[29.4771,40.54977,711.8065],[29.42066,40.56316,502.0215],[29.35814,40.5729,567.1681],[29.29392,40.52215,224.8012],[29.23051,40.51159,745.4819],[29.07836,40.56321,778.9122],[29.04746,40.56016,865.4882],[28.97797,40.57323,801.8395],[28.98032,40.46454,21.2699],[29.00245,40.47866,296.3602],[29.011,40.48188,238.5399],[29.06568,40.48188,59.009],[29.0879,40.47748,3.8903],[29.1115,40.46613,54.0938],[29.13356,40.45075,130.0016],[29.15154,40.43407,4.606],[29.1364,40.42788,0.0],[29.11899,40.42365,0.0],[29.10279,40.42304,0.0],[29.0901,40.42723,0.0],[29.08269,40.41568,0.0],[29.0739,40.38866,3.2033],[29.06568,40.37572,0.0],[29.05161,40.36734,0.0],[29.03395,40.36445,0.2914],[28.95655,40.36319,0.0],[28.93873,40.36518,0.0],[28.9214,40.37002,0.0],[28.89796,40.38133,0.0],[28.88404,40.3863,0.0],[28.85564,40.39118,0.0],[28.82545,40.39248,0.0],[28.79127,40.40046,0.0],[28.77198,40.40253,0.0],[28.75709,40.39619,0.0],[28.74187,40.38642,15.9011],[28.68539,40.37946,0.0],[28.67742,40.37604,0.0],[28.66684,40.36811,0.0],[28.65805,40.36518,0.0],[28.65122,40.36636,0.0],[28.64747,40.37002,0.0],[28.64381,40.37124,0.0],[28.63771,40.36518,0.0],[28.59278,40.3819,0.0],[28.54542,40.3913,0.0],[28.49952,40.3911,0.3442],[28.45883,40.37946,0.6324],[28.46168,40.38837,0.8572],[28.46754,40.39435,0.7943],[28.47608,40.39794,0.0],[28.48683,40.39989,0.0],[28.4004,40.39741,0.0],[28.34799,40.40404,0.0],[28.20807,40.39931,0.0],[28.20803,40.39924,0.0],[28.20358,40.39237,275.0733],[28.15583,40.33635,158.8355],[28.12586,40.3179,119.1978],[28.09888,40.29715,69.4387],[28.10643,40.26299,51.7724],[28.12937,40.25806,42.3812],[28.14901,40.22584,56.8988],[28.1393,40.20744,59.2502],[28.12534,40.19124,117.1418],[28.11284,40.15326,62.4132],[28.11832,40.1338,31.7337],[28.13578,40.09631,16.1104],[28.17309,40.05089,22.18],[28.22704,40.02169,74.9516],[28.24596,39.99642,110.2521],[28.26373,39.92697,616.6912],[28.28141,39.89576,688.5338],[28.54589,39.74522,852.1985],[28.62578,39.73763,802.6221],[28.64707,39.75483,973.9858],[28.67384,39.76408,708.3679],[28.68913,39.74729,860.6276],[28.68407,39.72706,922.7859],[28.68645,39.69946,522.9825],[28.70577,39.67468,631.7467],[28.71156,39.66306,326.9809],[28.72221,39.65668,297.8356],[28.74143,39.65598,455.205],[28.75559,39.64825,476.4772],[28.78029,39.61885,553.7964],[28.81977,39.61448,331.7911],[28.86597,39.6212,431.5775],[28.91217,39.61993,391.4449],[28.94276,39.60916,573.943],[28.96715,39.58906,563.8662],[29.00477,39.56611,509.9277],[29.04901,39.5579,514.6789],[29.11929,39.55157,770.1931],[29.19081,39.55211,735.1594],[29.2461,39.57934,1048.3318],[29.25251,39.64585,841.5345],[29.27421,39.69091,1046.8735],[29.32021,39.71721,1142.5275],[29.3478,39.7969,579.0851],[29.36816,39.81333,891.7198],[29.37943,39.83648,1173.6748],[29.39948,39.89591,1570.1273],[29.45022,39.92348,1448.3184],[29.5544,39.89191,1277.167],[29.58644,39.88901,1271.4663],[29.61828,39.89245,1386.4683],[29.6468,39.90361,1220.1473],[29.6777,39.90632,1115.7595],[29.73424,39.89705,1257.3706],[29.78416,39.91147,908.9079],[29.76989,39.96159,1087.8579],[29.74364,39.97751,1006.3231],[29.69155,40.0351,438.4103],[29.68959,40.08546,928.4688],[29.71832,40.18551,458.7289],[29.81444,40.26356,272.3],[29.83191,40.2909,399.6741],[29.82746,40.31824,422.1493],[29.80379,40.34002,446.8358],[29.79997,40.3719,896.8657],[29.81289,40.39562,490.3689],[29.82333,40.42237,253.2537],[29.82829,40.45484,832.8784],[29.84669,40.48184,1066.2672],[29.86622,40.49779,989.225],[29.88792,40.51091,915.2034],[29.94084,40.53355,1003.2903],[29.93102,40.5545,950.6736]]]]}
,"properties": {"ISO3166-1-Alpha-3": "TUR","country": "Turkey","fill": "#FF0","name": "Bursa","area_km2": 10904.055,"hist_schema_id": "Elevation0-9000","hist_area_km2": {"0": 644.251,"25": 437.082,"50": 235.129,"75": 630.714,"100": 500.983,"125": 311.233,"150": 221.821,"175": 178.705,"200": 158.713,"225": 293.499,"250": 207.54,"275": 215.038,"300": 241.976,"325": 213.535,"350": 215.516,"375": 222.217,"400": 231.222,"425": 235.018,"450": 235.938,"475": 234.313,"500": 229.564,"525": 218.535,"550": 219.158,"575": 218.013,"600": 210.431,"625": 208.859,"650": 210.291,"675": 211.563,"700": 214.575,"725": 221.779,"750": 222.076,"775": 220.916,"800": 218.284,"825": 206.164,"850": 188.517,"875": 172.718,"900": 156.181,"925": 143.649,"950": 137.256,"975": 124.21,"1000": 110.816,"1025": 90.51,"1050": 77.826,"1075": 64.705,"1100": 59.573,"1125": 57.517,"1150": 52.332,"1175": 46.28,"1200": 38.315,"1225": 35.601,"1250": 31.132,"1275": 27.931,"1300": 23.736,"1325": 20.746,"1350": 19.802,"1375": 17.641,"1400": 15.95,"1425": 14.91,"1450": 14.521,"1475": 12.944,"1500": 12.018,"1525": 10.703,"1550": 10.961,"1575": 10.083,"1600": 9.498,"1625": 10.503,"1650": 9.529,"1675": 9.836,"1700": 10.502,"1725": 9.82,"1750": 9.106,"1775": 8.748,"1800": 8.764,"1825": 8.536,"1850": 8.325,"1875": 8.032,"1900": 7.351,"1925": 7.497,"1950": 7.692,"1975": 7.318,"2000": 7.091,"2025": 5.841,"2050": 5.71,"2075": 4.689,"2100": 4.883,"2125": 4.202,"2150": 3.277,"2175": 3.878,"2200": 4.04,"2225": 3.164,"2250": 3.229,"2275": 2.856,"2300": 2.807,"2325": 2.434,"2350": 1.963,"2375": 1.963,"2400": 2.045,"2425": 2.418,"2450": 1.363,"2475": 0.941,"2500": 0.341,"2525": 0.13}}}