{"type":"Feature","properties":{"GID_2":"TUR.12.1_1","GID_0":"TUR","country":"Turkey","GID_1":"TUR.12_1","province":"Balikesir","NL_NAME_1":"NA","county":"Ayvalık","VARNAME_2":"NA","NL_NAME_2":"NA","TYPE_2":"District","ENGTYPE_2":"District","CC_2":"NA","HASC_2":"TR.BK.AY","name":"Ayvalık.county"},
"geometry":{"type": "MultiPolygon","coordinates": [[[[26.7866,39.3573,54.9607],[26.7708,39.3693,0.0],[26.7657,39.3688,0.0],[26.764,39.3662,0.4035],[26.7596,39.3651,0.0959],[26.7532,39.3599,1.337],[26.7471,39.3574,0.0],[26.7365,39.3596,0.0],[26.7349,39.3571,0.0],[26.7368,39.3554,1.6639],[26.7357,39.3526,4.3296],[26.729,39.3513,0.0],[26.7279,39.3493,1.3487],[26.719,39.3454,3.1516],[26.7151,39.3413,2.355],[26.7088,39.3421,0.0],[26.7018,39.3407,0.1335],[26.7021,39.3351,2.5928],[26.6968,39.3312,0.3319],[26.6971,39.3276,1.5415],[26.6904,39.3196,0.6663],[26.6896,39.3138,0.0],[26.6849,39.3143,0.0],[26.6837,39.3121,0.0],[26.674,39.3121,0.0],[26.6638,39.3051,0.507],[26.6635,39.3001,14.2338],[26.6607,39.299,0.0],[26.6607,39.2924,0.0],[26.6665,39.2949,5.0559],[26.6724,39.2865,0.2477],[26.6735,39.2829,3.202],[26.671,39.279,0.0],[26.6654,39.2796,0.1664],[26.6612,39.2829,0.0],[26.6579,39.2835,4.205],[26.661,39.2851,0.0],[26.6601,39.2871,0.0],[26.6574,39.2854,2.7436],[26.6546,39.286,2.6554],[26.6549,39.2885,8.2198],[26.659,39.2924,0.0],[26.6574,39.2951,0.0],[26.6543,39.2954,8.1202],[26.6521,39.2979,3.0751],[26.6488,39.2974,0.0],[26.6476,39.294,0.0],[26.6415,39.2924,2.9784],[26.6351,39.2924,0.0],[26.6338,39.2935,2.4316],[26.6343,39.2957,0.3335],[26.6318,39.2954,0.4487],[26.6304,39.2971,0.0],[26.6346,39.3015,0.0],[26.6349,39.3046,0.2851],[26.6396,39.3015,0.0],[26.6432,39.3024,0.0],[26.6446,39.3076,3.0581],[26.6474,39.3076,0.8309],[26.6471,39.3051,0.0],[26.651,39.3024,5.072],[26.6551,39.3021,4.3102],[26.6568,39.3037,4.3102],[26.6518,39.3096,0.0],[26.6554,39.3124,0.5544],[26.6579,39.3171,0.0],[26.653199999999998,39.3185,2.6863],[26.6518,39.3229,0.731],[26.6504,39.3235,3.5127],[26.6426,39.3193,0.0],[26.6363,39.3135,0.9898],[26.6285,39.314,0.0],[26.6226,39.3065,12.4092],[26.6257,39.3024,0.9556],[26.6262,39.2985,11.9414],[26.6229,39.2949,7.3157],[26.621,39.2871,0.0],[26.6113,39.2821,0.0],[26.6118,39.2788,0.5851],[26.6087,39.2768,1.3244],[26.6087,39.2735,0.0],[26.6157,39.2715,0.0],[26.6199,39.2746,1.9954],[26.6276,39.274,1.6731],[26.629,39.2724,0.359],[26.6357,39.2713,1.6139],[26.6354,39.2676,1.7626],[26.6396,39.266,0.0],[26.6568,39.2682,2.0153],[26.6963,39.2663,0.9568],[26.7035,39.2643,0.485],[26.7071,39.2615,0.0],[26.7182,39.259,0.4074],[26.7279,39.2499,2.6936],[26.729,39.2457,0.0],[26.7337,39.2404,0.0],[26.7354,39.2321,0.5621],[26.7332,39.2274,0.1412],[26.7376,39.2215,0.3154],[26.7365,39.2085,0.9136],[26.7351,39.2062,0.1314],[26.739,39.2004,0.0],[26.759,39.1824,0.7128],[26.7646,39.1732,0.2899],[26.7849,39.1718,1.5952],[26.7882,39.1777,4.1085],[26.7922,39.1807,5.4511],[26.8194,39.1888,23.6366],[26.8554,39.213,339.0651],[26.8767,39.2219,382.0312],[26.9007,39.2366,172.6798],[26.9575,39.2594,423.1364],[27.013,39.3016,766.0209],[26.9673,39.3196,463.1317],[26.9571,39.3221,445.3054],[26.8799,39.323,243.8641],[26.8615,39.3254,113.2062],[26.7983,39.3499,84.1692],[26.7866,39.3573,54.9607]]],
[[[26.6982,39.3718,0.8886],[26.6943,39.3718,19.7876],[26.694,39.3688,0.0],[26.6971,39.3674,0.0],[26.6988,39.3693,0.0],[26.6982,39.3718,0.8886]]],
[[[26.7696,39.379,1.1446],[26.7626,39.3771,0.0],[26.7599,39.3746,0.0],[26.7599,39.3726,0.0],[26.7685,39.3749,0.0],[26.7704,39.3779,0.0],[26.7696,39.379,1.1446]]],
[[[26.709,39.3818,3.2983],[26.706,39.3826,0.0],[26.7029,39.3799,7.3924],[26.7032,39.374,0.9452],[26.7096,39.3737,0.0],[26.7104,39.3774,25.4944],[26.709,39.3818,3.2983]]],
[[[26.6732,39.354,0.6083],[26.6679,39.354,0.0],[26.6649,39.3521,0.0],[26.6715,39.3524,0.47],[26.6732,39.354,0.6083]]],
[[[26.6154,39.3951,1.1938],[26.6143,39.396,0.0],[26.6118,39.3932,20.265],[26.6043,39.3913,0.0],[26.5987,39.3857,0.9241],[26.6096,39.3846,1.121],[26.6174,39.3804,0.5199],[26.6176,39.3729,0.3321],[26.6135,39.3699,0.0],[26.6229,39.3613,4.5362],[26.6235,39.3565,2.3549],[26.6104,39.3576,0.0],[26.6079,39.3518,0.5735],[26.6099,39.3507,0.286],[26.6118,39.3537,0.0],[26.6165,39.3532,0.478],[26.6126,39.3401,0.0],[26.616,39.3349,0.0],[26.621,39.3329,2.3704],[26.6232,39.3301,1.6586],[26.6226,39.3265,0.8092],[26.6315,39.3246,0.0],[26.6463,39.3249,0.0],[26.6515,39.3262,0.0],[26.653199999999998,39.3288,0.2502],[26.656,39.3288,0.0],[26.6571,39.3301,0.0],[26.6543,39.3304,0.2502],[26.6562,39.3312,0.5851],[26.6704,39.329,1.2407],[26.6724,39.331,4.4561],[26.676,39.3304,0.0],[26.6813,39.3326,4.4423],[26.6865,39.3321,5.4259],[26.6907,39.3335,0.975],[26.6904,39.3351,3.3349],[26.684,39.3374,0.0],[26.6835,39.3401,2.9211],[26.6854,39.3421,0.0],[26.6843,39.3438,2.4271],[26.6765,39.3435,0.7777],[26.6757,39.3413,3.702],[26.6688,39.3393,3.5668],[26.6646,39.3393,1.5294],[26.661,39.3418,4.7671],[26.6579,39.3496,0.0],[26.6504,39.3529,1.1075],[26.6571,39.3587,0.0],[26.6546,39.3604,11.9355],[26.654,39.3635,1.6341],[26.6493,39.3643,0.0],[26.6432,39.3629,2.6673],[26.6396,39.3593,0.254],[26.6329,39.3574,0.0],[26.6304,39.3599,0.0],[26.631,39.3638,0.0],[26.6232,39.3701,0.5696],[26.624,39.3757,0.4471],[26.6215,39.3799,1.4263],[26.6235,39.3807,0.4063],[26.6424,39.3763,0.0],[26.6612,39.3754,0.0],[26.6629,39.381,3.5575],[26.6685,39.3832,0.2253],[26.6643,39.386,2.4429],[26.6701,39.3899,0.1725],[26.664,39.3896,2.0265],[26.656,39.3871,0.0],[26.6537,39.3849,20.0746],[26.6496,39.386,0.0],[26.6479,39.384,0.0],[26.6446,39.384,7.5961],[26.6437,39.386,5.1058],[26.6463,39.3871,8.3196],[26.6457,39.3896,0.0],[26.6401,39.3879,12.5098],[26.636,39.391,0.0],[26.6288,39.3885,13.1205],[26.6279,39.391,19.9625],[26.6301,39.3935,14.4572],[26.6293,39.3951,20.2367],[26.6162,39.3935,16.796],[26.6154,39.3951,1.1938]]],
[[[26.7279,39.3788,0.0],[26.726,39.3793,0.0],[26.724,39.3771,1.1068],[26.7274,39.3768,0.0],[26.7279,39.3788,0.0]]],
[[[26.7124,39.409,2.1087],[26.7068,39.4082,10.3331],[26.706,39.4057,0.0],[26.7115,39.4063,0.0],[26.7124,39.409,2.1087]]],
[[[26.6001,39.3029,0.0],[26.591,39.3018,0.0],[26.5943,39.2985,0.6005],[26.5918,39.2918,8.8924],[26.5865,39.2896,0.0],[26.5843,39.2843,0.3884],[26.5771,39.2807,0.0],[26.5774,39.2771,1.095],[26.5818,39.276,1.9022],[26.5874,39.2774,0.7564],[26.5921,39.2837,0.0],[26.5974,39.2818,0.0],[26.6029,39.2832,2.0887],[26.5993,39.2857,3.0112],[26.599,39.2899,0.0],[26.5963,39.2918,0.4331],[26.5971,39.2946,3.0783],[26.6007,39.2974,2.1504],[26.6001,39.3029,0.0]]],
[[[26.5274,39.3204,0.0],[26.529,39.3204,0.0],[26.5307,39.3221,0.0],[26.5249,39.3213,0.0],[26.5274,39.3204,0.0]]],
[[[26.5404,39.3312,2.0865],[26.5388,39.3318,4.3431],[26.536,39.3299,6.1011],[26.5318,39.3318,2.0861],[26.5307,39.3246,0.0],[26.5374,39.3218,0.0],[26.5426,39.3246,1.1366],[26.5438,39.326,13.183],[26.5404,39.3312,2.0865]]],
[[[26.579,39.344,0.0],[26.5762,39.3446,0.0],[26.5765,39.3426,0.0],[26.5743,39.3415,0.0],[26.5754,39.3379,4.0961],[26.5729,39.3332,0.0],[26.576,39.3343,1.8464],[26.5796,39.3387,0.0],[26.579,39.344,0.0]]],
[[[26.6599,39.3238,0.0],[26.6593,39.3246,0.0],[26.6562,39.3246,0.0],[26.6579,39.3229,0.4171],[26.6599,39.3238,0.0]]],
[[[26.6074,39.3421,0.0],[26.6021,39.3426,0.3305],[26.5951,39.3363,0.0],[26.6007,39.3332,0.0],[26.6126,39.3332,0.0],[26.6135,39.3365,18.2144],[26.6107,39.3404,6.0636],[26.6074,39.3421,0.0]]],
[[[26.696,39.3488,0.0],[26.6949,39.3496,0.0],[26.6832,39.3457,0.0],[26.689,39.3421,1.4231],[26.6968,39.3432,0.0],[26.6976,39.3476,3.0442],[26.696,39.3488,0.0]]],
[[[26.596,39.3496,3.17],[26.5949,39.3504,4.5793],[26.5915,39.3485,1.794],[26.5896,39.3501,3.0573],[26.5857,39.3488,0.0],[26.5857,39.3429,0.0],[26.5904,39.3454,0.0],[26.5929,39.344,0.0],[26.6015,39.3443,0.0],[26.6004,39.3488,0.0],[26.596,39.3496,3.17]]],
[[[26.5729,39.3843,0.0],[26.5685,39.384,0.0],[26.5696,39.3782,0.0],[26.5751,39.3804,0.0],[26.5729,39.3843,0.0]]],
[[[26.590699999999998,39.3968,6.3558],[26.5888,39.3971,0.0],[26.5901,39.3957,6.3558],[26.5893,39.3926,28.6272],[26.5843,39.3915,0.0],[26.5851,39.3868,4.0906],[26.5832,39.3874,0.0],[26.5812,39.3924,0.0],[26.5757,39.3899,0.0],[26.5782,39.3863,0.0],[26.5765,39.3843,0.0],[26.5768,39.381,0.0],[26.5824,39.3785,0.0],[26.5851,39.379,6.8239],[26.5888,39.3757,8.6707],[26.5843,39.3726,0.0],[26.5882,39.3676,1.1273],[26.5935,39.3699,0.0],[26.5915,39.3757,0.584],[26.5926,39.3782,1.0822],[26.596,39.3776,0.0],[26.5957,39.3885,0.0],[26.5979,39.3887,0.0],[26.6032,39.3949,5.2591],[26.590699999999998,39.3968,6.3558]]]]}}