{"type": "Feature","bbox": [30.3828,40.1469,30.7268,40.3448],"geometry": {"type": "MultiPolygon","coordinates": [[[[30.3828,40.1584,489.3715],[30.5444,40.1588,773.8323],[30.5632,40.1556,1004.3307],[30.5678,40.1523,1012.2297],[30.5714,40.1469,985.1411],[30.5849,40.1496,911.9786],[30.6065,40.1566,977.2223],[30.6413,40.1605,1035.9526],[30.6703,40.1689,1059.4773],[30.7268,40.1719,1156.4028],[30.7174,40.1947,949.4723],[30.702,40.2181,962.619],[30.6796,40.2409,873.6063],[30.6362,40.3085,838.0256],[30.6238,40.3352,831.1445],[30.5868,40.3448,838.4313],[30.5822,40.3318,830.4813],[30.5544,40.2873,852.8376],[30.5482,40.2802,977.1695],[30.5378,40.2719,1123.5499],[30.5287,40.2669,1044.9778],[30.5183,40.2641,1070.2775],[30.4677,40.261,1130.9717],[30.4341,40.2487,830.8618],[30.4174,40.2372,714.4033],[30.4109,40.2301,676.5153],[30.4074,40.2221,707.7064],[30.4057,40.1939,888.8301],[30.403,40.183,830.577],[30.3828,40.1584,489.3715]]]]}
,"properties": {"GID_2": "TUR.16.8_1","GID_0": "TUR","country": "Turkey","GID_1": "TUR.16_1","province": "Bilecik","NL_NAME_1": "NA","county": "Yenipazar","VARNAME_2": "NA","NL_NAME_2": "NA","TYPE_2": "District","ENGTYPE_2": "District","CC_2": "NA","HASC_2": "TR.BC.YP","name": "Yenipazar.county","area_km2": 339.6409,"hist_schema_id": "Elevation0-9000","hist_area_km2": {"550": 0.3079,"575": 1.4906,"600": 3.6937,"625": 8.7152,"650": 10.3994,"675": 12.634,"700": 14.8844,"725": 17.4256,"750": 18.7673,"775": 24.8498,"800": 33.4202,"825": 32.5442,"850": 27.3819,"875": 23.4507,"900": 19.1631,"925": 15.7008,"950": 14.8427,"975": 11.8656,"1000": 9.5507,"1025": 8.2242,"1050": 7.2691,"1075": 6.3629,"1100": 5.991,"1125": 4.9554,"1150": 2.7213,"1175": 1.4741,"1200": 1.0206,"1225": 0.4698,"1250": 0.0648}}}