{"type": "Feature","bbox": [31.3382,41.0184,32.354,41.5629],"geometry": {"type": "MultiPolygon","coordinates": [[[[31.9333,41.0188,651.1233],[32.092,41.0184,915.55],[32.09,41.0585,751.5592],[32.0934,41.0761,969.8949],[32.1025,41.0925,814.1094],[32.1066,41.1173,872.5591],[32.1096,41.1251,773.0078],[32.1227,41.1462,1065.7308],[32.1341,41.1575,1048.5225],[32.1483,41.1667,946.7133],[32.1669,41.174,1102.1476],[32.1805,41.1818,783.7463],[32.2086,41.2016,421.7512],[32.2988,41.2366,409.1987],[32.3197,41.2399,691.4412],[32.354,41.2385,240.6819],[32.3351,41.2618,366.9315],[32.3133,41.2972,659.8307],[32.3051,41.3062,622.7269],[32.2743,41.3306,697.6617],[32.2463,41.349,458.1541],[32.2301,41.367,379.3469],[32.2217,41.381,233.4709],[32.2111,41.3912,183.2602],[32.0412,41.5235,405.8379],[32.0324,41.534,252.065],[32.021,41.5629,1.7712],[32.0182,41.5621,0.0],[32.019,41.5607,0.7216],[32.0165,41.559,1.579],[32.0121,41.5607,0.0],[32.0135,41.5582,2.0019],[32.0115,41.5557,4.0316],[32.0068,41.554,0.0],[32.0018,41.5493,1.5413],[31.9935,41.5462,12.9506],[31.9668,41.5426,0.0],[31.9538,41.5351,4.5483],[31.9443,41.5354,17.5174],[31.9415,41.5324,31.7229],[31.9354,41.5335,0.0],[31.9354,41.5312,17.8399],[31.9329,41.5307,0.0],[31.9296,41.5321,0.0],[31.9124,41.5232,58.7979],[31.9096,41.5235,3.2275],[31.9082,41.521,6.9895],[31.9021,41.5204,22.2276],[31.8996,41.5232,0.0],[31.8943,41.5238,0.0],[31.894,41.5224,0.0],[31.8982,41.5224,0.0],[31.8999,41.5207,0.0],[31.896,41.5196,0.6167],[31.8946,41.5215,0.0],[31.8937,41.5185,35.786],[31.8768,41.5132,2.9278],[31.8726,41.5101,17.5598],[31.8679,41.5104,19.634],[31.8671,41.5085,0.0],[31.8604,41.5051,10.7664],[31.8465,41.4999,0.0],[31.8438,41.5004,0.0],[31.8435,41.4988,0.0],[31.8457,41.499,0.0],[31.8449,41.4976,0.9507],[31.8301,41.491,0.0],[31.8304,41.486,2.472],[31.8274,41.4832,12.2269],[31.8171,41.4796,0.0],[31.8143,41.4762,27.4592],[31.801,41.474,0.0],[31.8021,41.471,0.0],[31.7974,41.4704,0.9075],[31.7971,41.4696,0.0],[31.8001,41.4679,29.515],[31.796,41.4654,67.6988],[31.7921,41.4682,0.0],[31.7862,41.4651,0.0],[31.7854,41.4604,0.0],[31.779,41.4593,0.0],[31.7793,41.4582,0.0],[31.7865,41.4588,0.0],[31.7874,41.456,14.3334],[31.786,41.4562,0.0],[31.7854,41.4543,0.0],[31.7818,41.4568,0.5934],[31.7779,41.4543,0.9604],[31.7657,41.4565,5.1791],[31.7543,41.4551,12.2729],[31.7515,41.449,0.0],[31.7524,41.4443,5.7253],[31.7482,41.4399,6.6677],[31.7321,41.4371,0.0],[31.7213,41.4307,0.0],[31.7201,41.4251,1.3376999999999999],[31.7162,41.426,0.0],[31.7132,41.4235,55.874],[31.7054,41.4232,0.0],[31.7021,41.4188,0.0],[31.6996,41.4196,0.0],[31.6943,41.4171,0.0],[31.6863,41.4113,33.8709],[31.6832,41.411,0.0],[31.6821,41.4087,23.1388],[31.6804,41.4113,0.0],[31.6732,41.4101,0.0],[31.6701,41.4068,95.1644],[31.6615,41.406,0.0],[31.6474,41.3988,5.8301],[31.6413,41.3985,29.4974],[31.6396,41.3974,0.0],[31.6396,41.3949,52.222],[31.6362,41.394,0.0],[31.6362,41.3921,5.8082],[31.6346,41.3929,0.0],[31.6324,41.3904,65.5362],[31.6282,41.3904,0.0],[31.6201,41.3826,0.0],[31.6179,41.3832,0.0],[31.6043,41.3768,21.2339],[31.5935,41.379,0.0],[31.5929,41.3751,6.4244],[31.5879,41.3724,0.0],[31.5857,41.3737,0.0],[31.5785,41.3735,7.2755],[31.5768,41.3718,100.0834],[31.5646,41.3729,0.0],[31.5632,41.3713,17.6407],[31.5601,41.3726,0.0],[31.5515,41.3657,5.794],[31.5424,41.3629,21.9747],[31.5351,41.3657,0.0],[31.5296,41.3635,0.0],[31.5285,41.3613,31.8522],[31.524,41.3621,0.0],[31.5118,41.356,36.1957],[31.5082,41.3568,17.9835],[31.5021,41.3554,25.9612],[31.494,41.3507,0.0],[31.4874,41.3496,0.0],[31.4785,41.3401,50.241],[31.471,41.3376,0.0],[31.466,41.3276,3.5386],[31.4626,41.3285,0.0],[31.4618,41.3265,53.2788],[31.4599,41.3265,53.2788],[31.4554,41.3299,0.0],[31.4446,41.3265,39.06],[31.436,41.3279,0.0],[31.4346,41.3257,8.6411],[31.4318,41.3262,0.0],[31.4268,41.3224,0.0],[31.4268,41.3187,12.8688],[31.4232,41.3182,1.9289],[31.4199,41.3149,40.201],[31.4174,41.3162,0.0],[31.4126,41.3143,9.9875],[31.4071,41.3176,0.0],[31.4032,41.3176,0.0],[31.396,41.3132,0.0],[31.3971,41.3096,6.757],[31.3918,41.306,0.0],[31.3918,41.3018,0.0],[31.3935,41.2996,0.0],[31.3913,41.294,0.0],[31.3954,41.2871,8.5679],[31.4013,41.286,0.0],[31.4057,41.2887,0.0],[31.4101,41.2876,0.9344],[31.411,41.2812,0.3871],[31.414,41.2824,0.9236],[31.4201,41.2779,3.0427],[31.4204,41.2693,1.8979],[31.4149,41.2687,0.0],[31.416,41.2668,0.0],[31.4193,41.2671,5.1065],[31.4174,41.2632,2.5806],[31.4137,41.2657,0.0],[31.4079,41.2646,0.0],[31.4074,41.2676,0.0],[31.4035,41.2721,0.0],[31.4024,41.2715,0.0],[31.4079,41.2601,4.9878],[31.4063,41.2562,8.9531],[31.4057,41.2468,3.7951],[31.4029,41.244,2.4709],[31.4043,41.2426,25.3868],[31.4049,41.2337,30.0818],[31.4032,41.2315,20.5958],[31.4024,41.2243,24.1201],[31.4096,41.219,0.0],[31.4093,41.2135,0.0],[31.401,41.2029,3.2762],[31.3935,41.1982,6.2027],[31.3879,41.1924,11.1917],[31.3865,41.1915,13.7748],[31.3846,41.1932,0.1886],[31.386,41.1951,0.0],[31.3835,41.194,0.0],[31.3846,41.1893,7.7815],[31.3824,41.1829,1.2852],[31.3835,41.1807,0.0],[31.3779,41.176,17.3213],[31.3643,41.169,0.0],[31.359,41.1629,50.517],[31.3454,41.1546,2.5925],[31.3451,41.1457,5.3928],[31.3418,41.1387,25.435],[31.3382,41.1368,0.0],[31.42,41.0732,275.4526],[31.439,41.0563,387.9266],[31.4647,41.0546,567.1667],[31.5513,41.0534,807.9498],[31.5631,41.0514,869.1735],[31.5845,41.0445,1153.3556],[31.5999,41.0428,882.3477],[31.7766,41.0416,718.8158],[31.8138,41.0321,696.7127],[31.8707,41.0293,235.3134],[31.904,41.0203,343.6012],[31.9333,41.0188,651.1233]]]]}
,"properties": {"GID_1": "TUR.81_1","GID_0": "TUR","country": "Turkey","province": "Zinguldak","VARNAME_1": "Zonguldak","NL_NAME_1": "NA","TYPE_1": "Il","ENGTYPE_1": "Province","CC_1": "NA","HASC_1": "TR.ZO","ISO_1": "NA","name": "Zinguldak.province","area_km2": 3056.776,"hist_schema_id": "Elevation0-9000","hist_area_km2": {"0": 28.28,"25": 69.097,"50": 79.489,"75": 86.149,"100": 102.652,"125": 110.591,"150": 116.169,"175": 121.73,"200": 121.918,"225": 117.926,"250": 110.261,"275": 102.275,"300": 103.775,"325": 102.278,"350": 98.476,"375": 97.988,"400": 96.495,"425": 97.783,"450": 95.727,"475": 94.227,"500": 90.809,"525": 88.645,"550": 80.513,"575": 77.829,"600": 73.738,"625": 70.38,"650": 63.946,"675": 58.288,"700": 52.583,"725": 48.872,"750": 44.68,"775": 42.621,"800": 39.065,"825": 37.391,"850": 32.397,"875": 28.901,"900": 27.515,"925": 24.898,"950": 21.481,"975": 19.437,"1000": 16.98,"1025": 13.595,"1050": 11.088,"1075": 9.108,"1100": 6.457,"1125": 4.747,"1150": 3.757,"1175": 2.926,"1200": 2.303,"1225": 1.583,"1250": 1.519,"1275": 0.752,"1300": 0.751,"1325": 0.512,"1350": 0.624,"1375": 0.672,"1400": 0.64,"1425": 0.464,"1450": 0.464,"1475": 0.176,"1500": 0.16,"1525": 0.096,"1550": 0.08,"1575": 0.048}}}