{"type": "Feature","bbox": [30.4226,40.3352,30.6762,40.5424],"geometry": {"type": "MultiPolygon","coordinates": [[[[30.5868,40.3448,838.4313],[30.6238,40.3352,831.1445],[30.6393,40.3504,650.8608],[30.6455,40.3596,693.2536],[30.6477,40.3725,627.8314],[30.6474,40.3803,548.5591],[30.6444,40.3905,565.569],[30.6368,40.3993,632.6963],[30.5976,40.4293,605.532],[30.5933,40.4355,556.2656],[30.5934,40.4403,570.34],[30.5997,40.4484,600.7831],[30.6255,40.4694,964.9384],[30.6366,40.4857,1253.2709],[30.6426,40.492,1256.1235],[30.6762,40.5183,1318.1909],[30.6552,40.5354,1079.6345],[30.6458,40.5399,1172.1925],[30.6362,40.5424,973.0126],[30.5671,40.5212,1222.3459],[30.5323,40.5174,1248.0087],[30.5033,40.5093,1394.8842],[30.4684,40.5079,1156.1362],[30.4532,40.5057,1084.2474],[30.4377,40.4977,974.7463],[30.4301,40.4913,1069.3743],[30.4234,40.4812,811.2325],[30.4226,40.4701,616.7463],[30.426,40.4598,529.2891],[30.4331,40.4486,608.8307],[30.4363,40.4371,756.6287],[30.4366,40.4096,496.7993],[30.4328,40.3905,458.5913],[30.4514,40.3909,387.4067],[30.4656,40.389,536.5368],[30.5701,40.3484,826.2606],[30.5868,40.3448,838.4313]]]]}
,"properties": {"GID_2": "TUR.66.13_1","GID_0": "TUR","country": "Turkey","GID_1": "TUR.66_1","province": "Sakarya","NL_NAME_1": "NA","county": "Taraklı","VARNAME_2": "NA","NL_NAME_2": "NA","TYPE_2": "District","ENGTYPE_2": "District","CC_2": "NA","HASC_2": "TR.SK.TA","name": "Taraklı.county","area_km2": 294.0797,"hist_schema_id": "Elevation0-9000","hist_area_km2": {"375": 0.4037,"400": 0.7751,"425": 2.4705,"450": 5.167,"475": 8.7836,"500": 11.0761,"525": 12.7712,"550": 13.0933,"575": 11.9141,"600": 11.3489,"625": 10.1223,"650": 9.8646,"675": 9.7834,"700": 10.0575,"725": 10.3959,"750": 10.2501,"775": 9.9113,"800": 8.9906,"825": 8.8447,"850": 8.5699,"875": 6.5836,"900": 6.0021,"925": 5.6625,"950": 5.0329,"975": 4.3226,"1000": 3.9999,"1025": 3.9995,"1050": 3.3542,"1075": 3.096,"1100": 5.0789,"1125": 6.5297,"1150": 9.0124,"1175": 9.625,"1200": 8.3509,"1225": 8.2537,"1250": 8.4308,"1275": 8.27,"1300": 5.5297,"1325": 2.4505,"1350": 1.58,"1375": 1.5639,"1400": 0.8061,"1425": 0.8384,"1450": 0.4676,"1475": 0.4353,"1500": 0.1935,"1525": 0.0161}}}