{"type": "Feature","bbox": [27.3308,41.4412,27.7017,41.8005],"geometry": {"type": "MultiPolygon","coordinates": [[[[27.6001,41.8005,674.7553],[27.5584,41.7708,417.6954],[27.4523,41.7306,291.0359],[27.4338,41.719,299.6204],[27.4237,41.7084,260.7673],[27.4016,41.6729,225.0414],[27.3637,41.6385,204.3931],[27.3339,41.592,177.7666],[27.3316,41.5838,168.6542],[27.3308,41.5696,139.8536],[27.3443,41.5668,165.8356],[27.3621,41.5605,171.1904],[27.3735,41.5585,129.3853],[27.4872,41.5568,178.6612],[27.5159,41.5483,179.3924],[27.5429,41.5429,198.9334],[27.5725,41.5312,207.6507],[27.5836,41.5219,178.472],[27.5977,41.4985,163.2604],[27.6028,41.4688,138.3613],[27.6057,41.4637,137.5796],[27.6119,41.4577,152.3674],[27.647,41.4435,146.7327],[27.6603,41.4416,128.2737],[27.6821,41.4412,132.8768],[27.6746,41.4578,141.7019],[27.6764,41.4952,170.1186],[27.6747,41.5162,193.2931],[27.6715,41.5242,197.7157],[27.6508,41.5558,225.9377],[27.6492,41.5634,234.0987],[27.6517,41.5712,245.4335],[27.6688,41.5888,278.1135],[27.6747,41.5994,282.7688],[27.6765,41.6115,308.4106],[27.6774,41.6644,375.5573],[27.6799,41.673,433.1694],[27.6898,41.6924,362.1881],[27.6929,41.7374,586.251],[27.7017,41.7609,645.804],[27.6001,41.8005,674.7553]]]]}
,"properties": {"GID_2": "TUR.50.7_1","GID_0": "TUR","country": "Turkey","GID_1": "TUR.50_1","province": "Kirklareli","NL_NAME_1": "NA","county": "Pınarhisar","VARNAME_2": "NA","NL_NAME_2": "NA","TYPE_2": "District","ENGTYPE_2": "District","CC_2": "NA","HASC_2": "TR.KL.PI","name": "Pınarhisar.county","area_km2": 656.0979,"hist_schema_id": "Elevation0-9000","hist_area_km2": {"125": 5.5574,"150": 35.3833,"175": 84.5939,"200": 98.4503,"225": 83.0031,"250": 46.5108,"275": 36.0748,"300": 35.0059,"325": 35.4104,"350": 38.9814,"375": 39.2624,"400": 31.33,"425": 19.0109,"450": 9.8113,"475": 6.8338,"500": 5.3468,"525": 4.6349,"550": 3.7806,"575": 2.958,"600": 2.7205,"625": 2.5938,"650": 2.8467,"675": 2.8625,"700": 2.7833,"725": 2.973,"750": 2.4985,"775": 2.7356,"800": 2.6407,"825": 2.6248,"850": 2.4351,"875": 1.6762,"900": 0.9962,"925": 0.8223,"950": 0.506,"975": 0.3004,"1000": 0.1107,"1025": 0.0316}}}