{"type": "Feature","bbox": [33.8226,36.466,34.4386,37.1551],"geometry": {"type": "MultiPolygon","coordinates": [[[[33.8232,37.0477,1892.196],[33.8226,36.8945,1781.4017],[33.8239,36.8796,1790.6042],[33.827,36.8716,1794.08],[33.8443,36.8458,1780.0721],[33.8931,36.8047,1702.9872],[33.9175,36.7668,1351.1309],[33.9377,36.7463,1390.2527],[33.9494,36.7296,1489.5007],[33.9809,36.702,1391.9634],[33.9926,36.6853,1376.3037],[34.0128,36.6648,1217.0992],[34.0392,36.6248,1017.0057],[34.0749,36.5927,886.973],[34.0883,36.5717,809.6626],[34.0914,36.5637,815.2055],[34.0927,36.549,677.1329],[34.0916,36.5071,497.3649],[34.0929,36.4991,439.6724],[34.0952,36.4943,389.0655],[34.0996,36.4907,373.8881],[34.1206,36.4854,286.9192],[34.1457,36.4737,77.4333],[34.1671,36.466,0.6681],[34.1701,36.4712,0.0],[34.1701,36.4754,0.0],[34.1735,36.4774,0.8741],[34.1743,36.4799,0.0],[34.1774,36.4787,0.0],[34.1787,36.4799,0.0],[34.179,36.4829,2.8151],[34.1776,36.4837,5.0262],[34.1804,36.486,0.8034],[34.1835,36.4957,0.8805],[34.1893,36.4979,1.2906],[34.1921,36.501,5.3312],[34.1957,36.5015,0.0],[34.196,36.5049,5.013],[34.1979,36.5054,0.0],[34.1968,36.5065,3.7577],[34.2029,36.5093,0.0],[34.2057,36.5168,0.6912],[34.2099,36.5174,0.0],[34.2126,36.5207,7.9109],[34.2168,36.5193,4.5918],[34.2207,36.524,6.9198],[34.2221,36.5235,0.0],[34.2265,36.5271,1.3806],[34.2285,36.5329,1.68],[34.2337,36.5337,0.0],[34.2371,36.5399,0.4875],[34.236,36.5421,0.2104],[34.2471,36.5576,1.2772],[34.2565,36.5651,0.0],[34.2601,36.5715,2.7681],[34.2785,36.5857,3.3564],[34.3074,36.6004,0.4659],[34.3196,36.6029,0.1563],[34.3326,36.6182,0.0],[34.3454,36.6279,2.4078],[34.3665,36.6401,1.9958],[34.3763,36.6421,1.8476],[34.396,36.6532,2.409],[34.4293,36.6635,0.0],[34.4338,36.6682,0.0],[34.4386,36.7154,65.5149],[34.4379,36.7238,79.0121],[34.4351,36.7318,126.8361],[34.427,36.7397,205.4562],[34.4073,36.7484,158.0366],[34.3961,36.7574,367.1108],[34.3594,36.816,758.1946],[34.342,36.8408,849.2978],[34.332,36.8474,720.2214],[34.2865,36.8648,1272.1835],[34.2602,36.8806,1486.6665],[34.2415,36.8882,1570.3998],[34.2181,36.9022,1765.3423],[34.1963,36.9112,1791.3872],[34.1875,36.9165,1670.1655],[34.1709,36.9318,1668.0558],[34.1427,36.9761,2143.6094],[34.1396,36.984,2096.6235],[34.1383,36.9956,2124.1782],[34.1389,37.0702,2193.4688],[34.1431,37.0839,2298.4561],[34.1668,37.1208,2312.5903],[34.1687,37.1348,2283.2441],[34.1662,37.1551,2355.791],[34.1374,37.1432,2311.1016],[34.1136,37.1386,2249.7371],[34.0853,37.1301,2301.1104],[34.0082,37.1291,2123.6912],[33.9898,37.1267,2145.8379],[33.9264,37.1023,1998.2983],[33.9098,37.0908,1988.7776],[33.8942,37.0742,2030.9048],[33.8731,37.0636,1932.5575],[33.8369,37.0503,1912.1096],[33.8232,37.0477,1892.196]]]]}
,"properties": {"GID_2": "TUR.58.5_1","GID_0": "TUR","country": "Turkey","GID_1": "TUR.58_1","province": "Mersin","NL_NAME_1": "NA","county": "Erdemli","VARNAME_2": "NA","NL_NAME_2": "NA","TYPE_2": "District","ENGTYPE_2": "District","CC_2": "NA","HASC_2": "TR.IC.ER","name": "Erdemli.county","area_km2": 2149.572,"hist_schema_id": "Elevation0-9000","hist_area_km2": {"0": 22.517,"25": 25.372,"50": 21.459,"75": 20.077,"100": 19.652,"125": 19.345,"150": 19.139,"175": 16.519,"200": 15.501,"225": 15.518,"250": 15.45,"275": 14.685,"300": 15.009,"325": 15.095,"350": 15.468,"375": 14.582,"400": 14.955,"425": 15.719,"450": 15.837,"475": 16.72,"500": 15.937,"525": 16.856,"550": 15.512,"575": 13.996,"600": 13.913,"625": 13.707,"650": 13.844,"675": 12.702,"700": 12.328,"725": 12.158,"750": 14.403,"775": 14.829,"800": 16.632,"825": 17.16,"850": 20.069,"875": 14.897,"900": 14.128,"925": 12.427,"950": 11.847,"975": 12.017,"1000": 11.54,"1025": 13.616,"1050": 13.275,"1075": 13.853,"1100": 13.766,"1125": 13.578,"1150": 13.051,"1175": 14.105,"1200": 14.444,"1225": 15.819,"1250": 17.891,"1275": 22.529,"1300": 28.1,"1325": 30.797,"1350": 34.393,"1375": 43.377,"1400": 35.155,"1425": 31.991,"1450": 26.312,"1475": 25.223,"1500": 26.205,"1525": 26.424,"1550": 25.659,"1575": 25.878,"1600": 30.187,"1625": 36.565,"1650": 33.694,"1675": 33.928,"1700": 34.857,"1725": 31.261,"1750": 31.039,"1775": 30.714,"1800": 26.521,"1825": 28.246,"1850": 27.922,"1875": 25.004,"1900": 30.695,"1925": 26.929,"1950": 27.876,"1975": 31.178,"2000": 34.999,"2025": 39.729,"2050": 48.155,"2075": 47.473,"2100": 44.046,"2125": 42.841,"2150": 39.891,"2175": 42.327,"2200": 30.411,"2225": 21.775,"2250": 18.489,"2275": 19.416,"2300": 18.635,"2325": 20.258,"2350": 11.516,"2375": 4.532,"2400": 2.165,"2425": 1.184,"2450": 0.152}}}