{"type":"Feature","properties":{"GID_2":"TUR.12.17_1","GID_0":"TUR","country":"Turkey","GID_1":"TUR.12_1","province":"Balikesir","NL_NAME_1":"NA","county":"Savaştepe","VARNAME_2":"NA","NL_NAME_2":"NA","TYPE_2":"District","ENGTYPE_2":"District","CC_2":"NA","HASC_2":"TR.BK.SA","name":"Savaştepe.county"},
"geometry":{"type": "MultiPolygon","coordinates": [[[[27.4935,39.414,703.217],[27.5094,39.4147,649.153],[27.5232,39.4119,699.9484],[27.5348,39.4053,649.4139],[27.5616,39.386,384.4552],[27.583,39.3767,226.8229],[27.6127,39.3601,189.0795],[27.6515,39.3551,280.5555],[27.6724,39.3481,358.0414],[27.6934,39.3469,360.3651],[27.7211,39.3553,406.24],[27.7464,39.3573,677.0172],[27.7614,39.3457,742.7365],[27.7764,39.3573,730.3589],[27.7915,39.3573,841.4326],[27.7864,39.3701,853.9537],[27.7765,39.3806,523.0858],[27.7718,39.3935,424.7506],[27.7487,39.4309,616.9109],[27.7469,39.4427,621.0461],[27.7462,39.4758,408.2962],[27.7419,39.487,371.6073],[27.7305,39.4984,302.9559],[27.7011,39.5218,533.5864],[27.6849,39.5383,460.1713],[27.6739,39.5429,421.2228],[27.6248,39.5445,485.2316],[27.6098,39.54,524.4717],[27.6008,39.5348,572.9421],[27.5886,39.5241,564.4706],[27.5852,39.5192,596.7296],[27.5797,39.5051,579.8248],[27.5764,39.5013,548.7898],[27.5682,39.4981,540.2416],[27.5381,39.4946,529.0547],[27.5227,39.4867,586.0137],[27.5126,39.4781,550.499],[27.507,39.4709,488.5409],[27.4931,39.4471,317.2692],[27.4914,39.4331,454.8342],[27.4935,39.414,703.217]]]]}}