{"type": "Feature","bbox": [28.0573,40.8176,29.883,41.5482],"geometry": {"type": "MultiPolygon","coordinates": [[[[29.1124,40.8179,0.0],[29.1143,40.8176,0.0],[29.114,40.8207,0.0],[29.1104,40.8204,0.0],[29.1124,40.8179,0.0]]],
[[[29.1354,40.8749,1.2275],[29.1279,40.8757,0.0],[29.1218,40.8724,0.0],[29.1151,40.8713,0.0],[29.1143,40.8624,11.448],[29.1068,40.861,0.0],[29.1124,40.8596,12.395],[29.1096,40.8532,0.0],[29.1143,40.8468,56.4205],[29.1132,40.8443,17.692],[29.1099,40.8426,2.5126],[29.1124,40.8387,0.0],[29.1246,40.8371,0.0],[29.1251,40.844,2.2902],[29.1271,40.8468,0.0],[29.1262,40.8571,19.1325],[29.1318,40.8599,0.0],[29.1396,40.8699,0.0],[29.1396,40.8726,0.0],[29.1354,40.8749,1.2275]]],
[[[28.996,40.864,8.6209],[28.9957,40.8665,0.0],[28.9901,40.866,0.0],[28.9912,40.8621,0.0],[28.996,40.864,8.6209]]],
[[[29.0979,40.8846,0.0],[29.0929,40.8851,4.0232],[29.0885,40.8832,0.5726],[29.0899,40.8807,3.0234],[29.0874,40.8788,6.8136],[29.0754,40.874,0.0],[29.0749,40.8679,0.0],[29.0838,40.8671,0.0],[29.0829,40.8701,17.8496],[29.0863,40.8715,0.0],[29.0879,40.8707,6.2124],[29.0871,40.8685,0.0],[29.0901,40.8679,0.0],[29.1032,40.8721,0.0],[29.1046,40.8743,0.0],[29.1029,40.8737,0.0],[29.0979,40.8846,0.0]]],
[[[29.1446,40.854,4.9376],[29.1435,40.856,0.0],[29.1404,40.8504,0.0],[29.1449,40.8465,0.0],[29.1485,40.8462,0.0],[29.1482,40.8496,0.0],[29.1446,40.854,4.9376]]],
[[[29.4203,40.9476,165.0128],[29.4284,40.9637,157.8637],[29.4319,40.9743,255.5551],[29.4455,40.9768,199.6533],[29.4548,40.981,95.7784],[29.4687,40.9903,185.7755],[29.4876,41.0076,175.9303],[29.4921,41.0182,208.0334],[29.4962,41.0357,118.9065],[29.5117,41.0335,173.6906],[29.5621,41.0305,259.8942],[29.5721,41.0267,271.9315],[29.5986,41.0118,313.8865],[29.6059,41.01,264.9393],[29.637,41.0087,235.3679],[29.6523,41.0105,188.6814],[29.6928,41.0256,172.5894],[29.7153,41.0404,127.1906],[29.7487,41.0532,198.5669],[29.7726,41.0575,41.3866],[29.8006,41.066,104.3836],[29.8489,41.0692,27.0133],[29.8758,41.0801,59.4719],[29.8801,41.0841,25.1375],[29.883,41.0922,71.0293],[29.8828,41.104,23.2821],[29.8802,41.1128,31.9809],[29.8621,41.1437,13.4193],[29.8518,41.1421,0.0],[29.8538,41.1396,0.6624],[29.8518,41.1379,3.7344],[29.8463,41.1379,1.4436],[29.8196,41.1432,54.8049],[29.8157,41.1465,0.0],[29.8093,41.1476,24.9082],[29.8082,41.1501,0.0],[29.7965,41.1538,0.0],[29.7929,41.154,0.0],[29.7899,41.1524,5.1283],[29.7899,41.1554,0.0],[29.7804,41.1585,7.4749],[29.7779,41.1579,0.0],[29.7771,41.1557,2.618],[29.7751,41.1565,21.9342],[29.7763,41.159,0.0],[29.7657,41.1604,10.3732],[29.7582,41.1587,24.3552],[29.7571,41.1568,7.0955],[29.7543,41.1571,0.0],[29.7537,41.1613,9.1751],[29.7512,41.1618,0.0],[29.7504,41.1585,23.0642],[29.7488,41.1585,40.6651],[29.7479,41.1607,0.0],[29.7415,41.1601,0.0],[29.7315,41.1546,6.281],[29.7237,41.1582,0.0],[29.7176,41.1576,2.2031],[29.7107,41.1596,7.1199],[29.7074,41.1582,0.8511],[29.7057,41.159,1.8072],[29.7057,41.161,0.0],[29.7029,41.161,6.3093],[29.7029,41.1637,0.0],[29.6999,41.1643,0.0],[29.6887,41.1629,4.9309],[29.6865,41.1643,0.0],[29.6746,41.1615,20.8164],[29.6685,41.1671,0.0],[29.6615,41.1654,18.2148],[29.6357,41.1707,2.1437],[29.636,41.1718,2.1437],[29.6332,41.1724,0.0],[29.6335,41.1746,0.0],[29.629,41.1757,0.0],[29.6268,41.1746,2.6966],[29.6243,41.1801,2.5326],[29.6185,41.1782,14.841],[29.6096,41.1824,0.0],[29.5999,41.1787,0.0],[29.601,41.1782,0.0],[29.6038,41.1796,0.0],[29.6057,41.1785,0.0],[29.606,41.1804,0.0],[29.6082,41.1793,1.3152],[29.6082,41.1776,1.49],[29.6057,41.1763,0.6024],[29.6021,41.1771,0.0],[29.6029,41.1754,0.0],[29.601,41.174,0.0],[29.604,41.1749,2.9443],[29.6021,41.1721,2.3902],[29.5882,41.1699,2.6407],[29.5449,41.1771,0.0],[29.5179,41.184,0.0],[29.5054,41.1843,6.455],[29.4876,41.1899,0.0],[29.4693,41.1929,6.7219],[29.4568,41.1979,0.0],[29.4468,41.1979,5.3714],[29.4318,41.2015,5.4193],[29.4196,41.206,0.0],[29.4137,41.2065,6.6042],[29.4096,41.2096,1.0827],[29.4046,41.209,3.3781],[29.3968,41.2124,0.0],[29.3924,41.2124,3.7032],[29.3899,41.2151,0.0],[29.379,41.2115,15.0833],[29.3751,41.2132,2.6322],[29.3693,41.2115,11.9933],[29.3554,41.211,0.0],[29.3532,41.2129,1.6475],[29.3465,41.2124,25.7242],[29.3451,41.2146,0.0],[29.3374,41.2149,16.5951],[29.3329,41.2168,6.9145],[29.3182,41.2171,0.0],[29.3174,41.2188,0.0],[29.311,41.221,1.3123],[29.2929,41.2215,33.2903],[29.2829,41.2246,10.6721],[29.2782,41.2279,10.9156],[29.2732,41.2276,5.8151],[29.2712,41.2296,0.0],[29.2682,41.2287,15.6494],[29.2651,41.2313,2.5726],[29.2576,41.2299,3.8851],[29.2565,41.2354,3.2536],[29.2557,41.234,3.5279],[29.2521,41.2343,0.0],[29.2457,41.2318,23.8674],[29.2418,41.2276,10.26],[29.2376,41.2299,0.0],[29.2271,41.2285,29.4696],[29.2243,41.2304,15.1443],[29.2196,41.2293,0.0],[29.2187,41.231,0.0],[29.2149,41.2313,0.0],[29.2138,41.2299,2.2482],[29.2171,41.2246,4.1154],[29.2118,41.2201,5.5093],[29.2024,41.2215,7.9102],[29.2004,41.224,0.0],[29.1993,41.224,0.0],[29.1996,41.2207,0.0],[29.189,41.2199,3.0233],[29.1754,41.2224,0.0],[29.1701,41.2249,11.0884],[29.1654,41.2246,0.0],[29.1618,41.2174,0.5876],[29.1537,41.2196,1.5971],[29.1504,41.2179,0.0],[29.1515,41.214,9.6624],[29.1479,41.2121,8.6013],[29.1404,41.2129,1.6261],[29.1349,41.209,4.1287],[29.1332,41.2099,1.4677],[29.1254,41.2057,0.0],[29.126,41.2046,0.0],[29.1301,41.2062,0.35],[29.1315,41.2035,16.6992],[29.1179,41.1999,0.0],[29.1201,41.1968,0.0],[29.1187,41.1946,0.0],[29.1193,41.1907,0.0],[29.1126,41.1838,21.106],[29.1076,41.1835,0.0],[29.1065,41.181,10.8388],[29.1021,41.1821,0.0],[29.0871,41.1787,0.0],[29.0879,41.1718,37.4926],[29.0849,41.169,0.0],[29.0754,41.1668,10.8065],[29.0732,41.1646,4.1409],[29.0724,41.1604,0.0],[29.0776,41.1549,19.5865],[29.071,41.1432,3.2882],[29.0771,41.1401,3.4826],[29.0768,41.1379,0.0],[29.0796,41.1365,0.0],[29.0846,41.1365,0.0],[29.091,41.1338,3.6393],[29.0932,41.1285,0.0],[29.0976,41.1251,5.2561],[29.0963,41.1179,7.2612],[29.0854,41.1135,4.868],[29.0818,41.1079,1.7255],[29.0718,41.1071,0.0],[29.066,41.1029,0.0],[29.064,41.0974,0.0],[29.066,41.0946,0.0],[29.0665,41.0843,0.0],[29.064,41.0776,0.0],[29.0546,41.0735,4.9208],[29.0574,41.069,6.375],[29.0518,41.0618,0.0],[29.0529,41.0579,7.4862],[29.0513,41.0557,0.0],[29.0515,41.0482,0.9959],[29.0307,41.0388,0.0],[29.0068,41.0237,0.0],[29.0082,41.0168,0.0],[29.0101,41.016,11.5138],[29.009,41.0104,0.0],[29.0082,41.0126,0.0],[29.0063,41.0115,0.0],[29.006,41.0099,0.0],[29.009,41.0085,0.0],[29.0071,41.0057,2.6513],[29.0124,41.0037,0.0],[29.0104,41.001,0.0],[29.0149,41.0004,0.0],[29.0176,40.9979,3.2245],[29.0171,40.9957,0.0],[29.0229,40.9949,0.0],[29.0218,40.9924,0.0],[29.0165,40.9921,0.0],[29.0204,40.9851,5.9663],[29.0199,40.9815,7.9821],[29.0215,40.9785,0.0],[29.0326,40.9813,7.8451],[29.0376,40.9796,0.718],[29.0382,40.9707,5.5308],[29.0365,40.9699,2.716],[29.0329,40.9715,0.0],[29.031,40.9688,0.0],[29.0315,40.9663,0.0],[29.0393,40.9676,0.0],[29.0429,40.9649,0.0],[29.0462,40.9693,2.9081],[29.0479,40.9693,2.9081],[29.0532,40.9676,7.8001],[29.0568,40.9635,0.0],[29.0699,40.9621,10.2574],[29.0724,40.9568,0.0],[29.0768,40.9576,7.0537],[29.0829,40.9529,0.3073],[29.0876,40.954,3.878],[29.0899,40.951,0.8775],[29.0971,40.9501,0.337],[29.1032,40.9429,0.0],[29.1099,40.9407,4.2393],[29.1115,40.9371,0.0],[29.1254,40.9235,2.4501],[29.1351,40.909,1.4238],[29.1446,40.9007,0.0],[29.1482,40.8999,0.0],[29.1507,40.9015,0.608],[29.1599,40.8985,0.5296],[29.1757,40.8899,2.0336],[29.1771,40.8865,0.0],[29.1818,40.8846,0.0],[29.1904,40.8865,0.7806],[29.1935,40.8843,0.4697],[29.2207,40.8765,0.8984],[29.2276,40.8701,0.0],[29.2332,40.8704,0.0],[29.2376,40.8682,0.0],[29.2374,40.8701,0.0],[29.2343,40.8707,3.0789],[29.2351,40.874,2.3916],[29.2476,40.8721,2.6044],[29.2626,40.8613,3.561],[29.2593,40.8579,0.0],[29.2596,40.856,0.8456],[29.2654,40.8549,2.852],[29.2729,40.8574,12.8809],[29.2793,40.8537,0.0],[29.2849,40.8551,4.2242],[29.2871,40.8497,0.0],[29.328,40.8614,112.4756],[29.3384,40.871,94.5724],[29.3435,40.8853,79.7644],[29.3485,40.8911,101.7929],[29.3697,40.9015,138.9802],[29.4123,40.9164,172.4442],[29.42,40.9205,199.8388],[29.4253,40.9283,224.6084],[29.421,40.9403,158.3337],[29.4203,40.9476,165.0128]]],
[[[29.061,40.886,0.0],[29.0549,40.8865,0.0],[29.0568,40.8832,9.8331],[29.0526,40.8774,17.2055],[29.0635,40.8726,0.0],[29.0682,40.8749,5.5485],[29.0724,40.8799,0.2285],[29.0707,40.8799,2.1948],[29.0704,40.8832,0.0],[29.0682,40.8851,19.4983],[29.061,40.886,0.0]]],
[[[29.0788,40.8857,0.0],[29.0774,40.8865,0.0],[29.076,40.8851,0.0],[29.0765,40.8812,0.0],[29.0799,40.884,0.0],[29.0788,40.8857,0.0]]],
[[[29.0526,40.9138,0.0],[29.049,40.9149,2.72],[29.0426,40.9138,0.0],[29.0396,40.9129,0.0],[29.039,40.911,0.0],[29.0426,40.906,2.5156],[29.0454,40.9051,2.5845],[29.0451,40.9021,3.3411],[29.0543,40.9029,0.0],[29.0565,40.904,0.0],[29.0579,40.9074,0.0],[29.0565,40.9107,0.0],[29.0526,40.9138,0.0]]],
[[[28.9743,40.8751,0.0],[28.9718,40.8771,0.0],[28.969,40.8746,0.0],[28.9713,40.8735,0.0],[28.9746,40.874,0.0],[28.9743,40.8751,0.0]]],
[[[28.9374,41.0443,0.2539],[28.9354,41.0524,7.038],[28.9385,41.0554,0.5456],[28.9463,41.0576,0.7054],[28.944,41.0624,3.1882],[28.944,41.0646,1.7333],[28.9454,41.0649,2.8416],[28.9487,41.0599,2.3441],[28.9485,41.0565,2.3643],[28.9449,41.0543,1.0486],[28.9415,41.0543,0.0],[28.9396,41.0513,6.4642],[28.9401,41.0482,2.5026],[28.9482,41.0424,4.7426],[28.9529,41.034,0.0],[28.9629,41.0321,4.4963],[28.966,41.0301,1.9795],[28.9665,41.0249,0.7428],[28.9687,41.0229,0.5681],[28.976,41.0215,1.7703],[28.9879,41.0276,1.8332],[28.9904,41.0318,19.8799],[28.9946,41.0335,0.0],[28.9951,41.036,0.7033],[28.9988,41.0385,0.0],[29.0096,41.0399,0.0],[29.0107,41.0415,0.601],[29.0274,41.0465,0.0],[29.0332,41.0499,4.2824],[29.0371,41.0546,0.0],[29.0382,41.0588,0.0],[29.0404,41.0599,0.0],[29.0421,41.0651,0.0],[29.0465,41.0674,0.0],[29.0449,41.0776,1.5079],[29.0574,41.0824,1.879],[29.0571,41.0915,0.0],[29.0546,41.0938,0.0],[29.0546,41.0979,0.0],[29.0604,41.1099,9.7828],[29.059,41.1124,1.0305],[29.0624,41.1129,1.0327],[29.0724,41.1221,0.8605],[29.0707,41.1276,0.0],[29.0646,41.1304,4.2828],[29.0615,41.136,0.0],[29.0579,41.1374,0.8775],[29.0585,41.1399,0.0],[29.0526,41.1474,0.0],[29.0438,41.1501,29.8188],[29.0374,41.156,0.0],[29.0468,41.1601,0.0],[29.0493,41.1632,4.2627],[29.0579,41.1654,0.0],[29.0613,41.171,8.5631],[29.0715,41.1738,4.8397],[29.0743,41.1768,4.9723],[29.0768,41.1846,33.8671],[29.0815,41.1871,0.0],[29.0912,41.2004,34.8703],[29.0976,41.2024,0.0],[29.1004,41.206,14.5905],[29.1035,41.2049,0.0],[29.1057,41.206,3.7877],[29.1112,41.2135,5.3221],[29.1068,41.2182,2.3459],[29.1068,41.2204,0.0],[29.1099,41.2226,0.0],[29.1104,41.226,22.9865],[29.1138,41.229,1.599],[29.116,41.229,0.9664],[29.116,41.2346,0.0],[29.1099,41.2351,20.4247],[29.1121,41.2379,0.0],[29.1065,41.2371,2.1157],[29.1074,41.2393,1.8123],[29.1035,41.2404,34.155],[29.1029,41.2421,0.0],[29.0979,41.2404,14.89],[29.0985,41.2426,0.0],[29.0951,41.2454,14.2565],[29.0921,41.2435,10.4206],[29.0907,41.2479,1.458],[29.0849,41.2454,33.0989],[29.0846,41.2499,1.634],[29.0799,41.249,1.1702],[29.0804,41.2515,0.0],[29.0782,41.2546,0.0],[29.0718,41.2479,2.954],[29.0724,41.2518,6.4791],[29.071,41.2526,0.0],[29.0668,41.2535,3.2446],[29.0654,41.2507,2.0404],[29.0637,41.2507,2.5154],[29.0607,41.2551,0.0],[29.0557,41.2549,17.4466],[29.0485,41.2571,0.0],[29.0471,41.2549,16.4808],[29.0435,41.2543,0.0],[29.0415,41.2565,7.7974],[29.0374,41.2576,0.0],[29.0379,41.2518,28.7867],[29.0335,41.2499,0.0],[29.0332,41.2463,2.1215],[29.0296,41.2451,15.0627],[29.0074,41.246,1.8232],[29.0021,41.2449,4.5073],[29.0018,41.2471,0.0],[28.9888,41.2493,8.1579],[28.9793,41.2532,8.3088],[28.966,41.2532,8.5172],[28.9629,41.2601,0.0],[28.9596,41.2604,3.8275],[28.9557,41.2632,0.0],[28.9432,41.2629,0.0],[28.9393,41.2643,0.0],[28.9374,41.2668,0.0],[28.9229,41.2721,0.0],[28.8954,41.2707,1.7805],[28.8868,41.2754,0.4005],[28.8746,41.2774,0.1367],[28.8732,41.2793,0.0],[28.874,41.2843,0.0],[28.8707,41.2843,0.0],[28.8643,41.2807,0.289],[28.8593,41.2832,-0.6173],[28.8388,41.2868,6.1784],[28.8343,41.2918,0.0],[28.831,41.2932,0.0],[28.829,41.2979,0.0],[28.8251,41.2935,0.0],[28.821,41.2962,0.0],[28.8215,41.2996,0.0],[28.8113,41.3054,0.0],[28.8062,41.3049,0.0],[28.8004,41.3015,1.8914],[28.7907,41.304,0.4739],[28.7887,41.3015,4.6048],[28.7843,41.3021,16.7154],[28.784,41.3043,4.8876],[28.7879,41.3057,2.1514],[28.7882,41.3076,0.0],[28.786,41.3115,0.0],[28.7818,41.3135,0.0],[28.7768,41.3138,-9.0417],[28.7751,41.3154,-12.384],[28.7724,41.3146,-12.41],[28.7715,41.3165,-3.0023],[28.7626,41.3207,0.0],[28.7563,41.3196,0.0],[28.7549,41.3213,0.0],[28.7526,41.3207,0.0],[28.7421,41.3268,0.0],[28.736,41.3285,0.0],[28.7315,41.3279,0.0],[28.7268,41.324,9.5719],[28.7257,41.326,2.2247],[28.6896,41.3393,5.1205],[28.6838,41.3435,39.474],[28.6854,41.3449,0.0],[28.6874,41.3429,0.0],[28.6882,41.3446,0.0],[28.6849,41.3457,0.9114],[28.6843,41.3479,0.0],[28.6796,41.3479,0.0],[28.6774,41.3435,15.8903],[28.6726,41.3429,15.7072],[28.6518,41.3496,6.8379],[28.6388,41.3482,4.8875],[28.631,41.3501,7.2196],[28.6282,41.3524,3.3376],[28.614,41.3571,1.4352],[28.5985,41.3662,0.0],[28.5815,41.3721,0.0],[28.5651,41.381,1.7895],[28.5621,41.384,0.0],[28.539,41.3899,7.0279],[28.526,41.3957,0.0],[28.5151,41.3985,32.4224],[28.4674,41.419,0.0],[28.409,41.4393,41.2885],[28.4076,41.441,5.0882],[28.4007,41.4426,18.4458],[28.3868,41.4496,1.9283],[28.3838,41.4493,13.5247],[28.3826,41.451,13.524],[28.3493,41.4643,19.4856],[28.344,41.4679,0.0],[28.3332,41.4718,14.7466],[28.3332,41.4732,0.0],[28.331,41.4726,0.0],[28.3051,41.4826,4.0369],[28.3007,41.4857,0.0],[28.2868,41.4899,5.6753],[28.2787,41.4951,2.9418],[28.2729,41.4957,11.4871],[28.2687,41.4999,7.2686],[28.2618,41.5021,36.7897],[28.2604,41.5071,0.0],[28.2557,41.5079,19.5395],[28.2515,41.5112,10.266],[28.2476,41.5107,22.6246],[28.2485,41.5135,0.069],[28.2474,41.5146,2.854],[28.2399,41.5157,12.3599],[28.2362,41.519,0.0],[28.2329,41.5193,15.6407],[28.2315,41.524,0.0],[28.2251,41.5249,4.6059],[28.2235,41.5226,10.5363],[28.2193,41.5232,4.0274],[28.2165,41.5274,19.38],[28.2215,41.5296,0.557],[28.2154,41.5321,1.5079],[28.2085,41.5385,41.564],[28.2054,41.539,21.172],[28.199,41.5454,47.3661],[28.1993,41.5482,13.4589],[28.1879,41.5446,109.5857],[28.1791,41.5385,146.4173],[28.1774,41.534,82.872],[28.1808,41.5277,84.9746],[28.2084,41.5158,148.3856],[28.2317,41.4991,147.327],[28.2225,41.489,181.3308],[28.2204,41.4846,170.4553],[28.2148,41.4473,309.7252],[28.205,41.4282,321.0357],[28.2025,41.4194,307.2916],[28.2012,41.3754,202.8446],[28.1991,41.3633,229.7013],[28.1888,41.344,203.2053],[28.1828,41.3256,194.5112],[28.1747,41.3117,191.2099],[28.1687,41.2819,220.3956],[28.1596,41.2652,213.506],[28.151,41.2423,233.263],[28.1422,41.2349,192.9785],[28.0974,41.2178,153.6412],[28.0876,41.2111,166.0161],[28.0827,41.2043,158.963],[28.0771,41.1861,125.2303],[28.0573,41.1508,149.5328],[28.0764,41.128,111.2704],[28.0984,41.0926,16.9094],[28.1233,41.0599,0.0],[28.1271,41.0643,5.737],[28.1321,41.0668,0.9785],[28.1435,41.069,5.7092],[28.1557,41.069,1.5791],[28.1632,41.0724,4.192],[28.1807,41.0735,0.0],[28.2115,41.0699,0.0],[28.2201,41.0768,0.0],[28.2335,41.0776,0.732],[28.2412,41.0754,0.0],[28.2426,41.0735,0.0],[28.2415,41.0707,0.2719],[28.2501,41.0682,8.2373],[28.2596,41.0624,8.1521],[28.281,41.0635,0.0],[28.3101,41.059,14.2006],[28.3121,41.0571,3.173],[28.3363,41.0565,0.0],[28.3401,41.0588,13.3474],[28.3496,41.0568,0.0],[28.3526,41.0537,0.0],[28.3657,41.051,0.0],[28.3688,41.0529,1.7597],[28.3793,41.0518,0.3664],[28.391,41.0476,1.3898],[28.3974,41.0479,2.0104],[28.4015,41.0457,0.0],[28.4071,41.0454,0.0],[28.441,41.0343,1.4071],[28.4679,41.0235,0.8767],[28.4793,41.0163,0.0],[28.4821,41.0126,0.0],[28.5026,41.0051,0.0],[28.5096,41.0004,7.0718],[28.5104,40.9976,0.2444],[28.5301,40.991,7.7707],[28.5412,40.9843,0.695],[28.5443,40.9857,0.0],[28.5476,40.9999,5.0206],[28.5518,41.0035,4.7478],[28.5526,41.0074,0.0],[28.5615,41.0132,1.8103],[28.5654,41.0135,0.0],[28.5657,41.0146,0.0],[28.5629,41.014,0.0],[28.564,41.0171,4.1465],[28.5721,41.019,0.4294],[28.5885,41.0176,4.7069],[28.5937,41.0154,0.5594],[28.5993,41.009,0.0],[28.5971,41.004,0.0],[28.5954,40.989,0.0],[28.5985,40.981,1.9431],[28.5971,40.979,0.0],[28.5979,40.9771,15.6071],[28.5951,40.9735,0.0],[28.5979,40.9715,8.6328],[28.5987,40.9685,0.3901],[28.6201,40.9604,0.0],[28.6568,40.9632,1.0755],[28.6607,40.9624,0.9716],[28.6626,40.9637,1.2178],[28.6674,40.9629,8.3276],[28.6668,40.9582,1.4671],[28.6682,40.9582,3.6552],[28.6699,40.9635,0.0],[28.6718,40.9637,0.4789],[28.6721,40.9615,0.0],[28.6737,40.9615,0.0],[28.6735,40.9632,0.4789],[28.6751,40.9635,0.8584],[28.6754,40.961,0.0],[28.6768,40.961,0.0],[28.6793,40.9629,0.0],[28.6796,40.9663,1.3386],[28.681,40.9663,2.2107],[28.681,40.9635,0.0],[28.6851,40.9635,0.0],[28.6868,40.9699,3.2697],[28.6982,40.974,3.3707],[28.7121,40.9721,6.7819],[28.7146,40.9693,0.0],[28.7321,40.9715,0.6967],[28.7399,40.9707,3.39],[28.7449,40.9757,4.7829],[28.7549,40.9799,0.0],[28.7632,40.9799,0.0],[28.7643,40.9815,0.5592],[28.7885,40.971,0.9255],[28.7979,40.9635,0.0],[28.8057,40.961,14.4449],[28.8101,40.9557,0.1427],[28.8221,40.954,0.6959],[28.8243,40.954,0.0],[28.8229,40.9568,2.2133],[28.8246,40.9576,5.9857],[28.8324,40.9551,0.0],[28.8357,40.9588,16.6732],[28.8404,40.9582,0.0],[28.8407,40.9604,0.0],[28.8449,40.9637,0.0],[28.8454,40.969,2.2392],[28.8501,40.9743,5.1579],[28.8657,40.9738,2.8515],[28.8693,40.9704,0.0],[28.8751,40.9685,0.0],[28.8799,40.9718,0.0],[28.881,40.9751,0.612],[28.889,40.9793,1.7495],[28.9021,40.979,0.0],[28.9096,40.9821,5.5183],[28.9135,40.9865,0.8564],[28.9251,40.9879,0.0],[28.9304,40.9924,0.0],[28.9368,41.0013,10.3603],[28.9463,41.0001,0.0],[28.9693,41.0021,5.8135],[28.9776,41.0007,2.0241],[28.9854,41.0054,0.0],[28.9874,41.0112,10.3912],[28.9868,41.0171,0.0],[28.9762,41.0174,0.0],[28.966,41.0201,1.5589],[28.9568,41.0285,4.1179],[28.9518,41.0301,9.6128],[28.9443,41.0412,1.0615],[28.9418,41.0412,2.114],[28.9374,41.0443,0.2539]]]]}
,"properties": {"GID_1": "TUR.40_1","GID_0": "TUR","country": "Turkey","province": "Istanbul","VARNAME_1": "İstanbul|Constantinople|Estambul","NL_NAME_1": "NA","TYPE_1": "Il","ENGTYPE_1": "Province","CC_1": "NA","HASC_1": "TR.IB","ISO_1": "TR-34","name": "Istanbul.province","area_km2": 4750.157,"hist_schema_id": "Elevation0-9000","hist_area_km2": {"-25": 0.892,"0": 306.325,"25": 479.725,"50": 579.729,"75": 646.304,"100": 684.196,"125": 622.028,"150": 489.987,"175": 356.492,"200": 267.377,"225": 157.314,"250": 69.318,"275": 39.186,"300": 22.085,"325": 13.288,"350": 8.265,"375": 4.558,"400": 1.295,"425": 0.592,"450": 0.513,"475": 0.416,"500": 0.208,"525": 0.064}}}