{"type":"Feature","properties":{"id":138210.0,"name":null,"lge_id":null,"pfafstette":5.0,"lke_type":"N","altitude":86,"objectid":85810,"scalerank":12,"featurecla":"Lake","note":"_untitled_85810","funkyname":0,"min_zoom":7.0,"min_label":8.0},
"geometry":{"type": "Polygon","coordinates": [[[29.407725456646233,41.029852606244077,94.1484],[29.407725456646233,41.029852606244077,94.1484],[29.431162956646233,41.029852606244077,65.7424],[29.419200066021233,41.035040594525327,122.65],[29.396494987896233,41.036871649212827,83.8485],[29.382090691021233,41.045904852337827,58.5],[29.386119011333733,41.052313543744077,78.8149],[29.392588737896233,41.066595770306577,108.2247],[29.380381706646233,41.082098699994077,150.5392],[29.363658073833733,41.077521063275327,92.9884],[29.356944206646233,41.054449774212827,64.5889],[29.346324089458733,41.027106024212827,101.879],[29.345469597271233,41.010992742962827,58.5],[29.349742058208733,40.987433172650327,67.2952],[29.354258659771233,40.985174871869077,58.5],[29.354746941021233,41.005865789837827,137.4998],[29.350596550396233,41.020758367962827,61.0175],[29.367564323833733,41.032599188275327,91.5479],[29.407725456646233,41.029852606244077,94.1484]]]}}