{"type":"Feature","properties":{"ISO3166-1-Alpha-3":"TUR","country":"Turkey","fill":"#F0F","id":"2265","name":"Istanbul"},
"geometry":{"type": "MultiPolygon","coordinates": [[[[29.12094,40.84813,171.3261],[29.12322,40.85342,42.793],[29.1255,40.85586,1.4653],[29.12818,40.85745,4.8315],[29.12989,40.87051,27.238],[29.11476,40.86807,23.981],[29.1115,40.86551,0.0],[29.11069,40.86087,7.2398],[29.10743,40.85712,0.0],[29.10532,40.85436,0.0],[29.10524,40.84707,0.0],[29.1045,40.83942,0.0],[29.11785,40.83259,0.0],[29.12094,40.84813,171.3261]]],
[[[29.23178,41.24071,0.0],[29.21616,41.23941,0.0],[29.20623,41.22919,0.0],[29.19996,41.22919,0.0],[29.16969,41.2331,0.0],[29.13006,41.2119,0.0],[29.09262,41.18037,42.3195],[29.0691,41.15278,0.0],[29.09059,41.14094,76.9009],[29.08815,41.12885,0.0],[29.07618,41.11441,0.0],[29.06235,41.07632,3.7892],[29.04615,41.05549,0.0],[29.02605,41.03828,0.0],[29.00758,41.0305,0.0],[29.01466,41.01752,54.445],[29.01832,41.00389,25.2476],[29.02329,40.99335,0.0],[29.03484,40.98957,4.2903],[29.03289,40.98566,14.565],[29.03289,40.98456,16.5035],[29.03207,40.98404,16.5035],[29.02809,40.98212,34.9383],[29.08318,40.95966,17.5414],[29.10353,40.94672,3.6811],[29.12428,40.92691,8.0944],[29.14479,40.91413,9.3089],[29.20135,40.89395,50.4095],[29.22047,40.87971,8.4373],[29.24098,40.88255,18.6487],[29.25367,40.87547,31.6032],[29.25368,40.87547,31.6032],[29.28775,40.90944,128.9247],[29.34015,40.94326,110.7577],[29.36516,40.95272,118.3544],[29.40702,40.98411,86.7218],[29.45095,41.00861,164.8462],[29.50366,41.00502,300.3695],[29.55099,40.97414,257.3654],[29.58179,40.92525,281.8109],[29.61104,40.90691,341.0647],[29.64659,40.90993,312.0989],[29.66375,40.9328,349.9547],[29.67274,40.95693,315.4861],[29.73062,40.98776,215.91],[29.7948,41.00675,377.6303],[29.84937,41.02938,455.7671],[29.87738,41.07982,59.4719],[29.87366,41.11144,4.4495],[29.86343,41.14204,18.8764],[29.8626,41.15144,0.0],[29.8626,41.15147,0.0],[29.61883,41.1789,0.0],[29.41961,41.2143,0.0],[29.23178,41.24071,0.0]]],
[[[28.23276,41.51899,15.6407],[28.20302,41.54017,71.493],[28.20296,41.5401,71.493],[28.15749,41.49209,232.4041],[28.15573,41.4922,261.5252],[28.18208,41.42096,201.2123],[28.19304,41.35531,228.5736],[28.16296,41.27324,230.9596],[28.14932,41.21304,188.4168],[28.16296,41.13646,50.4054],[28.17473,41.08084,43.179],[28.18165,41.0777,23.7466],[28.19947,41.07856,45.2933],[28.23666,41.08515,1.5186],[28.24497,41.08295,27.7679],[28.25587,41.07319,37.067],[28.26401,41.07087,69.8317],[28.29811,41.07087,53.7287],[28.33277,41.06656,11.8629],[28.40219,41.04731,6.4842],[28.43531,41.04291,27.7802],[28.4607,41.03286,10.4596],[28.51246,40.99266,0.0],[28.54135,40.98957,48.7776],[28.55356,40.99836,0.0],[28.56031,41.01227,23.3615],[28.56284,41.02668,3.9389],[28.56251,41.03677,4.0],[28.55454,41.05366,4.0],[28.53289,41.07062,23.3224],[28.52784,41.08515,4.0],[28.55193,41.08051,4.0],[28.57244,41.06647,6.8658],[28.58253,41.04637,4.0],[28.57553,41.02367,3.6512],[28.58481,41.02204,7.8188],[28.59181,41.01887,7.2265],[28.60353,41.00947,24.0281],[28.59523,40.97797,0.0],[28.62525,40.96841,75.0462],[28.74529,40.98017,23.9507],[28.77019,40.97932,0.6654],[28.78102,40.97187,0.0],[28.78598,40.96564,0.0],[28.79762,40.96255,0.0],[28.82203,40.96162,9.9972],[28.83375,40.96393,20.8298],[28.84002,40.96768,9.07],[28.84425,40.97191,5.0153],[28.84995,40.97529,5.1579],[28.85955,40.97801,8.62],[28.89926,40.98428,24.2002],[28.91749,40.9936,7.4037],[28.9284,40.99579,28.0278],[28.93165,40.99775,10.3826],[28.94044,41.00682,45.7146],[28.94614,41.00947,28.8898],[28.95183,41.00861,20.4165],[28.96046,41.003,4.0954],[28.98194,41.00165,0.0],[28.9865,41.00263,0.0],[28.99236,41.00821,0.0],[28.99252,41.01366,0.0],[28.98959,41.01708,0.0],[28.98854,41.02163,0.0],[28.98805,41.02578,0.0],[28.98951,41.03107,19.8799],[28.99733,41.03986,27.8089],[29.00554,41.0445,28.4771],[29.02329,41.04881,35.8064],[29.0315,41.05386,88.3799],[29.04217,41.06635,0.0],[29.05152,41.08177,31.0553],[29.0586,41.0996,0.0],[29.06227,41.11933,27.1182],[29.06446,41.11957,33.1575],[29.0687,41.12446,55.628],[29.07065,41.13019,0.0],[29.06568,41.13296,0.0],[29.06373,41.13447,0.0],[29.05738,41.14155,4.6582],[29.05144,41.14985,0.0],[29.0433,41.15766,0.0],[29.04078,41.16429,58.5305],[29.05226,41.16714,64.8481],[29.06935,41.17471,32.8841],[29.08676,41.19188,0.0],[29.09986,41.21039,97.0102],[29.10922,41.2353,14.0429],[29.09392,41.24641,0.0],[29.0687,41.25373,3.2446],[29.04518,41.25642,0.0],[29.03826,41.25434,8.2397],[29.03199,41.24494,28.5515],[29.02426,41.24282,47.1376],[29.01783,41.24372,30.5454],[29.01515,41.24579,0.0],[29.01287,41.24811,0.0],[29.00758,41.24966,0.0],[28.90846,41.26655,44.2511],[28.60084,41.37751,0.0],[28.38429,41.44746,42.8754],[28.23276,41.51899,15.6407]]]]}}