{"type": "Feature","bbox": [28.2406,38.6167,28.4633,38.8448],"geometry": {"type": "MultiPolygon","coordinates": [[[[28.4141,38.8448,784.9976],[28.3691,38.8435,798.0627],[28.3411,38.8352,798.9395],[28.3127,38.8325,670.6899],[28.299,38.8293,651.7554],[28.2812,38.8186,555.5588],[28.262,38.8039,441.5988],[28.2518,38.7952,436.0497],[28.2426,38.7829,389.868],[28.2408,38.7746,427.1302],[28.2406,38.7516,480.2276],[28.2532,38.7389,566.0712],[28.2617,38.7238,608.9791],[28.2752,38.7126,820.7957],[28.2823,38.7039,668.07],[28.2886,38.671,635.2009],[28.3046,38.645,423.0662],[28.3259,38.6257,282.2368],[28.3393,38.6178,243.6446],[28.3456,38.6167,299.4307],[28.354,38.6189,356.8232],[28.3772,38.6318,454.503],[28.4069,38.6384,529.1828],[28.4162,38.6456,588.9897],[28.4208,38.6557,582.9175],[28.4273,38.6816,338.1238],[28.4478,38.7059,386.6696],[28.4537,38.7244,288.5542],[28.4633,38.7428,239.2431],[28.4632,38.7481,261.8738],[28.4596,38.7554,277.3625],[28.441,38.7736,382.9991],[28.4312,38.7878,400.4085],[28.4044,38.8104,571.3935],[28.3976,38.8189,683.4384],[28.3983,38.826,570.7491],[28.4141,38.8448,784.9976]]]]}
,"properties": {"GID_2": "TUR.56.8_1","GID_0": "TUR","country": "Turkey","GID_1": "TUR.56_1","province": "Manisa","NL_NAME_1": "NA","county": "Köprübaşı","VARNAME_2": "NA","NL_NAME_2": "NA","TYPE_2": "District","ENGTYPE_2": "District","CC_2": "NA","HASC_2": "TR.MN.KO","name": "Köprübaşı.county","area_km2": 321.0079,"hist_schema_id": "Elevation0-9000","hist_area_km2": {"225": 42.817,"250": 16.9914,"275": 20.7119,"300": 19.1891,"325": 19.3536,"350": 15.8455,"375": 13.6279,"400": 13.5774,"425": 12.8492,"450": 13.2625,"475": 12.8494,"500": 12.6347,"525": 12.4192,"550": 12.1046,"575": 14.385,"600": 14.3325,"625": 15.0585,"650": 10.8265,"675": 8.6598,"700": 7.1383,"725": 5.0063,"750": 3.1886,"775": 2.4777,"800": 1.2883,"825": 0.3799,"850": 0.033}}}