{"type": "Feature","bbox": [29.9249,40.4843,30.2868,40.6361],"geometry": {"type": "MultiPolygon","coordinates": [[[[29.963,40.4843,833.7802],[30.155,40.4856,73.1813],[30.1654,40.4874,72.6862],[30.1866,40.4943,71.2429],[30.2255,40.4989,70.4266],[30.2563,40.5095,67.9464],[30.2796,40.5206,69.1265],[30.2834,40.5269,69.1215],[30.2821,40.5336,191.3801],[30.2748,40.5464,167.7053],[30.2736,40.5571,519.6577],[30.2755,40.5651,571.0255],[30.2856,40.5841,331.2812],[30.2868,40.6009,737.3036],[30.284,40.612,765.7916],[30.276,40.6243,653.0125],[30.2587,40.6325,742.1069],[30.2421,40.6361,707.1189],[30.2286,40.6285,651.7456],[30.2183,40.6257,858.5397],[30.1681,40.6241,1236.3726],[30.1532,40.622,1245.6985],[30.1084,40.605,974.2508],[30.0783,40.5986,1140.827],[30.0268,40.5797,1149.1039],[30.0072,40.5779,1144.994],[29.9249,40.5775,1024.8878],[29.9288,40.5585,1044.8069],[29.938,40.542,1167.7925],[29.9448,40.5209,942.5098],[29.9549,40.5048,755.5604],[29.963,40.4843,833.7802]]]]}
,"properties": {"GID_2": "TUR.66.10_1","GID_0": "TUR","country": "Turkey","GID_1": "TUR.66_1","province": "Sakarya","NL_NAME_1": "NA","county": "Pamukova","VARNAME_2": "NA","NL_NAME_2": "NA","TYPE_2": "District","ENGTYPE_2": "District","CC_2": "NA","HASC_2": "TR.SK.PA","name": "Pamukova.county","area_km2": 364.2675,"hist_schema_id": "Elevation0-9000","hist_area_km2": {"75": 23.3939,"100": 9.5919,"125": 6.7864,"150": 4.8518,"175": 4.7549,"200": 5.1416,"225": 4.7546,"250": 4.8994,"275": 5.1733,"300": 5.3987,"325": 5.3178,"350": 5.2694,"375": 5.2529,"400": 4.9466,"425": 4.9788,"450": 4.7853,"475": 4.7045,"500": 4.4954,"525": 4.3499,"550": 4.2533,"575": 3.7215,"600": 4.3817,"625": 4.5588,"650": 4.8651,"675": 5.5899,"700": 6.5402,"725": 7.7007,"750": 13.4216,"775": 15.2749,"800": 13.0341,"825": 11.1483,"850": 9.4394,"875": 9.0361,"900": 8.4562,"925": 8.4078,"950": 9.1162,"975": 8.9063,"1000": 8.7612,"1025": 8.1331,"1050": 7.827,"1075": 8.8089,"1100": 12.6564,"1125": 14.2826,"1150": 12.1576,"1175": 8.6631,"1200": 7.0362,"1225": 3.8642,"1250": 2.7532,"1275": 1.6264,"1300": 0.5475,"1325": 0.3221,"1350": 0.0966,"1375": 0.0322}}}