{"type": "Feature","bbox": [34.301473647340657,36.605661406243286,34.310124530014974,36.611132044929093],"geometry": {"type": "Polygon","coordinates": [[[34.310124530014974,36.611132044929093,13.8682],[34.307383659771205,36.609747625775356,16.2135],[34.301473647340657,36.605661406243286,12.359],[34.310124530014974,36.611132044929093,13.8682]]]}
,"properties": {"featurecla": "Range/mtn","name": "Taurus Mountains","namealt": null,"region": "Asia","subregion": null,"min_label": 6.0,"max_label": 10.0,"scalerank": 5,"area_km2": 0.01701948,"hist_schema_id": "Elevation0-9000","hist_area_km2": {"25": 0.01701948}}}