{"type":"Feature","properties":{"GID_2":"TUR.40.8_1","GID_0":"TUR","country":"Turkey","GID_1":"TUR.40_1","province":"Istanbul","NL_NAME_1":"NA","county":"Basaksehir","VARNAME_2":"NA","NL_NAME_2":"NA","TYPE_2":"District","ENGTYPE_2":"District","CC_2":"NA","HASC_2":"NA","name":"Basaksehir.county"},
"geometry":{"type": "MultiPolygon","coordinates": [[[[28.6642,41.0925,68.7374],[28.672,41.0857,36.1466],[28.6774,41.0758,92.1469],[28.699,41.0569,9.2672],[28.711,41.0583,41.1567],[28.7125,41.0601,51.0537],[28.7125,41.0726,119.4874],[28.7074,41.085,133.5704],[28.7096,41.0872,135.8791],[28.7096,41.0923,85.3441],[28.715,41.0956,63.835],[28.7176,41.0948,34.8717],[28.7278,41.078,65.5964],[28.7507,41.0573,40.4076],[28.7782,41.0598,39.8495],[28.8147,41.0601,41.999],[28.8231,41.0685,88.7778],[28.8366,41.0689,120.8723],[28.8465,41.0806,120.2022],[28.8494,41.0893,122.8128],[28.8505,41.1007,145.5745],[28.8559,41.1065,151.0705],[28.8559,41.1098,149.7104],[28.8479,41.1218,178.3905],[28.8373,41.1302,197.1488],[28.833,41.1326,197.9389],[28.823,41.1319,192.8531],[28.8176,41.1339,200.3615],[28.8095,41.1413,209.941],[28.8042,41.1426,208.7227],[28.8008,41.1419,223.1449],[28.7827,41.1285,137.5289],[28.7713,41.1231,144.6577],[28.7551,41.1225,132.7641],[28.7491,41.1184,141.8107],[28.7464,41.1124,147.7822],[28.7424,41.109,108.769],[28.7316,41.109,74.6297],[28.7128,41.1205,34.4149],[28.7068,41.1198,20.4741],[28.6994,41.1144,52.7828],[28.6961,41.1084,133.8166],[28.694,41.0983,156.8079],[28.6826,41.0949,104.9424],[28.6642,41.0925,68.7374]]]]}}