{"type":"Feature","properties":{"featurecla":"River","scalerank":8,"rivernum":867,"dissolve":"867River","name":"Byk3","name_alt":null,"note":null,"min_zoom":7.0,"strokeweig":0.2,"name_en":"Byk Menderes","min_label":8.0},
"geometry":{"type": "LineString","coordinates": [[29.0361328125,38.118280340619116,263.0],[29.011816406250006,38.10358307499412,366.8801],[29.00048828125,38.094598699994116,432.721],[28.990234375,38.08405182499412,334.9098],[28.984960937500006,38.07587311405662,228.3152],[28.978125,38.057489324994116,167.1109],[28.97412109375,38.049823309369117,269.007],[28.960693359375,38.033563543744116,161.2666],[28.95703125,38.02582428593162,159.8917],[28.954345703125,37.994403387494117,154.0914],[28.954980468750023,37.988641668744116,149.2715],[28.957617187500006,37.98309967655662,146.2503],[28.961328125000023,37.97882721561912,145.3438],[28.963623046875,37.97418854374412,144.0443],[28.962646484375,37.96747467655662,143.8133],[28.955761718750011,37.96015045780662,143.8201],[28.944580078125,37.95514557499412,142.707],[28.898681640625,37.945672918744116,138.4792],[28.87646484375,37.94745514530662,157.0868],[28.831298828125,37.959491278119117,304.5929],[28.785839843750011,37.96637604374412,198.7872],[28.739501953125,37.966913153119116,172.1686],[28.712792968750023,37.96369049686912,152.4528],[28.689697265625,37.955340887494117,183.7358],[28.668359375000023,37.94257233280662,186.8178],[28.647705078125,37.926385809369116,129.7764],[28.630957031250006,37.91705963749412,105.9824],[28.383544921875,37.887079168744116,64.7542],[28.346777343750006,37.88983795780662,64.423],[28.304882812500011,37.89850494999412,64.029],[28.284570312500023,37.89887116093162,65.4732],[28.186718750000011,37.87372467655662,56.9325],[28.171875,37.867059637494116,54.8959],[28.160546875000023,37.859735418744116,44.2375],[28.148828125000023,37.85590241093162,43.9634],[28.132080078125,37.859735418744116,42.7603],[28.12939453125,37.861835028119117,43.7427],[28.124609375,37.86774323124412,54.3623],[28.121191406250006,37.87006256718162,61.9727],[28.116796875,37.870868231244117,69.9524],[28.067578125000011,37.868036199994116,117.0846],[28.056396484375,37.865008856244117,136.4674]]}}