{"type":"Feature","properties":{"featurecla":"River","scalerank":8,"rivernum":867,"dissolve":"867River","name":"Byk2","name_alt":null,"note":null,"min_zoom":7.0,"strokeweig":0.2,"name_en":"Byk Menderes","min_label":8.0},
"geometry":{"type": "LineString","coordinates": [[27.280029296875,37.54535553593162,1.4627],[27.278222656250023,37.533221746869117,6.4799],[27.257714843750023,37.52558014530662,1.1938],[27.231542968750006,37.52106354374412,0.6543],[27.2119140625,37.51496002811912,0.064],[27.21640625,37.51251862186912,0.691],[27.216699218750023,37.511590887494116,0.4195],[27.21875,37.50812409061912,0.2306],[27.207275390625,37.505877996869117,0.0],[27.19970703125,37.49896881718162,0.0],[27.194726562500023,37.48969147343162,0.0],[27.190820312500023,37.48016998905662,0.0]]}}