{"type":"Feature","properties":{"featurecla":"River","scalerank":8,"rivernum":867,"dissolve":"867River","name":"Byk4","name_alt":null,"note":null,"min_zoom":7.0,"strokeweig":0.25,"name_en":"Byk Menderes","min_label":8.0},
"geometry":{"type": "LineString","coordinates": [[28.056396484375,37.865008856244117,136.4674],[28.038281250000011,37.85993073124412,69.7703],[28.022363281250023,37.857928778119117,62.1001],[27.952880859375,37.861688543744116,78.5143],[27.935449218750023,37.85858795780662,99.4324],[27.921142578125,37.851434637494116,54.1475],[27.906835937500006,37.83649323124412,34.7695],[27.901123046875,37.83185455936912,30.6232],[27.894628906250006,37.828631903119117,30.313],[27.879638671875,37.82330963749412,29.6939],[27.823144531250023,37.791864324994116,27.4887],[27.789648437500006,37.78339264530662,25.3202],[27.671484375,37.805780340619116,19.8476],[27.65966796875,37.81037018436912,19.0712],[27.649121093750011,37.80756256718162,18.9031],[27.636474609375,37.788690496869116,18.0797],[27.622460937500023,37.793817449994116,17.4498],[27.615820312500006,37.79755280155662,17.246],[27.60986328125,37.80231354374412,17.1745],[27.615966796875,37.80914948124412,17.7356],[27.597363281250011,37.805682684369117,16.5374],[27.55126953125,37.80219147343162,15.3244],[27.534082031250023,37.796161199994117,14.3562],[27.534082031250023,37.788690496869116,14.9156],[27.551171875000023,37.78241608280662,13.8802],[27.532324218750006,37.77838776249412,13.7338],[27.486328125,37.774432684369117,12.6446],[27.485058593750011,37.76618073124412,12.3105],[27.484375,37.73578522343162,12.1286],[27.483154296875,37.730340887494116,11.5599],[27.485742187500023,37.72211334843162,10.6249],[27.475488281250023,37.708124090619116,10.6735],[27.480078125,37.69928619999412,10.7809],[27.465722656250023,37.686297918744117,10.7039],[27.467871093750006,37.684588934369117,10.6352],[27.469824218750006,37.68475983280662,10.6352],[27.471582031250023,37.68390534061912,10.4444],[27.47265625,37.678827215619116,10.1295],[27.465722656250023,37.678827215619116,10.4844],[27.465722656250023,37.672626043744117,9.3691],[27.48046875,37.666522528119117,10.1261],[27.486083984375,37.65704987186912,9.4842],[27.486914062500006,37.645770574994117,9.2514],[27.486328125,37.63446686405662,8.9944],[27.477441406250023,37.62787506718162,8.4796],[27.4248046875,37.61737702030662,7.378],[27.4248046875,37.61054108280662,8.0836],[27.43115234375,37.60993073124412,7.8339],[27.444726562500023,37.60431549686912,6.4868],[27.426513671875,37.59406159061912,5.8098],[27.408398437500011,37.58087799686912,6.3446],[27.38818359375,37.570672918744116,5.6244],[27.36279296875,37.569598699994117,6.1535],[27.370214843750006,37.562762762494117,4.6092],[27.366455078125,37.56183502811912,5.1428],[27.36376953125,37.561883856244116,4.6618],[27.362548828125,37.560663153119116,5.3755],[27.36279296875,37.555926824994117,4.6047],[27.3759765625,37.54938385624412,4.5663],[27.371826171875,37.54486725468162,4.306],[27.35986328125,37.54218170780662,3.5407],[27.349023437500023,37.541620184369116,3.2487],[27.337304687500023,37.544549871869116,3.1809],[27.31103515625,37.554706121869117,2.3439],[27.300683593750023,37.555926824994117,1.3184],[27.289306640625,37.55158112186912,1.1872],[27.26806640625,37.538836981244117,1.205],[27.2529296875,37.53546784061912,1.2023],[27.249267578125,37.53742096561912,1.0795],[27.242431640625,37.54682037968162,0.7394],[27.239160156250023,37.549090887494117,0.9047],[27.23388671875,37.548114324994117,0.5375],[27.22705078125,37.542840887494116,0.2978],[27.212158203125,37.538446356244116,-0.2187],[27.206445312500023,37.54010651249412,-0.118],[27.201904296875,37.540399481244116,0.0298],[27.190820312500023,37.541620184369116,0.0],[27.1890625,37.54474518436912,0.0],[27.18701171875,37.546893621869117,0.0],[27.184667968750006,37.548114324994117,-0.9053],[27.182031250000023,37.54877350468162,-0.0369]]}}