{"type":"Feature","properties":{"GID_2":"TUR.71.6_1","GID_0":"TUR","country":"Turkey","GID_1":"TUR.71_1","province":"Sirnak","NL_NAME_1":"NA","county":"Silopi","VARNAME_2":"NA","NL_NAME_2":"NA","TYPE_2":"District","ENGTYPE_2":"District","CC_2":"NA","HASC_2":"TR.SR.SI","name":"Silopi.county"},
"geometry":{"type": "MultiPolygon","coordinates": [[[[42.827,37.3726,1563.3359],[42.815,37.3917,1520.1229],[42.7952,37.4182,1157.064],[42.7611,37.3939,1328.3831],[42.701,37.3702,983.1152],[42.6838,37.3671,1110.8778],[42.6692,37.3671,1311.4993],[42.6551,37.3693,1511.2565],[42.5744,37.4006,1500.3007],[42.5563,37.4022,1513.1455],[42.5273,37.4018,1292.9822],[42.5136,37.3776,1829.884],[42.4924,37.3544,1409.3254],[42.4896,37.3464,1301.3716],[42.4861,37.3244,763.5674],[42.4772,37.3079,674.4761],[42.4715,37.2894,608.4388],[42.4673,37.2822,675.4516],[42.4501,37.2622,515.364],[42.4701,37.2381,482.2758],[42.477,37.217,470.1987],[42.486,37.2006,457.7484],[42.4917,37.1821,435.8411],[42.5147,37.1448,375.0777],[42.5171,37.1377,375.2464],[42.5267,37.145,378.8786],[42.5363,37.1488,383.2378],[42.5644,37.1482,391.0302],[42.5806,37.1454,394.0762],[42.5916,37.1473,398.3723],[42.596,37.1702,430.2837],[42.6022,37.1792,433.0826],[42.6159,37.1905,449.8207],[42.6216,37.1972,464.5156],[42.6238,37.208,489.9692],[42.627,37.214,510.6118],[42.642,37.2225,624.7656],[42.6525,37.2316,561.2477],[42.6581,37.2411,509.8661],[42.6646,37.262,638.4243],[42.6744,37.2702,550.8816],[42.6856,37.2705,586.2961],[42.6933,37.2806,637.025],[42.7007,37.2854,678.1019],[42.7032,37.2908,569.4094],[42.6989,37.3025,649.1854],[42.6993,37.3054,775.0647],[42.7046,37.3076,560.6148],[42.7268,37.3096,617.2093],[42.737,37.3134,657.1016],[42.7433,37.318,702.8872],[42.7459,37.3244,675.3385],[42.7433,37.3314,701.1167],[42.7308,37.3451,643.4182],[42.7343,37.3479,1092.3796],[42.7742,37.3564,1523.2571],[42.7847,37.363,1352.5044],[42.7936,37.3744,1767.9468],[42.7991,37.3775,1787.6541],[42.8033,37.378,1660.8627],[42.827,37.3726,1563.3359]]]]}}