{"type": "Feature","bbox": [40.2556,38.2891,40.5986,38.4927],"geometry": {"type": "MultiPolygon","coordinates": [[[[40.2921,38.4748,878.1604],[40.2802,38.4571,1120.2231],[40.2642,38.4473,1410.682],[40.2583,38.4418,1357.5723],[40.2556,38.4344,1163.0493],[40.2581,38.4267,996.3569],[40.2622,38.4227,992.9771],[40.2704,38.4187,994.0984],[40.2991,38.416,1196.6179],[40.3084,38.4128,962.6783],[40.3121,38.4083,926.3026],[40.3141,38.4002,905.5972],[40.3137,38.3567,782.376],[40.3164,38.3477,774.3662],[40.32,38.3427,779.4091],[40.3353,38.3301,824.0577],[40.3632,38.3179,822.7874],[40.4005,38.2971,886.1714],[40.4104,38.2891,867.2438],[40.4965,38.2891,907.6995],[40.4933,38.3096,912.8279],[40.4933,38.3341,897.5686],[40.4963,38.3458,924.2049],[40.502,38.3533,947.2194],[40.5153,38.3634,944.588],[40.5287,38.3686,921.9117],[40.585,38.3698,875.8303],[40.5942,38.3732,917.4312],[40.5977,38.3776,881.0302],[40.5986,38.3876,902.1085],[40.5957,38.3951,941.8612],[40.5818,38.4158,876.2426],[40.5699,38.4273,894.5206],[40.5559,38.4363,922.5677],[40.5402,38.442,955.9744],[40.5291,38.448,1060.4885],[40.4862,38.4803,895.8549],[40.466,38.4927,865.5328],[40.4448,38.4785,987.8372],[40.4301,38.475,1210.3862],[40.2921,38.4748,878.1604]]]]}
,"properties": {"GID_2": "TUR.26.8_1","GID_0": "TUR","country": "Turkey","GID_1": "TUR.26_1","province": "Diyarbakir","NL_NAME_1": "NA","county": "Hani","VARNAME_2": "NA","NL_NAME_2": "NA","TYPE_2": "District","ENGTYPE_2": "District","CC_2": "NA","HASC_2": "TR.DY.HN","name": "Hani.county","area_km2": 400.1859,"hist_schema_id": "Elevation0-9000","hist_area_km2": {"725": 1.9799,"750": 3.0943,"775": 10.9588,"800": 38.9246,"825": 40.8655,"850": 42.3371,"875": 47.6704,"900": 33.9722,"925": 21.004,"950": 16.0658,"975": 11.6777,"1000": 12.706,"1025": 10.8782,"1050": 8.4531,"1075": 8.1043,"1100": 14.4638,"1125": 12.0726,"1150": 7.9871,"1175": 8.5844,"1200": 9.2818,"1225": 8.6839,"1250": 8.0865,"1275": 6.1107,"1300": 3.8691,"1325": 2.6901,"1350": 2.2416,"1375": 1.6604,"1400": 1.5774,"1425": 1.5443,"1450": 1.0627,"1475": 0.8635,"1500": 0.3819,"1525": 0.2657,"1550": 0.0664}}}