{"type":"Feature","properties":{"GID_2":"TUR.37.9_1","GID_0":"TUR","country":"Turkey","GID_1":"TUR.37_1","province":"Hatay","NL_NAME_1":"NA","county":"Merkez","VARNAME_2":"HatayMerkezi","NL_NAME_2":"NA","TYPE_2":"District","ENGTYPE_2":"District","CC_2":"NA","HASC_2":"TR.HT.HT","name":"Merkez.county"},
"geometry":{"type": "MultiPolygon","coordinates": [[[[36.3592,36.196,95.3179],[36.3601,36.2374,87.2616],[36.3581,36.2457,88.105],[36.3515,36.252,86.6685],[36.3418,36.2542,86.0107],[36.3122,36.2551,93.0709],[36.301,36.257,90.6657],[36.2884,36.2631,85.9944],[36.2693,36.2775,83.7752],[36.2543,36.2775,83.0482],[36.2455,36.2707,83.9028],[36.2377,36.2675,86.0722],[36.2317,36.2679,82.1028],[36.2267,36.2717,88.0847],[36.2263,36.2764,102.4949],[36.2304,36.2824,111.0456],[36.2499,36.2955,80.4745],[36.2592,36.2988,79.6446],[36.2844,36.3008,80.0485],[36.2849,36.3515,75.7375],[36.2825,36.3667,77.4142],[36.2752,36.3772,78.3201],[36.2447,36.4042,140.9003],[36.2406,36.412,286.2128],[36.2358,36.428,213.801],[36.1925,36.4292,916.7579],[36.1807,36.4287,925.8351],[36.1626,36.4255,953.0733],[36.1055,36.4036,943.524],[36.0827,36.3931,884.7007],[36.0454,36.3804,843.2728],[35.9853,36.3571,527.6845],[35.9557,36.3395,703.3942],[35.9375,36.3325,687.8352],[35.9056,36.3154,993.3453],[36.0205,36.2254,557.6829],[36.0264,36.2186,536.0487],[36.0394,36.1974,310.2206],[36.047,36.1779,164.4886],[36.0696,36.1624,157.346],[36.0849,36.1404,111.6344],[36.0862,36.1362,108.5139],[36.084,36.1289,73.5434],[36.0592,36.1144,108.3484],[36.0112,36.0789,12.3188],[36.0044,36.0726,11.4139],[36.0013,36.0678,89.9684],[36.0003,36.0624,135.8849],[36.0016,36.0571,256.1138],[36.0071,36.0509,402.9241],[36.0295,36.0413,314.7213],[36.0387,36.0342,441.8034],[36.0427,36.0268,538.5929],[36.0459,36.0132,612.7977],[36.0719,36.0072,846.524],[36.0897,36.0008,759.1086],[36.1178,35.998,929.8044],[36.1828,35.9994,530.5399],[36.1755,36.0204,540.3205],[36.1503,36.0599,640.2035],[36.1483,36.071,592.8336],[36.149,36.0823,651.3033],[36.1535,36.0931,547.2458],[36.1739,36.1135,495.9737],[36.1989,36.151,463.0258],[36.2182,36.1718,278.7776],[36.2238,36.1858,318.7211],[36.2283,36.1915,286.0001],[36.2367,36.1935,255.9582],[36.2589,36.1867,309.6356],[36.2698,36.185,298.7516],[36.3244,36.1842,121.5],[36.3428,36.1871,181.5446],[36.3592,36.196,95.3179]]]]}}