{"type":"Feature","properties":{"GID_2":"TUR.31.18_1","GID_0":"TUR","country":"Turkey","GID_1":"TUR.31_1","province":"Erzurum","NL_NAME_1":"NA","county":"Tortum","VARNAME_2":"NA","NL_NAME_2":"NA","TYPE_2":"District","ENGTYPE_2":"District","CC_2":"NA","HASC_2":"TR.EM.TO","name":"Tortum.county"},
"geometry":{"type": "MultiPolygon","coordinates": [[[[41.3626,40.5793,2350.9963],[41.3384,40.572,2968.1233],[41.3108,40.5671,2582.6758],[41.263,40.549,2000.8269],[41.2357,40.5438,2018.0204],[41.1753,40.5212,2452.5857],[41.1598,40.5124,2265.6394],[41.143,40.4996,2091.5591],[41.1339,40.49,2119.5417],[41.131,40.4844,2127.3003],[41.1272,40.4485,2413.5425],[41.116,40.4265,2760.0229],[41.1141,40.4155,2834.27],[41.116,40.3988,3008.9021],[41.1254,40.3825,2775.0374],[41.1278,40.3745,2616.2275],[41.129,40.3573,2863.5007],[41.128,40.3304,2832.498],[41.1501,40.2983,2590.0679],[41.1905,40.2656,2878.8198],[41.2013,40.2546,2736.9873],[41.2154,40.2312,2579.592],[41.2173,40.2034,2816.6162],[41.2189,40.1954,2843.1409],[41.2228,40.1885,2855.5181],[41.2434,40.1776,2942.4141],[41.2529,40.1745,2901.2607],[41.2742,40.1732,2832.1367],[41.2871,40.1757,2930.4673],[41.2921,40.1789,2912.2256],[41.3047,40.1956,2602.8804],[41.3133,40.2102,2500.7544],[41.3252,40.2213,2328.3298],[41.3398,40.2301,2188.9631],[41.3553,40.2362,2143.6851],[41.3816,40.2517,2217.3513],[41.3918,40.2545,2626.2864],[41.4096,40.2541,2616.5872],[41.4429,40.2417,2561.8179],[41.49,40.2106,2123.7222],[41.52,40.1992,2347.8896],[41.5305,40.1974,2419.8877],[41.6457,40.1979,2504.7549],[41.6684,40.2187,2206.4312],[41.695,40.2345,2223.2627],[41.6991,40.243899999999996,2458.5298],[41.6988,40.2491,2644.3301],[41.6951,40.2565,2833.4556],[41.6826,40.2644,2828.3933],[41.6595,40.2683,2687.5317],[41.6506,40.2717,2647.0928],[41.6421,40.2796,2487.0874],[41.6383,40.294,2268.9468],[41.6403,40.3182,2084.9177],[41.6517,40.3403,1997.6621],[41.6569,40.3678,2317.0767],[41.666,40.3842,2221.1763],[41.6782,40.415,2267.6111],[41.6763,40.4216,2324.2812],[41.6674,40.4278,2536.7063],[41.638,40.4331,2537.1687],[41.6163,40.4427,2425.4238],[41.6124,40.4466,2519.0332],[41.6104,40.4514,2338.0425],[41.61,40.4698,1979.0208],[41.5886,40.483,2138.2988],[41.5749,40.5005,1712.944],[41.5631,40.5091,1668.9626],[41.4761,40.5425,1790.5155],[41.437,40.549,2278.0991],[41.431399999999996,40.5544,2468.938],[41.4287,40.5631,2363.0806],[41.4174,40.5675,2729.2388],[41.3833,40.5783,2414.8677],[41.3626,40.5793,2350.9963]]]]}}