{"type": "Feature","bbox": [29.574,36.5498,30.189,36.945],"geometry": {"type": "MultiPolygon","coordinates": [[[[29.6843,36.919,1246.9854],[29.6768,36.8827,1282.4863],[29.6736,36.8748,1263.4207],[29.645,36.8306,1388.0248],[29.6207,36.8055,1141.2302],[29.605,36.7791,1224.7073],[29.6001,36.7522,1666.6917],[29.5911,36.7355,1921.1272],[29.5882,36.7236,2126.3066],[29.5868,36.6415,1617.2518],[29.5843,36.6327,1525.5865],[29.574,36.6149,1868.9183],[29.6224,36.5986,2677.7437],[29.6762,36.5942,1434.6326],[29.7508,36.5653,1092.9639],[29.781,36.5589,1308.959],[29.8057,36.5512,1698.6709],[29.9736,36.5498,1091.7437],[29.9986,36.551,1455.7212],[30.0282,36.5596,2105.46],[30.0515,36.5642,2465.7539],[30.0976,36.5791,2545.9211],[30.1094,36.5975,2638.5356],[30.1154,36.616,2311.4377],[30.1199,36.6232,2088.9717],[30.1378,36.6417,2165.6309],[30.1526,36.6606,2013.309],[30.1656,36.6706,2107.5273],[30.1812,36.6794,2186.979],[30.1865,36.6859,2305.9182],[30.189,36.7032,2321.4287],[30.1882,36.7952,1510.2507],[30.1424,36.8296,1363.1057],[30.1183,36.8444,1846.1072],[30.1146,36.8514,1794.7273],[30.1126,36.8776,1626.2495],[30.11,36.8862,1575.6212],[30.089,36.9097,1316.2798],[30.0801,36.9242,1290.033],[30.065,36.9422,1370.2759],[30.0561,36.945,1454.9849],[30.0428,36.9445,1617.1049],[30.0189,36.9364,1617.8027],[29.9984,36.9324,1727.6056],[29.9772,36.925,1751.2632],[29.9534,36.9204,1546.7057],[29.9294,36.9135,1893.3801],[29.9194,36.914,2018.9194],[29.9021,36.9198,1986.0201],[29.8875,36.9222,1968.313],[29.8601,36.9231,2567.1604],[29.837,36.9216,2046.8878],[29.8234,36.9171,1841.5701],[29.7969,36.9021,2096.2998],[29.7783,36.8991,1914.3319],[29.7471,36.8989,1560.6355],[29.728,36.9007,1289.9432],[29.713,36.9058,1370.5803],[29.6843,36.919,1246.9854]]]]}
,"properties": {"GID_2": "TUR.8.3_1","GID_0": "TUR","country": "Turkey","GID_1": "TUR.8_1","province": "Antalya","NL_NAME_1": "NA","county": "Elmalı","VARNAME_2": "NA","NL_NAME_2": "NA","TYPE_2": "District","ENGTYPE_2": "District","CC_2": "NA","HASC_2": "TR.AL.EL","name": "Elmalı.county","area_km2": 1855.869,"hist_schema_id": "Elevation0-9000","hist_area_km2": {"1025": 147.839,"1050": 67.236,"1075": 38.787,"1100": 45.116,"1125": 54.107,"1150": 47.419,"1175": 39.355,"1200": 41.177,"1225": 38.048,"1250": 37.839,"1275": 35.644,"1300": 35.81,"1325": 34.505,"1350": 32.784,"1375": 41.625,"1400": 43.441,"1425": 38.281,"1450": 37.047,"1475": 33.481,"1500": 35.863,"1525": 36.031,"1550": 38.241,"1575": 37.371,"1600": 39.19,"1625": 39.033,"1650": 38.999,"1675": 40.31,"1700": 41.381,"1725": 49.327,"1750": 41.252,"1775": 40.332,"1800": 41.029,"1825": 37.733,"1850": 38.395,"1875": 35.047,"1900": 33.671,"1925": 31.853,"1950": 29.714,"1975": 25.654,"2000": 22.802,"2025": 19.692,"2050": 18.419,"2075": 15.034,"2100": 13.964,"2125": 12.724,"2150": 12.605,"2175": 11.298,"2200": 10.534,"2225": 9.602,"2250": 9.346,"2275": 8.869,"2300": 7.817,"2325": 6.627,"2350": 6.492,"2375": 4.775,"2400": 4.181,"2425": 3.552,"2450": 2.872,"2475": 2.533,"2500": 2.262,"2525": 2.399,"2550": 2.075,"2575": 1.735,"2600": 1.021,"2625": 0.647,"2650": 0.562,"2675": 0.51,"2700": 0.426,"2725": 0.323,"2750": 0.136,"2775": 0.017,"2825": 0.034,"2850": 0.017}}}