{"type":"Feature","properties":{"GID_2":"TUR.31.4_1","GID_0":"TUR","country":"Turkey","GID_1":"TUR.31_1","province":"Erzurum","NL_NAME_1":"NA","county":"Horasan","VARNAME_2":"NA","NL_NAME_2":"NA","TYPE_2":"District","ENGTYPE_2":"District","CC_2":"NA","HASC_2":"TR.EM.HO","name":"Horasan.county"},
"geometry":{"type": "MultiPolygon","coordinates": [[[[42.5664,39.9476,2432.2717],[42.5517,39.9741,1932.6862],[42.5292,39.997,2387.2798],[42.507,40.0323,2221.354],[42.499,40.0412,2034.6],[42.4476,40.0812,2065.8901],[42.4365,40.0879,1841.514],[42.4122,40.0983,1624.4653],[42.3675,40.1315,1672.1241],[42.3515,40.1372,1743.6576],[42.3161,40.1409,1874.7595],[42.2949,40.148,2085.4082],[42.2559,40.1523,1975.666],[42.2381,40.1586,1918.0565],[42.2112,40.1638,1979.5256],[42.2009,40.1701,2050.271],[42.1878,40.188,1981.8308],[42.1674,40.209,2011.5265],[42.1381,40.2553,2430.5295],[42.1382,40.2658,2345.918],[42.1461,40.2793,2393.1189],[42.1498,40.2896,2324.8977],[42.1165,40.2891,2624.4856],[42.1059,40.2874,2527.936],[42.0732,40.2747,2496.4612],[42.064,40.2675,2499.7622],[42.0527,40.2509,2520.0713],[42.0276,40.2252,2554.6753],[42.0166,40.2208,2520.4639],[41.9894,40.2183,2445.0427],[41.9764,40.2131,2411.2107],[41.9607,40.2007,2478.9641],[41.9425,40.1749,2476.4905],[41.9381,40.126,2293.6038],[41.9347,40.1184,2238.6982],[41.9247,40.107,2306.9131],[41.924,40.0819,2226.0312],[41.9271,40.0695,2182.2964],[41.935,40.0602,1985.9473],[41.9579,40.0417,1770.9109],[41.9663,40.0327,1691.9904],[41.9957,39.986,1616.4292],[42.0037,39.9625,1678.7605],[42.0241,39.9416,1723.3215],[42.0333,39.9274,1752.9591],[42.052,39.9106,1926.0769],[42.083,39.8865,2074.7153],[42.105,39.8726,2152.9368],[42.1422,39.8598,2412.574],[42.1623,39.856,2321.7085],[42.184,39.8489,2173.2708],[42.2129,39.8469,2325.3779],[42.2425,39.8482,2492.353],[42.2573,39.8503,2370.6228],[42.2552,39.8612,2294.2715],[42.2584,39.8715,2432.4678],[42.2675,39.8789,2222.2131],[42.2777,39.882,2106.3325],[42.3242,39.8821,2256.0786],[42.3393,39.8803,2021.4556],[42.3673,39.8713,2158.8408],[42.3853,39.8702,2174.5049],[42.3997,39.8716,2503.1279],[42.4332,39.884,2489.3794],[42.4625,39.9014,2198.5913],[42.5081,39.9191,2614.916],[42.5376,39.9363,2540.8921],[42.5664,39.9476,2432.2717]]]]}}