{"type": "Feature","bbox": [27.7655,38.0067,28.1566,38.4029],"geometry": {"type": "MultiPolygon","coordinates": [[[[28.1423,38.0292,1352.76],[28.1232,38.0515,1082.0408],[28.1201,38.0593,803.6411],[28.1197,38.0676,797.0905],[28.1231,38.0781,1010.9363],[28.1469,38.115,217.7684],[28.1521,38.1473,164.6255],[28.147,38.1659,200.0285],[28.1368,38.1849,292.2548],[28.1309,38.2151,518.5094],[28.1228,38.2289,388.5781],[28.1171,38.2474,480.4279],[28.1077,38.2638,851.9321],[28.1007,38.2848,1140.2266],[28.0911,38.3012,1217.0448],[28.0889,38.3179,1678.1362],[28.0923,38.3315,1582.1432],[28.1004,38.3396,1711.3613],[28.143,38.3594,1510.074],[28.1566,38.3637,1767.6388],[28.1496,38.3843,1532.9387],[28.145,38.392,1363.9979],[28.1331,38.4001,1273.8052],[28.1175,38.4028,1281.6633],[28.0334,38.4029,894.5374],[28.0088,38.4014,1029.2634],[27.9941,38.3965,991.2299],[27.9683,38.3814,964.9246],[27.9287,38.3676,1011.3839],[27.8875,38.3391,1064.8638],[27.8783,38.3347,941.7339],[27.8678,38.3329,846.064],[27.8501,38.3347,1100.7683],[27.8213,38.3508,696.087],[27.8066,38.3321,630.7432],[27.7912,38.3057,619.1284],[27.7892,38.2935,578.3431],[27.7876,38.2465,526.4135],[27.7766,38.2243,691.7009],[27.7719,38.2052,563.8558],[27.7655,38.1923,413.9761],[27.8203,38.1725,97.4516],[27.8556,38.1688,71.7221],[27.866,38.166,73.5782],[27.8813,38.1569,81.7742],[27.9001,38.1414,97.4797],[27.9065,38.1341,105.9182],[27.9207,38.1105,191.6877],[27.9264,38.0804,460.8407],[27.9365,38.0613,788.5274],[27.9387,38.0474,980.4495],[27.9387,38.0184,1445.2771],[27.9537,38.0067,1102.1688],[27.9781,38.0068,972.131],[27.9937,38.0084,734.3911],[28.0598,38.0278,1545.5339],[28.0971,38.0301,1380.502],[28.1423,38.0292,1352.76]]]]}
,"properties": {"GID_2": "TUR.41.23_1","GID_0": "TUR","country": "Turkey","GID_1": "TUR.41_1","province": "Izmir","NL_NAME_1": "NA","county": "Ödemiş","VARNAME_2": "NA","NL_NAME_2": "NA","TYPE_2": "District","ENGTYPE_2": "District","CC_2": "NA","HASC_2": "TR.IZ.OD","name": "Ödemiş.county","area_km2": 975.0204,"hist_schema_id": "Elevation0-9000","hist_area_km2": {"75": 34.8203,"100": 100.3491,"125": 90.3513,"150": 56.6647,"175": 32.3617,"200": 24.5466,"225": 19.2642,"250": 17.9133,"275": 16.4642,"300": 16.4627,"325": 16.1637,"350": 15.0468,"375": 15.4621,"400": 14.6114,"425": 14.128,"450": 14.7761,"475": 14.7419,"500": 14.258,"525": 14.275,"550": 14.4233,"575": 15.2893,"600": 14.5564,"625": 14.0402,"650": 13.6084,"675": 12.6925,"700": 13.1939,"725": 11.5967,"750": 11.2454,"775": 11.5301,"800": 11.1952,"825": 11.1779,"850": 11.2949,"875": 10.5949,"900": 9.5967,"925": 9.1643,"950": 8.847,"975": 11.7376,"1000": 12.2675,"1025": 13.8969,"1050": 17.1887,"1075": 13.563,"1100": 14.0759,"1125": 12.5629,"1150": 11.0841,"1175": 10.2355,"1200": 9.7383,"1225": 9.0389,"1250": 9.3709,"1275": 8.2235,"1300": 8.0401,"1325": 7.8081,"1350": 6.3916,"1375": 5.9587,"1400": 5.5086,"1425": 4.8263,"1450": 4.7904,"1475": 5.8055,"1500": 5.3901,"1525": 3.9603,"1550": 3.279,"1575": 2.9628,"1600": 2.6959,"1625": 1.9651,"1650": 1.549,"1675": 1.3822,"1700": 0.916,"1725": 0.5499,"1750": 0.6333,"1775": 0.433,"1800": 0.2499,"1825": 0.0831,"1850": 0.0831,"1875": 0.0166,"1900": 0.0499}}}