{"type": "Feature","bbox": [39.1165,40.5002,40.5144,41.1076],"geometry": {"type": "MultiPolygon","coordinates": [[[[40.238,40.5023,2146.3198],[40.2631,40.5103,2217.4258],[40.2859,40.5144,2744.3782],[40.3117,40.5122,2687.8008],[40.3356,40.5129,2789.8384],[40.3761,40.5229,2925.8784],[40.4446,40.5249,3123.0525],[40.4835,40.5353,3166.6069],[40.4835,40.6028,2884.9944],[40.4822,40.6162,2230.8989],[40.4789,40.6286,2075.7449],[40.4954,40.6528,2440.3447],[40.5026,40.6738,2689.2632],[40.5118,40.6904,2607.8669],[40.514,40.7021,2568.0645],[40.5144,40.7234,2122.2117],[40.5119,40.7411,1916.1072],[40.5026,40.7577,1361.4354],[40.4956,40.7787,924.1897],[40.4865,40.7954,843.5889],[40.4815,40.8224,480.8724],[40.4727,40.8391,396.5511],[40.4679,40.8667,223.8695],[40.4632,40.8766,356.2083],[40.4179,40.9463,163.2824],[40.4093,40.9545,112.0811],[40.3943,40.9545,201.524],[40.3921,40.963,39.0047],[40.3879,40.9695,157.7532],[40.3792,40.9773,124.3143],[40.3662,40.9852,212.5957],[40.3346,40.9951,0.406],[40.3237,40.9829,3.2308],[40.319,40.9787,6.9688],[40.3171,40.9787,0.0],[40.3093,40.9707,2.0787],[40.3046,40.9704,0.4479],[40.3049,40.969,0.4479],[40.2935,40.9632,0.0],[40.2821,40.9543,1.1866],[40.2793,40.9557,0.0],[40.2807,40.9535,2.8992],[40.2779,40.9526,2.1061],[40.2768,40.954,0.0],[40.2804,40.9568,0.0],[40.2796,40.9585,0.0],[40.2762,40.9554,0.0],[40.276,40.9529,1.47],[40.2671,40.9496,2.0235],[40.2646,40.9479,0.0],[40.264,40.9454,7.0902],[40.2599,40.9449,2.5306],[40.2532,40.9385,10.5276],[40.2504,40.939,0.0],[40.2501,40.9376,0.0],[40.2429,40.9354,4.9154],[40.2399,40.9326,0.0],[40.236,40.9326,0.0],[40.2307,40.9285,4.2718],[40.2285,40.929,0.0],[40.2262,40.9274,0.0],[40.2115,40.9249,7.7846],[40.2079,40.9224,2.8394],[40.2024,40.9221,0.3588],[40.2046,40.9232,0.0],[40.204,40.9254,0.0],[40.1987,40.9204,4.5851],[40.1879,40.916,1.2381],[40.1893,40.9188,0.0],[40.1854,40.9149,8.3052],[40.1721,40.9137,27.5409],[40.1654,40.9151,2.824],[40.1549,40.9126,1.9826],[40.1535,40.9132,2.2043],[40.1554,40.9146,0.0],[40.1488,40.9126,1.302],[40.1201,40.9121,2.0776],[40.119,40.9137,2.0776],[40.1101,40.9149,9.4603],[40.1065,40.9171,0.0],[40.094,40.9174,2.6325],[40.0774,40.9249,4.4612],[40.0682,40.9329,0.8601],[40.066,40.9382,0.0],[40.0529,40.9432,13.4876],[40.0537,40.9449,0.0],[40.0518,40.9449,4.7982],[40.0518,40.9463,0.0],[40.056,40.9457,0.0],[40.0521,40.9479,0.6108],[40.0482,40.9549,26.7206],[40.0351,40.9596,0.0],[40.0074,40.9571,0.0],[39.9915,40.9649,2.7897],[39.9835,40.9615,6.4984],[39.9743,40.9635,1.2592],[39.9704,40.9613,3.3583],[39.9546,40.9593,1.5313],[39.9521,40.9604,0.0],[39.9435,40.9565,5.9171],[39.9393,40.9579,0.0],[39.9382,40.9557,3.9506],[39.9321,40.9546,4.8499],[39.9021,40.954,0.0],[39.8918,40.9554,16.5889],[39.8838,40.9538,0.0],[39.8735,40.954,5.098],[39.8654,40.9571,0.0],[39.8563,40.9579,5.0569],[39.8565,40.9599,0.0],[39.8543,40.9593,0.6639],[39.8518,40.9615,0.0],[39.8574,40.9615,0.0],[39.8488,40.9632,1.7507],[39.8426,40.9693,0.0],[39.8363,40.9718,3.8912],[39.8338,40.976,0.4155],[39.834,40.9813,2.3157],[39.8301,40.9854,6.4847],[39.8199,40.9857,1.7039],[39.8187,40.9871,0.0],[39.8126,40.9876,0.0],[39.7999,40.9949,0.0],[39.7874,40.9976,4.682],[39.7849,41.0007,0.0],[39.7801,41.0026,0.3583],[39.7618,41.001,5.3034],[39.7579,41.0024,0.0],[39.7501,41.0013,4.2709],[39.7479,41.0026,0.0],[39.7474,41.0004,4.9444],[39.7454,41.0004,9.1319],[39.744,41.0029,1.4107],[39.746,41.004,0.0],[39.7407,41.0032,1.3852],[39.7374,41.0046,0.7668],[39.7388,41.0088,0.0],[39.7249,41.0093,5.6908],[39.7207,41.0121,2.647],[39.7096,41.0088,3.8504],[39.7062,41.0093,0.4958],[39.6826,40.999,6.4943],[39.6726,40.9982,4.0814],[39.6649,40.9949,8.5966],[39.6465,40.9968,4.1113],[39.6387,41.0004,21.2667],[39.6321,41.0076,0.1077],[39.6249,41.0085,24.5603],[39.611,41.0143,0.0],[39.6063,41.0143,3.021],[39.5971,41.0187,3.0947],[39.5851,41.0182,21.7605],[39.566,41.026,0.0],[39.5604,41.0343,1.4075],[39.5568,41.0368,21.6798],[39.556,41.0401,8.7536],[39.546,41.0476,1.6538],[39.5382,41.0513,17.7384],[39.5121,41.0721,0.0],[39.5076,41.074,3.9097],[39.504,41.079,4.324],[39.504,41.0821,0.0],[39.4949,41.0843,15.087],[39.4863,41.0921,0.0],[39.4782,41.0929,7.9018],[39.4588,41.0996,0.0],[39.444,41.1018,3.7882],[39.431,41.101,0.0],[39.4274,41.1037,0.2068],[39.4276,41.106,0.0],[39.4196,41.1076,0.0],[39.411,41.104,10.4831],[39.4074,41.104,0.0],[39.3854,41.0879,4.2615],[39.3787,41.0857,0.0],[39.3707,41.0799,1.7119],[39.3676,41.0796,5.8399],[39.3679,41.0821,0.0],[39.3649,41.079,2.0453],[39.351,41.0718,5.1453],[39.3471,41.0713,0.0],[39.3307,41.0632,8.4377],[39.3182,41.0621,0.0],[39.2993,41.0535,4.9049],[39.2843,41.0499,7.4235],[39.2701,41.0499,1.4645],[39.2626,41.0476,2.6031],[39.2518,41.0474,2.3619],[39.2479,41.0496,0.4507],[39.2365,41.0518,4.2162],[39.2332,41.0546,0.6844],[39.2251,41.0557,4.0171],[39.2163,41.0651,0.9291],[39.2179,41.0679,0.0],[39.2054,41.0746,0.0],[39.1949,41.0732,13.7806],[39.1787,41.074,0.0],[39.1705,41.0687,198.7897],[39.1606,41.0496,59.5281],[39.1481,41.0369,269.7336],[39.1446,41.008,728.6381],[39.1357,40.9972,543.1887],[39.1291,40.98,654.1057],[39.1211,40.9662,413.3962],[39.1179,40.9509,438.1103],[39.1185,40.8907,1731.9393],[39.1165,40.871,1653.9021],[39.1179,40.8538,885.5427],[39.121,40.8401,741.2218],[39.1298,40.8233,962.7506],[39.1349,40.7965,1411.4893],[39.1496,40.7755,1667.3336],[39.2005,40.7475,1685.9722],[39.2155,40.7286,1414.4294],[39.2301,40.7173,1419.4651],[39.2387,40.7131,1843.5394],[39.2684,40.7051,2113.7632],[39.2767,40.6937,2149.5688],[39.286,40.6847,2117.0535],[39.3074,40.6691,2041.8236],[39.3438,40.655,1560.7347],[39.3711,40.65,1883.8566],[39.4188,40.6318,2375.9243],[39.4461,40.6267,2417.4011],[39.4672,40.6194,2537.1064],[39.4912,40.6151,2589.7432],[39.5459,40.5936,2562.626],[39.5693,40.5906,2470.6555],[39.6437,40.5614,2560.0835],[39.6578,40.5592,2820.9548],[39.6761,40.5593,2692.8174],[39.6898,40.5621,2964.1421],[39.7135,40.5712,2398.4231],[39.7192,40.574,2366.4292],[39.7281,40.5815,2435.2217],[39.732,40.5888,2392.2107],[39.7366,40.6045,2506.6177],[39.7457,40.621,2347.072],[39.7512,40.6396,2395.4556],[39.7605,40.656,2386.167],[39.7663,40.6745,1919.2173],[39.7835,40.6994,2220.3064],[39.7897,40.7057,2009.5245],[39.8059,40.7166,1891.2258],[39.8267,40.7057,1173.1605],[39.8402,40.6925,1815.2446],[39.8365,40.6501,2139.397],[39.8337,40.6418,2218.2246],[39.8258,40.6273,2407.5283],[39.8268,40.6227,2390.6382],[39.8311,40.618899999999996,2484.7007],[39.8403,40.6169,2481.177],[39.8773,40.6172,2208.8523],[39.8909,40.615,2192.7412],[39.8979,40.61,1925.4392],[39.9089,40.5954,2003.4788],[39.9157,40.5835,2081.3601],[39.9264,40.5738,2199.2598],[39.9522,40.5628,1846.9146],[39.9582,40.561,2011.7078],[39.9687,40.5606,2440.605],[39.9752,40.5624,2395.5652],[39.985,40.5691,2236.8899],[39.9966,40.5914,1627.1206],[39.9959,40.5962,1928.4041],[39.9929,40.6007,2104.9685],[39.9763,40.6179,2060.1365],[39.9737,40.6259,2358.3884],[39.9747,40.6369,2601.7627],[39.9815,40.6461,2796.6572],[40.0049,40.6585,2534.5569],[40.0403,40.6381,2342.1941],[40.0587,40.6184,2302.8711],[40.07,40.6015,2200.0969],[40.0954,40.5758,2427.9534],[40.1081,40.5705,2282.7578],[40.1062,40.5537,2305.0361],[40.0957,40.5319,2590.3757],[40.093,40.5123,2325.3242],[40.1406,40.5115,2160.9812],[40.1516,40.5095,2284.9641],[40.1695,40.5033,2495.0601],[40.1891,40.5006,2661.613],[40.2097,40.5002,2290.7458],[40.238,40.5023,2146.3198]]]]}
,"properties": {"GID_1": "TUR.75_1","GID_0": "TUR","country": "Turkey","province": "Trabzon","VARNAME_1": "Trapezunt|Trebizond|Trebizonda|T","NL_NAME_1": "NA","TYPE_1": "Il","ENGTYPE_1": "Province","CC_1": "NA","HASC_1": "TR.TB","ISO_1": "TR-61","name": "Trabzon.province","area_km2": 5024.761,"hist_schema_id": "Elevation0-9000","hist_area_km2": {"0": 25.799,"25": 37.276,"50": 34.175,"75": 38.453,"100": 45.005,"125": 52.372,"150": 57.131,"175": 61.824,"200": 67.45,"225": 66.715,"250": 64.315,"275": 63.344,"300": 62.835,"325": 61.384,"350": 61.339,"375": 61.583,"400": 62.726,"425": 59.382,"450": 60.124,"475": 57.017,"500": 57.022,"525": 58.101,"550": 56.55,"575": 58.125,"600": 55.93,"625": 56.258,"650": 55.409,"675": 54.358,"700": 55.161,"725": 53.465,"750": 53.55,"775": 51.45,"800": 50.893,"825": 51.507,"850": 50.369,"875": 49.78,"900": 49.893,"925": 48.196,"950": 50.059,"975": 50.607,"1000": 48.461,"1025": 48.592,"1050": 49.139,"1075": 49.141,"1100": 51.534,"1125": 49.595,"1150": 49.195,"1175": 50.356,"1200": 48.22,"1225": 46.6,"1250": 48.225,"1275": 46.668,"1300": 47.328,"1325": 46.942,"1350": 47.343,"1375": 47.026,"1400": 46.961,"1425": 47.329,"1450": 46.212,"1475": 44.735,"1500": 43.357,"1525": 42.748,"1550": 41.949,"1575": 41.807,"1600": 41.791,"1625": 41.986,"1650": 42.824,"1675": 42.679,"1700": 42.585,"1725": 42.783,"1750": 42.543,"1775": 41.403,"1800": 43.142,"1825": 44.718,"1850": 44.464,"1875": 45.301,"1900": 43.827,"1925": 44.442,"1950": 44.526,"1975": 45.142,"2000": 43.731,"2025": 43.67,"2050": 43.208,"2075": 45.285,"2100": 44.789,"2125": 46.095,"2150": 47.803,"2175": 45.78,"2200": 45.766,"2225": 46.847,"2250": 45.725,"2275": 44.57,"2300": 44.236,"2325": 41.986,"2350": 40.925,"2375": 36.5,"2400": 34.86,"2425": 30.162,"2450": 26.816,"2475": 24.177,"2500": 22.293,"2525": 21.071,"2550": 19.477,"2575": 16.917,"2600": 15.678,"2625": 13.183,"2650": 11.075,"2675": 10.174,"2700": 10.221,"2725": 9.497,"2750": 8.676,"2775": 7.533,"2800": 7.357,"2825": 5.65,"2850": 5.136,"2875": 4.701,"2900": 4.057,"2925": 3.542,"2950": 3.172,"2975": 2.738,"3000": 2.319,"3025": 1.691,"3050": 1.24,"3075": 0.95,"3100": 0.87,"3125": 0.806,"3150": 0.435,"3175": 0.258,"3200": 0.145,"3225": 0.145,"3250": 0.081,"3275": 0.064,"3300": 0.097}}}