{"type":"Feature","properties":{"ISO3166-1-Alpha-3":"TUR","country":"Turkey","fill":"#000","id":"2302","name":"Trabzon"},
"geometry":{"type": "Polygon","coordinates": [[[40.35229,40.9941,50.7285],[40.30104,40.96845,0.0],[40.25465,40.95869,0.0],[40.23146,40.94684,0.0],[40.19557,40.93635,0.0],[40.17254,40.9322,0.0],[40.14275,40.9228,0.0],[40.12599,40.92064,0.0],[40.0857,40.92646,0.0],[40.05681,40.94135,4.0385],[39.99936,40.98212,0.0],[39.97495,40.98029,0.0],[39.91188,40.96377,0.0],[39.89568,40.95478,17.4868],[39.87648,40.95783,0.0],[39.85873,40.96426,0.0],[39.79916,41.00031,0.0],[39.79021,41.00263,0.0],[39.76832,41.00141,6.4186],[39.75709,41.00235,0.0],[39.72999,41.01716,0.0],[39.71013,41.01504,0.0],[39.68979,41.00747,0.0],[39.66969,41.00263,0.0],[39.63006,41.00849,0.0],[39.59205,41.02509,0.0],[39.53256,41.06464,0.0],[39.50717,41.09007,0.0],[39.49293,41.10102,0.0],[39.43019,41.11249,0.0],[39.41822,41.11001,0.0],[39.41245,41.10651,0.0],[39.40886,41.10244,5.7452],[39.40284,41.09813,39.234],[39.34913,41.07396,0.0],[39.33741,41.07087,0.0],[39.31723,41.06806,0.0],[39.29005,41.05484,0.0],[39.2732,41.05044,0.0],[39.25074,41.05305,0.0],[39.21998,41.0729,0.0],[39.20118,41.0777,0.0],[39.1683,41.07974,0.0],[39.1565,41.0777,0.0],[39.14835,41.07247,0.0],[39.14834,41.07243,0.0],[39.12012,40.9512,402.4483],[39.11744,40.90112,1669.3939],[39.12602,40.80955,1234.6919],[39.14441,40.77136,1888.5294],[39.16271,40.75963,2056.3628],[39.1842,40.75873,1758.1519],[39.20477,40.77188,1569.111],[39.22131,40.78981,1422.1238],[39.26347,40.77113,1139.2017],[39.27856,40.71245,1815.136],[39.34523,40.65964,1680.8068],[39.57891,40.58776,2453.6377],[39.63854,40.58189,2623.8699],[39.65911,40.58652,2476.7563],[39.67472,40.59876,2381.0867],[39.68629,40.63948,2015.0742],[39.7173,40.65742,2194.6763],[39.78592,40.6222,1957.1357],[39.83398,40.56101,1919.6707],[39.85465,40.56145,1960.7234],[39.86995,40.57494,1831.8022],[39.86333,40.59938,2128.8789],[39.87656,40.6083,2320.9368],[39.88359,40.61181,2277.6863],[39.91377,40.603,1735.7183],[39.97475,40.55026,2356.3391],[40.01588,40.53267,2161.3613],[40.10167,40.5307,2484.4309],[40.18456,40.51042,2511.9714],[40.22786,40.51122,2377.8745],[40.27675,40.52285,2452.3657],[40.32667,40.52996,2834.1401],[40.4294,40.52946,2714.9524],[40.46919,40.53928,2944.4985],[40.48945,40.54213,2936.2583],[40.47539,40.60569,2663.5532],[40.48686,40.67328,2827.314],[40.42423,40.79449,1065.0096],[40.41297,40.86531,453.4565],[40.38795,40.93187,95.5752],[40.3523,40.99409,50.7285],[40.35229,40.9941,50.7285]]]}}