{"type": "Feature","bbox": [35.9835,38.5737,36.9449,39.1763],"geometry": {"type": "MultiPolygon","coordinates": [[[[36.1131,38.882,1954.7983],[36.1063,38.8633,1861.116],[36.0977,38.8496,1823.5476],[36.095,38.8387,1631.1288],[36.0961,38.8219,1596.7466],[36.1075,38.8003,1565.4536],[36.1095,38.7865,1536.624],[36.1075,38.7726,1520.5972],[36.0963,38.7507,1486.0251],[36.0945,38.715,1492.4886],[36.0926,38.707,1480.9366],[36.0874,38.7007,1473.4985],[36.0718,38.6919,1468.0345],[36.0588,38.6819,1450.6787],[36.0427,38.6604,1442.097],[36.0274,38.6478,1422.6531],[36.0149,38.6419,1424.2117],[35.9835,38.6343,1431.1917],[35.9911,38.6184,1454.2728],[36.0097,38.5921,1637.4138],[36.017,38.5885,1515.9388],[36.0227,38.588,1501.4792],[36.0393,38.5922,1451.339],[36.0545,38.5939,1481.1067],[36.1233,38.5939,1510.0668],[36.1345,38.5924,1409.236],[36.1555,38.5852,1437.9309],[36.1693,38.5836,1471.2999],[36.1831,38.5853,1544.7571],[36.2038,38.5925,1515.0281],[36.2179,38.5934,1506.0652],[36.2282,38.592,1527.0867],[36.2458,38.5856,1545.0912],[36.2734,38.5805,1567.053],[36.2971,38.5737,1625.7542],[36.3066,38.5759,1637.1702],[36.3293,38.5888,1683.0631],[36.3393,38.5925,1788.1085],[36.3582,38.5943,1835.0874],[36.4043,38.594,2036.4719],[36.4147,38.5954,1846.6295],[36.4248,38.6012,1814.2882],[36.4478,38.6252,1738.9226],[36.4593,38.6422,1882.3369],[36.4713,38.6532,1957.958],[36.4828,38.6604,1942.478],[36.5016,38.6678,1930.1458],[36.5107,38.673,1948.9873],[36.5582,38.7092,1769.6987],[36.5761,38.7201,1818.7078],[36.6033,38.7303,1901.3944],[36.6133,38.7327,1953.55],[36.6453,38.7358,2019.0819],[36.6737,38.7442,2399.8342],[36.7009,38.7455,2347.0742],[36.8003,38.7452,2477.3237],[36.8037,38.7558,2605.6299],[36.8132,38.7721,2514.3469],[36.8188,38.7907,2445.8591],[36.8271,38.8045,2256.9404],[36.8339,38.8256,2068.4585],[36.8574,38.8627,1898.4537],[36.8642,38.8838,1856.574],[36.8735,38.9002,1849.9692],[36.8792,38.9187,1890.6317],[36.8885,38.9351,1818.262],[36.8942,38.9536,1889.734],[36.9177,38.9907,1715.6638],[36.9234,39.0092,1726.021],[36.9328,39.0256,1732.376],[36.9386,39.0446,1710.4216],[36.9441,39.055,1683.6875],[36.9449,39.0616,1676.6151],[36.9342,39.082,1706.5272],[36.9171,39.1075,1716.6543],[36.8891,39.1313,1726.5923],[36.8727,39.1399,1747.043],[36.8387,39.1498,1768.0858],[36.8153,39.1623,1744.7971],[36.7888,39.1724,1789.4491],[36.7773,39.1751,1789.5833],[36.7528,39.1763,1887.0853],[36.6034,39.1756,1713.9504],[36.5891,39.1727,1834.0945],[36.5146,39.1437,1638.1323],[36.4907,39.1391,1710.2253],[36.4698,39.1319,1620.2488],[36.4594,39.1304,1644.949],[36.4418,39.132,1696.7311],[36.3944,39.1504,1836.2673],[36.374,39.1534,1800.7605],[36.3788,39.1387,1745.0129],[36.3757,39.128,1722.111],[36.3538,39.1054,1484.7371],[36.3176,39.0492,1681.1735],[36.2951,39.0265,1778.0654],[36.2777,39.001,1870.1685],[36.2625,38.9748,2026.3086],[36.2571,38.9445,2086.6379],[36.2388,38.9162,2043.4147],[36.2289,38.9075,1963.7273],[36.2173,38.9002,1828.7003],[36.1838,38.8876,1714.4238],[36.1697,38.8857,1729.7336],[36.1288,38.8844,1894.3296],[36.1131,38.882,1954.7983]]]]}
,"properties": {"GID_2": "TUR.47.10_1","GID_0": "TUR","country": "Turkey","GID_1": "TUR.47_1","province": "Kayseri","NL_NAME_1": "NA","county": "Pınarbaşı","VARNAME_2": "NA","NL_NAME_2": "NA","TYPE_2": "District","ENGTYPE_2": "District","CC_2": "NA","HASC_2": "TR.KY.PI","name": "Pınarbaşı.county","area_km2": 3284.061,"hist_schema_id": "Elevation0-9000","hist_area_km2": {"1400": 1.442,"1425": 35.887,"1450": 38.915,"1475": 60.901,"1500": 74.794,"1525": 72.007,"1550": 95.459,"1575": 207.264,"1600": 272.141,"1625": 231.096,"1650": 237.82,"1675": 264.256,"1700": 279.632,"1725": 304.993,"1750": 209.807,"1775": 117.124,"1800": 91.146,"1825": 78.178,"1850": 63.439,"1875": 56.308,"1900": 51.059,"1925": 47.358,"1950": 40.802,"1975": 37.036,"2000": 32.592,"2025": 27.85,"2050": 24.694,"2075": 24.807,"2100": 21.455,"2125": 19.389,"2150": 17.01,"2175": 14.78,"2200": 14.38,"2225": 13.47,"2250": 13.056,"2275": 12.262,"2300": 11.603,"2325": 9.26,"2350": 8.27,"2375": 6.734,"2400": 6.997,"2425": 5.893,"2450": 5.531,"2475": 4.806,"2500": 5.203,"2525": 4.676,"2550": 3.784,"2575": 2.628,"2600": 1.603,"2625": 1.223,"2650": 0.81,"2675": 0.364,"2700": 0.066}}}