{"type":"Feature","properties":{"GID_2":"TUR.11.15_1","GID_0":"TUR","country":"Turkey","GID_1":"TUR.11_1","province":"Aydin","NL_NAME_1":"NA","county":"Söke","VARNAME_2":"NA","NL_NAME_2":"NA","TYPE_2":"District","ENGTYPE_2":"District","CC_2":"NA","HASC_2":"TR.AY.SO","name":"Söke.county"},
"geometry":{"type": "MultiPolygon","coordinates": [[[[27.1821,37.5629,-0.0969],[27.1804,37.5624,0.0],[27.1815,37.5601,0.0],[27.1829,37.5607,-0.3086],[27.1821,37.5629,-0.0969]]],
[[[27.1407,37.6104,0.0],[27.1404,37.6138,0.0153],[27.139,37.6138,0.0153],[27.1374,37.6115,-0.0006],[27.139,37.6074,-0.0327],[27.1446,37.6029,-0.68],[27.1565,37.5876,0.0],[27.1599,37.5868,0.0],[27.1529,37.5946,-0.004],[27.1529,37.5965,-0.2023],[27.1515,37.5962,-0.2023],[27.1468,37.6015,-0.3504],[27.1454,37.6051,0.0],[27.1424,37.6063,-0.3365],[27.1407,37.6104,0.0]]],
[[[27.3987,37.5026,1.0],[27.4405,37.4767,17.4644],[27.4421,37.4946,1.0],[27.445,37.5056,1.0],[27.4743,37.5524,153.3483],[27.4889,37.5669,70.4993],[27.4967,37.5718,175.2571],[27.5062,37.5746,165.7522],[27.5197,37.5728,184.4599],[27.5457,37.5568,239.86],[27.594,37.5379,909.0757],[27.6176,37.5249,851.7236],[27.6253,37.552,784.5944],[27.6518,37.591,615.7648],[27.6605,37.6064,557.0523],[27.6613,37.6109,539.4681],[27.658,37.6178,534.0424],[27.6272,37.6446,514.9929],[27.601,37.6847,391.6599],[27.5736,37.7078,80.3631],[27.5652,37.7168,19.6897],[27.5508,37.7403,13.1684],[27.5444,37.7615,13.7046],[27.5266,37.7817,13.4171],[27.5027,37.7858,12.4728],[27.4954,37.7803,13.8772],[27.4887,37.7779,12.3769],[27.4837,37.7788,12.1327],[27.4785,37.7828,12.6023],[27.4775,37.7867,12.4534],[27.4804,37.7919,12.3161],[27.5071,37.8113,14.3616],[27.5145,37.8199,16.4143],[27.5142,37.8274,17.0431],[27.5097,37.8315,19.8478],[27.5002,37.8336,60.2302],[27.482,37.8334,443.3867],[27.4592,37.8301,680.4398],[27.4339,37.822,833.8658],[27.4142,37.8207,959.9797],[27.3743,37.8222,352.7808],[27.369,37.8194,399.1336],[27.3562,37.8079,402.6091],[27.3477,37.7731,206.6755],[27.3185,37.7262,208.1226],[27.3035,37.7075,377.866],[27.2762,37.695,760.684],[27.2532,37.6926,451.0056],[27.2171,37.6929,339.9166],[27.1904,37.7051,10.8887],[27.184,37.7043,0.0],[27.1807,37.7018,14.5338],[27.1707,37.6993,8.6008],[27.1565,37.6985,2.0173],[27.1496,37.6926,5.8967],[27.1257,37.6901,16.2837],[27.1151,37.6843,25.4231],[27.1115,37.6849,0.0],[27.0993,37.6804,94.8598],[27.0832,37.684,0.0],[27.0726,37.6835,52.0257],[27.0663,37.6865,1.0577],[27.0618,37.6835,31.4685],[27.0476,37.681,2.3228],[27.0454,37.6854,3.0355],[27.041,37.686,0.0],[27.0382,37.6846,2.9151],[27.0365,37.6857,0.0],[27.0365,37.6885,0.0],[27.0312,37.6901,15.3897],[27.0254,37.6879,24.8655],[27.0257,37.6857,41.4405],[27.0154,37.6854,3.5223],[27.0146,37.6801,18.2668],[27.0115,37.6785,12.9896],[27.0101,37.6699,7.9312],[27.0051,37.6682,1.8433],[27.0049,37.6657,0.0],[27.0074,37.6668,0.0],[27.0068,37.6646,0.0],[27.0088,37.6643,0.0],[27.0074,37.6613,7.4369],[27.0029,37.6615,3.924],[27.0029,37.659,14.4283],[27.0063,37.6546,0.0],[27.014,37.6565,2.3769],[27.019,37.6551,0.7786],[27.0132,37.6499,1.1484],[27.0143,37.6471,0.0],[27.0218,37.6474,4.77],[27.0279,37.6499,6.2193],[27.0496,37.6426,0.0],[27.0563,37.6421,19.8652],[27.0574,37.6404,0.0],[27.0715,37.6415,0.0],[27.0774,37.641,6.9621],[27.0793,37.6385,0.0],[27.0838,37.6401,0.0],[27.091,37.6399,0.0],[27.0982,37.6379,14.4781],[27.1054,37.6315,0.0],[27.1243,37.631,0.0065],[27.1318,37.6235,0.0],[27.1385,37.6193,0.0],[27.1393,37.6204,0.0],[27.1385,37.6213,0.0],[27.1332,37.6235,-0.015],[27.1335,37.6265,0.0],[27.139,37.6257,9.4943],[27.1396,37.6232,0.0],[27.1429,37.6224,3.5932],[27.1426,37.6201,0.0],[27.1454,37.6224,2.3808],[27.1518,37.6188,0.3834],[27.1665,37.6165,0.8076],[27.1726,37.6135,0.0],[27.1732,37.6115,0.0],[27.1785,37.6104,-0.0642],[27.179,37.6068,0.0],[27.1838,37.6093,-0.4489],[27.1893,37.6096,-0.2238],[27.1924,37.6076,-0.1604],[27.1918,37.6057,0.0],[27.1965,37.606,0.0],[27.196,37.6037,0.0],[27.1993,37.601,0.0],[27.2029,37.6013,-0.7934],[27.2043,37.5985,-0.0068],[27.2076,37.5982,-0.07],[27.2076,37.5946,0.0],[27.2101,37.5957,-0.727],[27.2118,37.5932,-0.0438],[27.2138,37.5935,-0.1126],[27.2174,37.5907,-0.4046],[27.219,37.5865,-0.4307],[27.2174,37.5829,-0.0369],[27.2138,37.5835,-0.0978],[27.2124,37.5804,0.0],[27.2132,37.5754,-0.4772],[27.2018,37.5768,-0.2785],[27.1929,37.5738,0.0],[27.1899,37.5671,0.0],[27.191,37.5646,0.0],[27.1899,37.5615,0.0],[27.1868,37.5596,-0.1199],[27.1821,37.5593,-0.0363],[27.1818,37.5518,-0.5048],[27.1785,37.5499,-0.2472],[27.1746,37.5551,0.0],[27.1735,37.5493,0.0],[27.176,37.5485,-0.0861],[27.1746,37.5476,-0.1477],[27.1712,37.5493,-0.3806],[27.1729,37.554,0.0],[27.171,37.5535,-0.3568],[27.171,37.559,-0.0315],[27.174,37.5626,-0.0864],[27.1743,37.5618,-0.0655],[27.1735,37.5604,0.0],[27.1757,37.5599,0.0],[27.1754,37.5618,-0.0655],[27.1649,37.5768,0.0143],[27.1649,37.5804,0.0],[27.1615,37.5835,-0.0437],[27.1635,37.5854,0.0],[27.1596,37.5854,-0.1899],[27.1688,37.5651,0.0603],[27.1693,37.5546,0.1513],[27.1663,37.5454,0.0108],[27.1688,37.5399,-0.0183],[27.1679,37.5363,0.0],[27.171,37.5363,0.0],[27.1771,37.5426,-0.1999],[27.1812,37.5418,0.0],[27.1818,37.5465,0.0],[27.1915,37.5457,-0.1645],[27.1921,37.5418,0.0],[27.189,37.5346,-0.2424],[27.186,37.5332,-0.011],[27.1854,37.5351,-0.1949],[27.1832,37.5349,0.0],[27.1876,37.5238,-0.018],[27.1893,37.5229,0.0],[27.1863,37.5199,-0.4897],[27.1863,37.5054,0.0852],[27.1801,37.4829,0.0],[27.1843,37.4882,0.0],[27.1882,37.4882,0.0],[27.1899,37.4912,-0.555],[27.1893,37.5015,0.0],[27.1879,37.5038,0.0852],[27.1896,37.5071,-0.0936],[27.1926,37.5079,0.0],[27.1896,37.5074,-0.0936],[27.1885,37.511,0.0],[27.1938,37.5101,-0.0956],[27.191,37.5129,-0.3932],[27.1918,37.5143,0.0],[27.1887,37.5137,-0.0309],[27.1899,37.5182,-0.654],[27.1921,37.5174,0.0],[27.1924,37.5187,0.0],[27.1876,37.5274,-0.0609],[27.191,37.5282,-0.0006],[27.1946,37.5326,0.0178],[27.196,37.5326,0.0178],[27.196,37.531,0.0],[27.1935,37.5293,-0.0356],[27.1954,37.5268,-0.0016],[27.1957,37.5214,0.0],[27.2322,37.5188,0.7985],[27.3391,37.5176,2.2454],[27.3987,37.5026,1.0]]],
[[[27.0063,37.6532,3.3511],[27.0012,37.6521,0.0],[26.9999,37.6493,0.0],[27.0046,37.6493,6.2287],[27.0063,37.6532,3.3511]]],
[[[27.0154,37.6546,1.393],[27.0101,37.6543,0.0],[27.0093,37.6526,5.6647],[27.0132,37.6521,4.5214],[27.0154,37.6546,1.393]]],
[[[27.0182,37.6904,0.0],[27.0185,37.6926,0.0],[27.0157,37.6924,0.0],[27.0163,37.6904,0.0],[27.0182,37.6904,0.0]]]]}}