{"type":"Feature","properties":{"ISO3166-1-Alpha-3":"TUR","country":"Turkey","fill":"#F0F","id":"5518","name":"Yalova"},
"geometry":{"type": "Polygon","coordinates": [[[29.42842,40.69088,0.0],[29.41684,40.68675,3.8968],[29.40724,40.6931,2.2761],[29.39918,40.70258,0.0],[29.39186,40.70783,0.0],[29.38453,40.70649,0.0],[29.36378,40.69416,0.0],[29.32325,40.67674,0.0],[29.28159,40.66592,0.0],[28.98634,40.64476,0.0],[28.97006,40.63947,0.0],[28.92774,40.60643,0.0],[28.91356,40.59949,0.0],[28.89772,40.59174,0.0],[28.82683,40.57062,0.0],[28.79265,40.55329,0.0],[28.77418,40.52277,0.0],[28.82846,40.51301,4.8018],[28.91668,40.47089,58.5073],[28.96949,40.46137,2.3782],[28.98032,40.46454,21.2699],[28.97797,40.57323,801.8395],[29.04746,40.56016,865.4882],[29.07836,40.56321,778.9122],[29.23051,40.51159,745.4819],[29.29392,40.52215,224.8012],[29.35814,40.5729,567.1681],[29.42066,40.56316,502.0215],[29.42935,40.60145,240.0759],[29.42842,40.69085,0.0],[29.42842,40.69088,0.0]]]}}