{"type":"Feature","properties":{"GID_1":"TUR.79_1","GID_0":"TUR","country":"Turkey","province":"Yalova","VARNAME_1":"NA","NL_NAME_1":"NA","TYPE_1":"Il","ENGTYPE_1":"Province","CC_1":"NA","HASC_1":"TR.YL","ISO_1":"TR-77","name":"Yalova.province"},
"geometry":{"type": "MultiPolygon","coordinates": [[[[29.0371,40.5333,794.7545],[29.045,40.5592,845.6406],[29.07,40.5558,755.1844],[29.0923,40.5553,627.0207],[29.2676,40.556,371.9336],[29.2794,40.558,361.3815],[29.3012,40.5649,320.6416],[29.3361,40.5687,647.2632],[29.3627,40.58,372.9667],[29.3996,40.576,568.4843],[29.431,40.5603,374.4225],[29.4314,40.6734,124.0283],[29.4342,40.6823,24.8296],[29.4426,40.6921,0.0],[29.4385,40.6896,1.6226],[29.4351,40.6896,1.1137],[29.4354,40.6924,0.0],[29.4335,40.6926,0.0],[29.4312,40.6893,2.0304],[29.4246,40.6885,3.4514],[29.4101,40.6935,2.0702],[29.3949,40.7021,0.0],[29.3888,40.7001,-0.0629],[29.3807,40.7012,0.2126],[29.366,40.6932,0.2031],[29.3585,40.6865,0.0],[29.3565,40.6829,0.3424],[29.3521,40.681,0.0],[29.3437,40.6738,0.5495],[29.3121,40.6693,0.0],[29.2999,40.6649,3.0326],[29.291,40.6643,0.0],[29.2821,40.6601,4.0116],[29.2779,40.6621,0.0],[29.2768,40.6604,2.7424],[29.2732,40.6613,0.0],[29.2729,40.6593,2.1807],[29.2668,40.6599,0.1706],[29.2643,40.6579,3.1982],[29.2465,40.6587,4.3532],[29.2449,40.6607,0.0],[29.2393,40.6585,2.0251],[29.2232,40.6563,7.3591],[29.201,40.6557,0.0],[29.189,40.6574,0.0],[29.1668,40.6549,40.7136],[29.1643,40.6563,1.0135],[29.1551,40.6565,35.8803],[29.1513,40.6601,0.0],[29.144,40.661,0.542],[29.1449,40.6563,4.0584],[29.1376,40.6496,0.0],[29.1304,40.6479,4.684],[29.1296,40.6499,0.0],[29.1182,40.6468,9.3799],[29.1157,40.6476,0.0],[29.1154,40.6457,0.0],[29.1129,40.6446,5.6894],[29.1049,40.6432,6.9439],[29.0804,40.6465,0.9805],[29.0668,40.6437,0.8559],[29.0593,40.6454,1.8747],[29.0549,40.6485,0.287],[29.0365,40.646,11.6263],[29.0235,40.6471,0.0],[29.0132,40.6437,36.3486],[29.0074,40.6468,5.0724],[29.0065,40.6449,34.0691],[29.0018,40.6443,15.5481],[28.996,40.646,0.0],[28.9657,40.6335,11.9269],[28.9526,40.6196,0.0],[28.9538,40.6154,14.5147],[28.9524,40.6135,11.6881],[28.9415,40.6087,6.5046],[28.9332,40.6012,28.7591],[28.9279,40.5988,0.0],[28.906,40.5921,0.0],[28.9018,40.5885,2.9187],[28.8882,40.5821,0.0],[28.8476,40.5724,0.0],[28.8446,40.5701,52.2361],[28.8393,40.5696,0.0],[28.8357,40.5665,16.9848],[28.8154,40.5649,0.0],[28.8096,40.5588,9.9486],[28.8026,40.5579,0.0],[28.8021,40.556,2.6489],[28.7932,40.5524,0.0],[28.7871,40.5393,1.5558],[28.7801,40.5363,0.0],[28.779,40.5296,26.6366],[28.7812,40.5179,5.5455],[28.791,40.5176,11.2439],[28.7974,40.5135,0.0],[28.8076,40.5135,1.222],[28.8143,40.5112,0.0],[28.821,40.5118,0.0],[28.8243,40.5093,1.7606],[28.8279,40.5099,1.0944],[28.8343,40.5079,0.0],[28.841,40.509,29.8329],[28.849,40.5057,6.1296],[28.8554,40.5054,0.0],[28.8615,40.4979,0.0],[28.864,40.4979,4.6468],[28.8738,40.491,3.7959],[28.8818,40.4818,0.7438],[28.8824,40.4793,0.0],[28.8962,40.476,18.0645],[28.8999,40.4724,0.0],[28.9096,40.4721,19.007],[28.9199,40.4682,0.0],[28.9212,40.466,12.1178],[28.9299,40.4654,0.0],[28.9321,40.4635,0.0],[28.9482,40.4637,0.0],[28.9657,40.4615,0.4686],[28.9701,40.4604,0.1116],[28.9751,40.4557,8.3587],[28.9796,40.4588,22.1432],[28.9818,40.4637,0.0],[28.9882,40.464,13.8999],[28.9907,40.4668,0.0],[29.0007,40.4679,0.0],[29.0026,40.4699,2.3651],[29.0171,40.4704,0.0],[29.0218,40.4771,8.6093],[29.0268,40.479,17.2285],[29.0324,40.4785,0.0],[29.0104,40.4973,495.357],[29.0158,40.5102,725.1229],[29.0371,40.5333,794.7545]]]]}}