{"type": "Feature","bbox": [29.6277,38.9551,30.0216,39.3953],"geometry": {"type": "MultiPolygon","coordinates": [[[[30.0216,39.1954,1049.5194],[30.0119,39.2019,1054.2664],[29.9641,39.2208,1010.35],[29.9281,39.246,1118.8845],[29.9042,39.2559,1171.7913],[29.8681,39.2809,1193.0588],[29.8387,39.294,1186.1958],[29.8119,39.3152,1168.1727],[29.7994,39.3339,1164.6667],[29.7886,39.3441,1190.5056],[29.7755,39.3525,1257.9761],[29.76,39.358,1324.2053],[29.749,39.3639,1440.0526],[29.7093,39.3953,1425.7397],[29.6731,39.3724,1376.2635],[29.662,39.3671,1273.936],[29.6405,39.3289,1023.9778],[29.6379,39.3111,1090.8331],[29.6384,39.2869,1056.3696],[29.6414,39.2754,1046.2704],[29.6559,39.2519,992.5025],[29.6804,39.2226,1001.7422],[29.686,39.1851,1029.1483],[29.6971,39.1635,1053.9904],[29.6965,39.1498,1093.863],[29.6877,39.1377,1140.8149],[29.6667,39.1216,1211.7667],[29.655,39.1148,1196.9828],[29.6277,39.1045,1201.4055],[29.6406,39.0774,1322.7842],[29.6947,38.994,1135.8411],[29.7005,38.9725,1442.684],[29.7076,38.9551,1729.905],[29.7808,39.0119,1398.2119],[29.8348,39.0331,1431.5758],[29.8584,39.049,1191.8158],[29.8871,39.0728,1375.5051],[29.9125,39.1127,1215.9304],[29.9281,39.127,1153.7939],[29.9516,39.1429,1066.5706],[29.9973,39.1595,1009.7261],[30.0074,39.1661,1003.6824],[30.0134,39.1743,1004.5143],[30.0216,39.1954,1049.5194]]]]}
,"properties": {"GID_2": "TUR.54.2_1","GID_0": "TUR","country": "Turkey","GID_1": "TUR.54_1","province": "Kütahya","NL_NAME_1": "NA","county": "Aslanapa","VARNAME_2": "NA","NL_NAME_2": "NA","TYPE_2": "District","ENGTYPE_2": "District","CC_2": "NA","HASC_2": "TR.KU.AS","name": "Aslanapa.county","area_km2": 830.469,"hist_schema_id": "Elevation0-9000","hist_area_km2": {"950": 0.2133,"975": 1.6572,"1000": 37.4371,"1025": 72.7808,"1050": 76.8127,"1075": 57.3101,"1100": 50.8353,"1125": 58.3456,"1150": 67.5443,"1175": 59.3584,"1200": 52.088,"1225": 48.5085,"1250": 39.5956,"1275": 34.0542,"1300": 28.5079,"1325": 23.9795,"1350": 23.1454,"1375": 21.059,"1400": 18.827,"1425": 15.8646,"1450": 12.5742,"1475": 10.2885,"1500": 7.4763,"1525": 5.4357,"1550": 3.1461,"1575": 1.7789,"1600": 1.0708,"1625": 0.5107,"1650": 0.2471,"1675": 0.0165}}}