{"type": "Feature","bbox": [33.1878,38.6365,33.9469,39.3304],"geometry": {"type": "MultiPolygon","coordinates": [[[[33.924,38.7807,1282.123],[33.943,38.8039,1331.2805],[33.9468,38.8126,1282.0372],[33.9469,38.8292,1305.5745],[33.943,38.8347,1322.7734],[33.9371,38.8351,1342.7991],[33.9009,38.8495,1305.993],[33.8586,38.8548,1361.8676],[33.8107,38.8728,1304.1711],[33.7804,38.8788,1308.8011],[33.7559,38.89,1258.563],[33.7397,38.9112,1273.5673],[33.737,38.9251,1306.186],[33.7375,38.9336,1389.1925],[33.7407,38.9444,1349.7437],[33.7503,38.9605,1249.7468],[33.7511,38.9741,1261.4526],[33.7476,38.982,1301.8472],[33.7272,39.0022,1131.0315],[33.7128,39.023,1093.7183],[33.7091,39.0303,1084.9341],[33.708,39.0386,1025.2288],[33.7116,39.0518,952.3922],[33.7344,39.0861,851.7872],[33.7426,39.1119,848.0],[33.7087,39.122,848.0],[33.6788,39.1339,848.0],[33.6493,39.1515,848.0],[33.6038,39.1687,848.9643],[33.5926,39.1747,848.0],[33.5725,39.1898,848.0],[33.5619,39.2002,848.0],[33.528,39.2548,848.0],[33.5138,39.2471,848.0],[33.5042,39.2398,882.759],[33.4908,39.2214,875.4781],[33.4594,39.1936,856.7081],[33.4486,39.1767,885.8707],[33.4407,39.1684,867.2726],[33.4339,39.1632,874.922],[33.4259,39.1599,880.3745],[33.4197,39.1601,889.9683],[33.4145,39.1624,900.4617],[33.4104,39.1658,900.6976],[33.4005,39.1815,898.5986],[33.3816,39.2003,916.9691],[33.3656,39.2256,941.8316],[33.3658,39.2362,937.5443],[33.3882,39.2698,887.4562],[33.3903,39.2774,923.6296],[33.3884,39.2851,904.1406],[33.3694,39.3172,828.4514],[33.3526,39.3201,830.8975],[33.3236,39.3288,910.6398],[33.2867,39.3304,857.2029],[33.2649,39.3121,895.1471],[33.247,39.2997,932.6828],[33.1878,39.2768,994.9573],[33.2002,39.2494,1152.6313],[33.2091,39.2398,1244.6653],[33.2376,39.2151,1121.381],[33.2768,39.1538,922.666],[33.3276,39.1102,904.0],[33.374,39.0379,904.0],[33.3765,39.0294,904.0],[33.3774,39.0176,904.0],[33.3768,38.9057,904.5364],[33.3745,38.8912,904.6669],[33.3651,38.8748,904.7326],[33.3621,38.8611,904.5565],[33.3621,38.7918,903.9063],[33.3664,38.7811,902.5],[33.3884,38.7584,904.3408],[33.4039,38.7353,904.2521],[33.4486,38.6654,902.5],[33.465,38.6365,902.5],[33.4981,38.6463,904.728],[33.5282,38.6579,905.0394],[33.5485,38.6682,905.4644],[33.5854,38.6799,905.8467],[33.633,38.6985,904.8964],[33.6602,38.7038,907.6375],[33.6815,38.711,942.6498],[33.7083,38.7128,1010.8479],[33.8031,38.7122,1174.6132],[33.8256,38.7149,1262.4492],[33.8437,38.725,1183.2715],[33.9035,38.7714,1261.384],[33.9151,38.778,1260.2435],[33.924,38.7807,1282.123]]]]}
,"properties": {"GID_2": "TUR.7.23_1","GID_0": "TUR","country": "Turkey","GID_1": "TUR.7_1","province": "Ankara","NL_NAME_1": "NA","county": "ŞultanKoçhisar","VARNAME_2": "NA","NL_NAME_2": "NA","TYPE_2": "District","ENGTYPE_2": "District","CC_2": "NA","HASC_2": "TR.AN.SK","name": "Şultan_Koçhisar.county","area_km2": 2234.41,"hist_schema_id": "Elevation0-9000","hist_area_km2": {"825": 1.64,"850": 137.755,"875": 57.257,"900": 633.37,"925": 215.135,"950": 100.851,"975": 79.754,"1000": 72.066,"1025": 68.516,"1050": 77.136,"1075": 84.403,"1100": 90.089,"1125": 88.686,"1150": 84.869,"1175": 81.134,"1200": 73.717,"1225": 75.244,"1250": 65.355,"1275": 48.053,"1300": 32.293,"1325": 23.677,"1350": 17.554,"1375": 11.303,"1400": 6.366,"1425": 3.215,"1450": 1.762,"1475": 1.482,"1500": 0.823,"1525": 0.346,"1550": 0.28,"1575": 0.115,"1600": 0.066,"1625": 0.082}}}