{"type":"Feature","properties":{"GID_2":"TUR.12.8_1","GID_0":"TUR","country":"Turkey","GID_1":"TUR.12_1","province":"Balikesir","NL_NAME_1":"NA","county":"Erdek","VARNAME_2":"NA","NL_NAME_2":"NA","TYPE_2":"District","ENGTYPE_2":"District","CC_2":"NA","HASC_2":"TR.BK.ER","name":"Erdek.county"},
"geometry":{"type": "MultiPolygon","coordinates": [[[[27.7901,40.3779,1.3637],[27.7813,40.3757,0.0],[27.7818,40.3729,4.6615],[27.7879,40.3737,0.0],[27.7904,40.3763,0.0],[27.7901,40.3779,1.3637]]],
[[[27.8867,40.3841,0.4105],[27.8963,40.3872,0.0],[27.8968,40.3904,0.0],[27.9004,40.3913,0.0],[27.9024,40.3943,7.8021],[27.9054,40.394,1.7537],[27.9057,40.3982,4.291],[27.909,40.4021,7.5235],[27.9118,40.401,0.0],[27.916,40.4029,2.5322],[27.9176,40.4012,0.0],[27.9188,40.4068,0.6348],[27.9229,40.4071,0.0],[27.9263,40.4115,4.5443],[27.9332,40.4124,6.3273],[27.9357,40.4101,0.0],[27.9396,40.4135,0.0],[27.9463,40.4132,0.0],[27.9518,40.4226,1.9253],[27.956,40.4218,0.0],[27.9593,40.4249,1.1338],[27.9621,40.4249,0.0],[27.9713,40.4226,0.9456],[27.9732,40.4254,0.0],[27.9771,40.4268,0.0],[27.9787,40.4299,0.6752],[27.9846,40.4318,0.0],[27.9879,40.4313,1.0409],[27.9985,40.4399,15.1817],[28.006,40.4399,0.2468],[28.0079,40.4437,0.0],[28.0151,40.4479,25.4134],[28.0168,40.4474,2.4666],[28.0243,40.4529,4.2476],[28.0265,40.4582,0.0],[28.024,40.4574,2.1422],[28.0229,40.4599,11.9993],[28.028199999999998,40.4637,0.0],[28.0279,40.4693,0.4326],[28.0296,40.4701,0.0],[28.0307,40.4682,0.208],[28.0307,40.4696,0.0],[28.0287,40.4715,4.4794],[28.0349,40.4776,0.0],[28.0318,40.4813,4.4404],[28.028199999999998,40.4815,27.6869],[28.0246,40.4854,32.689],[28.0163,40.4885,10.7329],[28.0121,40.4879,0.0],[28.0115,40.486,9.1181],[28.0104,40.489,0.0],[28.0074,40.4876,20.5022],[27.9954,40.4888,0.0],[27.994,40.4876,2.3947],[27.9924,40.4904,27.1819],[27.9882,40.4907,0.0],[27.9863,40.4893,10.1855],[27.9749,40.4935,0.0],[27.9721,40.4926,0.0],[27.9715,40.491,15.5743],[27.9701,40.4938,0.0],[27.9654,40.4924,0.0],[27.9643,40.4946,0.0],[27.9582,40.496,0.0],[27.9593,40.4976,0.0],[27.9574,40.4982,7.6872],[27.9568,40.5004,0.0],[27.951,40.4971,0.0],[27.9479,40.4987,3.3898],[27.9426,40.4985,3.0623],[27.9432,40.5013,0.0],[27.9374,40.5021,0.0],[27.936,40.5038,0.0],[27.9318,40.5015,3.788],[27.9304,40.5035,12.5191],[27.9285,40.5026,32.2873],[27.9293,40.5049,0.0],[27.9276,40.5062,0.0],[27.9254,40.5054,66.849],[27.9246,40.5071,0.0],[27.9165,40.509,0.0],[27.9099,40.5074,5.741],[27.9049,40.509,0.0],[27.9046,40.5071,14.0991],[27.901,40.5065,0.6779],[27.8999,40.5082,0.0],[27.8968,40.5082,1.1625],[27.8979,40.5118,0.0],[27.8929,40.509,17.8562],[27.8915,40.5137,20.4571],[27.886,40.5118,57.7816],[27.8835,40.514,0.0],[27.8785,40.514,0.0],[27.8754,40.5118,9.9818],[27.8707,40.5171,0.0],[27.8671,40.5154,76.276],[27.8596,40.5165,23.5933],[27.8571,40.514,2.3171],[27.8554,40.5143,0.5644],[27.8557,40.5165,3.8285],[27.8532,40.5163,2.2615],[27.8499,40.5135,36.4414],[27.8468,40.5149,12.9853],[27.8465,40.5165,0.0],[27.8435,40.5163,6.442],[27.840699999999998,40.5135,47.1849],[27.841,40.5104,47.3892],[27.8338,40.5099,0.267],[27.8307,40.511,3.168],[27.8299,40.5176,2.5418],[27.826,40.5137,95.5739],[27.8246,40.5165,0.0],[27.8213,40.5163,17.1961],[27.8168,40.5196,3.2666],[27.8143,40.5187,0.0],[27.8149,40.516,4.5415],[27.8115,40.5182,10.2145],[27.8068,40.5154,9.9123],[27.8065,40.5135,23.0025],[27.8037,40.5132,3.9891],[27.8024,40.5154,7.393],[27.7988,40.5149,24.2726],[27.7943,40.5193,0.8241],[27.7915,40.5157,1.8664],[27.7929,40.5115,0.0],[27.7907,40.5093,0.0],[27.7918,40.5071,7.1668],[27.7896,40.5057,1.1504],[27.7849,40.506,0.6766],[27.7801,40.5074,13.5301],[27.7751,40.5115,11.7347],[27.7774,40.5132,0.0],[27.7763,40.5174,51.4235],[27.7799,40.5204,1.2165],[27.7774,40.5262,5.5619],[27.7749,40.5257,4.825],[27.7713,40.5201,49.2362],[27.7679,40.5232,0.0],[27.7646,40.5207,1.9905],[27.7635,40.5243,1.3372],[27.7551,40.5215,16.3455],[27.7538,40.5224,45.8158],[27.7538,40.5285,0.0],[27.7515,40.5254,41.2805],[27.7465,40.5251,10.4878],[27.749,40.5201,0.0],[27.7479,40.5176,0.8457],[27.7418,40.5171,0.0],[27.7399,40.5185,13.5938],[27.7371,40.526,1.331],[27.7351,40.5249,0.0],[27.7329,40.5179,0.6914],[27.7307,40.5174,0.5442],[27.7254,40.5196,5.3919],[27.7274,40.5246,0.0],[27.7226,40.5201,27.0837],[27.7218,40.5229,0.0],[27.7185,40.5226,0.0],[27.7129,40.5199,9.9834],[27.7118,40.5165,4.1506],[27.7085,40.5182,0.0],[27.7046,40.5146,22.7196],[27.7013,40.5151,27.6392],[27.7004,40.5115,46.5909],[27.6971,40.5079,15.5139],[27.6926,40.5071,0.3297],[27.6929,40.5032,3.9706],[27.6857,40.5035,10.7698],[27.684,40.5021,10.7698],[27.6846,40.4965,39.479],[27.6821,40.4938,2.2837],[27.6879,40.4899,0.0],[27.6876,40.4876,0.0],[27.684,40.4854,4.9164],[27.6882,40.4807,2.3542],[27.6865,40.4724,0.1898],[27.6965,40.4726,11.7024],[27.7001,40.4696,0.0],[27.7085,40.4668,0.0],[27.7118,40.4635,6.0492],[27.7115,40.4599,0.0],[27.7151,40.4593,4.7865],[27.7171,40.4554,0.0],[27.7263,40.4557,12.5592],[27.7329,40.4535,0.0],[27.7407,40.4562,8.1754],[27.7518,40.4493,1.2041],[27.7546,40.4449,1.9986],[27.7546,40.4415,12.7271],[27.749,40.4379,0.0],[27.7454,40.4304,0.0],[27.7601,40.4235,0.8261],[27.7687,40.4149,0.0],[27.7804,40.4113,0.0],[27.7832,40.409,3.1722],[27.7885,40.4018,0.0],[27.7876,40.3968,0.0],[27.7896,40.3943,0.2433],[27.7946,40.3932,0.0],[27.7971,40.3896,7.0821],[27.7935,40.3871,0.0],[27.7951,40.384,13.5372],[27.8004,40.3829,2.8381],[27.8029,40.389,8.2684],[27.8054,40.3907,1.5253],[27.8101,40.3907,1.6201],[27.8185,40.3999,0.0],[27.8321,40.3971,1.3433],[27.840699999999998,40.3907,1.7527],[27.8532,40.3879,1.6151],[27.8638,40.3829,0.069],[27.869,40.3832,0.3639],[27.8761,40.381,0.0],[27.8867,40.3841,0.4105]]],
[[[27.7099,40.5257,1.589],[27.7082,40.5257,0.0],[27.7096,40.5226,0.0],[27.7104,40.5235,0.0],[27.7099,40.5257,1.589]]]]}}