{"type": "Feature","bbox": [27.8966,39.2985,28.6086,39.5433],"geometry": {"type": "MultiPolygon","coordinates": [[[[28.2429,39.5234,648.3263],[28.2101,39.52,295.0094],[28.1516,39.5195,274.6224],[28.1313,39.5208,263.3629],[28.114,39.5272,181.8242],[28.0952,39.5429,238.2125],[28.0548,39.5433,322.8789],[28.0335,39.5407,195.2252],[28.0158,39.5344,205.8997],[28.0007,39.5322,185.5847],[27.9403,39.5325,171.4222],[27.917,39.5311,114.992],[27.9075,39.5274,116.2447],[27.899,39.5193,125.3467],[27.8966,39.5112,132.7608],[27.8967,39.5057,143.9152],[27.8994,39.4976,154.864],[27.9033,39.4925,149.4165],[27.9375,39.4636,284.2421],[27.9504,39.4409,305.4948],[27.9485,39.4321,276.2387],[27.9302,39.4027,443.3757],[27.9255,39.386,507.9446],[27.9582,39.3715,436.2443],[27.9853,39.366,411.1631],[28.0331,39.3481,268.0895],[28.0569,39.3433,296.8716],[28.0779,39.3361,226.9184],[28.0973,39.3339,389.6129],[28.113,39.3348,449.286],[28.1419,39.3435,448.3628],[28.1575,39.3453,515.6704],[28.1982,39.3458,415.0151],[28.2219,39.3437,481.658],[28.232,39.3399,545.2863],[28.2583,39.3244,564.4454],[28.2852,39.3138,658.4887],[28.3121,39.3082,824.8591],[28.3332,39.301,1014.7736],[28.3521,39.2985,1010.0337],[28.3833,39.2997,1194.9427],[28.4121,39.3084,1412.7401],[28.4277,39.3101,1379.5251],[28.6086,39.3114,1091.7334],[28.5996,39.3325,1258.7402],[28.5874,39.3451,1114.0852],[28.5742,39.3535,1182.5594],[28.5558,39.3604,1083.9912],[28.5316,39.3748,1190.8096],[28.5085,39.3851,1082.6172],[28.5019,39.3907,909.2203],[28.4926,39.4046,866.1501],[28.4813,39.4157,859.3608],[28.3855,39.4899,446.824],[28.3762,39.4943,606.8961],[28.3657,39.4962,306.8829],[28.3069,39.4981,600.7476],[28.2734,39.5102,601.0751],[28.2429,39.5234,648.3263]]]]}
,"properties": {"GID_2": "TUR.12.4_1","GID_0": "TUR","country": "Turkey","GID_1": "TUR.12_1","province": "Balikesir","NL_NAME_1": "NA","county": "Bigadiç","VARNAME_2": "NA","NL_NAME_2": "NA","TYPE_2": "District","ENGTYPE_2": "District","CC_2": "NA","HASC_2": "TR.BK.BI","name": "Bigadiç.county","area_km2": 1010.3041,"hist_schema_id": "Elevation0-9000","hist_area_km2": {"25": 0.0818,"50": 0.3437,"75": 0.4583,"100": 0.6874,"125": 22.2583,"150": 49.5273,"175": 37.3259,"200": 33.9844,"225": 38.0913,"250": 37.306,"275": 43.1014,"300": 51.8627,"325": 47.736,"350": 43.1583,"375": 41.804,"400": 38.9254,"425": 34.6236,"450": 28.8278,"475": 23.1767,"500": 19.1811,"525": 20.5902,"550": 20.8846,"575": 21.4733,"600": 22.0477,"625": 22.0139,"650": 19.6548,"675": 18.2136,"700": 15.5621,"725": 13.0244,"750": 11.5349,"775": 10.4381,"800": 10.6027,"825": 9.9648,"850": 9.4414,"875": 10.5569,"900": 9.7706,"925": 10.8695,"950": 10.5091,"975": 10.7389,"1000": 10.1984,"1025": 10.4609,"1050": 9.6249,"1075": 8.9523,"1100": 7.8536,"1125": 8.6243,"1150": 8.8867,"1175": 8.772,"1200": 7.7228,"1225": 6.2144,"1250": 5.9522,"1275": 5.9196,"1300": 4.9521,"1325": 4.0996,"1350": 4.1487,"1375": 4.1981,"1400": 4.3295,"1425": 3.8704,"1450": 3.6573,"1475": 2.7553,"1500": 2.214,"1525": 1.9188,"1550": 1.0168,"1575": 0.7873,"1600": 0.6233,"1625": 0.4921,"1650": 0.4101,"1675": 0.3773,"1700": 0.4593,"1725": 0.2788,"1750": 0.1804}}}