{"type":"Feature","properties":{"GID_2":"TUR.34.9_1","GID_0":"TUR","country":"Turkey","GID_1":"TUR.34_1","province":"Giresun","NL_NAME_1":"NA","county":"Görele","VARNAME_2":"NA","NL_NAME_2":"NA","TYPE_2":"District","ENGTYPE_2":"District","CC_2":"NA","HASC_2":"TR.GI.GO","name":"Görele.county"},
"geometry":{"type": "MultiPolygon","coordinates": [[[[38.9252,40.9171,324.7812],[38.9228,40.9399,479.8498],[38.9216,41.0387,13.345],[38.9196,41.0399,0.0],[38.8854,41.0174,0.7872],[38.8715,41.0112,0.0],[38.8662,41.0107,0.0],[38.8629,41.0121,0.0],[38.8421,41.0101,1.731],[38.8332,41.0049,22.6422],[38.8279,41.0068,0.7017],[38.8265,41.0046,1.9547],[38.824,41.0046,4.8367],[38.8218,41.0082,1.6392],[38.8174,41.0071,0.4928],[38.8168,41.0104,0.6027],[38.8187,41.0115,0.0],[38.8165,41.0115,0.3848],[38.8121,41.0101,0.0],[38.8115,41.0076,0.0],[38.8071,41.0051,0.0],[38.8076,41.0032,6.7393],[38.8051,41.0032,1.8712],[38.8029,41.0001,21.3572],[38.7976,40.999,12.6654],[38.7929,41.0015,0.0],[38.7935,40.9968,1.7293],[38.791,40.9946,1.9036],[38.7843,40.9918,28.053],[38.7807,40.9921,0.0],[38.7794,40.9822,104.95],[38.7729,40.9639,107.7876],[38.766,40.9523,137.825],[38.7574,40.9441,173.4785],[38.7564,40.91,109.9266],[38.7572,40.9005,240.3591],[38.7607,40.8921,292.5181],[38.7682,40.887,436.5379],[38.7857,40.8833,213.2839],[38.8055,40.8851,198.6387],[38.8159,40.8835,206.9113],[38.8265,40.8774,250.9811],[38.8319,40.8709,254.9305],[38.8652,40.8169,934.7777],[38.8772,40.8043,1185.2872],[38.8923,40.8159,948.6351],[38.895,40.8355,463.5731],[38.9055,40.8577,656.3904],[38.9098,40.8935,341.1179],[38.9252,40.9171,324.7812]]]]}}