{"type": "Feature","bbox": [28.9097,40.9871,28.9868,41.0446],"geometry": {"type": "MultiPolygon","coordinates": [[[[28.9215,41.0324,66.5961],[28.9135,41.0244,72.5551],[28.9102,41.019,65.4828],[28.9097,41.0144,51.7855],[28.9112,40.9933,20.0169],[28.9167,40.9871,2.3488],[28.9251,40.9879,0.0],[28.9304,40.9924,0.0],[28.9368,41.0013,10.3603],[28.9463,41.0001,0.0],[28.9693,41.0021,5.8135],[28.9776,41.0007,2.0241],[28.9863,41.0068,4.8525],[28.9868,41.0171,0.0],[28.971,41.0182,3.7913],[28.9635,41.0215,7.9793],[28.9579,41.0276,0.0],[28.9507,41.0313,4.7232],[28.9443,41.0412,1.0615],[28.9418,41.0412,2.114],[28.9373,41.0446,0.2539],[28.933,41.0412,23.4498],[28.9286,41.0346,85.6835],[28.9215,41.0324,66.5961]]]]}
,"properties": {"GID_2": "TUR.40.20_1","GID_0": "TUR","country": "Turkey","GID_1": "TUR.40_1","province": "Istanbul","NL_NAME_1": "NA","county": "Fatih","VARNAME_2": "NA","NL_NAME_2": "NA","TYPE_2": "District","ENGTYPE_2": "District","CC_2": "NA","HASC_2": "TR.IB.FA","name": "Fatih.county","area_km2": 21.8214,"hist_schema_id": "Elevation0-9000","hist_area_km2": {"0": 3.77592,"25": 6.41555,"50": 8.33485,"75": 3.29508}}}