{"type":"Feature","properties":{"GID_2":"TUR.80.10_1","GID_0":"TUR","country":"Turkey","GID_1":"TUR.80_1","province":"Yozgat","NL_NAME_1":"NA","county":"Sarıkaya","VARNAME_2":"NA","NL_NAME_2":"NA","TYPE_2":"District","ENGTYPE_2":"District","CC_2":"NA","HASC_2":"TR.YZ.SK","name":"Sarıkaya.county"},
"geometry":{"type": "MultiPolygon","coordinates": [[[[35.3674,39.6299,1246.2241],[35.3398,39.6198,1333.1909],[35.3352,39.6165,1286.4128],[35.3324,39.6121,1245.0793],[35.3314,39.6071,1244.6888],[35.3325,39.5994,1197.2145],[35.3438,39.5807,1144.6685],[35.3464,39.569,1090.4153],[35.3452,39.5578,1063.1792],[35.3387,39.5514,1058.1063],[35.3292,39.5495,1055.3054],[35.3193,39.5505,1053.5696],[35.2693,39.5707,1077.3301],[35.2499,39.5732,1093.8923],[35.2267,39.5704,1038.6547],[35.2004,39.5552,1029.6333],[35.1906,39.5515,1048.4869],[35.1728,39.5503,1020.5819],[35.1542,39.5536,1064.21],[35.1495,39.5034,1103.8325],[35.1476,39.4952,1107.1941],[35.1382,39.4789,1108.2023],[35.1347,39.4643,1124.7288],[35.135,39.443,1119.0227],[35.1379,39.4343,1144.7256],[35.1416,39.429,1150.7937],[35.1541,39.4175,1175.1256],[35.1776,39.4017,1222.5319],[35.2111,39.3888,1352.8093],[35.2187,39.3873,1390.3955],[35.2305,39.3866,1439.9797],[35.25,39.3882,1597.7527],[35.2714,39.3955,1529.1188],[35.2828,39.3976,1442.3606],[35.3391,39.3986,1262.783],[35.3496,39.3968,1204.4468],[35.3552,39.3939,1190.9912],[35.3583,39.39,1188.0498],[35.3631,39.3768,1183.2026],[35.3683,39.3716,1172.567],[35.3731,39.3693,1158.181],[35.3813,39.369,1143.8801],[35.3952,39.3727,1168.3002],[35.4104,39.3744,1192.9508],[35.451,39.374,1215.7939],[35.4734,39.3943,1226.2935],[35.4856,39.4111,1219.3457],[35.507,39.4341,1193.7426],[35.51,39.4456,1211.3645],[35.511,39.4845,1190.8469],[35.5147,39.4924,1187.0573],[35.5214,39.4981,1190.7213],[35.5271,39.5009,1213.0029],[35.5379,39.503,1197.1082],[35.592,39.5028,1177.277],[35.6109,39.5045,1232.5148],[35.6622,39.5234,1388.2848],[35.6824,39.5263,1475.1034],[35.6965,39.5412,1497.5009],[35.7303,39.569,1484.7246],[35.7453,39.5931,1511.4606],[35.7434,39.6001,1533.0117],[35.7372,39.6051,1585.6066],[35.7082,39.6159,1497.7957],[35.6661,39.6211,1480.9644],[35.6445,39.6282,1334.6412],[35.6175,39.6338,1283.4535],[35.5922,39.6417,1254.9655],[35.5725,39.6424,1293.2472],[35.5609,39.6411,1271.0531],[35.5357,39.633,1274.6854],[35.501,39.6288,1344.5564],[35.4766,39.622,1263.5383],[35.4667,39.6225,1262.1384],[35.4493,39.6282,1213.7744],[35.4346,39.6305,1203.8027],[35.403,39.6312,1190.1284],[35.3674,39.6299,1246.2241]]]]}}