{"type": "Feature","bbox": [34.7625,40.686,35.0778,40.8538],"geometry": {"type": "MultiPolygon","coordinates": [[[[35.0251,40.8434,1069.4843],[34.9884,40.8419,1060.8535],[34.9557,40.8427,818.7578],[34.9129,40.8538,604.4811],[34.9086,40.8408,592.5747],[34.8939,40.8219,609.1014],[34.8727,40.8103,533.337],[34.8274,40.7773,877.0764],[34.7946,40.7647,714.0047],[34.7855,40.7628,537.4886],[34.7645,40.7219,1063.7242],[34.7625,40.7094,861.1473],[34.7633,40.686,1040.6592],[34.7899,40.6906,1314.5199],[34.8581,40.6905,1167.5294],[34.8775,40.6924,1138.645],[34.8941,40.7,1123.3284],[34.9337,40.7302,923.6031],[34.9469,40.7349,1053.2048],[34.9571,40.7345,1179.8142],[34.9777,40.7279,1089.2874],[34.9931,40.726,1380.8723],[35.042,40.7256,1187.9246],[35.0778,40.7271,1487.0111],[35.0745,40.7362,1448.7584],[35.0651,40.7526,1030.9871],[35.0595,40.7711,819.8357],[35.0513,40.7849,768.6101],[35.0446,40.8061,817.3204],[35.0361,40.8198,926.6754],[35.0251,40.8434,1069.4843]]]]}
,"properties": {"GID_2": "TUR.24.7_1","GID_0": "TUR","country": "Turkey","GID_1": "TUR.24_1","province": "Çorum","NL_NAME_1": "NA","county": "Laçin","VARNAME_2": "NA","NL_NAME_2": "NA","TYPE_2": "District","ENGTYPE_2": "District","CC_2": "NA","HASC_2": "TR.CM.LA","name": "Laçin.county","area_km2": 285.2627,"hist_schema_id": "Elevation0-9000","hist_area_km2": {"475": 0.7062,"500": 2.5521,"525": 4.6869,"550": 6.7897,"575": 8.4427,"600": 10.1925,"625": 10.979,"650": 12.1674,"675": 14.0461,"700": 15.6353,"725": 14.4474,"750": 13.0833,"775": 10.9968,"800": 9.5202,"825": 8.0114,"850": 7.3695,"875": 7.0327,"900": 6.5354,"925": 6.6644,"950": 5.7972,"975": 5.6532,"1000": 5.4288,"1025": 5.0111,"1050": 4.6423,"1075": 4.6426,"1100": 5.0286,"1125": 5.6397,"1150": 6.074,"1175": 6.1545,"1200": 5.7043,"1225": 5.6397,"1250": 4.8203,"1275": 5.2219,"1300": 4.0652,"1325": 4.1616,"1350": 3.7436,"1375": 3.856,"1400": 2.9724,"1425": 2.7958,"1450": 2.9725,"1475": 2.7155,"1500": 2.2656,"1525": 2.5872,"1550": 2.9085,"1575": 2.1373,"1600": 1.2214,"1625": 0.7393,"1650": 0.5947,"1675": 0.1286,"1700": 0.0804}}}