{"type": "Feature","bbox": [35.4277,40.4334,36.3252,40.8693],"geometry": {"type": "MultiPolygon","coordinates": [[[[35.7932,40.4334,1124.6586],[35.8303,40.4912,512.4993],[35.839,40.4988,589.5015],[35.8519,40.5033,675.2031],[35.9313,40.5041,570.3756],[35.9584,40.5023,509.6689],[35.9954,40.4885,546.6227],[36.027,40.4663,568.7582],[36.0398,40.4599,527.0297],[36.0781,40.4549,544.8513],[36.1101,40.4461,523.4138],[36.1545,40.4452,853.1141],[36.1723,40.4476,1090.1028],[36.2024,40.459,1262.8026],[36.2468,40.4883,1166.2412],[36.2652,40.4956,1182.7938],[36.292,40.5117,1238.2306],[36.3252,40.5237,1270.6304],[36.3061,40.5404,950.4036],[36.2439,40.5893,1337.4999],[36.2365,40.5976,1269.9792],[36.2278,40.6117,1300.4294],[36.2128,40.6251,1292.1016],[36.1931,40.6387,1209.1376],[36.1723,40.6466,1051.5927],[36.1622,40.6525,1088.65],[36.1328,40.6745,628.9005],[36.1207,40.6857,595.9727],[36.1158,40.6938,558.9877],[36.1139,40.7029,671.2978],[36.113,40.7499,380.6191],[36.1106,40.7587,414.6691],[36.1009,40.7779,699.1638],[36.0989,40.8061,1672.4001],[36.0972,40.8143,1853.4398],[36.0924,40.8221,1587.281],[36.0798,40.8328,1764.2793],[36.061,40.8431,1565.5189],[36.0472,40.843,1619.381],[36.0373,40.8449,1859.9697],[36.0073,40.8562,1445.5701],[35.9851,40.8693,1390.0851],[35.9638,40.8529,1823.3235],[35.9531,40.8427,1484.3344],[35.9372,40.8171,1415.6919],[35.9309,40.7959,1475.5797],[35.9258,40.7891,1807.9626],[35.9166,40.7812,1852.9598],[35.903,40.7733,1755.4814],[35.8752,40.7635,1407.7108],[35.8391,40.7588,1129.6014],[35.8306,40.7547,1089.3208],[35.8177,40.7382,732.2731],[35.8103,40.7146,598.5375],[35.7961,40.6909,789.0951],[35.7849,40.6795,809.7617],[35.7644,40.6675,695.5917],[35.7403,40.6585,846.1119],[35.7298,40.6561,943.639],[35.6463,40.6551,817.6101],[35.6194,40.6578,736.2639],[35.5726,40.6736,878.3181],[35.5642,40.6615,798.5988],[35.5555,40.6534,726.9562],[35.545,40.647,735.6473],[35.5349,40.6442,724.2812],[35.4982,40.6441,841.5531],[35.4844,40.6467,912.992],[35.4705,40.6522,1010.1184],[35.4575,40.6536,1052.316],[35.4459,40.649,1004.6065],[35.4399,40.643,1022.7336],[35.4277,40.6152,1090.5919],[35.4297,40.6115,1093.7417],[35.4422,40.604,1096.9922],[35.4503,40.5965,812.5227],[35.462,40.5782,655.7007],[35.4648,40.5709,618.9823],[35.4641,40.563,711.0172],[35.4566,40.5496,924.8793],[35.454,40.541,1103.8239],[35.4532,40.5029,1113.1346],[35.494,40.5044,845.7226],[35.5232,40.5025,637.9522],[35.5443,40.4952,490.2825],[35.5715,40.4898,445.11],[35.6091,40.4754,498.2234],[35.6176,40.4739,502.9617],[35.6239,40.4753,492.3366],[35.6323,40.4799,545.2374],[35.672,40.5107,540.2838],[35.682,40.5139,612.3333],[35.6925,40.5133,578.2694],[35.7072,40.5058,676.6176],[35.7295,40.4868,747.306],[35.7421,40.4675,734.4768],[35.7569,40.4488,838.4235],[35.7932,40.4334,1124.6586]]]]}
,"properties": {"GID_2": "TUR.6.4_1","GID_0": "TUR","country": "Turkey","GID_1": "TUR.6_1","province": "Amasya","NL_NAME_1": "NA","county": "Merkez","VARNAME_2": "Amasya","NL_NAME_2": "NA","TYPE_2": "District","ENGTYPE_2": "District","CC_2": "NA","HASC_2": "TR.AM.AM","name": "Merkez.county","area_km2": 1779.483,"hist_schema_id": "Elevation0-9000","hist_area_km2": {"300": 0.851,"325": 1.558,"350": 2.747,"375": 7.859,"400": 50.922,"425": 70.632,"450": 44.061,"475": 41.933,"500": 49.232,"525": 50.241,"550": 48.029,"575": 50.958,"600": 53.084,"625": 52.216,"650": 54.615,"675": 55.755,"700": 52.309,"725": 48.913,"750": 46.016,"775": 45.163,"800": 41.217,"825": 42.941,"850": 44.566,"875": 43.761,"900": 44.563,"925": 41.536,"950": 42.132,"975": 41.216,"1000": 42.889,"1025": 43.274,"1050": 46.443,"1075": 42.917,"1100": 40.84,"1125": 43.339,"1150": 42.339,"1175": 35.961,"1200": 31.804,"1225": 27.224,"1250": 24.064,"1275": 19.637,"1300": 15.756,"1325": 14.13,"1350": 12.168,"1375": 11.46,"1400": 11.748,"1425": 10.704,"1450": 9.529,"1475": 7.922,"1500": 6.845,"1525": 5.525,"1550": 6.134,"1575": 4.944,"1600": 4.686,"1625": 4.398,"1650": 4.125,"1675": 4.141,"1700": 3.884,"1725": 4.959,"1750": 3.755,"1775": 3.562,"1800": 3.659,"1825": 3.386,"1850": 3.739,"1875": 2.936,"1900": 2.182,"1925": 1.669,"1950": 0.851,"1975": 0.433,"2000": 0.321,"2025": 0.161,"2050": 0.016}}}