{"type":"Feature","properties":{"GID_2":"TUR.28.6_1","GID_0":"TUR","country":"Turkey","GID_1":"TUR.28_1","province":"Edirne","NL_NAME_1":"NA","county":"Meriç","VARNAME_2":"NA","NL_NAME_2":"NA","TYPE_2":"District","ENGTYPE_2":"District","CC_2":"NA","HASC_2":"TR.ED.ME","name":"Meriç.county"},
"geometry":{"type": "MultiPolygon","coordinates": [[[[26.4713,41.3017,16.9519],[26.4683,41.2933,16.6352],[26.4581,41.2861,17.4813],[26.434,41.2764,15.6916],[26.4016,41.2509,16.7901],[26.3901,41.2486,16.5923],[26.3764,41.2497,14.8048],[26.3576,41.2473,17.3255],[26.3527,41.2497,30.4879],[26.345,41.2572,14.3773],[26.3412,41.2579,14.027],[26.3364,41.2545,15.5786],[26.3314,41.2539,15.28],[26.3235,41.2348,13.7251],[26.326,41.2154,12.5],[26.3186,41.2001,12.4807],[26.3181,41.1956,13.8458],[26.3228,41.1844,11.0],[26.3204,41.1817,12.6372],[26.3105,41.1805,12.9724],[26.3064,41.1751,13.5555],[26.3343,41.142,10.5926],[26.3315,41.1366,11.4526],[26.3268,41.135,12.0538],[26.3245,41.1318,11.7437],[26.3177,41.1282,10.5706],[26.31,41.1176,10.5127],[26.3166,41.1128,9.9247],[26.3265,41.1149,10.4322],[26.3273,41.1115,8.8078],[26.3142,41.0879,9.3463],[26.3191,41.0635,9.4667],[26.3311,41.0419,10.1104],[26.3396,41.0428,7.8561],[26.3588,41.0278,7.7929],[26.3658,41.0385,7.0393],[26.3797,41.0542,6.0425],[26.3961,41.0681,5.0856],[26.4122,41.0778,6.2485],[26.4415,41.0843,5.9697],[26.4509,41.0905,5.7884],[26.463,41.1062,16.1332],[26.4945,41.1332,7.1509],[26.5112,41.1549,8.0351],[26.5399,41.1794,8.5341],[26.5471,41.1898,9.1052],[26.5497,41.2076,39.859],[26.5502,41.3079,70.1521],[26.5489,41.3389,19.368],[26.5406,41.3393,21.7807],[26.5339,41.3354,19.3309],[26.5272,41.3341,19.5167],[26.5217,41.3378,18.0299],[26.5179,41.3376,19.9998],[26.5161,41.3365,17.9748],[26.5148,41.3307,17.8764],[26.5109,41.3257,17.4286],[26.5005,41.3268,18.7153],[26.4959,41.3175,18.4332],[26.4907,41.3147,19.6441],[26.4895,41.3079,17.6927],[26.4857,41.3036,16.8922],[26.4713,41.3017,16.9519]]]]}}