{"type": "Feature","bbox": [35.0251,40.1894,36.4728,41.0905],"geometry": {"type": "MultiPolygon","coordinates": [[[[35.3708,40.3731,974.1678],[35.3637,40.3679,960.7095],[35.3437,40.3583,817.094],[35.347,40.3375,674.857],[35.347,40.3113,535.6328],[35.3447,40.2987,667.6303],[35.3357,40.2819,731.2171],[35.333,40.2728,578.957],[35.3323,40.2289,754.8431],[35.3432,40.2167,749.848],[35.3593,40.2029,798.5092],[35.3714,40.1952,771.9722],[35.3819,40.1913,800.5108],[35.4056,40.1894,830.0621],[35.5121,40.1898,790.2576],[35.5129,40.204,748.4276],[35.5151,40.2121,726.5862],[35.5296,40.2355,961.7158],[35.5434,40.2492,883.6582],[35.5764,40.2742,1178.0261],[35.5885,40.2809,1038.84],[35.6157,40.2911,1278.1619],[35.6461,40.297,1302.6846],[35.6766,40.3079,1273.6685],[35.7062,40.3197,1194.2982],[35.7162,40.3263,1173.218],[35.7278,40.3422,1218.4072],[35.7499,40.3651,1154.0616],[35.7707,40.3982,1124.5627],[35.7833,40.4149,1105.7325],[35.7994,40.444,1093.2627],[35.81,40.4583,1183.3699],[35.8303,40.4912,512.4993],[35.839,40.4988,589.5015],[35.8447,40.5015,631.3352],[35.8672,40.5044,641.5552],[35.9313,40.5041,570.3756],[35.9584,40.5023,509.6689],[35.9954,40.4885,546.6227],[36.027,40.4663,568.7582],[36.0398,40.4599,527.0297],[36.0781,40.4549,544.8513],[36.1101,40.4461,523.4138],[36.1283,40.4451,795.0879],[36.1654,40.4461,917.9613],[36.2024,40.459,1262.8026],[36.2468,40.4883,1166.2412],[36.2652,40.4956,1182.7938],[36.292,40.5117,1238.2306],[36.3252,40.5237,1270.6304],[36.3475,40.5467,1084.9686],[36.3621,40.5673,1332.7334],[36.3764,40.5789,1267.8658],[36.3972,40.5914,1430.4424],[36.4054,40.6003,1369.5747],[36.4376,40.6277,1112.6591],[36.4534,40.6511,580.1228],[36.4584,40.6639,466.8173],[36.4621,40.6859,367.4042],[36.4728,40.7075,235.3579],[36.4722,40.7211,209.4499],[36.4622,40.74,202.5969],[36.4564,40.7701,237.3354],[36.4415,40.7936,369.2083],[36.4208,40.8138,223.6379],[36.4168,40.8226,261.3795],[36.4186,40.8313,280.0878],[36.4318,40.852,455.6981],[36.448,40.8698,193.9054],[36.4275,40.8796,428.3229],[36.4012,40.8951,781.3497],[36.3833,40.9024,778.7015],[36.3762,40.9077,739.796],[36.3714,40.9147,907.3071],[36.3695,40.9229,1121.8815],[36.3698,40.9371,1034.2819],[36.3724,40.9521,983.1374],[36.311,40.9602,822.3628],[36.2665,40.9774,872.1215],[36.256,40.9799,942.3379],[36.2362,40.9811,895.275],[36.2039,40.98,932.1694],[36.2029,40.9707,891.3027],[36.2001,40.964,799.6452],[36.1895,40.9576,717.2919],[36.19,40.9315,924.7088],[36.1885,40.9174,1124.2131],[36.1849,40.9094,1153.9766],[36.1763,40.9004,1107.8867],[36.1522,40.8828,1139.4974],[36.1278,40.8725,1099.8846],[36.1009,40.8564,1150.6733],[36.061,40.8431,1565.5189],[36.0472,40.843,1619.381],[36.0373,40.8449,1859.9697],[36.0073,40.8562,1445.5701],[35.9851,40.8693,1390.0851],[35.9553,40.8756,1217.8955],[35.906,40.8761,1508.1533],[35.8941,40.8746,1395.604],[35.8726,40.8674,1528.3928],[35.8406,40.8643,1194.9658],[35.8078,40.8657,916.7013],[35.7604,40.8801,1032.5302],[35.7304,40.8764,1048.8293],[35.7026,40.8773,866.3281],[35.6879,40.8819,791.1071],[35.6657,40.8946,760.9091],[35.6595,40.9129,617.4847],[35.6439,40.9268,686.6547],[35.6145,40.9399,706.0022],[35.5783,40.9648,959.5302],[35.5572,40.9734,967.3159],[35.5333,40.988,986.168],[35.5122,40.9966,1077.9701],[35.4854,41.0123,1045.7388],[35.4752,41.0152,992.2792],[35.4137,41.0183,1521.4617],[35.3886,41.026,1451.9],[35.3539,41.03,1382.7555],[35.329,41.038,1470.0793],[35.2836,41.0453,1426.65],[35.2088,41.0731,1173.9534],[35.1472,41.076,1042.5175],[35.1188,41.0848,1162.2258],[35.0932,41.0905,1067.5208],[35.0938,41.0514,1134.293],[35.0913,41.0323,889.3135],[35.0668,40.9923,886.542],[35.0606,40.9739,994.9088],[35.0496,40.9514,1279.9604],[35.048,40.9353,1474.5803],[35.0478,40.8724,1195.8094],[35.046,40.8529,1101.0006],[35.036,40.8499,1012.2697],[35.0251,40.8434,1069.4843],[35.0361,40.8198,926.6754],[35.0446,40.8061,817.3204],[35.0513,40.7849,768.6101],[35.0595,40.7711,819.8357],[35.0651,40.7526,1030.9871],[35.0745,40.7362,1448.7584],[35.0821,40.7126,1408.5568],[35.0966,40.6937,1347.1938],[35.1235,40.6807,1270.5062],[35.1507,40.6707,1086.7633],[35.1726,40.6673,1055.6293],[35.2218,40.669,1076.5343],[35.257,40.6661,998.6452],[35.2726,40.6578,929.9774],[35.3042,40.6466,1026.1913],[35.3464,40.6412,923.6914],[35.3943,40.6231,1270.0703],[35.4277,40.6152,1090.5919],[35.4297,40.6115,1093.7417],[35.4422,40.604,1096.9922],[35.4503,40.5965,812.5227],[35.4642,40.5735,636.1722],[35.4641,40.563,711.0172],[35.4566,40.5496,924.8793],[35.454,40.541,1103.8239],[35.4526,40.4839,897.3463],[35.4484,40.4677,698.0858],[35.4349,40.4468,585.7993],[35.4124,40.4241,943.1991],[35.4026,40.4096,1197.7209],[35.3844,40.3914,1441.5643],[35.3708,40.3731,974.1678]]]]}
,"properties": {"GID_1": "TUR.6_1","GID_0": "TUR","country": "Turkey","province": "Amasya","VARNAME_1": "NA","NL_NAME_1": "NA","TYPE_1": "Il","ENGTYPE_1": "Province","CC_1": "NA","HASC_1": "TR.AM","ISO_1": "TR-05","name": "Amasya.province","area_km2": 6203.995,"hist_schema_id": "Elevation0-9000","hist_area_km2": {"175": 3.015,"200": 13.779,"225": 18.534,"250": 21.892,"275": 21.988,"300": 24.654,"325": 26.052,"350": 30.372,"375": 35.791,"400": 79.881,"425": 126.758,"450": 142.838,"475": 143.126,"500": 174.982,"525": 178.246,"550": 175.775,"575": 174.56,"600": 168.333,"625": 158.745,"650": 159.697,"675": 160.11,"700": 162.013,"725": 166.301,"750": 168.1,"775": 163.508,"800": 160.522,"825": 159.436,"850": 159.315,"875": 152.16,"900": 146.898,"925": 143.603,"950": 142.462,"975": 137.982,"1000": 140.271,"1025": 142.32,"1050": 150.011,"1075": 147.134,"1100": 138.787,"1125": 136.494,"1150": 127.037,"1175": 117.712,"1200": 102.853,"1225": 93.125,"1250": 85.293,"1275": 78.607,"1300": 69.819,"1325": 62.606,"1350": 57.188,"1375": 54.134,"1400": 54.425,"1425": 53.294,"1450": 52.34,"1475": 51.115,"1500": 47.269,"1525": 43.226,"1550": 40.387,"1575": 38.385,"1600": 34.699,"1625": 31.368,"1650": 27.697,"1675": 23.501,"1700": 19.188,"1725": 18.07,"1750": 13.434,"1775": 10.545,"1800": 9.665,"1825": 8.38,"1850": 7.868,"1875": 5.073,"1900": 3.275,"1925": 2.376,"1950": 1.38,"1975": 0.819,"2000": 0.722,"2025": 0.498,"2050": 0.177}}}