{"type":"Feature","properties":{"featurecla":"River","scalerank":9,"rivernum":1060,"dissolve":"1060River","name":"Kelkit2","name_alt":null,"note":null,"min_zoom":7.1,"strokeweig":0.25,"name_en":"Kelkit","min_label":8.1},
"geometry":{"type": "LineString","coordinates": [[36.517968750000023,40.75556061405662,192.3904],[36.509960937500011,40.77081940311912,214.3025],[36.49375,40.77912018436912,262.9943],[36.45654296875,40.79035065311912,236.9019],[36.441162109375,40.79913971561912,263.3614],[36.4208984375,40.81452057499412,223.6379],[36.409765625,40.83148834843162,225.7785],[36.422265625000023,40.84491608280662,312.7589],[36.422265625000023,40.85175202030662,399.6894],[36.414794921875,40.85175202030662,172.9653],[36.414794921875,40.85858795780662,245.8784],[36.443115234375,40.87042877811912,217.3226],[36.552636718750023,40.890252996869116,367.321],[36.586816406250023,40.902606512494117,179.9816],[36.593652343750023,40.91010162968162,186.2418],[36.6,40.906854559369116,196.4653],[36.65283203125,40.905633856244116,164.0],[36.655517578125,40.90949127811912,192.4856],[36.650781250000023,40.91559479374412,196.3222],[36.65234375,40.92157623905662,318.0608],[36.655517578125,40.927752996869117,302.0635],[36.655029296875,40.934344793744117,336.9707],[36.653417968750006,40.940790106244116,123.7703],[36.654052734375,40.94525787968162,198.0316],[36.652587890625,40.94782135624412,413.5254],[36.63623046875,40.94904205936912,279.7953],[36.631933593750006,40.95087311405662,223.3254],[36.63134765625,40.95477936405662,89.3713],[36.633886718750006,40.96161530155662,136.295],[36.63134765625,40.96527741093162,151.7873],[36.63046875,40.96979401249412,61.4408],[36.632226562500023,40.97370026249412,69.5292],[36.644775390625,40.97785065311912,348.3189],[36.645117187500006,40.98383209843162,281.6172],[36.641357421875,40.99579498905662,166.7336],[36.643457031250023,41.026971746869116,234.9412],[36.650146484375,41.03644440311912,66.2398],[36.668066406250006,41.036737371869116,373.745],[36.666259765625,41.06134674686912,59.5],[36.680908203125,41.08685944218162,73.237799999999993],[36.70458984375,41.10785553593162,23.9473],[36.730224609375,41.11933014530662,26.5976],[36.725,41.13056061405662,12.6444],[36.729882812500023,41.136346746869116,12.8374],[36.73828125,41.141961981244116,19.0709],[36.74375,41.15277741093162,26.5943],[36.740917968750011,41.160272528119116,13.5467],[36.723388671875,41.18414948124412,23.5019],[36.728271484375,41.21735260624412,23.2404],[36.726806640625,41.22174713749412,20.1425],[36.716894531250006,41.22504303593162,21.5853],[36.712890625,41.23297760624412,8.5818],[36.713281250000023,41.24225494999412,10.0307],[36.716552734375,41.249627996869116,16.5462],[36.706640625,41.24921295780662,7.388],[36.6982421875,41.250360418744116,9.0435],[36.682373046875,41.256463934369116,9.7912],[36.68798828125,41.26434967655662,5.4083],[36.687402343750023,41.27155182499412,5.745],[36.684326171875,41.277948309369116,6.4242],[36.682373046875,41.28375885624412,9.3673],[36.681054687500023,41.310419012494116,5.0836],[36.682373046875,41.31110260624412,4.0256],[36.681738281250006,41.31574127811912,5.8166],[36.683349609375,41.32660553593162,4.7956],[36.682373046875,41.33100006718162,4.8901],[36.6787109375,41.33185455936912,5.3071],[36.665722656250011,41.330096746869117,5.0264],[36.661865234375,41.33100006718162,4.2035],[36.655664062500023,41.335956121869117,2.3569],[36.6494140625,41.339862371869117,7.3293],[36.647851562500023,41.34625885624412,1.6738],[36.66064453125,41.366473699994117,0.5]]}}