{"type": "Feature","id": "2290","bbox": [35.03148,40.18863,36.49382,41.08692],"geometry": {"type": "Polygon","coordinates": [[[35.40004,41.0207,1626.1151],[35.08926,41.08692,1202.469],[35.09804,41.05912,1295.3315],[35.08316,41.03434,926.8531],[35.06187,41.01383,958.7487],[35.04926,40.98367,745.619],[35.04657,40.8836,1413.9277],[35.03148,40.81821,852.6104],[35.0412,40.7911,761.4708],[35.08161,40.72478,1468.863],[35.10879,40.68912,1360.3762],[35.14011,40.67406,1118.6515],[35.3064,40.65217,980.299],[35.38164,40.61809,1094.6838],[35.41585,40.61297,1073.4143],[35.43239,40.60765,1087.2063],[35.45751,40.56223,758.5554],[35.45792,40.52538,1135.0176],[35.43466,40.45272,525.6327],[35.34847,40.35232,745.7916],[35.33906,40.3287,666.8444],[35.33865,40.30266,542.741],[35.32728,40.23403,1017.2502],[35.33627,40.23106,660.9456],[35.34444,40.21088,764.1722],[35.36314,40.20065,851.7215],[35.40831,40.19716,697.2237],[35.4604,40.20029,719.1757],[35.5098,40.18863,802.825],[35.54918,40.25274,1025.853],[35.57853,40.27736,1144.3989],[35.6329,40.29465,1238.856],[35.6514,40.29832,1328.683],[35.68643,40.31046,1182.6721],[35.71568,40.33661,1192.4801],[35.74224,40.36575,1114.0245],[35.77139,40.40585,1154.5508],[35.81604,40.48125,844.5063],[35.84229,40.50518,608.6671],[35.92507,40.51042,751.7356],[36.00579,40.49368,498.3271],[36.03091,40.47743,656.7384],[36.05923,40.4658,603.6539],[36.08083,40.46174,584.35],[36.10108,40.45438,649.7542],[36.11824,40.44404,571.8744],[36.13581,40.44368,780.9518],[36.1972,40.46606,1210.0134],[36.27999,40.50792,1145.9363],[36.29466,40.51799,1183.7046],[36.30283,40.52078,1159.9163],[36.31027,40.52409,1095.3937],[36.31657,40.57499,1512.8821],[36.39729,40.58804,1363.4635],[36.44173,40.63607,973.0974],[36.44204,40.67318,526.6929],[36.45899,40.70625,309.951],[36.49382,40.74558,193.9311],[36.47346,40.78519,242.9885],[36.45651,40.79028,236.9019],[36.44122,40.79911,263.3614],[36.42096,40.81449,223.6379],[36.4098,40.83141,225.7785],[36.4223,40.8449,312.7589],[36.4223,40.85172,399.6894],[36.41486,40.85172,194.0903],[36.41486,40.85854,206.1855],[36.44308,40.87037,310.6494],[36.33549,40.92921,848.2263],[36.31957,40.95042,850.1595],[36.30707,40.9738,939.6248],[36.27916,40.99688,707.2982],[36.24288,41.00695,805.2921],[36.20309,40.98776,905.8677],[36.18552,40.94215,730.3405],[36.15483,40.90143,1147.5123],[36.10946,40.87856,1109.6938],[36.07349,40.85485,1276.2213],[36.03142,40.84738,1675.7563],[35.95319,40.87585,1311.5431],[35.82079,40.87725,1266.2019],[35.78234,40.88314,1003.1996],[35.70607,40.87882,893.4797],[35.673,40.88598,804.7042],[35.63879,40.93104,704.3906],[35.49409,41.01504,1023.4486],[35.46112,41.02938,974.2549],[35.40004,41.0207,1626.1151]]]}
,"properties": {"ISO3166-1-Alpha-3": "TUR","country": "Turkey","fill": "#F0F","name": "Amasya","area_km2": 6218.962,"hist_schema_id": "Elevation0-9000","hist_area_km2": {"175": 2.567,"200": 24.188,"225": 18.598,"250": 21.619,"275": 22.068,"300": 24.51,"325": 25.779,"350": 29.665,"375": 35.164,"400": 79.126,"425": 126.115,"450": 140.827,"475": 142.772,"500": 171.242,"525": 176.329,"550": 175.132,"575": 173.095,"600": 167.385,"625": 158.714,"650": 160.116,"675": 158.505,"700": 159.55,"725": 165.374,"750": 168.525,"775": 164.964,"800": 162.748,"825": 162.09,"850": 163.217,"875": 156.722,"900": 152.229,"925": 148.471,"950": 147.892,"975": 142.259,"1000": 142.785,"1025": 144.338,"1050": 151.146,"1075": 147.915,"1100": 138.016,"1125": 134.851,"1150": 124.206,"1175": 116.041,"1200": 101.762,"1225": 91.958,"1250": 83.568,"1275": 76.952,"1300": 68.664,"1325": 61.868,"1350": 55.759,"1375": 53.201,"1400": 53.894,"1425": 52.394,"1450": 51.84,"1475": 51.065,"1500": 47.332,"1525": 43.257,"1550": 40.658,"1575": 38.368,"1600": 34.731,"1625": 31.496,"1650": 27.842,"1675": 23.613,"1700": 19.268,"1725": 18.182,"1750": 13.53,"1775": 10.577,"1800": 9.713,"1825": 8.412,"1850": 7.884,"1875": 5.073,"1900": 3.275,"1925": 2.376,"1950": 1.38,"1975": 0.819,"2000": 0.722,"2025": 0.498,"2050": 0.177}}}