{"type": "Feature","bbox": [31.3913,41.0427,31.8715,41.4071],"geometry": {"type": "MultiPolygon","coordinates": [[[[31.7363,41.0427,1318.2341],[31.731,41.0573,930.073],[31.7279,41.0943,742.6655],[31.7177,41.1155,972.3513],[31.7192,41.1258,896.8989],[31.732,41.1465,987.5889],[31.7435,41.1578,928.2522],[31.7579,41.167,1090.4407],[31.7737,41.1728,915.4188],[31.7858,41.1793,988.4105],[31.8109,41.1977,974.1486],[31.8287,41.213,749.7972],[31.8472,41.2412,664.338],[31.8494,41.2494,553.9481],[31.8503,41.2636,505.3828],[31.8629,41.2762,519.3925],[31.8715,41.2913,664.4166],[31.8517,41.2849,698.5354],[31.8189,41.2662,620.912],[31.8,41.2632,642.8586],[31.7649,41.2648,458.4075],[31.7263,41.2804,426.7758],[31.7198,41.286,539.028],[31.7079,41.3011,378.9512],[31.7009,41.3061,394.6743],[31.6816,41.3151,640.4324],[31.6752,41.3209,668.0829],[31.6722,41.3258,545.62],[31.6697,41.3403,513.1049],[31.6689,41.4071,0.0],[31.6599,41.4054,38.2959],[31.6579,41.4032,52.1854],[31.6474,41.3988,5.8301],[31.6413,41.3985,29.4974],[31.6396,41.3974,0.0],[31.6396,41.3949,52.222],[31.6362,41.394,0.0],[31.6362,41.3921,5.8082],[31.6346,41.3929,0.0],[31.6324,41.3904,65.5362],[31.6282,41.3904,0.0],[31.6201,41.3826,0.0],[31.6179,41.3832,0.0],[31.6043,41.3768,21.2339],[31.5935,41.379,0.0],[31.5929,41.3751,6.4244],[31.5879,41.3724,0.0],[31.5857,41.3737,0.0],[31.5785,41.3735,7.2755],[31.5768,41.3718,100.0834],[31.5646,41.3729,0.0],[31.5632,41.3713,17.6407],[31.5601,41.3726,0.0],[31.5515,41.3657,5.794],[31.5407,41.3629,38.8958],[31.5351,41.3657,0.0],[31.5296,41.3635,0.0],[31.5285,41.3613,31.8522],[31.524,41.3621,0.0],[31.5118,41.356,36.1957],[31.5057,41.3565,0.0],[31.494,41.3507,0.0],[31.4893,41.3504,36.6686],[31.4785,41.3401,50.241],[31.471,41.3376,0.0],[31.466,41.3276,3.5386],[31.4626,41.3285,0.0],[31.4618,41.3265,53.2788],[31.4599,41.3265,53.2788],[31.4554,41.3299,0.0],[31.4446,41.3265,39.06],[31.436,41.3279,0.0],[31.4346,41.3257,8.6411],[31.4318,41.3262,0.0],[31.4268,41.3224,0.0],[31.4268,41.3187,12.8688],[31.4232,41.3182,1.9289],[31.4199,41.3149,40.201],[31.4174,41.3162,0.0],[31.4126,41.3143,9.9875],[31.4071,41.3176,0.0],[31.4032,41.3176,0.0],[31.396,41.3132,0.0],[31.3971,41.3096,6.757],[31.3918,41.306,0.0],[31.3918,41.3018,0.0],[31.3935,41.2996,0.0],[31.3913,41.294,0.0],[31.3943,41.2885,8.5679],[31.4007,41.286,0.0],[31.4057,41.2887,0.0],[31.4101,41.2876,0.9344],[31.4104,41.2818,0.0],[31.4121,41.281,0.3871],[31.414,41.2824,0.9236],[31.4188,41.2799,6.9012],[31.4207,41.274,0.0],[31.4201,41.269,1.8979],[31.4149,41.2687,0.0],[31.416,41.2668,0.0],[31.4193,41.2671,5.1065],[31.4174,41.2632,2.5806],[31.4137,41.2657,0.0],[31.4079,41.2646,0.0],[31.4074,41.2676,0.0],[31.4035,41.2721,0.0],[31.4024,41.2715,0.0],[31.4079,41.261,4.2735],[31.4057,41.2468,3.7951],[31.4029,41.244,2.4709],[31.4043,41.2426,25.3868],[31.4049,41.2349,15.5656],[31.4024,41.2274,42.2501],[31.4035,41.2224,5.9765],[31.4096,41.219,0.0],[31.409,41.213,0.0],[31.4584,41.192,85.6761],[31.4684,41.1855,136.3365],[31.4723,41.181399999999996,206.5297],[31.4881,41.1556,92.9242],[31.4898,41.1416,96.816],[31.4889,41.1332,84.391],[31.4863,41.1251,102.8579],[31.4766,41.1089,251.8645],[31.4747,41.1007,198.2733],[31.4745,41.0894,424.637],[31.4787,41.0761,297.0171],[31.4979,41.0542,841.2513],[31.5513,41.0534,807.9498],[31.5631,41.0514,869.1735],[31.5845,41.0445,1153.3556],[31.5999,41.0428,882.3477],[31.7363,41.0427,1318.2341]]]]}
,"properties": {"GID_2": "TUR.81.4_1","GID_0": "TUR","country": "Turkey","GID_1": "TUR.81_1","province": "Zinguldak","NL_NAME_1": "NA","county": "Ereğli","VARNAME_2": "NA","NL_NAME_2": "NA","TYPE_2": "District","ENGTYPE_2": "District","CC_2": "NA","HASC_2": "TR.ZO.ER","name": "Ereğli.county","area_km2": 899.0556,"hist_schema_id": "Elevation0-9000","hist_area_km2": {"0": 11.9362,"25": 17.2915,"50": 21.4034,"75": 25.6621,"100": 32.8865,"125": 38.3732,"150": 41.804,"175": 45.8532,"200": 46.7627,"225": 45.0544,"250": 39.776,"275": 34.7537,"300": 33.4304,"325": 30.2588,"350": 28.3501,"375": 28.7797,"400": 28.1587,"425": 28.3518,"450": 26.2164,"475": 24.4036,"500": 23.1292,"525": 21.4252,"550": 18.8917,"575": 17.3141,"600": 17.5862,"625": 15.6738,"650": 13.8084,"675": 12.5643,"700": 10.9218,"725": 10.7944,"750": 9.9332,"775": 8.6404,"800": 8.8641,"825": 8.7846,"850": 7.6663,"875": 7.2513,"900": 7.2041,"925": 6.7411,"950": 5.7195,"975": 5.2565,"1000": 4.5862,"1025": 3.3562,"1050": 3.4204,"1075": 3.2928,"1100": 2.7815,"1125": 2.2701,"1150": 2.0943,"1175": 1.7427,"1200": 1.423,"1225": 1.0552,"1250": 1.0233,"1275": 0.5276,"1300": 0.6396,"1325": 0.3358,"1350": 0.4797,"1375": 0.5437,"1400": 0.5597,"1425": 0.4158,"1450": 0.3838,"1475": 0.1279,"1500": 0.1599,"1525": 0.064,"1550": 0.064,"1575": 0.032}}}