{"type": "Feature","bbox": [43.4783,39.3565,44.4965,39.8235],"geometry": {"type": "MultiPolygon","coordinates": [[[[44.3457,39.3857,1899.7175],[44.353,39.3875,1784.512],[44.3726,39.3977,1542.1003],[44.3963,39.4066,1483.1313],[44.4237,39.4098,1399.1467],[44.4319,39.4179,1399.6326],[44.4411,39.4359,1469.1996],[44.4396,39.4485,1452.1504],[44.4327,39.4674,1438.0828],[44.4334,39.4731,1509.754],[44.4507,39.4934,1787.8127],[44.453,39.4968,1866.4729],[44.4534,39.5016,1921.589],[44.4523,39.5073,1843.0767],[44.4431,39.5237,1720.6456],[44.4354,39.5454,1640.7302],[44.4362,39.5607,1565.1069],[44.4755,39.6062,1536.2854],[44.4896,39.6301,1548.3087],[44.4916,39.6463,1676.3552],[44.4849,39.6777,1553.104],[44.487,39.6866,1438.9572],[44.4965,39.696,1314.746],[44.4829,39.7005,1380.0793],[44.4754,39.6977,1445.8365],[44.4519,39.6947,1705.7333],[44.3802,39.6932,2717.8408],[44.3686,39.6904,2947.5574],[44.3283,39.6748,3664.7725],[44.3128,39.6716,3505.1641],[44.3004,39.6709,3352.0947],[44.2506,39.6704,2889.6118],[44.2326,39.6717,2649.1665],[44.2222,39.6736,2586.458],[44.1777,39.6909,2089.6631],[44.1598,39.6942,1867.2882],[44.0494,39.6944,1685.3987],[44.0305,39.6925,1898.5869],[44.0128,39.6865,2014.8253],[43.9997,39.6853,2306.6367],[43.9666,39.6963,2636.6946],[43.8768,39.7318,2351.9453],[43.8443,39.7505,2550.4094],[43.7685,39.7792,2328.0564],[43.7474,39.7897,2247.5571],[43.7437,39.7932,2375.1897],[43.7406,39.7995,2450.3069],[43.7046,39.7994,2695.3098],[43.6854,39.8012,2489.0444],[43.6373,39.8193,2428.2634],[43.6225,39.8224,2193.2417],[43.5557,39.8235,2249.5],[43.5319,39.8204,2271.2107],[43.5263,39.8177,2389.9431],[43.5176,39.81,2458.5737],[43.498,39.7814,2578.0969],[43.4783,39.7667,2487.4138],[43.488,39.7427,2430.4761],[43.4962,39.7347,2502.5842],[43.5193,39.7245,2751.7495],[43.5435,39.71,2542.48],[43.5881,39.6923,2649.5935],[43.5972,39.6855,2597.8574],[43.6182,39.6747,2442.5459],[43.6784,39.6517,2348.6379],[43.6884,39.6493,2350.0527],[43.7205,39.6463,2154.1616],[43.742,39.6396,1946.4835],[43.7687,39.6347,1918.3926],[43.7787,39.6283,1972.0786],[43.7825,39.6213,1882.9974],[43.7825,39.6161,1837.2651],[43.7726,39.5981,1807.5503],[43.7717,39.5846,1830.7484],[43.7771,39.5741,1826.6581],[43.8056,39.5498,1898.1698],[43.8116,39.5422,1908.7158],[43.8139,39.5363,1948.5432],[43.8156,39.5205,1938.2827],[43.8155,39.4136,2604.0864],[43.8192,39.4022,2769.1855],[43.8381,39.3691,3179.6599],[43.8809,39.3673,3256.2534],[43.9175,39.3577,3105.8145],[43.9621,39.3565,2764.5596],[43.9899,39.3586,2598.1655],[44.0328,39.372,2658.478],[44.0497,39.3608,2573.1658],[44.0473,39.3668,2535.3906],[44.0473,39.3764,2417.3743],[44.0493,39.3795,2360.3015],[44.0677,39.3868,2222.6719],[44.07,39.3904,2210.0017],[44.0683,39.4008,2212.6118],[44.0698,39.4053,2222.7205],[44.0758,39.4062,2230.6245],[44.0906,39.4066,2257.2859],[44.109,39.4045,2404.6304],[44.1326,39.3992,2363.4868],[44.1436,39.4002,2383.1045],[44.1459,39.3946,2370.4087],[44.1381,39.3798,2368.4468],[44.1421,39.3778,2317.9292],[44.1518,39.3772,2309.0239],[44.1546,39.3791,2227.9041],[44.1579,39.393,2409.052],[44.1748,39.4024,2323.834],[44.1928,39.4067,2465.7432],[44.2243,39.4103,2331.1267],[44.2345,39.4081,2302.8247],[44.2607,39.394,2293.7578],[44.2734,39.3898,2238.8994],[44.2836,39.3834,2243.3984],[44.2934,39.3746,2352.6641],[44.3017,39.3715,2073.3342],[44.3137,39.374,2116.8447],[44.3299,39.3818,2022.3612],[44.3457,39.3857,1899.7175]]]]}
,"properties": {"GID_2": "TUR.4.2_1","GID_0": "TUR","country": "Turkey","GID_1": "TUR.4_1","province": "Agri","NL_NAME_1": "NA","county": "Doğubeyazıt","VARNAME_2": "NA","NL_NAME_2": "NA","TYPE_2": "District","ENGTYPE_2": "District","CC_2": "NA","HASC_2": "TR.AG.DO","name": "Doğubeyazıt.county","area_km2": 2342.122,"hist_schema_id": "Elevation0-9000","hist_area_km2": {"1350": 0.212,"1375": 0.343,"1400": 18.894,"1425": 23.36,"1450": 21.721,"1475": 53.568,"1500": 37.538,"1525": 137.698,"1550": 65.45,"1575": 47.064,"1600": 49.04,"1625": 50.474,"1650": 50.688,"1675": 57.345,"1700": 41.989,"1725": 89.034,"1750": 75.746,"1775": 71.623,"1800": 76.664,"1825": 75.505,"1850": 60.467,"1875": 51.106,"1900": 48.293,"1925": 41.214,"1950": 38.713,"1975": 36.215,"2000": 33.444,"2025": 33.656,"2050": 32.612,"2075": 30.994,"2100": 31.5,"2125": 32.183,"2150": 38.923,"2175": 39.221,"2200": 36.724,"2225": 36.29,"2250": 71.65,"2275": 40.775,"2300": 39.371,"2325": 38.781,"2350": 35.277,"2375": 35.129,"2400": 31.202,"2425": 27.174,"2450": 24.916,"2475": 24.767,"2500": 23.366,"2525": 23.825,"2550": 21.259,"2575": 21.474,"2600": 21.294,"2625": 20.391,"2650": 20.067,"2675": 16.08,"2700": 13.96,"2725": 11.822,"2750": 10.108,"2775": 8.87,"2800": 6.698,"2825": 6.404,"2850": 5.948,"2875": 5.638,"2900": 5.801,"2925": 5.247,"2950": 4.528,"2975": 4.642,"3000": 4.609,"3025": 4.349,"3050": 4.497,"3075": 4.105,"3100": 4.22,"3125": 4.416,"3150": 4.205,"3175": 3.535,"3200": 2.88,"3225": 2.388,"3250": 1.864,"3275": 1.357,"3300": 0.767,"3325": 0.783,"3350": 0.751,"3375": 0.522,"3400": 0.506,"3425": 0.473,"3450": 0.375,"3475": 0.441,"3500": 0.392,"3525": 0.392,"3550": 0.359,"3575": 0.277,"3600": 0.294,"3625": 0.31,"3650": 0.229,"3675": 0.245,"3700": 0.147,"3725": 0.114,"3750": 0.065,"3775": 0.098,"3825": 0.049,"3850": 0.065,"3875": 0.049}}}