{"type": "Feature","bbox": [27.9073,37.179,28.4177,37.5216],"geometry": {"type": "MultiPolygon","coordinates": [[[[27.9348,37.4595,615.3051],[27.9375,37.4382,693.541],[27.9361,37.4197,634.9205],[27.9248,37.3976,678.5624],[27.9185,37.3793,715.1198],[27.9102,37.3655,604.812],[27.9073,37.3536,730.3965],[27.909,37.3353,697.4498],[27.9193,37.316,696.4113],[27.9251,37.2975,613.0088],[27.9393,37.2743,916.0172],[27.9455,37.2681,837.6509],[27.993,37.2469,663.2068],[28.0102,37.2285,687.8124],[28.0716,37.179,1126.7183],[28.104,37.2045,1178.304],[28.1279,37.2183,952.7379],[28.1385,37.2298,603.468],[28.1485,37.2361,602.6191],[28.1784,37.2474,477.2177],[28.206,37.2522,677.5477],[28.2362,37.2634,482.1298],[28.2837,37.2942,800.198],[28.3439,37.317,1141.5448],[28.3744,37.3229,1638.7811],[28.4044,37.3346,1469.0559],[28.4177,37.3428,1441.2466],[28.3894,37.3627,1747.9479],[28.344,37.3797,1185.776],[28.3362,37.3843,1127.1075],[28.3302,37.3904,1246.2405],[28.3103,37.4235,1054.2092],[28.3047,37.4301,859.1826],[28.2873,37.4428,917.0482],[28.2693,37.4498,800.8158],[28.2616,37.4544,756.7819],[28.2401,37.4804,542.6547],[28.187,37.5216,563.5905],[28.1768,37.4976,407.4971],[28.1716,37.4902,293.4601],[28.1561,37.4777,248.0],[28.1427,37.4723,316.6907],[28.127,37.4708,436.7902],[28.0704,37.4703,652.466],[28.059,37.4684,757.994],[28.0412,37.4622,850.2515],[28.026,37.4599,1077.3811],[27.9348,37.4595,615.3051]]]]}
,"properties": {"GID_2": "TUR.59.12_1","GID_0": "TUR","country": "Turkey","GID_1": "TUR.59_1","province": "Mugla","NL_NAME_1": "NA","county": "Yatağan","VARNAME_2": "NA","NL_NAME_2": "NA","TYPE_2": "District","ENGTYPE_2": "District","CC_2": "NA","HASC_2": "TR.MG.YA","name": "Yatağan.county","area_km2": 916.6051,"hist_schema_id": "Elevation0-9000","hist_area_km2": {"250": 3.1298,"275": 7.5933,"300": 19.0307,"325": 29.1618,"350": 36.232,"375": 33.5369,"400": 32.0348,"425": 29.5378,"450": 38.2495,"475": 40.444,"500": 44.6269,"525": 43.6309,"550": 41.3896,"575": 41.8814,"600": 40.8383,"625": 37.1819,"650": 33.2056,"675": 30.037,"700": 24.2552,"725": 22.4543,"750": 20.5828,"775": 19.8918,"800": 17.5148,"825": 17.8512,"850": 16.9403,"875": 15.6932,"900": 15.8438,"925": 15.2366,"950": 13.9039,"975": 11.9827,"1000": 10.3999,"1025": 9.238,"1050": 9.2542,"1075": 7.9735,"1100": 7.4512,"1125": 7.5695,"1150": 7.0981,"1175": 6.7103,"1200": 6.7778,"1225": 6.5593,"1250": 6.3072,"1275": 5.143,"1300": 4.6033,"1325": 3.1193,"1350": 2.2928,"1375": 1.8541,"1400": 2.073,"1425": 1.5168,"1450": 1.7359,"1475": 1.5169,"1500": 1.3989,"1525": 1.4327,"1550": 1.2304,"1575": 1.1293,"1600": 0.8934,"1625": 1.1631,"1650": 1.0282,"1675": 1.1294,"1700": 1.0114,"1725": 0.9945,"1750": 0.6405,"1775": 0.5562,"1800": 0.5057,"1825": 0.2697,"1850": 0.0843,"1875": 0.0506}}}