{"type": "Feature","bbox": [34.7284,38.7008,35.0374,39.1541],"geometry": {"type": "MultiPolygon","coordinates": [[[[35.0374,39.0381,1125.9531],[35.0173,39.062,1106.0741],[35.0101,39.0829,1098.2461],[35.0022,39.0967,1112.8646],[34.9997,39.1105,1109.105],[35.0019,39.1294,1113.4401],[34.9977,39.1384,1076.759],[34.9923,39.145,1056.9028],[34.9776,39.1533,1063.1614],[34.9467,39.1541,1158.6189],[34.9287,39.1525,1150.7258],[34.8776,39.1334,1152.2322],[34.8504,39.1282,1156.881],[34.8292,39.1211,1156.4724],[34.805,39.1169,1161.225],[34.7805,39.1084,1121.0032],[34.8121,39.077,1161.5671],[34.816,39.0694,1165.5773],[34.8154,39.0615,1165.3342],[34.8068,39.0456,1179.0099],[34.8004,39.0156,1198.016],[34.7925,39.0063,1219.8176],[34.7635,38.9809,1303.6387],[34.7596,38.9732,1303.9185],[34.755,38.9574,1353.7489],[34.7458,38.941,1446.1042],[34.7399,38.9225,1315.2528],[34.7284,38.9097,1170.0887],[34.7311,38.8903,1101.057],[34.7398,38.8737,1094.2665],[34.7422,38.8649,1058.4908],[34.7449,38.8119,1085.1697],[34.7547,38.7922,1023.145],[34.7571,38.7835,982.6466],[34.7578,38.7682,952.0833],[34.7555,38.753,929.6825],[34.7688,38.7389,916.4297],[34.7891,38.7253,935.7084],[34.8498,38.7018,950.3069],[34.8665,38.7008,974.0826],[34.8769,38.7023,999.7994],[34.8886,38.7077,1011.5804],[34.8982,38.7153,991.8846],[34.9064,38.727,937.4096],[34.9097,38.7518,1105.3075],[34.9131,38.7596,1210.4795],[34.9417,38.7855,1036.1635],[34.9532,38.7983,978.0],[34.9533,38.8293,1081.3821],[34.955,38.8446,1079.996],[34.966,38.8669,1174.5562],[34.9704,38.9028,1251.6246],[34.9811,38.9251,1215.1267],[34.9855,38.961,1198.3354],[34.996,38.9835,1153.9491],[35.0008,39.0103,1141.6602],[35.0058,39.0182,1129.8435],[35.0131,39.0249,1121.8975],[35.0374,39.0381,1125.9531]]]]}
,"properties": {"GID_2": "TUR.61.2_1","GID_0": "TUR","country": "Turkey","GID_1": "TUR.61_1","province": "Nevsehir","NL_NAME_1": "NA","county": "Avanos","VARNAME_2": "NA","NL_NAME_2": "NA","TYPE_2": "District","ENGTYPE_2": "District","CC_2": "NA","HASC_2": "TR.NV.AV","name": "Avanos.county","area_km2": 847.1974,"hist_schema_id": "Elevation0-9000","hist_area_km2": {"925": 13.2159,"950": 11.0324,"975": 10.7653,"1000": 13.0452,"1025": 11.8676,"1050": 16.0408,"1075": 24.1029,"1100": 36.2958,"1125": 51.3441,"1150": 111.607,"1175": 117.3875,"1200": 64.1544,"1225": 55.1394,"1250": 50.7019,"1275": 46.514,"1300": 41.6672,"1325": 38.5005,"1350": 33.2558,"1375": 25.916,"1400": 18.0652,"1425": 13.6455,"1450": 10.5607,"1475": 9.2246,"1500": 7.3592,"1525": 6.3357,"1550": 4.0418,"1575": 2.1445,"1600": 1.5176,"1625": 0.9403,"1650": 0.5114,"1675": 0.1485,"1700": 0.0495,"1725": 0.066,"1750": 0.033}}}