{"type":"Feature","properties":{"GID_2":"TUR.56.10_1","GID_0":"TUR","country":"Turkey","GID_1":"TUR.56_1","province":"Manisa","NL_NAME_1":"NA","county":"Merkez","VARNAME_2":"ManisaMerkezi\rMerkezi","NL_NAME_2":"NA","TYPE_2":"District","ENGTYPE_2":"District","CC_2":"NA","HASC_2":"TR.MN.MN","name":"Merkez.county"},
"geometry":{"type": "MultiPolygon","coordinates": [[[[27.1245,38.7797,139.4613],[27.1612,38.7722,369.4088],[27.2181,38.7505,317.3654],[27.2297,38.7416,325.7212],[27.2335,38.7337,391.476],[27.2372,38.7098,366.5272],[27.2469,38.6901,168.0716],[27.2518,38.6632,206.0356],[27.2618,38.6435,120.3916],[27.2668,38.6166,324.8111],[27.2768,38.5973,357.5192],[27.28,38.5722,512.2292],[27.3251,38.5872,610.8389],[27.3383,38.5883,483.5303],[27.3495,38.5849,256.6315],[27.3542,38.5776,309.9903],[27.4063,38.5766,1037.0985],[27.4309,38.5688,925.7168],[27.4579,38.5635,1187.2927],[27.4784,38.5514,1090.7744],[27.5593,38.4893,160.3801],[27.5955,38.4748,71.9235],[27.6166,38.4701,98.2779],[27.6322,38.5056,50.5236],[27.6321,38.5098,49.0379],[27.6273,38.5223,47.7438],[27.6297,38.532,44.36],[27.6354,38.5377,42.4681],[27.652,38.5475,40.7251],[27.676,38.5708,43.7661],[27.6828,38.5808,55.0971],[27.6844,38.5892,85.0602],[27.684,38.5976,122.6918],[27.6768,38.6145,148.9003],[27.6674,38.6162,124.0301],[27.6441,38.6246,74.4576],[27.6309,38.6324,62.3923],[27.5884,38.6969,51.3052],[27.5785,38.7035,37.5779],[27.5606,38.7107,35.3586],[27.5365,38.7253,33.4896],[27.4876,38.7435,31.583],[27.4675,38.7575,41.3367],[27.462,38.7671,48.2026],[27.4628,38.7751,49.3445],[27.4815,38.8038,124.946],[27.4838,38.8103,163.2384],[27.4828,38.8148,163.6912],[27.4729,38.8329,207.524],[27.4575,38.8561,365.2999],[27.4492,38.8652,435.7786],[27.4226,38.8851,833.4622],[27.3937,38.8987,707.6022],[27.3877,38.9046,814.2098],[27.3802,38.9164,756.4802],[27.37,38.9268,813.8402],[27.3348,38.9169,588.7246],[27.3115,38.9124,572.3337],[27.2898,38.9055,621.2969],[27.2289,38.9023,364.7088],[27.1995,38.894,438.7162],[27.1682,38.8917,489.5523],[27.1481,38.8561,272.8153],[27.142,38.8262,127.9828],[27.132,38.8069,105.5858],[27.1245,38.7797,139.4613]]]]}}