{"type": "Feature","bbox": [39.7131,38.5215,40.3869,38.8698],"geometry": {"type": "MultiPolygon","coordinates": [[[[40.3617,38.7483,1175.3806],[40.3725,38.7695,1584.2151],[40.3764,38.7828,1692.1477],[40.386,38.8013,1989.7822],[40.3869,38.8066,2132.0542],[40.3838,38.8165,2119.9849],[40.3727,38.8351,2010.8613],[40.3574,38.858,1688.2556],[40.3487,38.8655,1628.1226],[40.3398,38.868899999999996,1601.894],[40.3203,38.8698,1854.4922],[40.31,38.8571,1865.2289],[40.298,38.85,2075.0881],[40.2869,38.8477,2020.2119],[40.2444,38.8457,1794.9916],[40.2228,38.8389,1701.5483],[40.1993,38.8344,1861.2482],[40.1932,38.8321,1889.8441],[40.1817,38.8231,1643.6975],[40.1736,38.8115,1600.6934],[40.156,38.7937,1467.9407],[40.1522,38.786,1301.3831],[40.1539,38.7757,1154.3474],[40.176,38.7435,1049.4045],[40.1756,38.7364,1072.0637],[40.1712,38.7324,1342.4143],[40.1547,38.7301,1203.6927],[40.027,38.7314,1164.5238],[40.0001,38.7289,1192.6017],[39.9635,38.7143,1115.3093],[39.923,38.6843,857.8206],[39.9075,38.6752,919.7366],[39.8473,38.6523,844.7425],[39.8234,38.6478,839.0],[39.7949,38.639,839.0],[39.7676,38.6377,839.0],[39.7483,38.6396,839.0],[39.7359,38.6445,849.8167],[39.7189,38.6549,883.4286],[39.7146,38.641,863.5896],[39.7131,38.6295,1093.2924],[39.7134,38.6152,1222.4434],[39.7154,38.6069,939.2009],[39.7202,38.5993,872.2539],[39.7407,38.5792,910.8984],[39.7501,38.5633,1236.0713],[39.7521,38.5568,1230.8971],[39.75,38.5502,1369.4404],[39.7345,38.5235,1710.7174],[39.7828,38.5215,1534.9209],[39.8023,38.522,1324.1139],[39.8202,38.5252,1359.2732],[39.9218,38.5649,1517.3219],[39.946,38.5712,1505.9199],[39.9593,38.5829,1842.928],[39.9703,38.5887,1846.6208],[40.0122,38.5943,1709.4355],[40.0938,38.6248,2100.2622],[40.1178,38.6266,2046.4684],[40.2,38.6254,1691.3983],[40.2137,38.6215,1530.599],[40.2395,38.6081,1097.4749],[40.2391,38.632,1222.1285],[40.2413,38.6459,1431.8289],[40.2503,38.6624,1644.4219],[40.2586,38.6859,1790.4033],[40.2726,38.7095,1337.9415],[40.2837,38.7236,1419.5065],[40.2879,38.7267,1158.2406],[40.2967,38.7282,1070.2709],[40.3229,38.7202,984.4522],[40.3379,38.7189,1148.9648],[40.3486,38.7201,1088.0282],[40.3547,38.723,976.9374],[40.3583,38.7272,1029.474],[40.3617,38.7483,1175.3806]]]]}
,"properties": {"GID_2": "TUR.29.10_1","GID_0": "TUR","country": "Turkey","GID_1": "TUR.29_1","province": "Elazığ","NL_NAME_1": "NA","county": "Palu","VARNAME_2": "NA","NL_NAME_2": "NA","TYPE_2": "District","ENGTYPE_2": "District","CC_2": "NA","HASC_2": "TR.EG.PA","name": "Palu.county","area_km2": 834.1498,"hist_schema_id": "Elevation0-9000","hist_area_km2": {"850": 36.8864,"875": 16.1003,"900": 10.4176,"925": 9.0083,"950": 12.8436,"975": 11.7193,"1000": 12.4132,"1025": 12.8101,"1050": 13.5541,"1075": 13.1072,"1100": 14.9605,"1125": 16.7983,"1150": 17.5421,"1175": 18.469,"1200": 20.1744,"1225": 22.0492,"1250": 22.9766,"1275": 22.3638,"1300": 20.7237,"1325": 20.8221,"1350": 21.9991,"1375": 20.9533,"1400": 20.5234,"1425": 20.2098,"1450": 19.6959,"1475": 20.4416,"1500": 18.0257,"1525": 18.1905,"1550": 16.849,"1575": 15.9053,"1600": 16.6016,"1625": 15.9065,"1650": 16.5841,"1675": 15.8403,"1700": 15.9724,"1725": 14.4157,"1750": 14.2321,"1775": 12.9249,"1800": 11.7976,"1825": 12.0617,"1850": 10.3572,"1875": 9.7123,"1900": 10.0585,"1925": 9.3468,"1950": 8.0555,"1975": 7.2945,"2000": 7.6914,"2025": 7.8908,"2050": 7.2787,"2075": 8.6694,"2100": 6.7668,"2125": 6.6997,"2150": 6.0546,"2175": 5.6903,"2200": 5.6235,"2225": 5.8217,"2250": 4.5319,"2275": 4.2507,"2300": 3.3079,"2325": 3.2419,"2350": 2.3982,"2375": 2.0011,"2400": 1.7039,"2425": 1.6545,"2450": 1.0921,"2475": 0.7448,"2500": 0.5298,"2525": 0.4471,"2550": 0.1821,"2575": 0.0994,"2600": 0.0828}}}