{"type":"Feature","properties":{"GID_2":"TUR.56.15_1","GID_0":"TUR","country":"Turkey","GID_1":"TUR.56_1","province":"Manisa","NL_NAME_1":"NA","county":"Soma","VARNAME_2":"NA","NL_NAME_2":"NA","TYPE_2":"District","ENGTYPE_2":"District","CC_2":"NA","HASC_2":"TR.MN.SO","name":"Soma.county"},
"geometry":{"type": "MultiPolygon","coordinates": [[[[27.4077,39.3815,485.5816],[27.4268,39.359,533.3038],[27.4415,39.3356,309.5365],[27.4497,39.3122,392.36],[27.4588,39.2955,355.1674],[27.4607,39.2833,281.0128],[27.4619,39.2394,328.7009],[27.4644,39.2306,212.2149],[27.4725,39.2168,197.6281],[27.4754,39.205,133.1598],[27.475,39.1864,101.9469],[27.471,39.1719,62.9784],[27.5009,39.1266,266.3739],[27.5044,39.1177,234.8353],[27.5059,39.0985,378.7331],[27.5054,39.0199,707.4106],[27.5189,39.0171,770.8311],[27.5363,39.0102,618.798],[27.5487,39.0084,628.2963],[27.5613,39.0094,482.9041],[27.5735,39.0145,392.9528],[27.6123,39.0446,655.3334],[27.6297,39.0605,514.3333],[27.6258,39.0794,505.7448],[27.6254,39.1233,870.7566],[27.6286,39.1353,803.4221],[27.6366,39.145,783.0724],[27.6475,39.1529,501.8618],[27.6609,39.1581,275.1744],[27.6958,39.1616,168.8942],[27.7213,39.1688,229.5213],[27.7539,39.1732,267.2899],[27.7611,39.1781,303.2455],[27.7737,39.1951,372.1808],[27.7768,39.2129,353.9072],[27.775,39.2342,490.3755],[27.7639,39.2566,745.463],[27.7584,39.2834,811.4235],[27.7494,39.3,700.2645],[27.7475,39.308,665.0984],[27.7494,39.3216,577.0778],[27.7576,39.3352,723.6306],[27.7614,39.3457,742.7365],[27.7464,39.3573,677.0172],[27.7211,39.3553,406.24],[27.7002,39.3481,327.9009],[27.6863,39.3465,373.163],[27.6724,39.3481,358.0414],[27.6515,39.3551,280.5555],[27.6161,39.3592,194.7267],[27.6062,39.3628,183.6801],[27.583,39.3767,226.8229],[27.5616,39.386,384.4552],[27.5292,39.4089,669.1827],[27.5165,39.4138,617.4382],[27.5094,39.4147,649.153],[27.4935,39.414,703.217],[27.445,39.3946,552.9684],[27.4077,39.3815,485.5816]]]]}}