{"type":"Feature","properties":{"GID_1":"TUR.54_1","GID_0":"TUR","country":"Turkey","province":"Kütahya","VARNAME_1":"Kütanya","NL_NAME_1":"NA","TYPE_1":"Il","ENGTYPE_1":"Province","CC_1":"NA","HASC_1":"TR.KU","ISO_1":"NA","name":"Kütahya.province"},
"geometry":{"type": "MultiPolygon","coordinates": [[[[29.0328,38.8513,1204.3667],[29.0365,38.8301,947.5831],[29.0365,38.7277,814.8104],[29.05,38.7304,842.3571],[29.0714,38.7377,845.835],[29.091,38.7394,839.0168],[29.1925,38.7389,699.9536],[29.2116,38.737,676.1514],[29.231,38.7328,679.4827],[29.2388,38.7355,704.0204],[29.2429,38.7387,724.2552],[29.2559,38.7566,694.6676],[29.2688,38.7672,751.3504],[29.2778,38.7722,776.4668],[29.3117,38.784,897.3912],[29.3506,38.7883,993.1093],[29.4317,38.8192,1031.197],[29.456,38.826,1287.665],[29.504,38.8356,1350.8478],[29.561,38.8578,1192.5109],[29.5939,38.8759,1318.0599],[29.6326,38.8808,1338.0667],[29.6538,38.8877,1586.238],[29.6687,38.89,1565.5626],[29.7083,38.89,1701.3317],[29.7347,38.8866,1673.139],[29.7354,38.8819,1583.3671],[29.7389,38.8796,1536.6527],[29.7769,38.8685,1465.9501],[29.801,38.864,1413.8207],[29.8189,38.8577,1136.0051],[29.8343,38.8555,1208.4197],[29.8627,38.8551,1119.5291],[29.8638,38.841,1132.5658],[29.8662,38.8329,1123.3362],[29.8877,38.7988,1104.9751],[29.8913,38.7901,1196.0752],[29.8944,38.7097,1296.8888],[29.9242,38.7194,1465.2841],[29.954,38.7361,1586.9309],[29.9755,38.7422,1570.6678],[29.9961,38.7585,1597.7849],[30.0748,38.7885,1157.2205],[30.1022,38.8075,1228.5227],[30.1154,38.8209,1259.9911],[30.1508,38.8773,1198.0667],[30.1711,38.9026,1211.5684],[30.1815,38.9353,1278.8182],[30.2068,38.9777,1078.2058],[30.2209,38.9954,1051.26],[30.2339,39.0165,1036.8386],[30.2369,39.0242,1032.5724],[30.242,39.0517,1053.2773],[30.2608,39.0795,1076.1371],[30.2704,39.0882,1102.9908],[30.2818,39.0957,1145.5303],[30.3148,39.1091,1265.0864],[30.3454,39.1199,1150.8815],[30.376,39.1234,1117.1229],[30.3846,39.1263,1119.0184],[30.4059,39.1463,1157.8165],[30.4276,39.1589,1361.9047],[30.4337,39.1643,1363.5519],[30.4463,39.1816,1322.3878],[30.4533,39.206,1228.7887],[30.446,39.2262,1299.6631],[30.4367,39.2426,1236.1752],[30.4311,39.2612,1221.3184],[30.4148,39.2871,1340.375],[30.4,39.3007,1310.4478],[30.3636,39.3286,1282.6489],[30.3333,39.3468,1353.9189],[30.3171,39.3679,1466.4902],[30.314,39.3855,1523.3464],[30.3146,39.4835,1361.0254],[30.2523,39.5322,1014.348],[30.2441,39.5405,1015.2245],[30.237,39.5524,1055.5712],[30.2321,39.5576,1097.6458],[30.1979,39.5745,945.3978],[30.1515,39.6093,906.3701],[30.1392,39.6214,1072.6023],[30.137,39.6292,986.9994],[30.1395,39.6372,1027.875],[30.1759,39.673,903.0306],[30.187,39.6967,982.0632],[30.1605,39.7035,969.6345],[30.146,39.7049,928.8153],[30.1202,39.7045,923.6921],[30.1096,39.703,927.3585],[30.0809,39.6945,946.8815],[30.0196,39.6912,1023.2755],[29.9984,39.6841,1016.2448],[29.9872,39.6822,1080.3934],[29.9521,39.6822,1164.722],[29.9409,39.6841,1178.5564],[29.9194,39.6912,1282.061],[29.881,39.6961,1305.0681],[29.8631,39.7023,1381.0712],[29.8393,39.7068,1367.1121],[29.8182,39.7142,1404.4706],[29.7977,39.7184,1388.9244],[29.7431,39.7375,1261.0671],[29.7229,39.741,1149.5873],[29.7029,39.7761,1144.1765],[29.697,39.8059,1209.995],[29.6867,39.8254,1335.7959],[29.6847,39.8373,1545.2394],[29.6853,39.8555,1477.7513],[29.6929,39.8797,1531.218],[29.6907,39.8862,1377.8441],[29.677,39.9055,1115.7595],[29.6562,39.9005,1159.5134],[29.6385,39.8939,1525.3347],[29.6272,39.892,1474.701],[29.5471,39.892,1290.2084],[29.5327,39.8949,1415.2175],[29.4649,39.9221,1390.4045],[29.4521,39.9246,1401.3099],[29.4452,39.9239,1574.0522],[29.4162,39.9127,1695.0316],[29.4068,39.9065,1686.6765],[29.3878,39.8789,1407.4939],[29.382,39.8604,1055.2174],[29.3729,39.844,952.3317],[29.366,39.8229,788.9113],[29.3458,39.7993,630.2443],[29.3364,39.7762,947.4377],[29.3136,39.7532,915.4833],[29.3029,39.7373,986.8986],[29.2833,39.7184,1159.1427],[29.2671,39.6928,1126.861],[29.2612,39.6629,851.0612],[29.2521,39.6463,841.5345],[29.2497,39.6375,901.925],[29.2489,39.5936,1004.4842],[29.2472,39.5812,1044.6829],[29.2434,39.5735,1015.5038],[29.2318,39.5593,940.0396],[29.2265,39.5563,857.3002],[29.2164,39.5542,869.8525],[29.1787,39.552,671.0603],[29.1571,39.5451,638.6441],[29.1455,39.5431,641.5039],[29.1167,39.5422,643.3699],[29.0923,39.5436,658.96],[29.0631,39.5521,512.0513],[29.0321,39.5553,528.057],[29.0214,39.5577,536.9915],[28.9919,39.5696,419.3252],[28.9736,39.5852,550.7906],[28.9633,39.5893,591.7124],[28.9509,39.5768,533.7694],[28.9349,39.5509,482.0393],[28.9343,39.5342,478.7573],[28.9406,39.5198,638.8903],[28.9241,39.4999,518.0294],[28.92,39.4925,607.0374],[28.9181,39.4814,665.0995],[28.9164,39.4443,925.6757],[28.9054,39.4226,1002.7366],[28.8997,39.3924,1112.7782],[28.8833,39.3666,1337.1611],[28.8495,39.3368,1283.8896],[28.8358,39.3178,1258.6838],[28.8262,39.3088,1280.6588],[28.7933,39.2838,1539.7002],[28.7781,39.2759,1541.5957],[28.7209,39.2544,1312.4506],[28.6906,39.2482,1118.7039],[28.6614,39.2337,1071.7856],[28.6622,39.1638,521.9212],[28.6795,39.1362,761.6932],[28.696,39.1207,862.7106],[28.7079,39.114,1305.1633],[28.7382,39.1028,1233.8813],[28.7655,39.0977,1296.811],[28.7866,39.0905,1593.7133],[28.8418,39.0885,1329.6633],[28.8559,39.0865,1294.4927],[28.895,39.0705,1522.1897],[28.9256,39.0459,1232.9856],[28.937,39.0291,1363.2095],[28.9573,39.0087,1285.9646],[28.9874,38.962,1083.1073],[28.9909,38.9515,970.2933],[28.995,38.9266,973.4956],[29.0074,38.9075,929.1766],[29.0078,38.8914,839.3008],[29.0107,38.8733,827.9318],[29.016,38.8739,878.5127],[29.0216,38.8707,926.2783],[29.0328,38.8513,1204.3667]]]]}}