{"type": "Feature","id": "2276","bbox": [28.65782,38.70686,30.44179,39.92348],"geometry": {"type": "Polygon","coordinates": [[[29.58644,39.88901,1271.4663],[29.5544,39.89191,1277.167],[29.45022,39.92348,1448.3184],[29.39948,39.89591,1570.1273],[29.37943,39.83648,1173.6748],[29.36816,39.81333,891.7198],[29.3478,39.7969,579.0851],[29.32021,39.71721,1142.5275],[29.27421,39.69091,1046.8735],[29.25251,39.64585,841.5345],[29.2461,39.57934,1048.3318],[29.19081,39.55211,735.1594],[29.11929,39.55157,770.1931],[29.04901,39.5579,514.6789],[29.00477,39.56611,509.9277],[28.96715,39.58906,563.8662],[28.947,39.55986,464.6852],[28.94173,39.54014,529.9202],[28.9408,39.52105,608.6136],[28.93387,39.50849,570.7563],[28.9224,39.49963,521.05],[28.90876,39.47072,871.196],[28.89605,39.39971,1052.9719],[28.873,39.37008,1537.2495],[28.84974,39.34786,1465.9835],[28.84158,39.33378,1172.9447],[28.8114,39.29057,1416.407],[28.77874,39.27223,1624.0042],[28.70588,39.25295,1246.3992],[28.66671,39.23804,1082.7638],[28.65782,39.20402,770.7383],[28.6634,39.19229,701.1301],[28.66609,39.16717,524.4294],[28.65947,39.15663,616.0143],[28.70898,39.11322,1334.5016],[28.73037,39.10082,1329.3295],[28.88096,39.07526,1511.7732],[28.90989,39.05958,1559.7393],[28.97428,38.9816,1157.5403],[28.98421,38.96543,1104.8105],[28.99092,38.94801,945.7579],[28.98203,38.88672,846.2368],[29.01531,38.84001,942.4539],[29.0363,38.79332,859.4564],[29.03226,38.73014,773.1488],[29.08683,38.76725,810.451],[29.14554,38.76668,682.3726],[29.20672,38.73681,644.5258],[29.27349,38.72914,846.2209],[29.34573,38.73164,1189.0663],[29.4712,38.75962,1104.6268],[29.52929,38.76296,1283.201],[29.5543,38.80923,1347.8488],[29.57135,38.86522,1172.5681],[29.59657,38.87773,1330.178],[29.62437,38.88383,1311.6414],[29.68814,38.88509,1607.2068],[29.81175,38.86197,1297.0581],[29.84131,38.85251,1160.8419],[29.88875,38.81029,1162.6118],[29.88813,38.70686,1229.0918],[30.09566,38.8042,1207.0281],[30.12429,38.83267,1265.894],[30.16491,38.88584,1127.635],[30.1924,38.95297,1230.4291],[30.21834,38.99493,1049.0227],[30.23436,39.04028,1028.9043],[30.25348,39.08066,1070.1656],[30.37213,39.12242,1122.7646],[30.44179,39.20629,1304.1205],[30.42422,39.26949,1312.9067],[30.32376,39.37196,1451.594],[30.31198,39.44953,1566.7476],[30.28449,39.50971,1083.0154],[30.174,39.5905,1090.9585],[30.13607,39.63882,1107.5964],[30.09876,39.63153,1147.7871],[30.02414,39.62425,1164.3846],[29.94549,39.60761,1290.9927],[29.90198,39.61657,1212.7822],[29.79108,39.67714,1313.5291],[29.75604,39.68884,1307.9408],[29.71625,39.70926,1087.7567],[29.70003,39.72476,1005.1113],[29.66582,39.77884,899.1705],[29.66168,39.82108,1091.6193],[29.6777,39.90632,1115.7595],[29.6468,39.90361,1220.1473],[29.61828,39.89245,1386.4683],[29.58644,39.88901,1271.4663]]]}
,"properties": {"ISO3166-1-Alpha-3": "TUR","country": "Turkey","fill": "#00F","name": "Kütahya","area_km2": 12052.846,"hist_schema_id": "Elevation0-9000","hist_area_km2": {"400": 2.043,"425": 5.837,"450": 7.849,"475": 9.86,"500": 12.216,"525": 16.375,"550": 21.407,"575": 32.07,"600": 47.685,"625": 63.079,"650": 71.256,"675": 84.055,"700": 104.43,"725": 125.683,"750": 141.591,"775": 198.37,"800": 235.478,"825": 267.861,"850": 242.033,"875": 238.749,"900": 261.101,"925": 335.655,"950": 339.932,"975": 354.611,"1000": 522.633,"1025": 699.393,"1050": 635.547,"1075": 621.889,"1100": 654.939,"1125": 643.079,"1150": 599.125,"1175": 544.937,"1200": 489.528,"1225": 440.777,"1250": 381.41,"1275": 346.582,"1300": 303.014,"1325": 263.096,"1350": 231.215,"1375": 203.114,"1400": 175.421,"1425": 151.391,"1450": 133.718,"1475": 117.006,"1500": 101.882,"1525": 83.4,"1550": 71.387,"1575": 59.271,"1600": 49.758,"1625": 43.35,"1650": 38.031,"1675": 33.282,"1700": 28.808,"1725": 22.733,"1750": 17.969,"1775": 15.559,"1800": 14.215,"1825": 13.529,"1850": 10.937,"1875": 9.622,"1900": 8.558,"1925": 8.314,"1950": 6.505,"1975": 5.319,"2000": 4.741,"2025": 4.777,"2050": 4.056,"2075": 3.529,"2100": 3.678,"2125": 3.579,"2150": 2.985,"2175": 2.408,"2200": 1.633,"2225": 1.055,"2250": 0.561,"2275": 0.313}}}