{"type":"Feature","properties":{"id":139762.0,"name":null,"lge_id":null,"pfafstette":77.0,"lke_type":"N","altitude":232,"objectid":87159,"scalerank":11,"featurecla":"Lake","note":"_untitled_87159","funkyname":0,"min_zoom":6.7,"min_label":7.7},
"geometry":{"type": "Polygon","coordinates": [[[28.412608269146233,38.734747625775327,234.0],[28.412608269146233,38.734747625775327,234.0],[28.401621941021233,38.725348211712827,252.2152],[28.391856316021233,38.714361883587827,262.3058],[28.381846550396233,38.702521063275327,274.957],[28.372569206646233,38.701910711712827,308.8355],[28.363658073833733,38.704046942181577,284.2506],[28.356700066021233,38.692511297650327,234.0],[28.347178581646233,38.669440008587827,265.2893],[28.335459831646233,38.638739324994077,266.2592],[28.346934441021233,38.631109930462827,234.0],[28.375498894146233,38.652106024212827,234.0],[28.402842644146233,38.678534246869077,260.179],[28.426036003521233,38.694952703900327,234.0],[28.434580925396233,38.700079657025327,332.5503],[28.425669792583733,38.706183172650327,269.9517],[28.437510612896233,38.724737860150327,234.0],[28.446665886333733,38.741156317181577,245.6971],[28.430552605083733,38.736578680462827,263.0021],[28.421153191021233,38.735968328900327,262.9205],[28.412608269146233,38.734747625775327,234.0]]]}}