{"type": "Feature","bbox": [27.1245,38.0993,29.0365,39.4147],"geometry": {"type": "MultiPolygon","coordinates": [[[[28.683,38.1148,771.3218],[28.7034,38.1088,877.4112],[28.7197,38.0993,780.8826],[28.7333,38.1072,701.4543],[28.7736,38.1239,594.9493],[28.7799,38.1293,543.2747],[28.7933,38.1494,586.6439],[28.7949,38.1581,657.0049],[28.7952,38.2061,291.8274],[28.7981,38.2145,329.7838],[28.8016,38.2189,354.5216],[28.8114,38.2256,551.4575],[28.9014,38.2603,966.5699],[28.921,38.2655,881.666],[28.9096,38.2774,886.3694],[28.8788,38.3032,929.9058],[28.866,38.3217,949.8766],[28.8599,38.328,988.6912],[28.8254,38.3553,756.6028],[28.8255,38.367,675.6395],[28.8383,38.3696,714.0859],[28.8502,38.3773,750.7157],[28.8537,38.3827,805.6747],[28.8563,38.3947,863.9066],[28.8547,38.4509,1037.1855],[28.851,38.4614,844.6738],[28.8441,38.4728,923.255],[28.8406,38.4901,726.1815],[28.8419,38.5322,663.367],[28.8455,38.543,651.7196],[28.8507,38.5518,576.6943],[28.8524,38.5591,575.2729],[28.848,38.5743,585.051],[28.8488,38.5807,561.7479],[28.8584,38.5989,541.4387],[28.8677,38.6124,445.3785],[28.8788,38.6374,532.4189],[28.8882,38.639,557.5282],[28.8961,38.643,583.3914],[28.9417,38.6764,903.4775],[28.978,38.6894,809.6726],[28.9896,38.7027,711.3503],[29.0169,38.7229,696.9478],[29.0365,38.7277,814.8104],[29.0365,38.8301,947.5831],[29.0328,38.8513,1204.3667],[29.0216,38.8707,926.2783],[29.016,38.8739,878.5127],[29.0107,38.8733,827.9318],[29.0078,38.8914,839.3008],[29.0074,38.9075,929.1766],[28.995,38.9266,973.4956],[28.9909,38.9515,970.2933],[28.9874,38.962,1083.1073],[28.9573,39.0087,1285.9646],[28.937,39.0291,1363.2095],[28.9256,39.0459,1232.9856],[28.895,39.0705,1522.1897],[28.8559,39.0865,1294.4927],[28.8418,39.0885,1329.6633],[28.7866,39.0905,1593.7133],[28.7655,39.0977,1296.811],[28.7382,39.1028,1233.8813],[28.7079,39.114,1305.1633],[28.696,39.1207,862.7106],[28.6834,39.1314,917.3414],[28.6622,39.1638,521.9212],[28.6398,39.1762,640.3217],[28.631,39.1799,700.3798],[28.6206,39.1816,753.9365],[28.6098,39.181399999999996,663.2656],[28.5998,39.179,634.319],[28.503,39.14,1219.1816],[28.4831,39.1336,1215.5431],[28.4667,39.124,1195.8531],[28.4414,39.1222,1133.9678],[28.4201,39.1151,1123.1876],[28.3929,39.1098,1111.5229],[28.3451,39.0917,945.0252],[28.3212,39.0873,878.215],[28.3001,39.0801,1058.1277],[28.2761,39.0758,1366.562],[28.255,39.0685,1184.8375],[28.231,39.0642,921.3618],[28.2098,39.057,857.6875],[28.1861,39.0525,938.3586],[28.1662,39.0427,1025.2384],[28.1524,39.045,1039.0032],[28.1255,39.0548,781.7059],[28.1126,39.0629,572.3771],[28.1079,39.0698,627.19],[28.1014,39.0905,704.5903],[28.0796,39.1253,903.7482],[28.0732,39.1465,998.3823],[28.057,39.1724,712.2212],[28.0428,39.1855,614.7319],[28.0108,39.2106,665.0369],[27.9913,39.224,767.1112],[27.9783,39.2285,742.8822],[27.9644,39.2311,731.325],[27.9172,39.2287,558.1171],[27.9064,39.23,602.4039],[27.9001,39.2325,519.0182],[27.8958,39.2361,478.9013],[27.8835,39.2531,413.3717],[27.882,39.2585,442.1818],[27.8823,39.2695,569.331],[27.8868,39.2796,491.0489],[27.9084,39.3116,446.1556],[27.9171,39.329,425.0787],[27.909,39.3445,757.9129],[27.8966,39.3572,757.9972],[27.8815,39.3456,803.8279],[27.8454,39.3469,645.8745],[27.8166,39.3552,843.3633],[27.7915,39.3573,841.4326],[27.7764,39.3573,730.3589],[27.7614,39.3457,742.7365],[27.7464,39.3573,677.0172],[27.7211,39.3553,406.24],[27.6934,39.3469,360.3651],[27.6793,39.3469,381.8894],[27.6515,39.3551,280.5555],[27.6127,39.3601,189.0795],[27.583,39.3767,226.8229],[27.5616,39.386,384.4552],[27.5292,39.4089,669.1827],[27.5165,39.4138,617.4382],[27.5094,39.4147,649.153],[27.4935,39.414,703.217],[27.445,39.3946,552.9684],[27.4077,39.3815,485.5816],[27.4268,39.359,533.3038],[27.4415,39.3356,309.5365],[27.4497,39.3122,392.36],[27.4588,39.2955,355.1674],[27.4607,39.2833,281.0128],[27.4619,39.2394,328.7009],[27.4644,39.2306,212.2149],[27.4725,39.2168,197.6281],[27.4754,39.205,133.1598],[27.475,39.1864,101.9469],[27.471,39.1719,62.9784],[27.5009,39.1266,266.3739],[27.5044,39.1177,234.8353],[27.5059,39.0985,378.7331],[27.5054,39.0199,707.4106],[27.4904,39.0083,324.8685],[27.4767,39.0057,414.4483],[27.4628,38.9983,382.8212],[27.4516,38.9884,703.0557],[27.4425,38.9746,661.0553],[27.4339,38.967,662.803],[27.4252,38.9634,702.7493],[27.4016,38.9593,946.8062],[27.3875,38.952,768.1104],[27.3746,38.9398,760.581],[27.37,38.9268,813.8402],[27.3348,38.9169,588.7246],[27.3115,38.9124,572.3337],[27.2898,38.9055,621.2969],[27.2289,38.9023,364.7088],[27.1995,38.894,438.7162],[27.1682,38.8917,489.5523],[27.1481,38.8561,272.8153],[27.142,38.8262,127.9828],[27.132,38.8069,105.5858],[27.1245,38.7797,139.4613],[27.1612,38.7722,369.4088],[27.2181,38.7505,317.3654],[27.2297,38.7416,325.7212],[27.2335,38.7337,391.476],[27.2372,38.7098,366.5272],[27.2469,38.6901,168.0716],[27.2518,38.6632,206.0356],[27.2618,38.6435,120.3916],[27.2668,38.6166,324.8111],[27.2768,38.5973,357.5192],[27.28,38.5722,512.2292],[27.3251,38.5872,610.8389],[27.3383,38.5883,483.5303],[27.3495,38.5849,256.6315],[27.3542,38.5776,309.9903],[27.4063,38.5766,1037.0985],[27.4309,38.5688,925.7168],[27.4579,38.5635,1187.2927],[27.4784,38.5514,1090.7744],[27.5426,38.5009,217.4303],[27.5654,38.4863,138.8351],[27.5955,38.4748,71.9235],[27.6373,38.464,114.1229],[27.6556,38.4613,139.8313],[27.6984,38.4588,231.5564],[27.7427,38.4469,490.081],[27.7549,38.4387,378.7046],[27.7662,38.4227,561.2386],[27.7849,38.404,647.2154],[27.807,38.3686,978.5534],[27.8213,38.3508,696.087],[27.8414,38.3386,956.5501],[27.8536,38.3338,1114.4429],[27.8678,38.3329,846.064],[27.8816,38.336,966.4951],[27.9287,38.3676,1011.3839],[27.9683,38.3814,964.9246],[27.9941,38.3965,991.2299],[28.0088,38.4014,1029.2634],[28.0334,38.4029,894.5374],[28.1052,38.4031,1217.9576],[28.1254,38.402,1177.3364],[28.1331,38.4001,1273.8052],[28.1397,38.3966,1318.3643],[28.1471,38.3894,1433.299],[28.1566,38.3637,1767.6388],[28.1663,38.3582,1753.4254],[28.2229,38.3359,1552.7859],[28.2585,38.3266,1360.2673],[28.2654,38.3223,1260.9634],[28.2946,38.3188,1266.5598],[28.3232,38.3103,955.7753],[28.385,38.3074,1124.308],[28.4065,38.3004,1199.7078],[28.4335,38.2951,1087.1633],[28.4487,38.2868,1458.1028],[28.4626,38.2734,1552.124],[28.4767,38.2498,1673.2443],[28.4832,38.2169,954.7575],[28.4912,38.2031,642.7026],[28.4979,38.182,568.8535],[28.512,38.1584,529.9713],[28.5312,38.1306,1124.8809],[28.5435,38.1199,911.6178],[28.5599,38.1087,1315.0955],[28.683,38.1148,771.3218]]]]}
,"properties": {"GID_1": "TUR.56_1","GID_0": "TUR","country": "Turkey","province": "Manisa","VARNAME_1": "NA","NL_NAME_1": "NA","TYPE_1": "Il","ENGTYPE_1": "Province","CC_1": "NA","HASC_1": "TR.MN","ISO_1": "TR-45","name": "Manisa.province","area_km2": 13209.47,"hist_schema_id": "Elevation0-9000","hist_area_km2": {"25": 326.45,"50": 397.55,"75": 622.39,"100": 548.76,"125": 375.06,"150": 406.47,"175": 403.77,"200": 337.83,"225": 348.1,"250": 312.88,"275": 309.83,"300": 295.22,"325": 288.98,"350": 285.43,"375": 280.86,"400": 285.34,"425": 308.61,"450": 340.88,"475": 349.81,"500": 351.47,"525": 348.94,"550": 359.36,"575": 369.15,"600": 388.56,"625": 369.7,"650": 345.97,"675": 347.08,"700": 318.61,"725": 302.48,"750": 282.85,"775": 257.26,"800": 246.48,"825": 220.01,"850": 196.51,"875": 177.78,"900": 172.68,"925": 161.54,"950": 147.79,"975": 129.84,"1000": 109.64,"1025": 93.26,"1050": 81.99,"1075": 72.6,"1100": 62.72,"1125": 50.97,"1150": 42.48,"1175": 38.48,"1200": 35.57,"1225": 32.78,"1250": 30.98,"1275": 29.57,"1300": 28.12,"1325": 24.46,"1350": 23.74,"1375": 21.75,"1400": 18.22,"1425": 14.38,"1450": 11.73,"1475": 9.55,"1500": 8.63,"1525": 7.47,"1550": 6.55,"1575": 5.79,"1600": 4.27,"1625": 4.11,"1650": 3.5,"1675": 2.66,"1700": 2.13,"1725": 2.38,"1750": 2.11,"1775": 1.33,"1800": 1.36,"1825": 1.3,"1850": 1.26,"1875": 0.76,"1900": 0.58,"1925": 0.58,"1950": 0.28,"1975": 0.3,"2000": 0.38,"2025": 0.33}}}