{"type":"Feature","properties":{"ISO3166-1-Alpha-3":"TUR","country":"Turkey","fill":"#F00","id":"2277","name":"Manisa"},
"geometry":{"type": "Polygon","coordinates": [[[27.65591,39.35173,293.7654],[27.58605,39.36698,198.0313],[27.54305,39.39475,489.0279],[27.49665,39.41134,688.5754],[27.42006,39.38028,536.4918],[27.45882,39.3037,421.6534],[27.49179,39.1836,101.664],[27.50812,39.14782,192.9254],[27.54533,39.09394,505.8929],[27.53768,39.04129,736.6537],[27.51008,39.01679,801.236],[27.44518,38.97437,660.5631],[27.38213,38.95447,758.8049],[27.32715,38.92494,504.3159],[27.31526,38.88838,411.016],[27.30937,38.84972,384.4604],[27.29098,38.8166,421.4907],[27.2608,38.79203,313.1181],[27.2332,38.75577,295.8863],[27.22845,38.73479,366.5182],[27.25594,38.71306,220.25],[27.27155,38.70782,205.9701],[27.2947,38.68456,71.3083],[27.32126,38.61568,83.9531],[27.38027,38.57594,731.0575],[27.45055,38.57054,1422.4993],[27.56279,38.57271,41.1627],[27.58326,38.56989,36.9196],[27.61354,38.54682,41.5302],[27.63028,38.4915,98.4251],[27.69994,38.453,208.6807],[27.77777,38.42468,538.2607],[27.78583,38.41019,625.2856],[27.79771,38.37848,923.7125],[27.80609,38.36342,982.9818],[27.84825,38.33285,1068.468],[27.8989,38.34208,1154.524],[27.92236,38.37523,945.6916],[27.93889,38.40675,891.1885],[27.98644,38.40512,1099.7163],[28.03439,38.38828,1307.098],[28.0654,38.38727,1322.8154],[28.09537,38.39461,1265.1869],[28.13568,38.35916,1366.7084],[28.16286,38.30877,893.653],[28.26105,38.32161,1385.9491],[28.29939,38.3311,1150.6659],[28.32512,38.32738,927.8074],[28.34497,38.30877,1463.3572],[28.38,38.30081,1168.8701],[28.40316,38.29932,1086.6633],[28.4478,38.28994,1369.9578],[28.47581,38.26211,1802.3882],[28.51736,38.1593,514.2466],[28.56232,38.1062,1270.2258],[28.69802,38.10382,884.0301],[28.74298,38.10429,683.8903],[28.78442,38.11995,582.8871],[28.79838,38.14362,582.6066],[28.79362,38.17049,770.1381],[28.83806,38.2388,1060.5255],[28.93098,38.25513,916.0116],[28.89377,38.28743,939.155],[28.8638,38.288,727.8481],[28.83848,38.3034,661.6549],[28.84809,38.31782,934.7355],[28.87506,38.33802,880.8632],[28.89491,38.36319,741.7479],[28.90824,38.39321,867.7578],[28.91548,38.44073,857.2414],[28.90814,38.4893,914.1108],[28.90669,38.51326,895.3119],[28.90287,38.53537,793.0978],[28.88044,38.5571,604.2885],[28.85191,38.56467,597.8605],[28.8484,38.60012,546.5729],[28.87672,38.60837,452.8496],[28.90638,38.63395,515.5378],[28.91785,38.65369,777.6915],[28.99547,38.70105,708.6063],[29.03226,38.73014,773.1488],[29.0363,38.79332,859.4564],[29.01531,38.84001,942.4539],[28.98203,38.88672,846.2368],[28.99092,38.94801,945.7579],[28.98421,38.96543,1104.8105],[28.97428,38.9816,1157.5403],[28.90989,39.05958,1559.7393],[28.88096,39.07526,1511.7732],[28.73037,39.10082,1329.3295],[28.70898,39.11322,1334.5016],[28.65947,39.15663,616.0143],[28.57214,39.16748,521.4329],[28.47995,39.13061,1147.2584],[28.44274,39.12278,1133.9678],[28.40471,39.11937,1147.4438],[28.3613,39.12239,1134.8157],[28.32078,39.11632,1084.4109],[28.2936,39.08831,1054.1628],[28.25619,39.0711,1177.5884],[28.21278,39.06397,888.1884],[28.17103,39.05017,1024.0825],[28.12503,39.06304,741.7279],[28.07367,39.1527,898.7285],[27.9914,39.22215,783.3596],[27.98458,39.23642,598.4845],[27.96804,39.24329,705.6452],[27.89332,39.2219,410.9162],[27.85425,39.23642,307.0955],[27.86593,39.27161,554.2809],[27.89621,39.31336,523.0349],[27.8712,39.34478,623.1954],[27.85487,39.34427,388.6407],[27.82304,39.33959,645.8151],[27.80722,39.3415,598.5641],[27.76795,39.35662,684.6643],[27.7264,39.35928,472.6037],[27.65591,39.35173,293.7654]]]}}