{"type": "Feature","bbox": [26.1657,40.0407,26.4578,40.4241],"geometry": {"type": "MultiPolygon","coordinates": [[[[26.4285,40.424,0.0],[26.4235,40.4182,7.5652],[26.4146,40.4157,0.0],[26.4126,40.4113,30.8445],[26.3982,40.4104,32.8624],[26.3957,40.4087,1.0365],[26.3957,40.4051,34.4433],[26.3865,40.3993,15.9692],[26.3793,40.3979,9.411],[26.3746,40.3943,0.0],[26.3662,40.3924,0.0],[26.3637,40.3907,0.0],[26.364,40.3865,1.7033],[26.3618,40.3843,12.6569],[26.3451,40.3787,22.6733],[26.341,40.3743,1.3929],[26.3376,40.3737,0.0],[26.3318,40.3638,0.0],[26.3229,40.3632,4.4697],[26.3221,40.3657,0.0],[26.3235,40.3685,4.0074],[26.3207,40.369,0.0],[26.3085,40.366,0.0],[26.3007,40.3601,2.7448],[26.2957,40.3521,0.0],[26.2857,40.349,0.0],[26.2626,40.3462,8.5516],[26.2612,40.3443,0.0],[26.2562,40.3429,3.0829],[26.2562,40.3404,21.9354],[26.2532,40.3404,0.0],[26.249,40.3376,0.0],[26.2471,40.3343,3.0051],[26.2379,40.3315,7.0733],[26.234,40.3271,0.0],[26.2193,40.3201,14.6218],[26.2179,40.3174,0.0],[26.2151,40.3165,0.0],[26.2163,40.3154,0.0],[26.221,40.3171,6.1544],[26.2243,40.3168,0.0],[26.2237,40.3157,0.0],[26.2335,40.3165,0.0],[26.236,40.3162,0.0],[26.2351,40.3149,0.0],[26.2399,40.3154,0.3532],[26.2426,40.3138,1.9556],[26.2421,40.3126,0.2802],[26.2468,40.3071,0.3176],[26.2465,40.2996,0.698],[26.2412,40.2979,0.0],[26.2415,40.294,8.7275],[26.2388,40.2929,0.0],[26.2382,40.291,7.7578],[26.2293,40.2904,4.1948],[26.2293,40.2887,0.0],[26.234,40.2851,0.0],[26.2454,40.281,0.0],[26.2499,40.276,0.0],[26.2554,40.2738,0.0],[26.2562,40.2718,0.0],[26.276,40.2576,0.6707],[26.2787,40.2537,0.4534],[26.2821,40.2429,3.9857],[26.2757,40.2382,0.0],[26.2785,40.2157,3.3142],[26.2718,40.2085,5.9424],[26.2676,40.2079,0.0],[26.2671,40.206,0.0],[26.271,40.1996,0.1711],[26.2701,40.1935,0.0],[26.2657,40.1912,0.0],[26.2665,40.1899,8.0258],[26.261,40.1835,0.0],[26.2618,40.1815,0.0],[26.2588,40.1779,3.3488],[26.2518,40.1732,3.7319],[26.2521,40.1701,3.5614],[26.2496,40.1646,0.9339],[26.2351,40.1549,0.0],[26.2343,40.1501,0.0],[26.2299,40.1443,0.0],[26.2299,40.1413,17.5852],[26.2232,40.1326,0.0],[26.2215,40.1271,4.9161],[26.2124,40.1165,2.5349],[26.2118,40.1087,12.204],[26.2096,40.1037,4.1754],[26.2046,40.0976,23.719],[26.201,40.0957,0.0],[26.1987,40.0915,24.52],[26.1926,40.0879,13.6992],[26.1887,40.0824,4.7867],[26.1868,40.0818,6.3716],[26.1774,40.0638,0.0],[26.1657,40.0537,19.7253],[26.1729,40.0432,0.0],[26.1826,40.0435,0.0],[26.1876,40.0407,2.4642],[26.1907,40.0412,0.1903],[26.199,40.0501,0.6747],[26.2046,40.0515,0.0],[26.2051,40.0532,0.1396],[26.2138,40.0518,0.0],[26.2171,40.0474,0.0],[26.219,40.0474,0.0],[26.2279,40.0518,0.0],[26.231,40.0565,0.0],[26.2304,40.0593,11.6611],[26.2399,40.0601,0.0],[26.2471,40.0638,9.2948],[26.2504,40.0685,0.0],[26.2671,40.0737,0.0],[26.2843,40.0818,1.6485],[26.2974,40.0849,0.0],[26.299,40.0871,9.372],[26.3082,40.0915,0.0],[26.3118,40.0949,0.0],[26.3132,40.1004,10.6181],[26.3293,40.1065,2.2966],[26.3399,40.116,4.9259],[26.341,40.1188,27.45],[26.346,40.1215,0.0],[26.3468,40.1254,0.0],[26.3504,40.1265,0.0],[26.3554,40.1315,0.4644],[26.3651,40.1346,0.0],[26.3818,40.144,0.0],[26.381,40.149,0.0],[26.3776,40.1524,0.0],[26.3774,40.1576,0.0],[26.3726,40.1646,29.3053],[26.3721,40.1693,0.0],[26.3674,40.1721,0.0],[26.3604,40.1838,0.4974],[26.3579,40.1921,54.6314],[26.3621,40.1963,0.0],[26.3585,40.1993,16.0837],[26.3582,40.2032,2.1142],[26.3632,40.2049,0.8441],[26.3674,40.2021,13.6104],[26.3749,40.2032,0.0],[26.3807,40.2085,0.0],[26.3862,40.2088,0.0],[26.3904,40.2129,0.637],[26.3993,40.2165,1.8826],[26.4068,40.2165,0.0],[26.424,40.2204,0.0],[26.4268,40.2238,0.0],[26.4263,40.2271,12.5555],[26.4282,40.2276,0.0733],[26.4271,40.2285,0.0733],[26.4282,40.2293,0.5836],[26.4329,40.2304,0.0],[26.4357,40.2287,0.0],[26.4382,40.2321,5.6844],[26.4457,40.2335,0.0],[26.4562,40.2396,0.0],[26.4578,40.3141,281.8882],[26.4553,40.3322,191.4478],[26.4522,40.3373,196.6766],[26.4457,40.3431,113.4876],[26.4068,40.3589,59.0679],[26.4026,40.3621,66.3884],[26.4006,40.3666,100.7533],[26.4012,40.3714,89.5893],[26.404,40.376,162.3883],[26.4195,40.3906,200.5325],[26.4245,40.3981,176.1903],[26.4268,40.4063,266.6548],[26.4288,40.4241,16.6017],[26.4285,40.424,0.0]]]]}
,"properties": {"GID_2": "TUR.22.6_1","GID_0": "TUR","country": "Turkey","GID_1": "TUR.22_1","province": "Çanakkale","NL_NAME_1": "NA","county": "Eceabat","VARNAME_2": "NA","NL_NAME_2": "NA","TYPE_2": "District","ENGTYPE_2": "District","CC_2": "NA","HASC_2": "TR.CK.EC","name": "Eceabat.county","area_km2": 459.1604,"hist_schema_id": "Elevation0-9000","hist_area_km2": {"0": 39.2183,"25": 64.6945,"50": 82.7884,"75": 64.6803,"100": 57.7859,"125": 48.0913,"150": 39.1578,"175": 30.7588,"200": 15.419,"225": 7.2099,"250": 3.9921,"275": 2.2946,"300": 1.3893,"325": 1.1309,"350": 0.5331,"375": 0.0161}}}