{"type": "Feature","bbox": [37.1054,40.2382,37.6479,40.6298],"geometry": {"type": "MultiPolygon","coordinates": [[[[37.3124,40.6279,1577.0964],[37.2987,40.6218,1483.5496],[37.2748,40.6171,1555.0127],[37.2509,40.61,1512.6481],[37.2408,40.6106,1467.6931],[37.2236,40.6166,1601.1294],[37.2097,40.6191,1555.8444],[37.1766,40.6193,1487.5256],[37.1596,40.6142,1539.8929],[37.1514,40.6083,1480.1556],[37.145,40.6012,1589.2974],[37.1411,40.5943,1570.1924],[37.1522,40.5739,1657.3729],[37.1609,40.5663,1680.0809],[37.1733,40.5621,1491.6349],[37.2017,40.5602,1385.9017],[37.2121,40.5577,1332.5607],[37.2265,40.5494,1296.9148],[37.2309,40.5453,1265.6078],[37.2342,40.5378,1249.4851],[37.2326,40.5325,1217.5574],[37.2289,40.5281,1310.2656],[37.2186,40.5206,1428.0692],[37.2089,40.5163,1455.4088],[37.1894,40.5141,1498.3687],[37.1217,40.5153,1539.6241],[37.1118,40.5134,1505.651],[37.1054,40.5074,1502.9302],[37.1054,40.4978,1201.6365],[37.1107,40.4918,1095.8569],[37.1322,40.4823,1001.3262],[37.163,40.4717,1302.5496],[37.1906,40.4645,1355.2012],[37.2049,40.4488,1068.6952],[37.2087,40.4416,941.6484],[37.2096,40.4363,835.8519],[37.2083,40.4286,665.5518],[37.2053,40.4241,486.3002],[37.1845,40.4144,527.7521],[37.1724,40.4118,649.245],[37.1566,40.3925,1541.3052],[37.1243,40.3676,1517.7023],[37.1193,40.3481,1059.894],[37.1182,40.3358,1123.4812],[37.1186,40.3184,849.9968],[37.1217,40.3108,809.9553],[37.1268,40.3069,905.7261],[37.1407,40.3043,881.0005],[37.2102,40.3053,902.2661],[37.2342,40.3033,1023.1915],[37.2477,40.2976,1004.0775],[37.2762,40.2774,1072.1206],[37.2891,40.2717,1343.6235],[37.3127,40.2669,1129.1172],[37.3343,40.2601,1135.7169],[37.3806,40.2569,1085.657],[37.4095,40.2486,1526.9485],[37.4445,40.2449,1957.6287],[37.4717,40.2382,1712.0792],[37.4811,40.2441,1535.0358],[37.4988,40.2515,1526.4442],[37.5227,40.2664,1075.2671],[37.56,40.2764,1442.264],[37.5547,40.2966,1465.2666],[37.5551,40.3182,981.8698],[37.5568,40.324,765.4437],[37.5617,40.3309,567.025],[37.5775,40.3414,1026.3903],[37.5826,40.3476,1130.6047],[37.5849,40.3589,1793.4948],[37.5849,40.3964,2105.9106],[37.588,40.4084,1861.3572],[37.5963,40.4185,1769.1543],[37.6156,40.4336,1633.7678],[37.631,40.443,1571.8982],[37.6479,40.4505,1528.842],[37.6418,40.4665,1534.0135],[37.6326,40.4832,1414.5996],[37.6277,40.5102,1460.7285],[37.6175,40.5295,1446.9008],[37.6116,40.5511,1491.7015],[37.5987,40.5578,1615.4359],[37.5797,40.5607,1903.1216],[37.484,40.5608,1711.576],[37.4663,40.5631,1758.5396],[37.4331,40.5761,1234.1337],[37.4069,40.592,1146.1338],[37.3884,40.5996,1359.2019],[37.3471,40.6271,1352.2944],[37.3333,40.6298,1518.2554],[37.3124,40.6279,1577.0964]]]]}
,"properties": {"GID_2": "TUR.74.8_1","GID_0": "TUR","country": "Turkey","GID_1": "TUR.74_1","province": "Tokat","NL_NAME_1": "NA","county": "Reşadiye","VARNAME_2": "NA","NL_NAME_2": "NA","TYPE_2": "District","ENGTYPE_2": "District","CC_2": "NA","HASC_2": "TR.TT.RE","name": "Reşadiye.county","area_km2": 1336.561,"hist_schema_id": "Elevation0-9000","hist_area_km2": {"425": 0.355,"450": 1.953,"475": 4.004,"500": 6.314,"525": 6.88,"550": 8.269,"575": 8.173,"600": 7.849,"625": 7.882,"650": 8.705,"675": 8.947,"700": 8.559,"725": 9.932,"750": 9.818,"775": 9.205,"800": 10.61,"825": 14.359,"850": 17.431,"875": 18.45,"900": 19.872,"925": 21.812,"950": 21.601,"975": 21.31,"1000": 21.392,"1025": 21.538,"1050": 22.326,"1075": 22.117,"1100": 23.745,"1125": 23.762,"1150": 23.987,"1175": 23.776,"1200": 25.325,"1225": 28.227,"1250": 34.252,"1275": 41.394,"1300": 44.28,"1325": 42.455,"1350": 41.697,"1375": 39.338,"1400": 37.995,"1425": 41.152,"1450": 41.808,"1475": 40.819,"1500": 39.201,"1525": 40.42,"1550": 42.16,"1575": 44.515,"1600": 44.755,"1625": 41.444,"1650": 36.152,"1675": 30.738,"1700": 24.873,"1725": 20.764,"1750": 14.579,"1775": 11.372,"1800": 7.909,"1825": 6.44,"1850": 5.359,"1875": 5.715,"1900": 4.44,"1925": 3.117,"1950": 4.182,"1975": 5.539,"2000": 3.537,"2025": 1.438,"2050": 0.986,"2075": 0.776,"2100": 0.889,"2125": 0.695,"2150": 0.42,"2175": 0.275,"2200": 0.162,"2225": 0.032}}}