{"type": "Feature","bbox": [30.2068,38.8921,30.715699999999998,39.206],"geometry": {"type": "MultiPolygon","coordinates": [[[[30.6907,39.0938,1468.3827],[30.6398,39.077,1560.3756],[30.6256,39.0761,1560.2141],[30.6117,39.0791,1516.8307],[30.5945,39.0902,1442.3951],[30.533,39.1395,1332.0369],[30.5262,39.1495,1374.0675],[30.5198,39.1704,1439.3605],[30.5055,39.1894,1315.3494],[30.4781,39.2018,1282.1986],[30.4533,39.206,1228.7887],[30.4463,39.1816,1322.3878],[30.4337,39.1643,1363.5519],[30.4276,39.1589,1361.9047],[30.4059,39.1463,1157.8165],[30.3846,39.1263,1119.0184],[30.376,39.1234,1117.1229],[30.3454,39.1199,1150.8815],[30.3148,39.1091,1265.0864],[30.2818,39.0957,1145.5303],[30.2704,39.0882,1102.9908],[30.2608,39.0795,1076.1371],[30.242,39.0517,1053.2773],[30.2369,39.0242,1032.5724],[30.2339,39.0165,1036.8386],[30.2209,38.9954,1051.26],[30.2068,38.9777,1078.2058],[30.2397,38.9622,1087.1323],[30.2668,38.9567,1091.8348],[30.2882,38.9496,1115.5519],[30.3114,38.9478,1105.342],[30.3834,38.9482,1109.1018],[30.4023,38.9456,1130.9557],[30.4118,38.941,1105.9636],[30.4224,38.933,1091.3828],[30.4289,38.9261,1082.7556],[30.4381,38.912,1110.2594],[30.4498,38.9031,1148.7841],[30.4791,38.8921,1224.2264],[30.4959,38.893,1118.8483],[30.54,38.9101,1059.0503],[30.5672,38.9155,1109.3215],[30.6151,38.9335,1191.301],[30.639,38.9379,1286.8987],[30.6602,38.9451,1351.4546],[30.6738,38.9477,1435.8468],[30.6874,38.9553,1450.2993],[30.7039,38.9593,1381.0011],[30.706,38.9762,1361.6401],[30.715,38.9949,1383.1284],[30.715699999999998,39.0027,1366.5725],[30.7067,39.0212,1395.4543],[30.7006,39.0396,1372.7671],[30.6905,39.0587,1544.2946],[30.6892,39.0729,1621.126],[30.6907,39.0938,1468.3827]]]]}
,"properties": {"GID_2": "TUR.3.11_1","GID_0": "TUR","country": "Turkey","GID_1": "TUR.3_1","province": "Afyon","NL_NAME_1": "NA","county": "İhsaniye","VARNAME_2": "NA","NL_NAME_2": "NA","TYPE_2": "District","ENGTYPE_2": "District","CC_2": "NA","HASC_2": "TR.AF.IH","name": "İhsaniye.county","area_km2": 856.2586,"hist_schema_id": "Elevation0-9000","hist_area_km2": {"1025": 8.5158,"1050": 88.0153,"1075": 154.9427,"1100": 106.2908,"1125": 82.9528,"1150": 64.9095,"1175": 43.8089,"1200": 28.808,"1225": 32.9957,"1250": 27.3208,"1275": 25.6755,"1300": 23.8507,"1325": 22.9294,"1350": 20.8253,"1375": 22.9729,"1400": 23.2391,"1425": 16.4854,"1450": 16.9804,"1475": 13.5215,"1500": 9.8968,"1525": 8.1503,"1550": 6.1248,"1575": 3.8359,"1600": 2.0415,"1625": 1.0536,"1650": 0.0988,"1675": 0.0165}}}