{"type": "Feature","bbox": [29.7003,40.0129,30.1829,40.3454],"geometry": {"type": "MultiPolygon","coordinates": [[[[30.0626,40.0129,732.045],[30.06,40.0499,760.3279],[30.0613,40.0589,609.204],[30.0653,40.0669,553.5709],[30.0772,40.0756,386.2923],[30.1165,40.0923,423.0392],[30.1292,40.1058,278.4153],[30.1596,40.1321,322.6008],[30.1829,40.1641,487.9048],[30.1794,40.1901,190.4288],[30.1747,40.1979,269.9098],[30.1649,40.2066,334.4926],[30.1562,40.212,361.9537],[30.1429,40.2163,568.7838],[30.1222,40.2196,345.3007],[30.0954,40.2291,182.7448],[30.0871,40.2334,148.8737],[30.0807,40.2393,190.6448],[30.0767,40.2473,108.0],[30.0755,40.2564,110.4148],[30.0762,40.3102,144.5036],[30.0627,40.3131,160.7883],[30.0449,40.3193,263.381],[30.0331,40.3213,291.9151],[29.9201,40.3231,559.8232],[29.8908,40.3316,304.2931],[29.8562,40.3357,555.3701],[29.8311,40.3433,314.1172],[29.8059,40.3454,446.8881],[29.8106,40.3324,425.294],[29.8325,40.2982,398.2951],[29.8335,40.2929,366.1437],[29.8315,40.2853,218.7983],[29.8172,40.2622,285.1731],[29.7993,40.2376,492.2369],[29.792,40.2324,394.0717],[29.7652,40.2204,437.6104],[29.7463,40.2066,394.7785],[29.7347,40.1957,470.2717],[29.7184,40.1698,489.587],[29.716,40.1617,565.577],[29.7128,40.1279,675.8066],[29.7039,40.1114,754.3483],[29.7003,40.101,882.4934],[29.7255,40.1029,915.3771],[29.7466,40.11,948.9018],[29.7614,40.1123,923.437],[29.7927,40.113,953.2385],[29.8157,40.1112,886.2064],[29.8524,40.0974,871.5391],[29.8907,40.071,1221.6443],[29.9235,40.0572,1035.265],[29.9567,40.045,801.9417],[29.9844,40.0404,824.4324],[30.026,40.0295,613.0676],[30.0626,40.0129,732.045]]]]}
,"properties": {"GID_2": "TUR.16.4_1","GID_0": "TUR","country": "Turkey","GID_1": "TUR.16_1","province": "Bilecik","NL_NAME_1": "NA","county": "Merkez","VARNAME_2": "Bilecik","NL_NAME_2": "NA","TYPE_2": "District","ENGTYPE_2": "District","CC_2": "NA","HASC_2": "TR.BC.BC","name": "Merkez.county","area_km2": 865.5911,"hist_schema_id": "Elevation0-9000","hist_area_km2": {"100": 4.4319,"125": 14.8425,"150": 11.4756,"175": 13.0459,"200": 14.536,"225": 14.9587,"250": 18.1343,"275": 21.3758,"300": 24.1637,"325": 24.9752,"350": 28.2165,"375": 28.8811,"400": 30.5655,"425": 32.638,"450": 35.0661,"475": 32.489,"500": 32.6638,"525": 34.476,"550": 35.7228,"575": 38.9761,"600": 36.1432,"625": 29.2776,"650": 28.2909,"675": 29.9914,"700": 31.7959,"725": 29.9231,"750": 30.2331,"775": 23.9175,"800": 19.711,"825": 18.3517,"850": 17.7845,"875": 15.321,"900": 11.869,"925": 10.8474,"950": 8.1236,"975": 6.5999,"1000": 4.7839,"1025": 3.9085,"1050": 2.3521,"1075": 2.2225,"1100": 2.2874,"1125": 3.2284,"1150": 3.261,"1175": 2.1254,"1200": 1.3628,"1225": 0.2434}}}