{"type":"Feature","properties":{"GID_2":"TUR.65.6_1","GID_0":"TUR","country":"Turkey","GID_1":"TUR.65_1","province":"Rize","NL_NAME_1":"NA","county":"Güneysu","VARNAME_2":"NA","NL_NAME_2":"NA","TYPE_2":"District","ENGTYPE_2":"District","CC_2":"NA","HASC_2":"TR.RI.GU","name":"Güneysu.county"},
"geometry":{"type": "MultiPolygon","coordinates": [[[[40.6315,41.0057,376.2506],[40.6173,41.0101,375.2709],[40.6083,41.0087,198.7625],[40.5961,40.9956,176.0401],[40.5907,40.9858,312.3908],[40.5887,40.9676,690.9163],[40.5902,40.9493,530.1912],[40.5934,40.9411,703.4326],[40.6067,40.9204,1203.373],[40.6128,40.9143,1165.7135],[40.6206,40.9096,1150.3198],[40.6507,40.8984,1263.1152],[40.671,40.896,1051.0149],[40.7095,40.8961,1886.2803],[40.7063,40.9067,1234.1888],[40.6969,40.923,1273.9598],[40.6916,40.9417,898.2588],[40.6771,40.9651,421.9364],[40.6687,40.9741,757.8564],[40.6315,41.0057,376.2506]]]]}}