{"type": "Feature","bbox": [27.608,40.9654,28.1561,41.4412],"geometry": {"type": "MultiPolygon","coordinates": [[[[27.7624,41.0137,1.1421],[27.7623,41.014,8.5107],[27.7622,41.0137,1.1421],[27.7624,41.0137,1.1421]]],
[[[28.1554,41.2524,252.8955],[28.1561,41.2547,251.6087],[28.1394,41.2589,236.8364],[28.1096,41.2752,209.9621],[28.0826,41.2809,213.4946],[28.0648,41.2872,165.6334],[28.0499,41.2893,171.1594],[27.9958,41.2913,167.4936],[27.9619,41.3032,189.239],[27.926,41.3181,193.8522],[27.8992,41.3378,177.7506],[27.8809,41.3554,117.8657],[27.8781,41.3562,125.7107],[27.8476,41.3488,154.7518],[27.8008,41.3479,158.415],[27.782,41.3504,146.5052],[27.7487,41.3625,117.6179],[27.7271,41.3728,117.461],[27.7209,41.3782,121.1154],[27.7091,41.3957,116.6326],[27.7053,41.4196,127.6589],[27.7023,41.4281,135.6393],[27.6929,41.4368,132.5033],[27.6821,41.4412,132.8768],[27.6736,41.4099,124.5565],[27.6643,41.3936,114.9951],[27.6575,41.3725,110.2341],[27.6279,41.3258,82.3938],[27.608,41.2987,124.5265],[27.6492,41.2854,129.8038],[27.6622,41.2774,120.4723],[27.6867,41.2584,104.1497],[27.7029,41.2424,96.9185],[27.7324,41.1959,147.6227],[27.7348,41.1872,139.4212],[27.7358,41.1721,107.4184],[27.7352,41.092,71.7127],[27.7408,41.0792,30.3383],[27.7583,41.061,20.0601],[27.764,41.0502,20.3629],[27.7652,41.0287,88.2056],[27.7623,41.014,8.5107],[27.7976,41.0049,3.8234],[27.8065,41.0004,0.0],[27.8201,40.9985,0.0],[27.840699999999998,40.9924,4.4404],[27.8551,40.9829,1.9923],[27.8582,40.9768,0.0],[27.8626,40.9735,0.0],[27.8649,40.9696,0.0],[27.874,40.9679,0.8825],[27.8779,40.9654,0.0],[27.885,40.9663,2.399],[27.8851,41.0558,98.7125],[27.8884,41.0677,101.3308],[27.8942,41.075,62.923],[27.9104,41.0868,90.9195],[27.9361,41.0991,116.5098],[27.9499,41.116,82.7192],[27.9594,41.1228,45.1002],[27.9732,41.1262,90.5557],[28.0041,41.1272,88.2737],[28.0192,41.1294,130.2984],[28.0573,41.1508,149.5328],[28.0771,41.1861,125.2303],[28.0827,41.2043,158.963],[28.0876,41.2111,166.0161],[28.0974,41.2178,153.6412],[28.1422,41.2349,192.9785],[28.151,41.2423,233.263],[28.1554,41.2524,252.8955]]]]}
,"properties": {"GID_2": "TUR.73.2_1","GID_0": "TUR","country": "Turkey","GID_1": "TUR.73_1","province": "Tekirdag","NL_NAME_1": "NA","county": "Çorlu","VARNAME_2": "NA","NL_NAME_2": "NA","TYPE_2": "District","ENGTYPE_2": "District","CC_2": "NA","HASC_2": "TR.TG.CO","name": "Çorlu.county","area_km2": 979.1793,"hist_schema_id": "Elevation0-9000","hist_area_km2": {"0": 6.2408,"25": 16.1561,"50": 30.7563,"75": 48.8472,"100": 153.6091,"125": 249.16,"150": 229.2589,"175": 154.3958,"200": 66.156,"225": 23.4355,"250": 1.1636}}}