{"type":"Feature","properties":{"GID_2":"TUR.26.12_1","GID_0":"TUR","country":"Turkey","GID_1":"TUR.26_1","province":"Diyarbakir","NL_NAME_1":"NA","county":"Lice","VARNAME_2":"NA","NL_NAME_2":"NA","TYPE_2":"District","ENGTYPE_2":"District","CC_2":"NA","HASC_2":"TR.DY.LI","name":"Lice.county"},
"geometry":{"type": "MultiPolygon","coordinates": [[[[40.466,38.4927,865.5328],[40.4862,38.4803,895.8549],[40.5291,38.448,1060.4885],[40.5402,38.442,955.9744],[40.5559,38.4363,922.5677],[40.5699,38.4273,894.5206],[40.5818,38.4158,876.2426],[40.5957,38.3951,941.8612],[40.5986,38.3876,902.1085],[40.5977,38.3776,881.0302],[40.5914,38.3715,907.588],[40.5782,38.3693,905.5191],[40.544,38.3699,997.4698],[40.5287,38.3686,921.9117],[40.5153,38.3634,944.588],[40.502,38.3533,947.2194],[40.4963,38.3458,924.2049],[40.4933,38.3341,897.5686],[40.4933,38.3096,912.8279],[40.4965,38.2891,907.6995],[40.5407,38.2882,863.1192],[40.5638,38.2899,941.6648],[40.5977,38.302,1028.5459],[40.6205,38.3132,1108.7703],[40.6418,38.3201,1202.6261],[40.6527,38.3222,1160.9539],[40.7138,38.325,946.2608],[40.7616,38.3427,1183.8896],[40.7729,38.3454,1135.5889],[40.8468,38.347,784.0787],[40.8576,38.3599,765.2918],[40.8675,38.3687,752.4957],[40.8789,38.3762,792.8773],[40.8891,38.3799,855.7285],[40.9201,38.3818,911.1909],[40.9674,38.3794,1021.0097],[40.9555,38.3942,965.8327],[40.934,38.4149,1007.9996],[40.9228,38.4313,919.012],[40.889,38.4613,822.7955],[40.8572,38.5102,1084.8459],[40.8545,38.5212,1108.9761],[40.8551,38.5353,1350.3962],[40.8575,38.5433,1531.9238],[40.8679,38.5623,1278.5885],[40.8711,38.5917,1524.8461],[40.7625,38.5916,1734.1897],[40.706,38.6054,1894.8408],[40.6882,38.6117,1735.373],[40.673,38.6139,2004.2224],[40.5535,38.6149,1360.0215],[40.5293,38.6132,1199.2339],[40.5188,38.6095,1167.1331],[40.5101,38.6041,1155.0974],[40.5027,38.5977,1161.0599],[40.4971,38.5901,1096.8252],[40.4945,38.5814,1088.0264],[40.4916,38.5484,1005.9435],[40.4827,38.5317,948.9034],[40.4757,38.5107,874.432],[40.466,38.4927,865.5328]]]]}}