{"type":"Feature","properties":{"GID_2":"TUR.25.7_1","GID_0":"TUR","country":"Turkey","GID_1":"TUR.25_1","province":"Denizli","NL_NAME_1":"NA","county":"Bozkurt","VARNAME_2":"NA","NL_NAME_2":"NA","TYPE_2":"District","ENGTYPE_2":"District","CC_2":"NA","HASC_2":"TR.DN.BO","name":"Bozkurt.county"},
"geometry":{"type": "MultiPolygon","coordinates": [[[[29.6654,37.9131,1463.5708],[29.6366,37.91,1256.4249],[29.627,37.9056,1188.842],[29.6162,37.8977,1221.5195],[29.6076,37.8883,1147.6027],[29.5726,37.8319,826.6179],[29.5615,37.8226,804.8403],[29.4987,37.7984,831.7573],[29.4674,37.7946,706.6356],[29.4593,37.7856,735.0479],[29.4498,37.7714,907.2686],[29.4295,37.7511,1162.9128],[29.4257,37.7432,1174.9221],[29.4243,37.7348,1175.9248],[29.4244,37.7176,1210.594],[29.4266,37.7065,1161.9684],[29.4361,37.6901,1222.3159],[29.4418,37.6716,1363.0553],[29.4513,37.6553,1514.406],[29.4546,37.6447,1680.5366],[29.4671,37.632,1415.1312],[29.4757,37.6169,1450.4888],[29.5012,37.6064,1646.9758],[29.5268,37.5914,1606.7354],[29.5489,37.5983,1406.822],[29.5524,37.6008,1422.4545],[29.5621,37.6203,1505.8154],[29.5747,37.633,1348.1958],[29.5753,37.656,1353.7979],[29.578,37.6669,1242.0105],[29.5861,37.6807,1311.3357],[29.5932,37.7017,1043.531],[29.6155,37.7363,863.23],[29.6187,37.7442,870.0176],[29.62,37.756,869.2278],[29.62,37.7922,884.8025],[29.6222,37.8038,913.2595],[29.627,37.8116,897.224],[29.6451,37.8295,870.6652],[29.6548,37.8435,1099.0138],[29.6638,37.8526,1248.8739],[29.6654,37.9131,1463.5708]]]]}}