{"type":"Feature","properties":{"GID_2":"TUR.1.9_1","GID_0":"TUR","country":"Turkey","GID_1":"TUR.1_1","province":"Adana","NL_NAME_1":"NA","county":"Saimbeyli","VARNAME_2":"NA","NL_NAME_2":"NA","TYPE_2":"District","ENGTYPE_2":"District","CC_2":"NA","HASC_2":"TR.AA.SA","name":"Saimbeyli.county"},
"geometry":{"type": "MultiPolygon","coordinates": [[[[36.1266,37.7832,1448.519],[36.1509,37.7795,1365.9939],[36.1802,37.7797,1343.7225],[36.1961,37.7822,1452.8795],[36.2176,37.7893,1887.0767],[36.2371,37.7908,2072.2354],[36.2526,37.7893,1998.7832],[36.274,37.7822,1498.9204],[36.2899,37.7797,1606.8479],[36.3236,37.7792,1559.8229],[36.3559,37.7807,1491.4846],[36.3369,37.8011,1867.6884],[36.3209,37.8268,1839.1624],[36.3181,37.8384,1740.2289],[36.3152,37.8856,1493.6228],[36.3204,37.9036,1743.6173],[36.3296,37.92,1534.0568],[36.3321,37.9287,1681.4353],[36.3331,37.9816,1723.0317],[36.3354,37.9967,1769.8823],[36.3446,38.0133,1869.9204],[36.3517,38.0343,1895.2917],[36.36,38.0482,2144.0371],[36.3656,38.0667,2280.1748],[36.3733,38.0822,2259.0476],[36.374,38.088,2469.8311],[36.3353,38.1018,2164.0532],[36.3246,38.1043,2184.5923],[36.2423,38.1056,1574.8778],[36.2145,38.1028,1491.6436],[36.1699,38.0854,1467.6147],[36.1591,38.0827,1488.4548],[36.1313,38.0813,1828.0857],[36.1146,38.084,2215.4363],[36.1077,38.0891,1793.257],[36.0971,38.1039,1570.4727],[36.0898,38.1276,1490.54],[36.0606,38.1744,1610.8921],[36.0493,38.186,1615.4818],[36.0271,38.2031,1970.5011],[36.0134,38.1856,2139.7861],[36.0048,38.1796,2199.8716],[35.9747,38.1725,1897.1077],[35.9441,38.1617,1637.4989],[35.9192,38.1507,1803.8789],[35.9085,38.1439,1606.2266],[35.8873,38.1371,1890.3816],[35.8636,38.1206,2251.145],[35.8446,38.1149,2187.9829],[35.8337,38.1089,2077.4424],[35.8228,38.1056,2252.8433],[35.8259,38.095,2286.5518],[35.8402,38.0715,2256.4543],[35.8484,38.0626,2224.0396],[35.8635,38.0502,2310.4878],[35.893,38.0291,1627.4396],[35.9143,38.0204,1191.2349],[35.9411,38.0044,1224.5231],[35.9652,37.9941,1161.3672],[36.0071,37.9627,1536.6686],[36.0264,37.9462,1126.1622],[36.0731,37.874,877.4613],[36.0807,37.8503,1119.5999],[36.095,37.8268,1196.6359],[36.1117,37.8013,1454.6615],[36.1266,37.7832,1448.519]]]]}}