{"type":"Feature","properties":{"GID_2":"TUR.1.1_1","GID_0":"TUR","country":"Turkey","GID_1":"TUR.1_1","province":"Adana","NL_NAME_1":"NA","county":"Aladağ","VARNAME_2":"NA","NL_NAME_2":"NA","TYPE_2":"District","ENGTYPE_2":"District","CC_2":"NA","HASC_2":"TR.AA.AL","name":"Aladağ.county"},
"geometry":{"type": "MultiPolygon","coordinates": [[[[35.5897,37.9459,2052.8005],[35.5569,37.9411,1444.7446],[35.5319,37.9332,1105.802],[35.4973,37.9292,1051.958],[35.4721,37.9212,1174.1171],[35.4372,37.9196,1943.1982],[35.4182,37.9221,1828.9683],[35.3968,37.9293,1831.0875],[35.3621,37.9333,1982.7996],[35.3368,37.941,2273.2031],[35.302,37.9448,2497.6453],[35.2658,37.9592,2385.3657],[35.2417,37.9536,2569.0015],[35.2303,37.948,2746.1704],[35.224,37.9421,2708.249],[35.2094,37.919,3171.1843],[35.2076,37.9133,2996.4316],[35.2061,37.8892,3173.4409],[35.2077,37.8711,3113.4104],[35.2092,37.8654,2973.5891],[35.2178,37.8494,2989.9219],[35.2184,37.8416,3189.6289],[35.2137,37.8321,3427.9075],[35.1981,37.8141,3112.9802],[35.2135,37.7976,3399.9797],[35.2193,37.7881,2945.7195],[35.2232,37.7516,2852.252],[35.2333,37.7326,2193.6831],[35.2357,37.7245,2083.2068],[35.2363,37.7132,2077.531],[35.2344,37.7021,1739.996],[35.2249,37.6858,1591.5646],[35.218,37.6647,2039.7957],[35.1881,37.6181,1503.0298],[35.1658,37.5953,1556.7584],[35.1539,37.5785,1298.3792],[35.1356,37.5605,1300.4701],[35.1114,37.5227,1099.0828],[35.0923,37.4999,1483.8187],[35.1202,37.4907,1180.4546],[35.1711,37.4874,809.8343],[35.2249,37.4681,726.1752],[35.235,37.4687,831.3229],[35.2521,37.475,1073.6233],[35.2659,37.4774,1160.3079],[35.2831,37.477,1344.8933],[35.292,37.474,1334.3167],[35.319,37.4464,903.9479],[35.3303,37.4293,886.4875],[35.3392,37.4204,942.0879],[35.3604,37.4045,849.1409],[35.3871,37.3926,637.541],[35.396,37.3852,525.9427],[35.4002,37.3749,516.2203],[35.4019,37.344,288.0712],[35.4072,37.3337,251.6297],[35.4139,37.3271,256.7703],[35.4395,37.3067,117.0],[35.4538,37.2973,147.2427],[35.4621,37.2937,188.5263],[35.4885,37.2899,243.1457],[35.4908,37.3121,117.0],[35.4903,37.3366,221.6385],[35.4873,37.3481,199.8703],[35.477,37.3671,158.9082],[35.4757,37.3811,208.7855],[35.4776,37.3922,270.0665],[35.533,37.4781,339.336],[35.5357,37.4897,554.3247],[35.5369,37.5259,677.1025],[35.5405,37.5369,768.4943],[35.5559,37.5602,937.1719],[35.5785,37.5829,904.5787],[35.6068,37.6267,485.5958],[35.6086,37.6343,662.5847],[35.6076,37.6395,761.2857],[35.5998,37.6528,867.296],[35.5967,37.6635,878.9255],[35.5967,37.6775,1196.7195],[35.5995,37.6855,1193.2714],[35.6102,37.6952,1264.8594],[35.628,37.7023,1276.1624],[35.6417,37.7099,1177.4707],[35.6314,37.7203,1313.6152],[35.6159,37.7435,1176.7437],[35.556,37.8365,1506.426],[35.5529,37.8443,1472.981],[35.5518,37.8555,1599.1643],[35.5531,37.8667,1585.9839],[35.5643,37.8884,1483.2505],[35.5694,37.9159,1649.21],[35.5897,37.9459,2052.8005]]]]}}