{"type": "Feature","bbox": [35.257,40.6152,35.6657,41.0436],"geometry": {"type": "MultiPolygon","coordinates": [[[[35.257,40.6661,998.6452],[35.2726,40.6578,929.9774],[35.3042,40.6466,1026.1913],[35.3464,40.6412,923.6914],[35.3943,40.6231,1270.0703],[35.4277,40.6152,1090.5919],[35.4399,40.643,1022.7336],[35.4459,40.649,1004.6065],[35.4541,40.6529,1038.9208],[35.4643,40.6536,1048.3079],[35.4911,40.6451,886.8812],[35.5093,40.6434,796.1779],[35.5349,40.6442,724.2812],[35.5505,40.6499,696.7717],[35.5642,40.6615,798.5988],[35.5726,40.6736,878.3181],[35.5757,40.6866,917.6592],[35.5866,40.7087,600.9196],[35.5909,40.7446,455.9247],[35.5958,40.7525,456.7484],[35.6149,40.7729,451.7117],[35.6182,40.7842,458.5017],[35.6186,40.8263,487.5777],[35.6208,40.8379,493.1722],[35.6255,40.8456,499.6278],[35.6436,40.8636,632.4619],[35.6657,40.8946,760.9091],[35.661,40.9105,613.5909],[35.6536,40.9193,710.4813],[35.6439,40.9268,686.6547],[35.6145,40.9399,706.0022],[35.5783,40.9648,959.5302],[35.5572,40.9734,967.3159],[35.5333,40.988,986.168],[35.5122,40.9966,1077.9701],[35.4854,41.0123,1045.7388],[35.4752,41.0152,992.2792],[35.4137,41.0183,1521.4617],[35.3886,41.026,1451.9],[35.3539,41.03,1382.7555],[35.329,41.038,1470.0793],[35.2968,41.0436,1458.8879],[35.3081,41.0152,1502.9917],[35.3754,40.9108,1353.1338],[35.3787,40.893,1162.3997],[35.3789,40.8345,619.8901],[35.3771,40.8263,603.6792],[35.3739,40.8215,632.1526],[35.3561,40.8122,649.1737],[35.3397,40.8077,675.0815],[35.3046,40.8069,725.0295],[35.2895,40.8048,703.8449],[35.2741,40.7968,737.3461],[35.2625,40.7855,750.1645],[35.2588,40.7774,764.241],[35.2575,40.7658,804.7689],[35.257,40.6661,998.6452]]]]}
,"properties": {"GID_2": "TUR.6.5_1","GID_0": "TUR","country": "Turkey","GID_1": "TUR.6_1","province": "Amasya","NL_NAME_1": "NA","county": "Merzifon","VARNAME_2": "NA","NL_NAME_2": "NA","TYPE_2": "District","ENGTYPE_2": "District","CC_2": "NA","HASC_2": "TR.AM.ME","name": "Merzifon.county","area_km2": 1012.1273,"hist_schema_id": "Elevation0-9000","hist_area_km2": {"450": 7.2584,"475": 19.3826,"500": 41.4397,"525": 48.7789,"550": 56.3302,"575": 52.1366,"600": 44.1425,"625": 36.4576,"650": 31.5653,"675": 28.3891,"700": 27.4108,"725": 31.296,"750": 32.8544,"775": 29.6161,"800": 30.2375,"825": 30.8988,"850": 25.9175,"875": 24.2012,"900": 23.5257,"925": 26.064,"950": 26.9948,"975": 24.7928,"1000": 22.8777,"1025": 21.3794,"1050": 19.0828,"1075": 18.6175,"1100": 17.7368,"1125": 16.321,"1150": 14.6515,"1175": 14.6353,"1200": 10.0087,"1225": 8.8508,"1250": 8.0946,"1275": 7.9965,"1300": 7.4674,"1325": 6.969,"1350": 6.9989,"1375": 7.2027,"1400": 8.4985,"1425": 8.2583,"1450": 8.6743,"1475": 9.6665,"1500": 9.9387,"1525": 8.9469,"1550": 8.0349,"1575": 8.5156,"1600": 7.6833,"1625": 6.3393,"1650": 4.899,"1675": 3.7144,"1700": 3.0422,"1725": 2.3539,"1750": 1.7934,"1775": 1.217,"1800": 0.6405,"1825": 0.5765,"1850": 0.3843,"1875": 0.3042,"1900": 0.0641}}}