{"type":"Feature","properties":{"GID_2":"TUR.30.5_1","GID_0":"TUR","country":"Turkey","GID_1":"TUR.30_1","province":"Erzincan","NL_NAME_1":"NA","county":"Merkez","VARNAME_2":"Erzincan","NL_NAME_2":"NA","TYPE_2":"District","ENGTYPE_2":"District","CC_2":"NA","HASC_2":"TR.EN.EN","name":"Merkez.county"},
"geometry":{"type": "MultiPolygon","coordinates": [[[[39.5727,39.8831,2433.1001],[39.5434,39.8843,2515.5847],[39.5176,39.8834,2343.5686],[39.5073,39.8815,2305.8496],[39.4862,39.8741,2273.5618],[39.4719,39.8725,2450.2429],[39.4498,39.8724,2205.637],[39.432,39.8748,2046.4974],[39.4143,39.8813,2102.3269],[39.3841,39.8877,2154.5503],[39.2701,39.9319,2214.4292],[39.2345,39.9519,2352.8806],[39.1889,39.9696,2416.3887],[39.1596,39.987,2547.2759],[39.1294,39.9983,2498.199],[39.1157,40.0008,2545.9297],[39.1085,39.9935,2539.3145],[39.1022,39.982,2214.6675],[39.1001,39.9594,2420.3105],[39.1004,39.8831,2196.2603],[39.0976,39.8556,2093.1748],[39.1026,39.8444,2181.8838],[39.1071,39.8415,2178.5647],[39.1129,39.8407,2241.5447],[39.1418,39.8486,2146.2583],[39.1788,39.8501,2516.0547],[39.1889,39.8484,2594.1333],[39.1943,39.8457,2604.8115],[39.1995,39.8398,2483.3794],[39.1995,39.8346,2373.738],[39.1943,39.8281,2279.4141],[39.1807,39.8194,2263.0291],[39.1565,39.8101,2174.0962],[39.1501,39.8044,2304.7007],[39.1477,39.7995,2218.9478],[39.1492,39.7892,2257.1541],[39.1815,39.7416,2614.4973],[39.1919,39.7354,2595.9922],[39.2188,39.7303,2406.137],[39.2522,39.7179,2323.4285],[39.2691,39.7068,2196.9307],[39.3089,39.6754,1966.4839],[39.3234,39.6668,1451.9929],[39.3335,39.664,1526.9275],[39.3656,39.6612,1211.3452],[39.3869,39.6544,1412.6442],[39.4106,39.6505,1703.9805],[39.4195,39.6468,2029.1307],[39.4278,39.6387,1812.4092],[39.4301,39.6307,1687.0415],[39.4287,39.6199,1591.7839],[39.4189,39.6036,2002.5278],[39.4163,39.5951,2303.1316],[39.4137,39.5303,2592.0742],[39.4102,39.5214,2608.4221],[39.3929,39.4908,2584.3584],[39.4358,39.487,2692.5024],[39.4653,39.4785,1930.661],[39.4944,39.4763,2664.9019],[39.5368,39.4774,2387.6504],[39.5488,39.4797,2351.1169],[39.5738,39.4878,2841.7209],[39.596,39.488,2708.3745],[39.6053,39.4841,2502.3047],[39.6088,39.4792,2587.1965],[39.6109,39.4535,2979.5884],[39.613,39.4482,2927.9563],[39.618,39.444,2725.2253],[39.6283,39.4413,2653.4902],[39.64,39.4407,2599.2593],[39.6856,39.4432,1817.0839],[39.7069,39.4595,2093.5688],[39.7199,39.4779,2210.8608],[39.7286,39.4866,2366.8875],[39.7706,39.5182,2257.2898],[39.8068,39.5323,2125.0691],[39.8341,39.5372,1981.7805],[39.8552,39.5447,2057.9087],[39.8859,39.5499,1716.0938],[39.8729,39.5636,1542.5299],[39.8552,39.5764,1457.4595],[39.8017,39.598,1454.6548],[39.7952,39.6036,1389.9976],[39.7858,39.6176,1173.3423],[39.774,39.6294,1167.5792],[39.7574,39.6423,1161.3306],[39.7445,39.6487,1160.4288],[39.7172,39.6516,1157.274],[39.6165,39.6504,1149.5503],[39.606,39.6518,1149.1372],[39.5977,39.6566,1149.488],[39.5953,39.6613,1149.0453],[39.5942,39.6691,1147.7344],[39.5951,39.6772,1148.4548],[39.5981,39.6852,1146.8785],[39.6069,39.695,1146.6663],[39.636,39.7194,1166.5295],[39.6528,39.7452,1674.1178],[39.6556,39.7562,2151.1541],[39.6565,39.7825,2587.8062],[39.6184,39.7972,2780.0391],[39.5978,39.8118,2332.8682],[39.5867,39.8221,2219.3013],[39.5827,39.8292,2384.3782],[39.5816,39.8389,2715.4653],[39.583,39.8459,2912.593],[39.5892,39.8585,2657.6958],[39.5891,39.8629,2605.6299],[39.5855,39.8692,2584.1753],[39.5727,39.8831,2433.1001]]]]}}