{"type": "Feature","bbox": [41.153,37.7505,41.7401,38.0784],"geometry": {"type": "MultiPolygon","coordinates": [[[[41.7009,37.7777,716.9011],[41.7197,37.7971,906.2559],[41.7379,37.8256,773.3407],[41.7401,37.8374,762.4656],[41.7393,37.8459,758.0801],[41.7368,37.8511,755.3662],[41.7316,37.8551,766.7111],[41.714,37.8577,997.5945],[41.5465,37.8566,679.0074],[41.5187,37.8585,803.3321],[41.4515,37.8837,798.7858],[41.4333,37.8951,769.7645],[41.4175,37.9081,775.325],[41.4121,37.9158,766.9016],[41.4112,37.9239,884.1632],[41.4141,37.9312,842.8894],[41.4259,37.9495,674.0502],[41.4433,37.9645,599.2177],[41.4701,37.9767,687.7851],[41.4773,37.9819,689.6864],[41.483,37.9915,650.3805],[41.4838,38.0083,693.632],[41.4813,38.0212,599.6221],[41.4537,38.0439,682.7035],[41.4378,38.0525,691.3439],[41.4144,38.0553,678.2699],[41.3166,38.0557,670.7435],[41.2802,38.0653,767.3801],[41.2339,38.0685,710.4015],[41.2124,38.0756,594.5676],[41.1989,38.0784,578.5732],[41.1943,38.0654,581.7664],[41.1568,38.0075,562.1747],[41.153,37.9916,555.4734],[41.176,37.9797,652.1981],[41.1919,37.9747,750.3573],[41.2284,37.9735,729.5276],[41.2428,37.9715,685.2577],[41.2555,37.9654,649.2342],[41.2693,37.9529,654.5397],[41.2708,37.9479,682.2078],[41.2699,37.9431,678.8282],[41.2665,37.9395,702.1335],[41.2507,37.93,811.9109],[41.2471,37.9258,922.9765],[41.2433,37.9152,928.4144],[41.2424,37.9009,788.2521],[41.2448,37.884,727.143],[41.2543,37.8716,702.9161],[41.2744,37.8588,694.5356],[41.3049,37.8481,740.0631],[41.3285,37.8438,817.7291],[41.3373,37.8401,859.4554],[41.344,37.8346,881.6692],[41.3575,37.8176,825.8536],[41.3891,37.8016,882.3572],[41.4222,37.7767,890.7952],[41.4346,37.7655,898.8495],[41.4466,37.7505,1043.7605],[41.5156,37.7529,707.9954],[41.5563,37.763,536.7037],[41.6248,37.7649,465.2825],[41.6356,37.768,480.4591],[41.6585,37.7813,618.6111],[41.6682,37.7843,665.241],[41.6782,37.7841,701.0132],[41.7009,37.7777,716.9011]]]]}
,"properties": {"GID_2": "TUR.14.1_1","GID_0": "TUR","country": "Turkey","GID_1": "TUR.14_1","province": "Batman","NL_NAME_1": "NA","county": "Beşiri","VARNAME_2": "NA","NL_NAME_2": "NA","TYPE_2": "District","ENGTYPE_2": "District","CC_2": "NA","HASC_2": "TR.BM.BE","name": "Beşiri.county","area_km2": 790.2268,"hist_schema_id": "Elevation0-9000","hist_area_km2": {"450": 0.0838,"475": 6.451,"500": 21.2712,"525": 29.0667,"550": 46.6323,"575": 65.3956,"600": 63.5188,"625": 68.9446,"650": 67.482,"675": 65.1251,"700": 59.3073,"725": 53.0589,"750": 46.3927,"775": 35.1987,"800": 28.3488,"825": 22.281,"850": 21.3479,"875": 19.4914,"900": 16.5462,"925": 12.9103,"950": 11.3506,"975": 7.903,"1000": 5.208,"1025": 2.7802,"1050": 1.6243,"1075": 1.3227,"1100": 1.4064,"1125": 1.3729,"1150": 1.1217,"1175": 1.3394,"1200": 1.1552,"1225": 1.1049,"1250": 0.904,"1275": 0.6529,"1300": 0.5692,"1325": 0.5859,"1350": 0.4687,"1375": 0.3013,"1400": 0.1339,"1425": 0.0502,"1450": 0.0167}}}