{"type": "Feature","bbox": [41.1565,38.5222,41.9516,39.0678],"geometry": {"type": "MultiPolygon","coordinates": [[[[41.5222,38.5419,2118.1565],[41.5342,38.5572,2012.5627],[41.5443,38.5666,1740.1089],[41.564,38.5814,1951.5953],[41.5768,38.5879,2255.4482],[41.6006,38.5925,2002.494],[41.6217,38.5995,2027.4037],[41.6327,38.6013,2225.5405],[41.7191,38.6018,1892.6814],[41.7033,38.6191,2126.2856],[41.6986,38.626,2012.3571],[41.6964,38.6341,1764.7856],[41.6975,38.6451,1619.0345],[41.7068,38.6613,1302.2466],[41.7153,38.6847,1266.5984],[41.7437,38.729,1279.342],[41.7619,38.7496,1306.364],[41.8067,38.7644,1491.4033],[41.811,38.7675,1539.1188],[41.8132,38.772,1584.2559],[41.8119,38.7789,1474.4561],[41.8043,38.7918,1439.4126],[41.7979,38.8219,1657.9507],[41.7876,38.8333,1640.8044],[41.7645,38.8516,1612.4377],[41.7573,38.8613,1617.4448],[41.7557,38.8724,1525.0032],[41.758,38.8806,1574.408],[41.7664,38.889,1525.2537],[41.7723,38.8918,1590.7668],[41.79,38.8937,1795.2072],[41.8001,38.8916,1850.1284],[41.8053,38.8886,1871.9062],[41.8099,38.8827,1854.6401],[41.81,38.8784,1796.2618],[41.8048,38.8674,1804.4712],[41.8054,38.8631,1916.0302],[41.8084,38.8593,1857.0059],[41.829,38.8491,1714.4175],[41.8477,38.842,1780.6442],[41.867,38.8303,1763.321],[41.8762,38.8279,1847.7166],[41.8881,38.8315,1947.8784],[41.9108,38.8492,1716.2069],[41.9191,38.8585,1709.2798],[41.9334,38.8821,1850.4504],[41.9386,38.9125,1720.7585],[41.9488,38.9339,1645.5338],[41.9414,38.9407,1600.693],[41.9401,38.948,1549.2511],[41.9503,38.9688,1486.7463],[41.9516,38.9856,1492.489],[41.9485,38.9965,1439.356],[41.9254,39.022,1432.5],[41.9228,39.03,1432.5],[41.9218,39.0441,1432.5],[41.9184,39.0497,1432.5],[41.9138,39.0529,1432.5],[41.9071,39.0549,1462.301],[41.8954,39.0561,1436.0809],[41.6693,39.0563,1626.7366],[41.6569,39.0578,1602.3955],[41.6313,39.0657,1572.2223],[41.6149,39.0674,1498.686],[41.4221,39.0678,1768.8348],[41.4014,39.0661,1917.9752],[41.3796,39.059,2004.1222],[41.3526,39.0536,2115.3357],[41.3347,39.0473,2277.8157],[41.3076,39.0418,2399.4131],[41.2745,39.0296,2408.3259],[41.2544,39.015,2036.9546],[41.2392,38.9944,1776.7239],[41.2076,38.9668,1704.7612],[41.194,38.9479,1756.5166],[41.1619,38.9207,1806.175],[41.1565,38.9104,1487.8881],[41.1565,38.8994,1618.8513],[41.1582,38.894,1718.514],[41.1669,38.8805,1491.2594],[41.1736,38.8594,1647.7034],[41.207,38.8081,1282.3483],[41.2344,38.785,1546.97],[41.2429,38.776,1657.2795],[41.2576,38.7526,1772.7855],[41.2663,38.7256,1769.5795],[41.2795,38.7055,1940.1045],[41.2954,38.6918,1863.592],[41.3278,38.6769,1936.178],[41.3648,38.6494,1739.2415],[41.378,38.6363,1778.1182],[41.3914,38.6154,1814.6702],[41.3946,38.6049,1895.5939],[41.3932,38.5939,1836.8057],[41.3833,38.5779,1467.9852],[41.3798,38.5642,1470.9559],[41.3814,38.5474,1517.7522],[41.3859,38.54,1830.7268],[41.3999,38.5286,1684.2585],[41.4169,38.5222,2059.3596],[41.4303,38.5309,2165.3354],[41.4602,38.5424,2143.0576],[41.4892,38.5441,2607.7285],[41.5222,38.5419,2118.1565]]]]}
,"properties": {"GID_2": "TUR.60.5_1","GID_0": "TUR","country": "Turkey","GID_1": "TUR.60_1","province": "Mus","NL_NAME_1": "NA","county": "Merkez","VARNAME_2": "Muş","NL_NAME_2": "NA","TYPE_2": "District","ENGTYPE_2": "District","CC_2": "NA","HASC_2": "TR.MS.MS","name": "Merkez.county","area_km2": 2679.304,"hist_schema_id": "Elevation0-9000","hist_area_km2": {"1225": 16.167,"1250": 278.219,"1275": 267.854,"1300": 128.759,"1325": 108.565,"1350": 86.394,"1375": 74.19,"1400": 61.806,"1425": 83.49,"1450": 73.639,"1475": 75.448,"1500": 64.924,"1525": 61.995,"1550": 60.648,"1575": 59.384,"1600": 58.978,"1625": 57.003,"1650": 57.152,"1675": 59.76,"1700": 60.27,"1725": 62.172,"1750": 59.691,"1775": 58.864,"1800": 54.798,"1825": 51.173,"1850": 47.327,"1875": 44.477,"1900": 45.664,"1925": 45.656,"1950": 40.217,"1975": 38.055,"2000": 33.796,"2025": 29.162,"2050": 27.3,"2075": 25.969,"2100": 24.056,"2125": 22.297,"2150": 21.595,"2175": 21.609,"2200": 21.008,"2225": 15.039,"2250": 11.797,"2275": 9.793,"2300": 9.365,"2325": 7.926,"2350": 7.892,"2375": 6.303,"2400": 6.335,"2425": 5.196,"2450": 4.6,"2475": 4.485,"2500": 4.154,"2525": 3.692,"2550": 3.378,"2575": 3.295,"2600": 2.186,"2625": 1.474,"2650": 0.927,"2675": 0.844,"2700": 0.629,"2725": 0.43,"2750": 0.033}}}