{"type": "Feature","bbox": [29.0068,41.011,29.0853,41.086],"geometry": {"type": "MultiPolygon","coordinates": [[[[29.0778,41.023,150.3558],[29.074,41.029,209.6661],[29.0746,41.0398,132.3488],[29.0764,41.047,108.3114],[29.0848,41.0542,53.4577],[29.0853,41.0614,24.8314],[29.08,41.0757,30.2893],[29.0665,41.086,0.0],[29.064,41.0776,0.0],[29.0546,41.0735,4.9208],[29.0574,41.069,6.375],[29.0518,41.0618,0.0],[29.0529,41.0579,7.4862],[29.0513,41.0557,0.0],[29.0515,41.0482,0.9959],[29.0307,41.0388,0.0],[29.0226,41.0326,0.0],[29.0088,41.026,0.0],[29.0068,41.0213,0.0],[29.0082,41.0168,0.0],[29.0101,41.016,11.5138],[29.0093,41.0134,0.0],[29.0302,41.0284,78.0132],[29.035,41.029,63.4305],[29.0524,41.0164,117.076],[29.062,41.011,100.9756],[29.0656,41.011,138.35059999999999],[29.0656,41.0182,212.4151],[29.0692,41.0218,174.7524],[29.0778,41.023,150.3558]]]]}
,"properties": {"GID_2": "TUR.40.37_1","GID_0": "TUR","country": "Turkey","GID_1": "TUR.40_1","province": "Istanbul","NL_NAME_1": "NA","county": "Üsküdar","VARNAME_2": "NA","NL_NAME_2": "NA","TYPE_2": "District","ENGTYPE_2": "District","CC_2": "NA","HASC_2": "TR.IB.US","name": "Üsküdar.county","area_km2": 21.29983,"hist_schema_id": "Elevation0-9000","hist_area_km2": {"0": 2.12646,"25": 3.00612,"50": 2.86229,"75": 3.07003,"100": 4.66929,"125": 2.35071,"150": 1.02364,"175": 0.9277,"200": 0.6398,"225": 0.44785,"250": 0.17594}}}