{"type":"Feature","properties":{"GID_2":"TUR.34.6_1","GID_0":"TUR","country":"Turkey","GID_1":"TUR.34_1","province":"Giresun","NL_NAME_1":"NA","county":"Doğankent","VARNAME_2":"NA","NL_NAME_2":"NA","TYPE_2":"District","ENGTYPE_2":"District","CC_2":"NA","HASC_2":"TR.GI.DO","name":"Doğankent.county"},
"geometry":{"type": "MultiPolygon","coordinates": [[[[38.8923,40.8159,948.6351],[38.8772,40.8043,1185.2872],[38.8808,40.7938,1156.0364],[38.8906,40.7747,1067.8911],[38.8941,40.7266,1621.1533],[38.9094,40.7001,1763.1327],[38.922,40.6832,1844.8497],[38.933,40.6957,1760.2668],[38.9522,40.7113,1869.1882],[38.9654,40.7194,1523.3337],[38.9893,40.7291,569.3578],[39.0265,40.7576,1018.0074],[39.0095,40.7712,1303.8822],[38.9962,40.7789,1006.4323],[38.909,40.8124,250.6819],[38.8923,40.8159,948.6351]]]]}}