{"type":"Feature","properties":{"GID_2":"TUR.21.5_1","GID_0":"TUR","country":"Turkey","GID_1":"TUR.21_1","province":"Bursa","NL_NAME_1":"NA","county":"İnegöl","VARNAME_2":"NA","NL_NAME_2":"NA","TYPE_2":"District","ENGTYPE_2":"District","CC_2":"NA","HASC_2":"TR.BU.IN","name":"İnegöl.county"},
"geometry":{"type": "MultiPolygon","coordinates": [[[[29.7893,39.9677,1121.0708],[29.7612,39.9749,998.4006],[29.7465,39.9831,1034.5742],[29.7333,39.9931,871.4149],[29.7176,40.0087,743.0786],[29.6886,40.055,559.5547],[29.688,40.0628,533.8262],[29.6984,40.084,876.0781],[29.7003,40.101,882.4934],[29.7039,40.1114,754.3483],[29.7128,40.1279,675.8066],[29.7142,40.1478,657.0106],[29.6388,40.1473,527.036],[29.6152,40.1491,549.9913],[29.5814,40.1614,461.8983],[29.5522,40.1788,269.6311],[29.5189,40.1918,293.68],[29.4951,40.1963,240.2605],[29.4667,40.2048,232.4356],[29.3975,40.2073,388.3478],[29.3801,40.1813,589.9299],[29.3602,40.1607,542.5204],[29.3517,40.137,500.5743],[29.3384,40.1175,797.3571],[29.3207,40.1044,1310.2794],[29.3098,40.1012,1490.0266],[29.3095,40.0792,2016.562],[29.3067,40.0672,2086.5979],[29.2929,40.0471,1948.4436],[29.282,40.0374,2338.0918],[29.2813,40.0287,1903.6833],[29.283,40.0207,1801.8364],[29.2969,39.9972,1590.7067],[29.314,39.9719,1658.9419],[29.3347,39.951,1692.8097],[29.3456,39.9346,1348.6066],[29.3569,39.9247,1272.9304],[29.3676,39.9181,1491.613],[29.4068,39.9065,1686.6765],[29.4162,39.9127,1695.0316],[29.4392,39.9221,1615.7664],[29.4521,39.9246,1401.3099],[29.4649,39.9221,1390.4045],[29.5327,39.8949,1415.2175],[29.5471,39.892,1290.2084],[29.6272,39.892,1474.701],[29.6385,39.8939,1525.3347],[29.6562,39.9005,1159.5134],[29.677,39.9055,1115.7595],[29.7045,39.9031,1138.1975],[29.7609,39.9033,1148.5552],[29.7678,39.905,1102.5983],[29.7752,39.9101,943.4684],[29.786,39.9242,875.2929],[29.7886,39.9301,986.6835],[29.7903,39.9427,1102.7642],[29.7893,39.9677,1121.0708]]]]}}