{"type":"Feature","properties":{"GID_1":"TUR.69_1","GID_0":"TUR","country":"Turkey","province":"Siirt","VARNAME_1":"NA","NL_NAME_1":"NA","TYPE_1":"Il","ENGTYPE_1":"Province","CC_1":"NA","HASC_1":"TR.SI","ISO_1":"TR-56","name":"Siirt.province"},
"geometry":{"type": "MultiPolygon","coordinates": [[[[41.8704,37.7568,929.9767],[41.8728,37.7517,761.5668],[41.8739,37.7402,1127.9463],[41.8889,37.7286,1157.7228],[41.8991,37.7267,1279.7538],[41.9109,37.7218,1259.25],[41.9339,37.7053,939.8367],[42.0206,37.6824,1007.0192],[42.0458,37.683,1188.4742],[42.0737,37.6918,1556.6011],[42.0915,37.6934,1459.521],[42.1093,37.6919,1427.9735],[42.1342,37.684,1463.4474],[42.1591,37.6818,1688.3259],[42.1622,37.6876,1924.0618],[42.1665,37.6908,2071.3572],[42.1798,37.6936,2135.7773],[42.3118,37.6937,1695.0372],[42.3264,37.6972,1954.3474],[42.3528,37.7125,1638.0261],[42.3744,37.7218,1308.2581],[42.4105,37.7482,1558.3425],[42.4268,37.7641,1870.2188],[42.4345,37.776,2019.5533],[42.4548,37.7968,2210.5449],[42.4688,37.8161,2468.1831],[42.4935,37.8357,1883.3505],[42.5059,37.8425,1653.0226],[42.5931,37.8761,1957.532],[42.6034,37.8785,1992.2429],[42.6615,37.8797,2065.4319],[42.6803,37.8778,2040.3684],[42.6933,37.8724,2124.8916],[42.7134,37.86,1851.3976],[42.7318,37.8521,1532.1448],[42.7549,37.838,1563.9573],[42.7649,37.8343,1584.1901],[42.7835,37.8325,1875.9814],[42.8682,37.832,2637.4412],[42.879,37.8301,2634.0813],[42.9001,37.823,2583.9385],[42.9392,37.8186,2539.262],[42.9636,37.8105,2509.3181],[42.9853,37.8093,2503.145],[42.9854,37.8402,2309.7219],[42.9886,37.8549,2067.9116],[43.0119,37.8919,1475.8408],[43.0204,37.9152,2155.2722],[43.0391,37.9368,2784.0198],[43.0199,37.9592,1740.9889],[43.0053,37.9826,1646.7034],[42.9976,38.0062,2449.8196],[42.9836,38.0298,2842.219],[42.9698,38.0433,2851.4766],[42.9546,38.0515,2981.8616],[42.9358,38.054,2774.667],[42.8931,38.0547,2638.8372],[42.8821,38.0565,2947.3945],[42.8609,38.0635,2672.3726],[42.8357,38.0655,2169.3257],[42.8223,38.0575,1955.7184],[42.8012,38.0489,2410.5352],[42.7624,38.022,1974.3051],[42.7391,38.0135,1635.0916],[42.7276,38.0125,1353.2258],[42.702,38.0268,2391.8813],[42.6839,38.0342,2709.1016],[42.6543,38.0519,1935.3303],[42.6242,38.0633,1614.3472],[42.5937,38.0692,2040.233],[42.5403,38.0901,1566.6559],[42.512,38.1024,1951.8296],[42.4981,38.11,1571.5953],[42.4678,38.1149,1711.9683],[42.4497,38.1224,1468.416],[42.4077,38.1263,1359.5801],[42.3929,38.1332,1120.5345],[42.3717,38.1384,1175.9066],[42.3291,38.1618,2126.5798],[42.3135,38.1734,2315.6619],[42.2982,38.1878,2172.9407],[42.264,38.2031,1825.5537],[42.2402,38.2078,2184.415],[42.2191,38.215,1844.217],[42.1883,38.2177,1911.7319],[42.1688,38.2164,2058.4114],[42.1406,38.2079,1840.6892],[42.1109,38.2052,1876.8524],[42.0952,38.2008,1803.9934],[42.0632,38.1777,1990.2507],[42.0485,38.1652,1533.2249],[42.0427,38.1584,1381.6367],[42.0259,38.1295,1177.4282],[41.9884,38.1524,999.1238],[41.979,38.1563,790.4134],[41.9655,38.1564,1151.8911],[41.9383,38.1485,1224.6895],[41.9166,38.1483,1273.0179],[41.9061,38.1501,1299.3708],[41.8848,38.1574,1327.2644],[41.8347,38.1612,849.4788],[41.81,38.1692,734.3217],[41.7649,38.1773,1074.6189],[41.7196,38.1927,936.6858],[41.6749,38.1952,915.0513],[41.6668,38.1792,1008.4264],[41.662,38.1516,917.6825],[41.6521,38.1325,828.7628],[41.6461,38.1024,1150.0],[41.6221,38.0655,1019.4398],[41.6067,38.0385,931.4594],[41.5506,38.0209,700.7964],[41.5233,38.0196,680.1438],[41.4813,38.0212,599.6221],[41.4842,37.9998,640.8536],[41.4808,37.9862,661.5475],[41.4701,37.9767,687.7851],[41.4522,37.9695,698.9357],[41.4325,37.9564,649.0156],[41.4259,37.9495,674.0502],[41.4118,37.9265,867.3964],[41.4121,37.9158,766.9016],[41.4175,37.9081,775.325],[41.4421,37.889,823.3863],[41.4579,37.8811,846.58],[41.5187,37.8585,803.3321],[41.5465,37.8566,679.0074],[41.714,37.8577,997.5945],[41.7316,37.8551,766.7111],[41.7368,37.8511,755.3662],[41.7393,37.8459,758.0801],[41.7401,37.8374,762.4656],[41.7379,37.8256,773.3407],[41.7197,37.7971,906.2559],[41.7009,37.7777,716.9011],[41.7514,37.744,493.1609],[41.758,37.7423,477.4951],[41.7683,37.7427,480.9395],[41.7886,37.7498,502.5365],[41.8125,37.7543,619.1444],[41.839,37.7642,789.2418],[41.863,37.7618,1082.6335],[41.8704,37.7568,929.9767]]]]}}