{"type": "Feature","id": "3043","bbox": [41.41311,37.62597,43.02934,38.22715],"geometry": {"type": "Polygon","coordinates": [[[42.66854,37.9442,1809.9906],[42.60043,37.98254,962.2162],[42.49935,38.02778,1595.105],[42.43775,38.06432,2383.5122],[42.39279,38.07881,1708.2625],[42.32293,38.09341,1546.5725],[42.25089,38.11669,2331.0125],[42.18609,38.15545,1716.6165],[42.12759,38.20245,1849.0577],[42.0602,38.22715,1237.6757],[41.97442,38.20123,1104.275],[41.88822,38.18325,1432.3191],[41.77991,38.19033,1395.2529],[41.67728,38.22136,1198.3123],[41.63222,38.17974,901.7384],[41.61155,38.12602,1073.4091],[41.56194,38.08057,753.8137],[41.44618,38.05577,671.5958],[41.41311,38.01029,585.5996],[41.42138,37.94417,709.7257],[41.52887,37.86565,839.9831],[41.71066,37.8078,853.7521],[41.81691,37.71382,425.75],[41.95871,37.65902,903.2876],[42.15704,37.64664,1188.4199],[42.23539,37.70855,1741.6934],[42.36757,37.70442,1597.0311],[42.56973,37.663,1225.9399],[42.78109,37.63837,1683.6718],[42.95048,37.62597,2525.0513],[43.01188,37.67538,2117.074],[43.02335,37.73165,2405.7761],[42.98345,37.806399999999996,2470.6575],[42.99358,37.83438,2505.1804],[43.00805,37.85821,2083.71],[43.01146,37.91668,1973.38],[43.0248,37.95717,1884.4741],[43.02934,37.99939,1934.585],[43.02273,38.04037,1947.395],[43.02583,38.08091,2617.6938],[43.01632,38.15178,2404.8445],[42.94552,38.17333,3145.8701],[42.86501,38.18527,2864.6914],[42.78688,38.18113,2030.7112],[42.75856,38.11462,1987.6733],[42.74616,38.10341,1923.5538],[42.73572,38.09018,2173.8772],[42.73582,38.05907,2201.1929],[42.74089,38.02851,1442.2773],[42.73706,37.98238,2331.2104],[42.70657,37.94606,1676.902],[42.66854,37.9442,1809.9906]]]}
,"properties": {"ISO3166-1-Alpha-3": "TUR","country": "Turkey","fill": "#F00","name": "Siirt","area_km2": 6461.579,"hist_schema_id": "Elevation0-9000","hist_area_km2": {"425": 0.402,"450": 9.752,"475": 13.232,"500": 23.563,"525": 36.227,"550": 41.852,"575": 68.359,"600": 69.858,"625": 83.895,"650": 88.63,"675": 106.978,"700": 131.782,"725": 143.184,"750": 143.777,"775": 137.986,"800": 129.29,"825": 125.462,"850": 126.15,"875": 124.933,"900": 117.339,"925": 114.641,"950": 111.329,"975": 101.467,"1000": 95.781,"1025": 91.904,"1050": 84.247,"1075": 80.961,"1100": 74.69,"1125": 74.564,"1150": 73.798,"1175": 74.143,"1200": 70.918,"1225": 72.174,"1250": 71.443,"1275": 74.099,"1300": 78.636,"1325": 75.581,"1350": 77.93,"1375": 79.073,"1400": 79.586,"1425": 79.924,"1450": 85.669,"1475": 87.498,"1500": 85.929,"1525": 84.597,"1550": 82.14,"1575": 83.003,"1600": 85.413,"1625": 92.142,"1650": 95.819,"1675": 93.081,"1700": 91.085,"1725": 87.02,"1750": 80.33,"1775": 74.477,"1800": 66.918,"1825": 63.475,"1850": 59.892,"1875": 59.355,"1900": 61.252,"1925": 61.323,"1950": 59.449,"1975": 59.834,"2000": 59.452,"2025": 58.583,"2050": 57.996,"2075": 54.902,"2100": 55.741,"2125": 56.514,"2150": 53.481,"2175": 46.044,"2200": 43.293,"2225": 39.357,"2250": 36.828,"2275": 36.109,"2300": 34.617,"2325": 32.542,"2350": 31.87,"2375": 30.732,"2400": 29.935,"2425": 30.236,"2450": 28.411,"2475": 29.396,"2500": 25.879,"2525": 25.257,"2550": 25.326,"2575": 25.539,"2600": 24.305,"2625": 22.682,"2650": 22.715,"2675": 23.669,"2700": 21.878,"2725": 20.47,"2750": 19.851,"2775": 18.228,"2800": 15.849,"2825": 13.671,"2850": 11.378,"2875": 11.074,"2900": 10.803,"2925": 10.5,"2950": 9.746,"2975": 9.028,"3000": 9.278,"3025": 9.211,"3050": 7.793,"3075": 7.559,"3100": 7.175,"3125": 6.824,"3150": 6.256,"3175": 5.105,"3200": 4.855,"3225": 4.221,"3250": 3.67,"3275": 2.853,"3300": 2.553,"3325": 2.453,"3350": 2.053,"3375": 1.469,"3400": 1.168,"3425": 0.951,"3450": 1.035,"3475": 0.651,"3500": 0.634,"3525": 0.467,"3550": 0.134,"3575": 0.05}}}