{"type":"Feature","properties":{"GID_2":"TUR.41.10_1","GID_0":"TUR","country":"Turkey","GID_1":"TUR.41_1","province":"Izmir","NL_NAME_1":"NA","county":"Dikili","VARNAME_2":"NA","NL_NAME_2":"NA","TYPE_2":"District","ENGTYPE_2":"District","CC_2":"NA","HASC_2":"TR.IZ.DI","name":"Dikili.county"},
"geometry":{"type": "MultiPolygon","coordinates": [[[[26.8046,38.9374,0.0],[26.8035,38.9376,0.0],[26.8035,38.9357,0.4966],[26.8049,38.9338,0.0],[26.8065,38.934,2.5818],[26.8065,38.9351,2.5818],[26.8046,38.9374,0.0]]],
[[[26.7993,39.011,0.0],[26.7968,39.0113,0.0],[26.7929,39.0085,6.9822],[26.7935,39.0051,3.4614],[26.791,39.0004,19.1193],[26.7924,38.9962,0.0],[26.7949,38.9957,0.0],[26.7968,38.9979,18.6837],[26.7954,39.0015,3.7398],[26.7993,39.011,0.0]]],
[[[26.7876,39.0118,3.4662],[26.7821,39.0113,0.7126],[26.7804,39.0088,0.0],[26.7835,39.0074,13.2318],[26.784,39.0001,0.0],[26.7868,39.0021,0.0],[26.7885,39.006,7.8316],[26.7876,39.0118,3.4662]]],
[[[26.8343,38.9085,0.0],[26.8326,38.9087,1.1545],[26.8326,38.9043,24.7736],[26.8363,38.9012,3.223],[26.839,38.901,1.8432],[26.8393,38.904,2.8427],[26.8343,38.9085,0.0]]],
[[[26.8121,38.9271,0.0],[26.8071,38.9271,0.0],[26.8068,38.9235,0.0],[26.8118,38.9226,0.0],[26.8107,38.9193,0.0],[26.8063,38.9171,0.0],[26.811,38.9138,0.0],[26.8146,38.9149,0.0],[26.8179,38.9113,2.5225],[26.8224,38.911,3.0488],[26.8218,38.914,12.8279],[26.8265,38.9165,0.0],[26.8257,38.9229,1.1578],[26.8163,38.9224,0.0],[26.8121,38.9271,0.0]]],
[[[26.7678,39.1724,1.3126],[26.7646,39.1732,0.2899],[26.7679,39.166,0.3095],[26.791,39.1629,0.4083],[26.8068,39.1587,0.0],[26.8174,39.154,0.2704],[26.8249,39.1476,0.566],[26.8357,39.1421,1.4651],[26.8504,39.1282,0.0],[26.8546,39.119,1.7519],[26.8596,39.1151,0.4538],[26.8626,39.1149,2.5758],[26.864,39.1118,0.0],[26.8676,39.1121,2.8172],[26.8668,39.1104,0.0],[26.8685,39.1071,0.4652],[26.8751,39.1007,0.0],[26.8776,39.1001,0.4279],[26.8768,39.0982,0.0],[26.8826,39.0893,0.7427],[26.8876,39.0754,3.0619],[26.8857,39.0699,2.4337],[26.8865,39.0682,7.7151],[26.8804,39.0643,0.3463],[26.874,39.0629,0.7295],[26.8682,39.0643,0.0],[26.8632,39.0588,3.7751],[26.8565,39.0563,11.3203],[26.851,39.0579,0.0],[26.8474,39.0521,0.0],[26.8393,39.0482,0.0],[26.8382,39.0451,9.8969],[26.8304,39.0438,0.0],[26.8293,39.0407,0.0],[26.8232,39.0376,0.1047],[26.8179,39.0368,0.4664],[26.8126,39.0418,1.2618],[26.8121,39.0374,0.0],[26.8051,39.0388,0.0],[26.8037,39.0346,3.0994],[26.799,39.0324,0.0],[26.7996,39.0285,12.2586],[26.7949,39.024,0.0],[26.7954,39.0226,0.7673],[26.799,39.0221,2.1358],[26.7988,39.0151,0.0],[26.8115,39.0199,0.0],[26.8115,39.0235,0.0],[26.816,39.026,0.6739],[26.8154,39.0201,0.0],[26.8124,39.0157,0.0],[26.8079,39.0157,0.0],[26.8043,39.0107,0.0],[26.8021,39.0101,0.1476],[26.7999,39.0032,4.5395],[26.801,38.999,0.0],[26.7974,38.9962,13.3644],[26.7971,38.9904,0.8288],[26.7988,38.9888,0.8288],[26.7968,38.9868,0.0],[26.796,38.9824,0.0],[26.8004,38.974,13.0248],[26.7993,38.9724,24.4742],[26.8004,38.9685,14.9926],[26.7996,38.9643,14.6345],[26.7965,38.9637,0.0],[26.7962,38.9618,0.0],[26.7996,38.9529,10.1627],[26.8024,38.9501,0.0],[26.8076,38.9538,24.0388],[26.8115,38.9526,3.2639],[26.8149,38.9493,0.0],[26.816,38.941,11.5139],[26.8204,38.9362,0.0],[26.8251,38.9357,9.9228],[26.8293,38.9332,0.0],[26.8454,38.9351,0.1722],[26.8524,38.9321,7.6181],[26.8535,38.9246,0.0],[26.8574,38.9221,5.7862],[26.8529,38.919,8.6185],[26.8521,38.9165,0.0],[26.8582,38.9138,4.1604],[26.8654,38.9143,0.0],[26.8674,38.9171,6.5084],[26.8712,38.9185,0.0],[26.8776,38.9151,0.0],[26.8793,38.9162,0.0],[26.8812,38.9226,2.9966],[26.889,38.9232,0.0],[26.8907,38.9254,0.0],[26.8901,38.9274,7.5563],[26.8932,38.9296,24.5991],[26.9101,38.934,2.6382],[26.9196,38.9399,1.3646],[26.9304,38.936,2.1664],[26.9332,38.9329,4.5023],[26.9338,38.9276,1.5769],[26.9396,38.9257,0.0],[26.9393,38.9293,0.0],[26.9357,38.9332,3.7774],[26.9357,38.9365,2.2056],[26.9446,38.939,1.5967],[26.9474,38.9388,22.4849],[26.9499,38.9343,0.9702],[26.9521,38.9351,0.0],[26.9551,38.9401,4.866],[26.9574,38.9401,0.0],[26.9543,38.9413,9.2839],[26.9582,38.9431,0.1166],[26.9903,38.9721,18.0141],[27.0082,39.0005,4.0232],[27.01,39.0116,4.0523],[27.0087,39.0256,5.7801],[26.9984,39.0446,5.7194],[26.9954,39.0558,14.7459],[26.995,39.1099,222.0186],[26.9983,39.1241,219.0821],[27.0211,39.1579,247.2243],[27.0228,39.1682,370.0818],[27.0188,39.1753,368.2884],[27.0091,39.1819,456.2149],[26.979,39.1925,571.219],[26.9484,39.1989,615.6746],[26.9219,39.2143,558.3361],[26.9035,39.2219,380.7563],[26.8902,39.2299,232.0272],[26.8767,39.2219,382.0312],[26.8554,39.213,339.0651],[26.8194,39.1888,23.6366],[26.7922,39.1807,5.4511],[26.7882,39.1777,4.1085],[26.7849,39.1718,1.5952],[26.7678,39.1724,1.3126]]]]}}