{"type":"Feature","properties":{"GID_2":"TUR.40.25_1","GID_0":"TUR","country":"Turkey","GID_1":"TUR.40_1","province":"Istanbul","NL_NAME_1":"NA","county":"Kartal","VARNAME_2":"NA","NL_NAME_2":"NA","TYPE_2":"District","ENGTYPE_2":"District","CC_2":"NA","HASC_2":"TR.IB.KT","name":"Kartal.county"},
"geometry":{"type": "MultiPolygon","coordinates": [[[[29.1729,40.8912,0.6067],[29.186,40.8989,74.6039],[29.1932,40.9187,99.3905],[29.2112,40.9199,130.6909],[29.216,40.9217,149.1662],[29.2184,40.9265,168.647],[29.2184,40.9385,199.99],[29.2202,40.9421,252.7964],[29.2274,40.9451,223.9583],[29.2316,40.9514,195.7303],[29.2311,40.9721,136.7057],[29.2142,40.9721,131.7891],[29.2094,40.975,145.5762],[29.201,40.9733,159.5243],[29.1914,40.9655,204.1953],[29.1836,40.9511,264.3866],[29.1836,40.9451,254.0403],[29.1591,40.9445,200.5313],[29.1285,40.9367,33.3851],[29.1171,40.9379,19.6499],[29.1126,40.9362,2.1015],[29.1254,40.9235,2.4501],[29.1399,40.904,1.2552],[29.1474,40.8999,0.0],[29.1499,40.9015,0.608],[29.156,40.9001,0.0],[29.1729,40.8912,0.6067]]]]}}