{"type": "Feature","bbox": [37.5547,40.0884,38.1857,40.5087],"geometry": {"type": "MultiPolygon","coordinates": [[[[38.1557,40.5087,2612.1479],[38.1274,40.4918,2525.2817],[38.0395,40.4233,1436.772],[38.0255,40.4141,1623.7496],[38.0086,40.4095,1558.6147],[37.9685,40.4079,2113.7349],[37.9405,40.3995,1885.4596],[37.9016,40.3951,2020.7627],[37.8844,40.3856,1768.9139],[37.8434,40.3533,1829.3928],[37.8298,40.3444,1773.584],[37.8203,40.3408,1749.8633],[37.7965,40.3364,1761.4775],[37.7721,40.3286,1717.161],[37.7578,40.3285,1578.1541],[37.7477,40.3307,1548.2167],[37.721,40.3412,1715.8596],[37.7111,40.3479,1680.9993],[37.6627,40.4219,1602.7917],[37.6479,40.4505,1528.842],[37.631,40.443,1571.8982],[37.6156,40.4336,1633.7678],[37.5963,40.4185,1769.1543],[37.588,40.4084,1861.3572],[37.5849,40.3964,2105.9106],[37.5849,40.3589,1793.4948],[37.5826,40.3476,1130.6047],[37.5775,40.3414,1026.3903],[37.5617,40.3309,567.025],[37.5568,40.324,765.4437],[37.5551,40.3182,981.8698],[37.5547,40.2966,1465.2666],[37.56,40.2764,1442.264],[37.6106,40.2382,1384.4557],[37.6256,40.2246,1500.4142],[37.6413,40.1987,1156.2855],[37.6435,40.1907,1320.854],[37.6445,40.1766,1451.822],[37.7522,40.1759,1782.4177],[37.7634,40.174,1837.6465],[37.7844,40.1668,1806.0308],[37.8083,40.1624,1853.99],[37.8416,40.1496,1667.4503],[37.8947,40.1118,2243.0261],[37.9463,40.0884,2473.4492],[37.9622,40.1173,2375.5117],[37.9811,40.1451,1901.7357],[38.0373,40.1892,1004.0162],[38.0474,40.2003,915.4323],[38.0497,40.2125,800.8956],[38.0475,40.2221,855.5679],[38.0386,40.2356,918.9411],[38.0351,40.2461,1207.776],[38.0254,40.255,1360.2134],[38.026,40.2608,1466.4828],[38.0312,40.2648,1443.0258],[38.0362,40.2657,1490.8621],[38.0428,40.2633,1445.3761],[38.0501,40.2577,1409.5416],[38.0749,40.2721,1171.1058],[38.0769,40.2765,1299.5056],[38.0764,40.2811,1551.0432],[38.0687,40.2936,1493.103],[38.0663,40.3069,1846.8994],[38.0681,40.315,1900.0671],[38.0827,40.3384,1706.9985],[38.1318,40.4129,1852.1077],[38.1599,40.4355,1980.8011],[38.1721,40.4414,2246.8975],[38.1857,40.4439,2100.2109],[38.1848,40.4581,2134.3562],[38.1825,40.4662,2237.4595],[38.1557,40.5087,2612.1479]]]]}
,"properties": {"GID_2": "TUR.72.11_1","GID_0": "TUR","country": "Turkey","GID_1": "TUR.72_1","province": "Sivas","NL_NAME_1": "NA","county": "Koyulhisar","VARNAME_2": "NA","NL_NAME_2": "NA","TYPE_2": "District","ENGTYPE_2": "District","CC_2": "NA","HASC_2": "TR.SV.KO","name": "Koyulhisar.county","area_km2": 1115.5331,"hist_schema_id": "Elevation0-9000","hist_area_km2": {"575": 1.1638,"600": 4.7205,"625": 6.338,"650": 8.4575,"675": 9.5904,"700": 11.1287,"725": 12.5044,"750": 11.0638,"775": 11.0639,"800": 11.97,"825": 11.388,"850": 12.6497,"875": 11.8736,"900": 11.3886,"925": 12.1492,"950": 11.9877,"975": 10.6287,"1000": 11.8585,"1025": 12.6518,"1050": 11.3256,"1075": 11.9565,"1100": 11.0991,"1125": 11.859,"1150": 12.0375,"1175": 13.0081,"1200": 13.4943,"1225": 14.5782,"1250": 13.8666,"1275": 13.2846,"1300": 13.8507,"1325": 14.0615,"1350": 15.5823,"1375": 15.4047,"1400": 16.052,"1425": 17.9611,"1450": 17.4109,"1475": 18.6398,"1500": 20.417,"1525": 23.3564,"1550": 28.7155,"1575": 29.7672,"1600": 28.1518,"1625": 27.2285,"1650": 26.7257,"1675": 28.569,"1700": 31.1527,"1725": 30.7027,"1750": 30.8673,"1775": 28.493,"1800": 26.8777,"1825": 23.8218,"1850": 21.8963,"1875": 18.578,"1900": 18.1551,"1925": 17.6549,"1950": 16.8461,"1975": 16.7817,"2000": 14.9711,"2025": 12.4157,"2050": 11.7848,"2075": 10.7484,"2100": 9.8741,"2125": 8.4843,"2150": 6.884,"2175": 6.7082,"2200": 7.2752,"2225": 7.4041,"2250": 7.4527,"2275": 7.6478,"2300": 7.6327,"2325": 7.3103,"2350": 6.7602,"2375": 6.7272,"2400": 5.5638,"2425": 4.9162,"2450": 4.4478,"2475": 3.9626,"2500": 3.1374,"2525": 3.0571,"2550": 2.006,"2575": 1.3901,"2600": 1.0828,"2625": 0.3389,"2650": 0.3548,"2675": 0.1774,"2700": 0.1129,"2725": 0.0484,"2750": 0.0484}}}