{"type": "Feature","bbox": [31.9767,41.3096,32.2463,41.5629],"geometry": {"type": "MultiPolygon","coordinates": [[[[32.021,41.5629,1.7712],[32.0182,41.5621,0.0],[32.019,41.5607,0.7216],[32.0165,41.559,1.579],[32.0121,41.5607,0.0],[32.0135,41.5582,2.0019],[32.0118,41.556,4.0316],[32.0068,41.554,0.0],[32.0013,41.549,1.5413],[31.9907,41.5457,0.0],[31.9767,41.5443,0.0],[31.9929,41.5305,88.849],[32.0082,41.5139,265.7589],[32.0131,41.507,381.5573],[32.0162,41.496,506.9586],[32.0168,41.4818,412.4968],[32.0139,41.465,106.4805],[32.0109,41.4598,95.712],[31.9893,41.437,411.021],[31.9854,41.4226,661.2079],[31.9856,41.3923,340.537],[31.9874,41.3835,292.4695],[32.0029,41.3572,240.9972],[32.0091,41.3501,134.6372],[32.0168,41.3438,120.8617],[32.0317,41.3352,215.5658],[32.0631,41.3279,54.3578],[32.0918,41.3121,42.8969],[32.1169,41.3096,88.9811],[32.1377,41.313,168.7297],[32.2122,41.3424,410.7319],[32.2463,41.349,458.1541],[32.2301,41.367,379.3469],[32.2217,41.381,233.4709],[32.2111,41.3912,183.2602],[32.0412,41.5235,405.8379],[32.0324,41.534,252.065],[32.021,41.5629,1.7712]]]]}
,"properties": {"GID_2": "TUR.81.2_1","GID_0": "TUR","country": "Turkey","GID_1": "TUR.81_1","province": "Zinguldak","NL_NAME_1": "NA","county": "Çaycuma","VARNAME_2": "NA","NL_NAME_2": "NA","TYPE_2": "District","ENGTYPE_2": "District","CC_2": "NA","HASC_2": "TR.ZO.CA","name": "Çaycuma.county","area_km2": 302.3858,"hist_schema_id": "Elevation0-9000","hist_area_km2": {"0": 5.2892,"25": 36.9055,"50": 24.174,"75": 20.7033,"100": 21.9454,"125": 23.2513,"150": 23.7934,"175": 23.4599,"200": 22.2829,"225": 20.1049,"250": 16.3826,"275": 13.1689,"300": 11.674,"325": 10.2732,"350": 7.6157,"375": 5.8656,"400": 4.5935,"425": 2.9557,"450": 2.3361,"475": 1.7323,"500": 1.0966,"525": 0.8583,"550": 0.5403,"575": 0.3814,"600": 0.3179,"625": 0.2543,"650": 0.0795,"675": 0.0795,"700": 0.0795,"725": 0.0954,"750": 0.0636,"775": 0.0318}}}