{"type": "Feature","bbox": [40.2391,38.4743,41.1636,38.8819],"geometry": {"type": "MultiPolygon","coordinates": [[[[40.9153,38.8819,1274.7341],[40.9017,38.8793,1139.7946],[40.8805,38.8721,1046.8346],[40.8566,38.8677,1140.0256],[40.8088,38.8495,1245.373],[40.7816,38.8443,1249.0728],[40.7638,38.838,1452.0164],[40.7497,38.836,1316.0862],[40.7168,38.8349,1111.5492],[40.7064,38.8329,1116.5088],[40.6942,38.8269,1011.8102],[40.6645,38.8059,1080.907],[40.6378,38.7939,1001.9224],[40.6016,38.7692,1031.7554],[40.4785,38.7214,1040.0468],[40.4644,38.7197,1021.2026],[40.4505,38.7214,985.8105],[40.4329,38.728,1052.7622],[40.4058,38.7334,1133.5824],[40.3617,38.7483,1175.3806],[40.3583,38.7272,1029.474],[40.3547,38.723,976.9374],[40.3486,38.7201,1088.0282],[40.3303,38.7192,1020.4923],[40.3157,38.7219,957.6231],[40.2967,38.7282,1070.2709],[40.2879,38.7267,1158.2406],[40.2837,38.7236,1419.5065],[40.2726,38.7095,1337.9415],[40.2586,38.6859,1790.4033],[40.2503,38.6624,1644.4219],[40.2413,38.6459,1431.8289],[40.2391,38.632,1222.1285],[40.2395,38.6081,1097.4749],[40.2507,38.5969,1063.531],[40.2701,38.5877,1126.45],[40.2773,38.5826,1142.827],[40.2829,38.5763,1034.7893],[40.296,38.5555,959.5822],[40.2991,38.5404,938.9276],[40.299,38.5026,847.9298],[40.297,38.4871,861.8966],[40.2921,38.4748,878.1604],[40.4131,38.4743,1050.6171],[40.4301,38.475,1210.3862],[40.4448,38.4785,987.8372],[40.466,38.4927,865.5328],[40.4757,38.5107,874.432],[40.4827,38.5317,948.9034],[40.4916,38.5484,1005.9435],[40.4945,38.5814,1088.0264],[40.4987,38.5928,1104.6161],[40.5101,38.6041,1155.0974],[40.5188,38.6095,1167.1331],[40.5293,38.6132,1199.2339],[40.5535,38.6149,1360.0215],[40.673,38.6139,2004.2224],[40.6882,38.6117,1735.373],[40.706,38.6054,1894.8408],[40.7625,38.5916,1734.1897],[40.903,38.5914,1568.7347],[40.9166,38.5942,1641.2922],[40.9612,38.6115,1794.7729],[40.9885,38.6166,1771.016],[41.1262,38.67,1671.0684],[41.1636,38.6831,1675.9233],[41.1446,38.7038,1887.0173],[41.1151,38.7253,2054.1543],[41.1055,38.7289,2042.0989],[41.0785,38.734,2059.4795],[41.0215,38.7557,2249.7573],[41.0138,38.7604,1982.2216],[41.0077,38.7664,2023.7939],[40.9985,38.7803,1577.6993],[40.9798,38.799,1951.0626],[40.9706,38.8132,1567.8428],[40.9498,38.834,1692.52],[40.9405,38.8481,1543.4823],[40.9219,38.8668,1428.4998],[40.9176,38.8739,1478.4031],[40.9153,38.8819,1274.7341]]]]}
,"properties": {"GID_2": "TUR.17.2_1","GID_0": "TUR","country": "Turkey","GID_1": "TUR.17_1","province": "Bingöl","NL_NAME_1": "NA","county": "Genç","VARNAME_2": "NA","NL_NAME_2": "NA","TYPE_2": "District","ENGTYPE_2": "District","CC_2": "NA","HASC_2": "TR.BG.GE","name": "Genç.county","area_km2": 1690.184,"hist_schema_id": "Elevation0-9000","hist_area_km2": {"800": 1.046,"825": 6.704,"850": 15.134,"875": 16.659,"900": 14.55,"925": 12.093,"950": 11.527,"975": 17.117,"1000": 19.73,"1025": 23.158,"1050": 26.186,"1075": 28.567,"1100": 31.447,"1125": 38.759,"1150": 43.658,"1175": 42.483,"1200": 43.888,"1225": 42.855,"1250": 42.426,"1275": 41.396,"1300": 41.227,"1325": 42.914,"1350": 42.963,"1375": 39.931,"1400": 37.862,"1425": 34.335,"1450": 31.39,"1475": 31.007,"1500": 29.486,"1525": 28.973,"1550": 29.735,"1575": 30.116,"1600": 29.52,"1625": 30.182,"1650": 28.279,"1675": 26.675,"1700": 25.813,"1725": 24.968,"1750": 25.828,"1775": 24.356,"1800": 25.845,"1825": 24.39,"1850": 25.267,"1875": 25.136,"1900": 22.984,"1925": 22.619,"1950": 22.222,"1975": 21.56,"2000": 21.923,"2025": 20.369,"2050": 19.921,"2075": 18.729,"2100": 18.283,"2125": 17.488,"2150": 18.298,"2175": 18.563,"2200": 17.288,"2225": 17.487,"2250": 15.849,"2275": 13.235,"2300": 12.871,"2325": 10.77,"2350": 10.472,"2375": 10.042,"2400": 9.082,"2425": 8.553,"2450": 7.759,"2475": 7.974,"2500": 7.378,"2525": 6.353,"2550": 6.551,"2575": 6.006,"2600": 5.146,"2625": 4.285,"2650": 3.359,"2675": 3.011,"2700": 2.201,"2725": 1.688,"2750": 1.241,"2775": 0.827,"2800": 0.761,"2825": 0.612,"2850": 0.381,"2875": 0.298,"2900": 0.132,"2925": 0.033}}}