{"type": "Feature","id": "4840","bbox": [43.31842,39.62797,44.80699,40.11016],"geometry": {"type": "Polygon","coordinates": [[[44.03243,40.00862,863.96],[43.91213,40.02433,887.1572],[43.80278,40.07073,996.511],[43.71121,40.09073,1026.6056],[43.66543,40.11016,946.0629],[43.53352,40.07444,1513.5863],[43.40898,40.06007,2130.0002],[43.35629,40.04091,2432.5171],[43.35629,40.00259,2093.4082],[43.31842,39.96932,2278.478],[43.34095,39.9126,2430.5312],[43.33568,39.86522,2393.5867],[43.33537,39.8415,2261.4387],[43.35005,39.80382,2292.6853],[43.36576,39.79323,2407.105],[43.40038,39.7831,2709.7993],[43.46405,39.81747,2197.9297],[43.53164,39.8385,2337.6763],[43.56337,39.83318,2448.01],[43.57711,39.82501,2385.7109],[43.6106,39.81346,2212.5884],[43.63065,39.81341,2510.8472],[43.66352,39.79556,2419.7185],[43.68563,39.75819,2342.1143],[43.7155,39.72825,1958.5693],[43.80501,39.69559,1746.0073],[43.86815,39.68406,1908.9429],[43.87539,39.66993,1855.4998],[43.88087,39.65489,1805.8123],[43.97326,39.64316,1782.351],[44.07259,39.65324,1519.2301],[44.14741,39.63502,1534.01],[44.22452,39.62797,1858.6744],[44.4028,39.65949,3042.6543],[44.44218,39.65215,2562.0347],[44.45778,39.6428,2119.0166],[44.45825,39.64252,2119.0166],[44.460209999999996,39.65448,2083.2649],[44.45504,39.68714,1706.0068],[44.45949,39.69846,1557.1975],[44.56573,39.76589,900.1042],[44.59044,39.77153,837.5212],[44.60584,39.76316,824.3848],[44.63281,39.73163,804.2214],[44.6465,39.71954,806.5129],[44.70629,39.69804,822.3522],[44.72572,39.68533,832.1855],[44.80699,39.6399,795.6916],[44.79575,39.65236,796.1409],[44.78433,39.69024,800.3345],[44.77456,39.7028,798.4395],[44.75911,39.72311,799.402],[44.69777,39.78527,803.8217],[44.69203,39.79302,806.9547],[44.68717,39.79638,804.8285],[44.68242,39.79721,805.3397],[44.67126,39.79587,805.5292],[44.66619,39.79638,805.9592],[44.64769,39.80512,807.6531],[44.61152,39.83731,810.4196],[44.59819,39.83101,810.1281],[44.59447,39.83679,809.9731],[44.59416,39.84806,809.8029],[44.59106,39.85783,810.4221],[44.57597,39.86635,815.1655],[44.56749,39.87302,813.5484],[44.56377,39.8817,813.2675],[44.55912,39.89689,814.5709],[44.54785,39.91147,815.1779],[44.52217,39.93353,817.2384],[44.46434,39.97229,821.5498],[44.38093,40.0098,826.3802],[44.32565,40.03466,829.6962],[44.28906,40.0434,833.188],[44.25526,40.0434,836.5948],[44.19501,40.03079,842.8635],[44.16638,40.02805,845.2478],[44.14591,40.0234,846.9684],[44.13548,40.02231,848.2955],[44.127,40.02448,848.7123],[44.11429,40.03394,849.8925],[44.10447,40.03596,851.4742],[44.08313,40.03161,853.4781],[44.04835,40.01286,860.3735],[44.03243,40.00862,863.96]]]}
,"properties": {"ISO3166-1-Alpha-3": "TUR","country": "Turkey","fill": "#FF0","name": "Iğdir","area_km2": 3988.971,"hist_schema_id": "Elevation0-9000","hist_area_km2": {"800": 155.615,"825": 336.354,"850": 300.874,"875": 138.193,"900": 73.345,"925": 72.151,"950": 63.835,"975": 59.957,"1000": 56.478,"1025": 55.33,"1050": 56.655,"1075": 54.442,"1100": 50.425,"1125": 47.124,"1150": 43.905,"1175": 40.819,"1200": 37.994,"1225": 35.391,"1250": 31.62,"1275": 31.166,"1300": 30.124,"1325": 28.335,"1350": 29.167,"1375": 26.615,"1400": 26.291,"1425": 27.107,"1450": 27.417,"1475": 26.375,"1500": 25.823,"1525": 58.286,"1550": 32.416,"1575": 32.286,"1600": 33.21,"1625": 34.596,"1650": 40.026,"1675": 37.796,"1700": 38.163,"1725": 38.498,"1750": 41.551,"1775": 45.869,"1800": 44.534,"1825": 44.357,"1850": 40.451,"1875": 39.082,"1900": 38.168,"1925": 38.673,"1950": 40.264,"1975": 39.923,"2000": 37.952,"2025": 39.322,"2050": 40.265,"2075": 42.74,"2100": 39.839,"2125": 40.605,"2150": 38.733,"2175": 39.156,"2200": 44.482,"2225": 41.256,"2250": 41.889,"2275": 40.374,"2300": 41.174,"2325": 53.673,"2350": 43.635,"2375": 38.446,"2400": 35.86,"2425": 33.418,"2450": 30.765,"2475": 30.407,"2500": 29.35,"2525": 27.836,"2550": 26.174,"2575": 23.389,"2600": 23.243,"2625": 20.899,"2650": 19.432,"2675": 16.567,"2700": 16.08,"2725": 14.939,"2750": 12.92,"2775": 12.186,"2800": 11.112,"2825": 10.069,"2850": 9.662,"2875": 9.206,"2900": 8.408,"2925": 9.418,"2950": 8.228,"2975": 7.758,"3000": 8.329,"3025": 7.579,"3050": 7.156,"3075": 6.292,"3100": 5.724,"3125": 5.823,"3150": 4.208,"3175": 4.094,"3200": 3.491,"3225": 3.654,"3250": 3.409,"3275": 3.164,"3300": 3.311,"3325": 3.246,"3350": 3.213,"3375": 3.001,"3400": 3.229,"3425": 3.458,"3450": 2.463,"3475": 2.479,"3500": 2.349,"3525": 2.186,"3550": 1.664,"3575": 1.794,"3600": 1.762,"3625": 1.533,"3650": 1.713,"3675": 1.534,"3700": 1.533,"3725": 1.093,"3750": 1.305,"3775": 0.979,"3800": 0.881,"3825": 0.962,"3850": 0.848,"3875": 0.93,"3900": 0.848,"3925": 0.783,"3950": 0.865,"3975": 0.718,"4000": 0.685,"4025": 0.636,"4050": 0.897,"4075": 0.604,"4100": 0.571,"4125": 0.799,"4150": 0.506,"4175": 0.652,"4200": 0.457,"4225": 0.555,"4250": 0.604,"4275": 0.555,"4300": 0.555,"4325": 0.391,"4350": 0.571,"4375": 0.506,"4400": 0.391,"4425": 0.375,"4450": 0.408,"4475": 0.261,"4500": 0.555,"4525": 0.245,"4550": 0.408,"4575": 0.277,"4600": 0.408,"4625": 0.245,"4650": 0.261,"4675": 0.359,"4700": 0.228,"4725": 0.424,"4750": 0.555,"4775": 0.245,"4800": 0.359,"4825": 0.147,"4850": 0.212,"4875": 0.245,"4900": 0.098,"4925": 0.196,"4950": 0.114,"4975": 0.163,"5000": 0.179,"5025": 0.179,"5050": 0.147,"5075": 0.13,"5100": 0.065}}}