{"type":"Feature","properties":{"GID_2":"TUR.46.16_1","GID_0":"TUR","country":"Turkey","GID_1":"TUR.46_1","province":"Kastamonu","NL_NAME_1":"NA","county":"Pınarbası","VARNAME_2":"NA","NL_NAME_2":"NA","TYPE_2":"District","ENGTYPE_2":"District","CC_2":"NA","HASC_2":"TR.KS.PI","name":"Pınarbası.county"},
"geometry":{"type": "MultiPolygon","coordinates": [[[[32.9256,41.554,1178.1385],[32.945,41.5506,1079.0178],[32.9525,41.5464,874.8036],[32.9604,41.5394,851.3737],[33.002,41.544,997.2504],[33.0313,41.5524,942.8737],[33.0882,41.555,1023.1108],[33.1242,41.5644,1046.521],[33.2176,41.5658,1212.1072],[33.2177,41.6116,1263.9966],[33.2147,41.6225,1124.2897],[33.1993,41.6382,1421.5619],[33.143,41.6812,744.5012],[33.1319,41.6883,880.463],[33.1114,41.6969,422.2157],[33.1022,41.704,483.3822],[33.0757,41.74,1040.5298],[33.0062,41.7402,814.5153],[32.9825,41.7384,795.7942],[32.961,41.7315,841.111],[32.9306,41.7244,891.2364],[32.8895,41.6972,969.6541],[32.8562,41.6842,557.3712],[32.8255,41.6816,603.6321],[32.7744,41.6843,892.7413],[32.7939,41.6576,503.6062],[32.8005,41.6364,737.3858],[32.8144,41.6127,1015.6434],[32.831,41.5918,1001.3395],[32.8551,41.5801,1130.8875],[32.9256,41.554,1178.1385]]]]}}