{"type": "Feature","bbox": [28.708,39.725,29.129,40.0897],"geometry": {"type": "MultiPolygon","coordinates": [[[[29.0238,39.725,938.1342],[29.0733,39.7453,1076.3268],[29.129,39.7864,601.0579],[29.0947,39.8136,955.4956],[29.0857,39.8257,888.5803],[29.0838,39.8368,800.6913],[29.0846,39.848,759.5927],[29.0921,39.8685,483.6604],[29.0853,39.8897,545.4265],[29.0842,39.923,640.1102],[29.0823,39.9348,734.5958],[29.0645,39.9627,1291.6373],[29.0427,39.9788,907.77],[29.0402,39.986,878.0116],[29.0393,39.9967,1013.6284],[29.0259,40.0048,1039.2528],[29.0104,40.0104,1085.3601],[28.9994,40.0164,1114.882],[28.9239,40.0735,647.827],[28.8809,40.0894,863.8391],[28.715699999999998,40.0897,467.7126],[28.7348,40.0681,587.5663],[28.7647,40.0215,370.9255],[28.7729,39.9981,693.6395],[28.7806,39.9847,689.678],[28.7814,39.9794,662.8079],[28.7782,39.9695,689.8962],[28.7492,39.9256,849.423],[28.7172,39.8984,1006.9651],[28.7102,39.8886,853.9849],[28.708,39.8775,781.8054],[28.7083,39.869,864.7752],[28.7132,39.8558,775.3594],[28.7236,39.8456,836.6547],[28.7577,39.8364,660.8711],[28.7709,39.8376,803.7662],[28.7885,39.8434,770.9222],[28.8121,39.8482,649.0256],[28.8336,39.8556,798.0754],[28.845,39.8571,820.57],[28.8765,39.857,1042.2806],[28.8878,39.8551,820.9114],[28.9146,39.8451,740.7854],[28.9251,39.8388,805.1884],[28.9305,39.8323,738.8899],[28.933,39.8238,720.6342],[28.9338,39.8008,812.0681],[28.9353,39.7956,819.4189],[28.9388,39.7911,795.5571],[28.9519,39.7871,743.116],[28.9942,39.7867,771.9745],[29.0009,39.7849,769.6992],[29.0059,39.7811,813.7751],[29.0091,39.7735,862.0419],[29.0118,39.7564,848.2256],[29.0203,39.7395,961.1904],[29.0238,39.725,938.1342]]]]}
,"properties": {"GID_2": "TUR.21.13_1","GID_0": "TUR","country": "Turkey","GID_1": "TUR.21_1","province": "Bursa","NL_NAME_1": "NA","county": "Orhaneli","VARNAME_2": "NA","NL_NAME_2": "NA","TYPE_2": "District","ENGTYPE_2": "District","CC_2": "NA","HASC_2": "TR.BU.OE","name": "Orhaneli.county","area_km2": 793.8956,"hist_schema_id": "Elevation0-9000","hist_area_km2": {"225": 0.065,"275": 0.0974,"300": 6.2198,"325": 5.8494,"350": 16.3667,"375": 15.0985,"400": 17.7486,"425": 20.6741,"450": 23.8751,"475": 26.2627,"500": 27.9992,"525": 30.5673,"550": 35.5395,"575": 37.6861,"600": 35.4449,"625": 34.9763,"650": 34.297,"675": 32.4474,"700": 30.2711,"725": 30.9892,"750": 30.9944,"775": 31.9557,"800": 38.535,"825": 37.7304,"850": 33.3199,"875": 29.7942,"900": 24.6549,"925": 21.3222,"950": 19.2711,"975": 14.9733,"1000": 11.0829,"1025": 9.4545,"1050": 6.5578,"1075": 5.5487,"1100": 4.2635,"1125": 3.0756,"1150": 2.4895,"1175": 1.7089,"1200": 1.3509,"1225": 1.2043,"1250": 1.0254,"1275": 0.7001,"1300": 0.358,"1325": 0.0489}}}