{"type": "Feature","bbox": [41.8388,38.8703,42.5526,39.2995],"geometry": {"type": "MultiPolygon","coordinates": [[[[42.5289,38.9393,2112.5095],[42.5516,38.98,2091.895],[42.5526,38.9969,2044.2543],[42.5486,39.0103,1920.1238],[42.5333,39.0336,1745.7491],[42.5192,39.0467,1650.2075],[42.4974,39.0619,1620.2555],[42.4757,39.0706,1601.0018],[42.4642,39.0776,1591.193],[42.421,39.1104,1636.767],[42.409,39.1213,1592.2141],[42.4056,39.1263,1616.5175],[42.4031,39.1344,1575.3657],[42.402,39.1599,1468.9857],[42.3995,39.1709,1502.2531],[42.3664,39.2223,1536.943],[42.3466,39.2392,1522.7999],[42.3297,39.25,1561.5708],[42.1993,39.2995,1600.5229],[42.1856,39.2934,1622.2339],[42.152,39.2702,1621.707],[42.1247,39.2581,1524.5784],[42.0862,39.2293,1645.7706],[42.071,39.2211,1696.3844],[42.0438,39.2158,1739.1998],[42.0226,39.2088,1761.3923],[41.9871,39.2051,2085.4263],[41.959,39.1967,2218.8911],[41.9268,39.1938,2299.4341],[41.8759,39.1743,2535.0491],[41.8388,39.1622,2244.3191],[41.8727,39.1423,1879.3579],[41.8939,39.1338,1699.4856],[41.9135,39.121,1583.2607],[41.9308,39.1062,1512.5231],[41.9484,39.0806,1432.5],[41.9509,39.0755,1540.1436],[41.953,39.0619,1432.5],[41.9526,39.0566,1432.5],[41.9495,39.0494,1432.5],[41.9417,39.045,1446.5513],[41.9218,39.0441,1432.5],[41.9228,39.03,1432.5],[41.9254,39.022,1432.5],[41.9449,39.0015,1432.5],[41.9506,38.9911,1458.8149],[41.9518,38.9799,1487.171],[41.9503,38.9688,1486.7463],[41.9416,38.9527,1523.4697],[41.9405,38.943,1599.3964],[41.9442,38.9372,1602.6006],[41.9488,38.9339,1645.5338],[41.983,38.9186,1656.7418],[42.0253,38.9134,1646.2625],[42.1028,38.883,1713.4537],[42.14,38.8703,1874.8722],[42.3169,38.9375,1946.4613],[42.3404,38.9393,2064.3276],[42.3968,38.9388,2213.052],[42.4122,38.9371,2258.9175],[42.441,38.9284,2184.0742],[42.4896,38.9267,2201.7363],[42.5154,38.9295,2219.5347],[42.5289,38.9393,2112.5095]]]]}
,"properties": {"GID_2": "TUR.60.1_1","GID_0": "TUR","country": "Turkey","GID_1": "TUR.60_1","province": "Mus","NL_NAME_1": "NA","county": "Bulanık","VARNAME_2": "NA","NL_NAME_2": "NA","TYPE_2": "District","ENGTYPE_2": "District","CC_2": "NA","HASC_2": "TR.MS.BU","name": "Bulanık.county","area_km2": 1711.676,"hist_schema_id": "Elevation0-9000","hist_area_km2": {"1425": 41.689,"1450": 185.119,"1475": 210.894,"1500": 183.722,"1525": 123.664,"1550": 81.286,"1575": 114.232,"1600": 97.703,"1625": 82.982,"1650": 71.685,"1675": 48.464,"1700": 31.903,"1725": 27.227,"1750": 24.938,"1775": 25.635,"1800": 25.041,"1825": 23.477,"1850": 21.547,"1875": 18.435,"1900": 16.819,"1925": 17.839,"1950": 16.406,"1975": 14.612,"2000": 13.609,"2025": 13.328,"2050": 16.966,"2075": 16.028,"2100": 15.009,"2125": 12.618,"2150": 13.738,"2175": 13.576,"2200": 13.066,"2225": 13.544,"2250": 14.156,"2275": 11.022,"2300": 8.978,"2325": 8.434,"2350": 5.584,"2375": 3.854,"2400": 2.487,"2425": 1.877,"2450": 1.647,"2475": 1.4,"2500": 1.284,"2525": 0.84,"2550": 0.709,"2575": 0.659,"2600": 0.577,"2625": 0.429,"2650": 0.396,"2675": 0.247,"2700": 0.181,"2725": 0.115}}}