{"type":"Feature","properties":{"GID_1":"TUR.28_1","GID_0":"TUR","country":"Turkey","province":"Edirne","VARNAME_1":"Adrianople|Adrianopel","NL_NAME_1":"NA","TYPE_1":"Il","ENGTYPE_1":"Province","CC_1":"NA","HASC_1":"TR.ED","ISO_1":"TR-22","name":"Edirne.province"},
"geometry":{"type": "MultiPolygon","coordinates": [[[[26.0443,40.7429,0.2633],[26.0412,40.7455,0.2142],[26.0383,40.7366,0.1241],[26.0401,40.733,0.1336],[26.0315,40.7337,0.4055],[26.0374,40.7307,0.3499],[26.0376,40.7287,0.0],[26.0418,40.726,0.4539],[26.0421,40.7221,0.0],[26.0443,40.7212,0.19],[26.0488,40.7137,0.0],[26.0521,40.7113,0.308],[26.0532,40.7082,0.0],[26.0515,40.7068,0.0],[26.0543,40.7024,0.0],[26.054,40.6965,0.3384],[26.0507,40.6957,0.0],[26.0499,40.6993,0.0],[26.0476,40.699,0.0],[26.0501,40.6943,0.0],[26.0565,40.6929,7.4106],[26.0596,40.6857,0.0],[26.0624,40.6832,5.2547],[26.0615,40.6815,0.0],[26.0651,40.671,0.5829],[26.0635,40.6626,0.187],[26.066,40.6501,0.5155],[26.064,40.6437,0.6682],[26.0604,40.639,0.8077],[26.0657,40.6321,0.7126],[26.066,40.6279,0.0],[26.0757,40.6171,1.9714],[26.0885,40.6082,0.0],[26.1071,40.5988,6.1904],[26.1224,40.5946,7.3657],[26.1218,40.5915,0.0],[26.1246,40.591,0.0],[26.1265,40.5915,0.0],[26.1229,40.5926,0.0],[26.1235,40.5943,7.3657],[26.1507,40.5893,2.6395],[26.1588,40.5893,10.6186],[26.1735,40.5935,0.0],[26.1929,40.5951,0.0],[26.2054,40.5979,4.7754],[26.2343,40.5985,0.0],[26.2613,40.5946,0.0],[26.2665,40.5954,0.7656],[26.2793,40.5918,0.0],[26.304,40.5904,0.0],[26.3396,40.5962,0.0],[26.3504,40.604,42.3839],[26.3529,40.6035,0.0],[26.3587,40.6063,10.0082],[26.3718,40.6057,2.9488],[26.3743,40.6082,1.2128],[26.4007,40.6032,0.4664],[26.4029,40.6015,0.0],[26.4074,40.6021,2.4235],[26.414,40.5985,0.0],[26.4307,40.6024,0.0],[26.4365,40.6096,5.0786],[26.4418,40.6132,0.0],[26.4593,40.6168,1.4884],[26.4796,40.6115,0.0],[26.4926,40.6054,0.4963],[26.5074,40.5957,2.5183],[26.5099,40.5965,0.2772],[26.5143,40.5946,0.0],[26.5213,40.5979,0.995],[26.5338,40.5913,0.0],[26.539,40.5951,0.0],[26.5421,40.6013,0.6835],[26.5454,40.6013,0.0],[26.5518,40.6082,40.858],[26.5585,40.6113,3.3068],[26.5651,40.6099,0.0],[26.5713,40.6154,0.0],[26.5774,40.6185,0.0],[26.5801,40.624,5.144],[26.5868,40.6271,19.5205],[26.590699999999998,40.631,6.2628],[26.5968,40.6285,0.0],[26.5999,40.6299,0.0],[26.6021,40.634,5.078],[26.6076,40.6346,0.0],[26.6099,40.6368,0.0],[26.6151,40.6371,5.1216],[26.6224,40.6343,0.0],[26.6296,40.636,8.4459],[26.6332,40.6351,0.0],[26.6382,40.6376,1.2517],[26.6432,40.6363,0.0],[26.6435,40.6379,1.9361],[26.6626,40.6357,4.3623],[26.6674,40.6385,0.0],[26.6774,40.6368,0.0],[26.6893,40.6393,0.8448],[26.6929,40.6371,13.6494],[26.6971,40.6371,5.0743],[26.7024,40.6379,0.0],[26.7132,40.6432,0.0],[26.7257,40.6424,3.8215],[26.7324,40.6449,0.0],[26.7432,40.6435,0.0],[26.7504,40.6499,0.2848],[26.7704,40.656,1.0114],[26.784,40.6576,1.0194],[26.7926,40.6568,0.0],[26.7749,40.6684,25.9397],[26.7641,40.681399999999996,103.9147],[26.7593,40.6914,217.0451],[26.76,40.7051,336.6484],[26.7838,40.7462,214.2646],[26.7645,40.7633,99.6318],[26.7532,40.7797,48.925],[26.7353,40.7976,106.2826],[26.7305,40.8054,167.9469],[26.7286,40.8142,274.1889],[26.7284,40.8849,237.7101],[26.7308,40.9027,205.1959],[26.7401,40.9193,181.1127],[26.747,40.9403,193.1262],[26.7717,40.977,177.4401],[26.7819,40.9951,207.5674],[26.783,40.9996,194.6087],[26.7811,41.0063,172.7212],[26.775,41.0172,158.4132],[26.7679,41.026,133.417],[26.7573,41.0319,127.4502],[26.744,41.0345,120.0062],[26.7446,41.0604,166.0235],[26.7481,41.071,75.6814],[26.7598,41.0894,97.5039],[26.7727,41.101,167.4],[26.8625,41.1357,221.5534],[26.8761,41.1383,250.4474],[26.892,41.1386,329.394],[26.9047,41.1498,227.0752],[26.9146,41.1637,205.0352],[26.9347,41.1841,175.8487],[26.9392,41.1952,201.2799],[26.9404,41.2224,180.072],[26.9386,41.2373,143.5408],[26.9347,41.2455,107.0498],[26.9126,41.2682,109.8088],[26.8966,41.294,101.3817],[26.8945,41.3167,73.871],[26.8983,41.343,19.5953],[26.886,41.3567,24.11],[26.8817,41.3642,23.8706],[26.8796,41.373,35.2064],[26.8791,41.3882,66.0225],[26.8829,41.406,37.5618],[26.9034,41.4311,60.9767],[26.9193,41.4699,41.5444],[26.9614,41.5058,88.5499],[26.9755,41.5246,54.4114],[26.9955,41.545,59.3982],[26.9999,41.556,65.5399],[27.0005,41.6164,114.1728],[26.9974,41.6227,125.7248],[26.9913,41.6276,127.2695],[26.9725,41.6366,133.4833],[26.93,41.652,104.1414],[26.9217,41.6563,102.667],[26.9138,41.6645,130.5224],[26.9096,41.6798,140.0318],[26.9235,41.6906,146.3783],[26.9384,41.7103,126.3747],[26.9513,41.7314,140.3127],[26.9554,41.746,141.6969],[26.9576,41.784,179.121],[26.9674,41.8038,230.9809],[26.9699,41.8126,240.8326],[26.9721,41.8627,268.5202],[26.9745,41.8715,278.5665],[26.9837,41.8883,357.1749],[26.9889,41.9179,294.89],[26.9836,41.9602,401.6107],[26.9754,41.9675,373.7508],[26.972,41.9777,417.4905],[26.9731,41.9916,462.1237],[26.9783,42.0044,409.3651],[26.9728,42.0058,452.1251],[26.9681,42.0021,468.5751],[26.9427,42.001,452.5299],[26.9181,41.9929,436.5445],[26.8998,41.9901,448.5778],[26.865,41.9874,498.5277],[26.8511,41.9798,485.0314],[26.8483,41.9748,512.5764],[26.8385,41.9694,531.6858],[26.7957,41.9743,423.0437],[26.7812,41.978,450.5284],[26.7601,41.9641,467.191],[26.7511,41.9545,434.1967],[26.7389,41.9577,459.2357],[26.7321,41.956,440.5527],[26.7233,41.9566,459.5944],[26.7135,41.9611,444.9879],[26.7014,41.9608,430.9229],[26.6887,41.9647,456.6642],[26.6644,41.9656,473.6685],[26.6445,41.9697,400.1421],[26.6283,41.9771,424.2111],[26.6234,41.9769,444.9064],[26.6198,41.9703,436.2736],[26.6195,41.9639,408.177],[26.5928,41.9513,299.4205],[26.5789,41.9415,242.2915],[26.5692,41.9275,132.5454],[26.571,41.9208,151.1199],[26.5792,41.914,155.1994],[26.5858,41.9052,109.7878],[26.5841,41.9004,103.6013],[26.5743,41.8903,52.4701],[26.573,41.887,114.1643],[26.5815,41.8781,75.428],[26.5688,41.8699,59.3414],[26.5572,41.858,66.9185],[26.5509,41.8451,183.9017],[26.5462,41.8415,167.4327],[26.538,41.8373,137.3913],[26.5284,41.8364,122.3675],[26.3839,41.8362,263.7794],[26.3774,41.8327,253.1011],[26.3484,41.7832,126.4843],[26.3396,41.7589,109.8229],[26.3414,41.7481,88.7909],[26.3688,41.7142,47.274],[26.385,41.7024,40.9294],[26.4126,41.6924,39.0676],[26.4264,41.6925,38.6834],[26.4355,41.6949,42.619],[26.4439,41.6949,47.6675],[26.4523,41.6916,45.7499],[26.4624,41.6831,37.3039],[26.497,41.6691,36.5154],[26.4994,41.6616,40.2],[26.5188,41.6389,41.0616],[26.5365,41.627,31.7018],[26.551,41.6226,31.9308],[26.5862,41.6194,32.531],[26.5961,41.6155,33.4969],[26.6008,41.6063,32.7492],[26.6025,41.5972,47.5847],[26.5941,41.5837,33.5989],[26.6053,41.5526,29.2356],[26.6012,41.5448,32.9175],[26.601,41.5405,29.7835],[26.5979,41.5383,29.2142],[26.5994,41.531,27.6418],[26.6062,41.5228,29.432],[26.609,41.5146,49.3467],[26.6099,41.5048,45.2009],[26.6049,41.491,25.7334],[26.6159,41.4803,25.0605],[26.6199,41.4721,25.0633],[26.6174,41.4499,33.2202],[26.619,41.4391,24.5496],[26.6226,41.4352,23.2535],[26.6309,41.4316,41.0198],[26.6339,41.4284,33.6605],[26.6418,41.3909,37.6026],[26.6369,41.3561,21.9093],[26.6336,41.351,22.0267],[26.6266,41.3464,19.6862],[26.6133,41.3413,33.3939],[26.6028,41.3333,24.9181],[26.5922,41.3287,23.6106],[26.5828,41.3289,19.9777],[26.5721,41.3357,20.4165],[26.5642,41.3457,19.1049],[26.5572,41.3477,18.4166],[26.5486,41.3462,19.0668],[26.5489,41.3389,19.368],[26.5406,41.3393,21.7807],[26.5339,41.3354,19.3309],[26.5272,41.3341,19.5167],[26.5217,41.3378,18.0299],[26.5179,41.3376,19.9998],[26.5161,41.3365,17.9748],[26.5148,41.3307,17.8764],[26.5109,41.3257,17.4286],[26.5005,41.3268,18.7153],[26.4959,41.3175,18.4332],[26.4907,41.3147,19.6441],[26.4895,41.3079,17.6927],[26.4855,41.3035,16.8922],[26.4713,41.3017,16.9519],[26.4683,41.2933,16.6352],[26.4581,41.2861,17.4813],[26.434,41.2764,15.6916],[26.412,41.2602,14.1729],[26.4068,41.2539,14.1909],[26.4005,41.2505,16.7901],[26.3901,41.2486,16.5923],[26.3764,41.2497,14.8048],[26.3576,41.2473,17.3255],[26.3538,41.2488,30.4879],[26.3434,41.2576,14.2067],[26.3314,41.2539,15.28],[26.3235,41.2348,13.7251],[26.326,41.2154,12.5],[26.3186,41.2001,12.4807],[26.3182,41.1945,15.2291],[26.3226,41.1838,11.0],[26.3201,41.1817,12.6372],[26.3108,41.1806,12.9724],[26.3064,41.1751,13.5555],[26.3333,41.1445,13.532],[26.3342,41.1413,10.5926],[26.3313,41.1365,11.4526],[26.3268,41.135,12.0538],[26.3245,41.1318,11.7437],[26.3177,41.1282,10.5706],[26.31,41.1176,10.5127],[26.3166,41.1128,9.9247],[26.3265,41.1149,10.4322],[26.3273,41.1115,8.8078],[26.3142,41.0879,9.3463],[26.3191,41.0635,9.4667],[26.3311,41.0419,10.1104],[26.3396,41.0428,7.8561],[26.3591,41.0276,7.7929],[26.3594,41.0216,8.3297],[26.3626,41.0186,7.4357],[26.3623,41.0133,8.7374],[26.3568,41.0005,8.4532],[26.3474,40.9894,7.5295],[26.3438,40.9871,6.876],[26.3259,40.9895,6.5329],[26.3235,40.9836,6.3473],[26.342,40.9699,4.5],[26.3531,40.9547,4.4414],[26.3509,40.9498,6.0678],[26.32,40.9441,11.457],[26.3108,40.9355,6.2241],[26.289,40.9349,4.9878],[26.2904,40.9278,4.9947],[26.2957,40.9222,4.3476],[26.2975,40.9151,3.8388],[26.3007,40.9144,3.8179],[26.3014,40.9102,4.0801],[26.2978,40.9052,4.6662],[26.2902,40.8998,3.6666],[26.2833,40.8991,3.3135],[26.2736,40.9064,3.1772],[26.2647,40.9217,4.2016],[26.2559,40.9086,5.919],[26.2542,40.8944,2.908],[26.2498,40.8914,5.9978],[26.2404,40.8907,2.698],[26.2362,40.892,3.0247],[26.2334,40.8959,3.4818],[26.2283,40.8981,3.5357],[26.223,40.8905,2.4429],[26.2282,40.8821,3.7574],[26.2262,40.8777,3.5878],[26.2181,40.8756,2.44],[26.2182,40.8715,2.3685],[26.2113,40.8693,2.0534],[26.2164,40.8655,3.3485],[26.2068,40.8599,4.4141],[26.2071,40.8584,6.4196],[26.2014,40.8522,1.8958],[26.2164,40.8486,2.6774],[26.2173,40.8367,2.6466],[26.1685,40.8164,2.469],[26.1577,40.8147,1.6882],[26.1355,40.7816,0.4546],[26.1318,40.7678,0.36],[26.1328,40.7619,0.3618],[26.1251,40.7545,0.3473],[26.1004,40.7433,0.2967],[26.0842,40.7397,0.3322],[26.0641,40.7375,0.2199],[26.0443,40.7429,0.2633]]],
[[[26.0313,40.7518,0.1818],[26.0301,40.7538,0.0],[26.0307,40.7499,0.0],[26.0318,40.7496,0.0568],[26.0318,40.7507,0.0],[26.0313,40.7518,0.1818]]],
[[[26.0118,40.789,0.0],[26.0104,40.7885,0.0828],[26.0193,40.7782,0.0777],[26.0218,40.7774,0.102],[26.0229,40.7735,0.0],[26.0274,40.769,0.0116],[26.0268,40.7724,0.0355],[26.0232,40.7749,0.0],[26.0218,40.7793,0.0],[26.0187,40.7804,0.0788],[26.0118,40.789,0.0]]],
[[[26.7396,40.6185,8.8716],[26.7368,40.6188,0.0],[26.7307,40.6151,0.0],[26.7332,40.6129,0.0],[26.7368,40.6138,6.6252],[26.7376,40.6113,0.0],[26.741,40.6132,0.0],[26.7412,40.6171,8.8716],[26.7396,40.6185,8.8716]]],
[[[26.7582,40.6215,0.0],[26.7549,40.6218,10.7525],[26.754,40.619,18.648],[26.7571,40.6188,5.9117],[26.7582,40.6215,0.0]]]]}}