{"type":"Feature","properties":{"GID_2":"TUR.59.7_1","GID_0":"TUR","country":"Turkey","GID_1":"TUR.59_1","province":"Mugla","NL_NAME_1":"NA","county":"Marmaris","VARNAME_2":"NA","NL_NAME_2":"NA","TYPE_2":"District","ENGTYPE_2":"District","CC_2":"NA","HASC_2":"TR.MG.MA","name":"Marmaris.county"},
"geometry":{"type": "MultiPolygon","coordinates": [[[[28.0365,36.5554,0.0],[28.0365,36.5582,0.0],[28.0351,36.559,0.0],[28.0349,36.5549,0.0],[28.0365,36.5554,0.0]]],
[[[28.0407,36.5624,4.3328],[28.0407,36.5635,4.3328],[28.0365,36.5629,8.7707],[28.0357,36.561,1.0373],[28.0376,36.561,4.6275],[28.0407,36.5624,4.3328]]],
[[[28.0362,36.6693,0.0],[28.036,36.6712,0.0],[28.0343,36.6668,33.5326],[28.0299,36.6643,9.1566],[28.0276,36.6599,37.9594],[28.029,36.6576,5.1198],[28.034,36.6579,85.2272],[28.0368,36.651,14.1185],[28.0415,36.6496,8.221],[28.046,36.6535,5.4252],[28.0462,36.6563,0.0],[28.0426,36.6565,13.421],[28.0435,36.6613,0.0],[28.0374,36.6654,56.9995],[28.0362,36.6693,0.0]]],
[[[28.0129,36.6668,0.0],[28.0143,36.6668,0.0],[28.0143,36.6701,15.9356],[28.0115,36.6696,13.0572],[28.0129,36.6668,0.0]]],
[[[28.1276,36.5999,39.6708],[28.126,36.6007,0.0],[28.1218,36.5976,0.0],[28.129,36.5957,12.4138],[28.1299,36.599,21.2737],[28.1276,36.5999,39.6708]]],
[[[28.0574,36.6182,10.3335],[28.0554,36.619,0.0],[28.0532,36.6132,0.0],[28.0565,36.6154,0.0],[28.0574,36.6182,10.3335]]],
[[[28.0535,36.6243,2.83],[28.0521,36.6274,0.0],[28.0507,36.6243,0.0],[28.0537,36.6232,0.0],[28.0535,36.6243,2.83]]],
[[[28.0551,36.649,0.0],[28.0504,36.6501,3.0276],[28.0488,36.6482,0.0],[28.0515,36.6488,3.0276],[28.056,36.6463,0.0],[28.0601,36.6474,9.0193],[28.0599,36.649,0.0],[28.0551,36.649,0.0]]],
[[[27.9893,36.7038,0.5465],[27.9876,36.7049,0.0],[27.9874,36.7018,0.0],[27.9899,36.701,0.0],[27.9904,36.7026,22.7305],[27.9893,36.7038,0.5465]]],
[[[27.9982,36.7093,22.575],[27.9965,36.7101,4.478],[27.9946,36.7082,9.8238],[27.9965,36.7071,9.8238],[27.9982,36.7093,22.575]]],
[[[28.0024,36.719,12.8046],[28.001,36.7201,12.8046],[27.9999,36.7179,0.0],[28.0046,36.7132,3.7766],[28.0043,36.7179,14.8083],[28.0024,36.719,12.8046]]],
[[[28.0338,36.7249,0.0],[28.0338,36.7265,0.0],[28.0315,36.7265,26.2889],[28.0265,36.7243,3.7099],[28.0179,36.7243,11.1896],[28.0151,36.7224,0.0],[28.0168,36.7193,1.6955],[28.0126,36.7196,0.0],[28.0121,36.7165,0.0],[28.0149,36.7149,0.0],[28.0149,36.7118,0.0],[28.016,36.7118,0.0],[28.0221,36.7157,26.7948],[28.0307,36.7174,18.405],[28.0338,36.7249,0.0]]],
[[[28.0413,36.6715,2.42],[28.0421,36.6732,0.0],[28.0393,36.6721,0.0],[28.0401,36.6685,0.0],[28.0418,36.6688,13.1738],[28.0413,36.6715,2.42]]],
[[[28.0432,36.6832,12.8257],[28.0426,36.6818,0.0],[28.0451,36.6826,0.0],[28.0451,36.6835,0.0],[28.0432,36.6832,12.8257]]],
[[[28.0529,36.7346,0.0],[28.0468,36.7346,6.3848],[28.0471,36.7326,10.8716],[28.0529,36.7301,22.2415],[28.0451,36.7251,1.4032],[28.0546,36.7243,0.0],[28.0607,36.7265,0.0],[28.0665,36.7337,0.0],[28.0654,36.7349,0.0],[28.0607,36.7335,62.7831],[28.0529,36.7346,0.0]]],
[[[28.1251,36.7621,0.0],[28.1235,36.7629,1.3109],[28.1243,36.761,13.7119],[28.1265,36.7601,0.0],[28.1271,36.7618,0.0],[28.1251,36.7621,0.0]]],
[[[28.2479,36.7129,0.0],[28.2485,36.7146,0.0],[28.2426,36.714,0.0],[28.2432,36.7124,0.0],[28.2479,36.7129,0.0]]],
[[[28.4415,36.7735,26.9856],[28.441,36.7771,12.9064],[28.4426,36.779,0.3161],[28.4368,36.7776,0.0],[28.4368,36.7743,3.6447],[28.431,36.7704,0.0],[28.4413,36.7707,0.0],[28.4435,36.7726,0.0],[28.4415,36.7735,26.9856]]],
[[[28.0593,36.8163,4.1886],[28.0964,36.8066,34.9589],[28.1048,36.8029,0.8496],[28.1182,36.8037,0.0],[28.129,36.7982,0.627],[28.1318,36.7938,12.5113],[28.1279,36.7918,0.0],[28.129,36.7876,3.1191],[28.1243,36.7846,22.3493],[28.1249,36.7815,29.1093],[28.1232,36.779,5.1677],[28.1254,36.7768,20.3857],[28.1251,36.7754,48.1572],[28.1226,36.776,3.2415],[28.1221,36.7732,0.0],[28.1293,36.7685,0.0],[28.1296,36.7615,0.0],[28.1332,36.7582,24.0848],[28.1329,36.7562,1.3254],[28.131,36.7543,0.0993],[28.1285,36.7543,0.0],[28.1274,36.7571,0.0],[28.1207,36.7621,0.0],[28.1215,36.7668,37.3361],[28.1193,36.769,0.0],[28.1171,36.7685,22.2903],[28.116,36.7718,0.0],[28.1124,36.7746,3.3775],[28.1124,36.7707,0.0],[28.1096,36.7701,0.0],[28.1143,36.7679,61.9341],[28.1129,36.764,0.0],[28.1085,36.7629,3.8608],[28.1049,36.7671,0.0],[28.0996,36.7682,24.6499],[28.0924,36.7626,0.0],[28.0918,36.761,3.5139],[28.094,36.7601,1.9587],[28.0943,36.7576,0.0],[28.0915,36.7568,14.4264],[28.0912,36.7526,5.3205],[28.0874,36.7526,0.0],[28.0874,36.7501,40.2358],[28.0846,36.7493,0.0],[28.0843,36.7476,0.0],[28.0846,36.7435,0.0],[28.0876,36.7432,37.3797],[28.0885,36.7407,1.1432],[28.0929,36.7418,0.0],[28.0949,36.7399,0.0],[28.1043,36.7379,32.0412],[28.1054,36.7363,2.2559],[28.1204,36.7351,0.0],[28.1224,36.7337,53.8108],[28.1224,36.7313,0.0],[28.1262,36.7318,0.0],[28.1296,36.726,0.0],[28.1257,36.7254,71.3335],[28.1126,36.7282,0.0],[28.1126,36.7235,0.0],[28.1148,36.7226,22.164],[28.1154,36.7204,4.6193],[28.1121,36.7154,75.4196],[28.1085,36.7149,10.6017],[28.1046,36.7115,22.3648],[28.1021,36.706,1.7635],[28.099,36.7051,2.81],[28.0954,36.7054,9.6775],[28.096,36.7079,0.0],[28.0893,36.7085,0.9252],[28.0854,36.7176,4.2691],[28.0879,36.7207,19.818],[28.0904,36.7204,0.0],[28.0957,36.7232,0.0],[28.0979,36.7268,0.0],[28.0876,36.7238,0.0],[28.0882,36.7282,0.0],[28.0821,36.7279,6.0761],[28.0613,36.7232,12.1261],[28.0587,36.7212,15.2662],[28.0501,36.7201,0.0],[28.0443,36.7163,36.2278],[28.0424,36.7124,63.7316],[28.0424,36.7038,62.5805],[28.0376,36.7057,12.0897],[28.0357,36.7085,17.4179],[28.0268,36.7046,16.6143],[28.0213,36.7079,13.4281],[28.0157,36.7076,4.0357],[28.0115,36.7015,11.5473],[28.0118,36.6993,13.7596],[28.0082,36.6974,0.7292],[28.0079,36.704,0.0],[28.0015,36.7043,4.3268],[28.001,36.7026,26.8038],[27.9976,36.7015,0.0],[27.9968,36.6971,4.6411],[27.9932,36.6971,0.0],[27.9904,36.6935,7.9444],[27.989,36.694,8.1832],[27.9899,36.6976,15.6448],[27.9888,36.6982,15.6448],[27.9818,36.6943,0.0],[27.9821,36.6915,0.0],[27.986,36.6885,2.0875],[27.986,36.6865,3.8736],[27.981,36.6829,4.889],[27.9779,36.6829,26.0976],[27.9807,36.6904,5.3072],[27.9779,36.691,29.7085],[27.9774,36.6932,7.3858],[27.9743,36.6918,24.4457],[27.9746,36.6879,35.6824],[27.9724,36.6854,35.2723],[27.9682,36.6846,6.0709],[27.9668,36.6865,0.0],[27.9635,36.6843,0.0],[27.964,36.6757,2.796],[27.9668,36.6768,4.3996],[27.9688,36.6757,12.909],[27.971,36.6785,0.0],[27.9754,36.6738,21.9845],[27.9871,36.6749,0.0],[27.9912,36.6704,0.0],[27.9963,36.6721,17.0634],[27.9976,36.6746,17.2252],[28.0024,36.6751,0.4034],[28.0038,36.674,17.3539],[28.0029,36.6718,0.0],[28.0057,36.6718,0.0],[28.0068,36.6699,0.0],[28.0151,36.6724,2.9198],[28.0176,36.6696,12.5045],[28.024,36.6679,0.0],[28.0296,36.6726,11.096],[28.0404,36.674,2.8228],[28.0379,36.6782,0.0],[28.0407,36.6824,1.8152],[28.0335,36.6874,3.159],[28.0376,36.6876,0.2668],[28.0393,36.6924,4.1665],[28.0413,36.6929,1.8538],[28.0449,36.6901,8.7444],[28.0465,36.686,1.1486],[28.0524,36.6835,13.2891],[28.0485,36.6754,3.8125],[28.0504,36.6732,0.0],[28.0532,36.6726,3.1835],[28.0571,36.6746,10.9623],[28.0671,36.6738,12.3742],[28.0724,36.6754,10.3212],[28.071,36.6732,54.833],[28.0685,36.6732,0.0],[28.0618,36.6613,6.6696],[28.0599,36.661,0.0],[28.061,36.6588,15.5199],[28.0549,36.6596,3.7743],[28.0526,36.6576,29.2784],[28.0529,36.6557,20.974],[28.0571,36.6538,11.6606],[28.061,36.6576,9.8184],[28.0682,36.6557,8.4194],[28.0671,36.654,0.0],[28.0646,36.6543,0.0],[28.066,36.6524,1.3794],[28.0621,36.6507,5.294],[28.0682,36.6479,12.9214],[28.0624,36.6474,0.0],[28.0615,36.6421,18.639],[28.0599,36.6407,6.3802],[28.0529,36.6421,0.9768],[28.0571,36.6376,8.9661],[28.0571,36.6354,0.0],[28.0613,36.6365,0.0],[28.0665,36.6421,57.0488],[28.0693,36.6479,0.0],[28.0715,36.6579,3.5015],[28.0729,36.6585,0.0],[28.0715,36.6588,18.4821],[28.0721,36.6604,18.4821],[28.0832,36.6604,0.651],[28.0846,36.6565,0.0],[28.0882,36.6538,8.604],[28.0876,36.6504,0.0],[28.0918,36.6501,0.6035],[28.0957,36.6451,13.3769],[28.0951,36.6401,1.7939],[28.0785,36.6265,0.0],[28.0774,36.6204,33.6687],[28.0746,36.6201,0.0],[28.0688,36.6132,78.0693],[28.0604,36.6107,0.0],[28.0596,36.6076,0.0],[28.0637,36.606,1.974],[28.0624,36.6049,15.9435],[28.0568,36.6049,23.3913],[28.0537,36.6082,3.2408],[28.0496,36.6085,1.699],[28.0485,36.6057,12.9366],[28.0435,36.604,10.5283],[28.0263,36.6026,21.9614],[28.0129,36.6063,24.479],[28.0043,36.6054,32.9731],[28.0012,36.6076,0.0],[27.9915,36.6082,0.9831],[27.9899,36.6068,33.6705],[27.9896,36.6085,23.5692],[27.9835,36.6118,18.617],[27.979,36.6093,6.7508],[27.9729,36.6115,6.2454],[27.9721,36.6099,12.5293],[27.9735,36.6076,16.7842],[27.9632,36.6071,0.0],[27.9599,36.6018,66.9676],[27.9562,36.6004,3.1081],[27.9696,36.594,15.1307],[27.9699,36.5918,0.0],[27.9787,36.5863,2.8262],[27.9737,36.5826,10.9672],[27.9674,36.5829,1.4773],[27.9651,36.5799,5.8456],[27.965699999999998,36.5776,0.0],[27.9685,36.5776,18.9193],[27.9704,36.5757,48.3423],[27.971,36.5732,0.0],[27.9804,36.5679,13.5987],[27.9787,36.5537,0.0],[27.9815,36.5554,2.9039],[27.9835,36.5543,2.8246],[27.9876,36.5601,0.0],[27.991,36.5596,0.0],[27.991,36.5621,5.3733],[27.9974,36.5682,5.2351],[28.0035,36.5629,3.2789],[28.0043,36.566,17.7598],[28.0088,36.5663,9.8846],[28.014,36.5632,0.0],[28.0179,36.5646,0.0],[28.0185,36.5663,0.0],[28.0132,36.5671,0.0],[28.0126,36.5699,9.0753],[28.0107,36.5704,28.6238],[28.0113,36.5726,0.0],[28.0093,36.5751,0.0],[28.011,36.5762,4.6701],[28.0135,36.5762,2.0825],[28.0218,36.5685,0.0],[28.0265,36.5679,11.1978],[28.0246,36.561,0.0],[28.0296,36.5632,0.0],[28.0354,36.5629,1.9514],[28.0404,36.5693,1.6822],[28.0426,36.569,0.0],[28.0449,36.5718,0.0],[28.049,36.5707,8.3921],[28.0504,36.5721,1.2322],[28.0504,36.5774,0.0],[28.0443,36.5768,8.5827],[28.0485,36.5843,0.0],[28.0493,36.5846,0.0],[28.0485,36.5793,3.3342],[28.0513,36.5779,0.0],[28.0529,36.5815,0.0],[28.059,36.584,5.0575],[28.0651,36.5907,0.0],[28.0663,36.5951,23.851],[28.074,36.5938,23.7418],[28.0757,36.5954,0.0],[28.0788,36.5954,0.0],[28.0799,36.5874,23.7981],[28.0851,36.5865,0.0],[28.0851,36.584,0.0],[28.0888,36.5821,7.1305],[28.0935,36.5868,0.0],[28.0951,36.5849,0.0],[28.0971,36.5896,27.4661],[28.1024,36.5896,0.0],[28.1063,36.5921,0.0],[28.1087,36.5974,6.7455],[28.1149,36.5999,0.0],[28.1182,36.6054,0.0],[28.1179,36.6079,19.5138],[28.1213,36.6099,7.7165],[28.1204,36.6121,30.1628],[28.1265,36.6185,0.0],[28.1268,36.6215,10.8012],[28.1299,36.6221,32.3023],[28.1463,36.6437,0.0],[28.146,36.6482,17.4172],[28.1426,36.6507,25.7064],[28.1457,36.6521,14.4757],[28.1454,36.6504,0.0],[28.1476,36.6501,0.0],[28.1476,36.6549,12.2221],[28.1507,36.6557,7.9331],[28.1524,36.6604,0.0],[28.1574,36.6629,0.0],[28.1593,36.666,27.7895],[28.1632,36.666,13.0314],[28.1643,36.669,0.0],[28.1563,36.6715,13.9266],[28.1554,36.674,7.3235],[28.159,36.6785,10.2543],[28.1651,36.6801,0.0],[28.1638,36.6843,8.845],[28.1671,36.6824,32.5502],[28.1662,36.6815,0.0],[28.1704,36.6815,9.9274],[28.1763,36.679,16.0889],[28.1824,36.681,10.1354],[28.1826,36.6838,70.3504],[28.1885,36.6838,17.1457],[28.1915,36.6871,120.6163],[28.1971,36.6857,9.6244],[28.1993,36.6904,28.2239],[28.2018,36.6913,37.8958],[28.2096,36.6885,0.0],[28.2165,36.6913,0.0],[28.2201,36.6876,5.6385],[28.2243,36.6882,0.0],[28.2271,36.6913,0.0],[28.2226,36.6935,27.5284],[28.2221,36.6974,26.2579],[28.2243,36.699,3.2424],[28.2346,36.7007,17.3441],[28.2346,36.7021,0.0],[28.2326,36.7024,0.0],[28.2254,36.7001,6.9396],[28.2257,36.7024,37.184],[28.231,36.7046,4.0361],[28.2337,36.7088,55.2296],[28.2399,36.7118,0.0],[28.2401,36.7143,0.0],[28.2382,36.7157,0.0],[28.2396,36.7176,2.9174],[28.2474,36.7157,9.3461],[28.249,36.7188,3.6626],[28.2476,36.7232,35.6159],[28.251,36.724,18.4262],[28.2538,36.7299,6.2208],[28.2615,36.7329,18.5417],[28.2635,36.7329,4.6778],[28.264,36.7299,0.0],[28.2671,36.7299,0.0],[28.2749,36.7351,0.0],[28.2793,36.7346,1.6198],[28.2829,36.7274,57.9316],[28.2821,36.7226,0.0],[28.2882,36.7199,0.0],[28.2907,36.7201,0.0],[28.2918,36.7243,7.8038],[28.2949,36.7246,0.0],[28.3035,36.7301,0.0],[28.3007,36.7318,15.157],[28.2946,36.7313,20.8729],[28.2929,36.7335,18.8443],[28.2976,36.7363,7.2463],[28.2993,36.7354,0.0],[28.3004,36.7379,0.0],[28.2968,36.7393,28.4503],[28.2962,36.7432,23.3548],[28.2918,36.749,0.0],[28.2857,36.7504,3.0537],[28.2846,36.7482,0.0],[28.2796,36.7476,0.0],[28.2793,36.7454,39.4211],[28.276,36.7443,7.1112],[28.2693,36.7471,0.8345],[28.2676,36.7546,4.9427],[28.2713,36.7582,0.0],[28.2682,36.7582,23.7722],[28.2665,36.7604,3.0033],[28.2679,36.766,8.67],[28.2604,36.7674,2.8637],[28.2535,36.7724,0.0],[28.2524,36.7707,2.1221],[28.249,36.7726,1.8926],[28.2501,36.7785,0.0],[28.2535,36.7776,6.6374],[28.2557,36.779,2.6003],[28.2524,36.7826,26.3946],[28.2529,36.7857,86.2457],[28.2557,36.7871,29.726],[28.2565,36.7918,0.0],[28.2535,36.7918,56.8042],[28.2485,36.7951,15.8758],[28.2488,36.7976,0.0],[28.2462,36.7985,9.9943],[28.2454,36.801,0.0],[28.2376,36.7999,24.5172],[28.2329,36.8043,4.3388],[28.2337,36.8074,9.1114],[28.2412,36.8121,20.6723],[28.2446,36.8182,0.0],[28.2443,36.8307,0.0],[28.2474,36.8354,1.0788],[28.2685,36.8526,4.6219],[28.2707,36.8526,7.2204],[28.2735,36.8496,0.9107],[28.2757,36.8499,0.2092],[28.276,36.8521,4.4099],[28.2776,36.8524,1.048],[28.2787,36.849,0.0],[28.284,36.8482,0.2536],[28.2882,36.8415,0.0],[28.294,36.839,9.2265],[28.2949,36.8335,0.0],[28.3018,36.829,12.3036],[28.3074,36.8282,2.0615],[28.3076,36.8268,0.0],[28.3093,36.829,13.0142],[28.3113,36.829,1.4324],[28.3154,36.8268,0.0],[28.3151,36.8232,0.0],[28.3121,36.8221,0.0],[28.3126,36.8179,0.5808],[28.3063,36.8201,0.0],[28.3043,36.8171,2.0508],[28.301,36.8196,0.0],[28.2982,36.8165,19.8668],[28.2935,36.8193,0.5995],[28.2815,36.8121,0.0],[28.2768,36.8146,2.6844],[28.2743,36.8124,15.464],[28.2657,36.814,0.0],[28.2735,36.8051,3.202],[28.2737,36.8026,8.1051],[28.2699,36.7996,0.0],[28.2701,36.7976,0.0],[28.2835,36.7946,6.8949],[28.2832,36.7924,4.995],[28.286,36.7904,0.0],[28.2885,36.7929,24.6029],[28.2918,36.7924,0.0],[28.2929,36.7957,33.2152],[28.3001,36.7943,3.6668],[28.3032,36.7965,0.0],[28.311,36.7938,5.3124],[28.314,36.7949,1.9008],[28.3118,36.7988,0.0],[28.3079,36.7985,38.6135],[28.3015,36.8037,3.7164],[28.306,36.8107,0.0],[28.3063,36.8157,1.0758],[28.3113,36.8171,0.2345],[28.3207,36.814,32.702],[28.3243,36.8112,20.0457],[28.3351,36.8093,11.8215],[28.3396,36.8065,0.0],[28.3421,36.8076,8.1383],[28.3537,36.8068,2.9236],[28.3576,36.8001,0.0],[28.3668,36.7946,0.0],[28.3721,36.7951,0.0],[28.3738,36.7982,2.7304],[28.3782,36.7979,10.5966],[28.3821,36.7943,16.1578],[28.3818,36.7879,3.3204],[28.391,36.7893,8.9399],[28.3946,36.7854,0.0],[28.3982,36.7846,0.0],[28.4076,36.7882,3.8399],[28.4076,36.7935,4.1679],[28.4126,36.7965,0.0],[28.4118,36.8015,0.0],[28.4157,36.8046,0.0],[28.4143,36.8099,24.8689],[28.4246,36.8182,16.4533],[28.4254,36.821,0.0],[28.4229,36.8224,0.0],[28.4232,36.826,0.0],[28.4274,36.8296,0.0],[28.4257,36.8321,12.821],[28.4268,36.8357,0.0],[28.4243,36.839,0.0],[28.4176,36.8365,20.0395],[28.4079,36.8404,6.2526],[28.3971,36.8379,0.0],[28.3968,36.8354,7.8745],[28.3915,36.8351,1.2393],[28.391,36.8363,0.0],[28.3879,36.8351,0.9326],[28.3868,36.8393,0.0],[28.3826,36.8379,14.5382],[28.3835,36.8404,0.0],[28.3796,36.8426,0.3056],[28.3785,36.8451,0.4414],[28.3806,36.8479,2.7032],[28.3714,36.8521,312.4678],[28.3713,36.8892,562.9833],[28.373,36.905,767.0052],[28.3767,36.9139,518.0724],[28.3946,36.9379,565.9014],[28.3579,36.9491,265.9194],[28.3282,36.9665,439.9342],[28.3079,36.9753,204.5412],[28.2995,36.983,126.3633],[28.2883,36.999,280.5065],[28.268,37.016,0.6582],[28.2671,37.0149,1.2051],[28.2685,37.0129,7.7335],[28.2654,37.011,9.8974],[28.2562,37.009,1.9626],[28.2504,37.004,1.8015],[28.2451,37.0032,0.9502],[28.2462,37.0004,0.0],[28.2485,37.0007,6.7485],[28.249,36.999,4.5081],[28.2565,36.9963,25.0193],[28.2568,36.9935,0.0],[28.2535,36.991,0.0],[28.2474,36.9896,5.7864],[28.2421,36.9929,0.0],[28.2324,36.9918,54.3839],[28.2232,36.9963,33.4133],[28.2215,36.9993,2.3176],[28.219,36.9987,32.2366],[28.219,36.9974,32.2366],[28.2157,36.9987,9.3876],[28.2151,36.9951,20.208],[28.2132,36.994,5.7761],[28.2132,36.9899,4.6119],[28.2157,36.9874,1.2236],[28.2151,36.9851,22.1665],[28.1974,36.9826,0.7604],[28.199,36.9813,3.7554],[28.2054,36.9813,13.8653],[28.2088,36.9787,0.0],[28.214,36.9785,0.0],[28.216,36.9765,1.1158],[28.2143,36.9746,11.0312],[28.209,36.9738,0.0],[28.204,36.9693,7.8371],[28.201,36.9693,8.2912],[28.2051,36.9635,20.1924],[28.2062,36.9535,0.1828],[28.2024,36.949,1.2922],[28.1932,36.9479,4.6275],[28.1935,36.9432,12.7141],[28.1913,36.9404,6.2685],[28.1887,36.9401,1.1],[28.1879,36.9424,0.0],[28.1863,36.9418,1.1908],[28.1851,36.9435,6.496],[28.1879,36.9449,0.0],[28.1876,36.9482,8.9051],[28.1776,36.9476,10.8423],[28.1743,36.9518,1.3515],[28.1735,36.9482,21.9068],[28.1746,36.946,7.4336],[28.1732,36.9451,24.7324],[28.1718,36.9499,4.7984],[28.169,36.9493,16.4213],[28.1688,36.9515,3.0898],[28.1649,36.9485,40.399],[28.1624,36.9493,3.3919],[28.1582,36.9454,27.7396],[28.1579,36.9437,0.0],[28.1599,36.9424,23.5835],[28.1688,36.9418,7.2367],[28.1707,36.9396,3.6716],[28.1704,36.9376,6.448],[28.1651,36.939,0.0],[28.1612,36.936,0.0],[28.1632,36.9343,7.8078],[28.1671,36.936,18.9849],[28.1679,36.9338,28.4644],[28.166,36.9321,14.6136],[28.1688,36.9315,4.6137],[28.1688,36.9293,3.3795],[28.1726,36.9265,2.5463],[28.1665,36.9201,5.7969],[28.1682,36.919,4.9842],[28.1726,36.921,2.8512],[28.1676,36.9132,9.0727],[28.1651,36.9135,0.0],[28.1679,36.9104,9.607],[28.1679,36.9068,16.3017],[28.1657,36.9079,0.0],[28.1643,36.9057,0.0099],[28.1596,36.9079,0.0],[28.1615,36.9174,0.0],[28.1568,36.9212,34.1818],[28.1568,36.9238,17.467],[28.1585,36.921,7.3803],[28.1588,36.9238,14.3629],[28.161,36.9232,1.0019],[28.159,36.9265,1.483],[28.1479,36.9282,0.0],[28.1499,36.9221,6.9323],[28.146,36.9188,0.0],[28.1437,36.921,6.0456],[28.1443,36.9232,6.5488],[28.1404,36.9254,10.7142],[28.1385,36.9293,14.3512],[28.1399,36.9307,0.0],[28.139,36.9346,0.0],[28.1363,36.9326,0.0],[28.1365,36.9293,0.8536],[28.1346,36.929,0.8536],[28.1299,36.9338,0.0],[28.1251,36.9343,10.1484],[28.1238,36.9371,1.8293],[28.1218,36.9368,0.0],[28.1218,36.9332,49.2009],[28.1185,36.9335,12.8869],[28.1182,36.9321,12.8869],[28.1101,36.9329,50.6847],[28.1099,36.9343,4.6645],[28.1124,36.9362,5.8884],[28.1065,36.9365,65.6753],[28.1054,36.9385,28.155],[28.0996,36.9404,33.6773],[28.0971,36.9407,1.8298],[28.0963,36.939,24.0781],[28.0993,36.9365,0.0],[28.099,36.9332,14.5186],[28.0946,36.931,3.1461],[28.0921,36.9315,2.6227],[28.0963,36.9324,0.0],[28.0974,36.9346,14.7902],[28.0935,36.9349,53.5318],[28.0921,36.9379,5.7238],[28.0843,36.9385,82.4305],[28.0799,36.9412,13.5614],[28.079,36.9396,37.9803],[28.0754,36.9393,38.0414],[28.0743,36.9424,2.7259],[28.0724,36.9424,0.0],[28.0721,36.9404,53.5472],[28.0688,36.9379,86.5851],[28.0651,36.9388,0.0],[28.0646,36.9368,64.0436],[28.0587,36.9351,65.9784],[28.0435,36.936,3.5508],[28.0443,36.934,28.454],[28.0521,36.9313,0.0],[28.0618,36.9321,49.981],[28.0732,36.9299,6.1552],[28.0718,36.9279,7.2931],[28.0688,36.9296,0.0],[28.0599,36.929,0.0],[28.0585,36.9263,0.0],[28.0543,36.9263,8.5941],[28.0535,36.9243,15.797],[28.051,36.9254,2.5004],[28.0507,36.9232,12.2509],[28.0443,36.921,44.0282],[28.0415,36.921,26.6359],[28.0396,36.9238,0.0],[28.0304,36.9215,17.5993],[28.0293,36.9235,8.279],[28.0304,36.9246,0.0],[28.0207,36.9257,0.0],[28.0213,36.9238,0.0],[28.0238,36.9243,2.083],[28.0271,36.9212,4.2229],[28.0232,36.9193,0.0],[28.0393,36.9182,1.4122],[28.0382,36.916,8.4057],[28.0407,36.9146,2.8034],[28.0404,36.9104,0.0],[28.0438,36.9101,15.0651],[28.0357,36.906,23.1964],[28.0287,36.9079,10.6705],[28.0143,36.9057,0.0],[28.016,36.904,3.7214],[28.019,36.9049,3.3846],[28.026,36.9035,19.0693],[28.0326,36.8974,10.5446],[28.0504,36.8971,24.6495],[28.0521,36.8946,0.0],[28.0488,36.8918,47.779],[28.0449,36.8918,19.3891],[28.0407,36.8871,0.0],[28.0404,36.8843,1.3023],[28.0424,36.8843,36.745],[28.0429,36.8821,9.5311],[28.0454,36.8812,2.9596],[28.0479,36.8824,18.4958],[28.051,36.8796,0.0],[28.0543,36.8799,0.0],[28.0565,36.8829,5.4152],[28.059,36.8835,2.5294],[28.0574,36.8804,0.0],[28.059,36.8788,5.1583],[28.0543,36.8757,19.9974],[28.0563,36.8715,14.9398],[28.0479,36.8721,0.0],[28.0465,36.8707,5.8529],[28.0485,36.8685,0.0],[28.0557,36.8682,1.609],[28.0535,36.8657,5.2534],[28.0474,36.8668,11.2944],[28.0435,36.8632,22.683],[28.0371,36.8651,4.0496],[28.0354,36.8624,2.2263],[28.0365,36.8601,24.1705],[28.0296,36.8568,7.4101],[28.028199999999998,36.8585,4.674],[28.0246,36.8568,13.8668],[28.0204,36.8582,13.8226],[28.0199,36.8624,0.0],[28.0171,36.864,0.0],[28.0151,36.8632,0.0],[28.016,36.8571,0.0],[28.0121,36.8565,3.5737],[28.0118,36.8551,28.2473],[28.0093,36.8557,2.7685],[28.0054,36.8529,5.5232],[28.0001,36.8535,0.0],[28.0068,36.8518,0.0],[28.014,36.8537,0.0],[28.0146,36.8499,18.2164],[28.0129,36.8485,0.0],[28.0179,36.8463,45.8882],[28.0118,36.8451,0.0],[28.0146,36.8438,15.2471],[28.0171,36.8449,14.8783],[28.019,36.8421,10.0255],[28.0215,36.8424,8.6872],[28.0218,36.8404,0.0],[28.0254,36.8387,8.606],[28.0312,36.839,16.1543],[28.0299,36.8371,5.392],[28.0146,36.8382,0.0],[28.0121,36.8368,33.632],[28.004,36.8371,0.0],[28.0024,36.8351,0.0],[28.0046,36.8351,0.0],[28.0054,36.8335,0.0],[28.0099,36.8343,17.8135],[28.0113,36.8326,5.3415],[28.0138,36.8329,6.4591],[28.0149,36.831,0.0],[28.0185,36.8304,10.878],[28.0174,36.8276,5.4099],[28.029,36.8282,0.0],[28.031,36.829,7.6876],[28.0304,36.8312,9.3904],[28.0365,36.8315,6.027],[28.0371,36.8299,0.0],[28.0388,36.8299,0.0],[28.0399,36.8321,19.1039],[28.0421,36.8304,0.0],[28.0446,36.831,22.6507],[28.044,36.829,24.8002],[28.0457,36.8285,0.0],[28.056,36.8338,13.9552],[28.0551,36.8307,22.5204],[28.0518,36.8299,0.0],[28.0526,36.8282,1.669],[28.0551,36.8279,15.6419],[28.0532,36.8254,0.0],[28.0557,36.8251,0.0],[28.0571,36.8268,0.2314],[28.0649,36.824,1.1913],[28.0651,36.8199,2.4135],[28.0593,36.8163,4.1886]]],
[[[28.2601,36.8085,5.1839],[28.2565,36.8099,20.8659],[28.2532,36.8074,0.0],[28.251,36.8074,42.1077],[28.2504,36.8096,0.0],[28.2432,36.8079,0.0],[28.2446,36.8051,2.0502],[28.256,36.8035,60.8925],[28.2568,36.7999,3.1743],[28.2599,36.7979,0.0],[28.2585,36.8004,1.3357],[28.2599,36.8026,23.0425],[28.2582,36.8037,23.0425],[28.2613,36.806,25.5414],[28.2601,36.8085,5.1839]]],
[[[28.289,36.8199,0.0],[28.2882,36.8213,3.2756],[28.2826,36.8213,0.0],[28.278199999999998,36.8196,0.0],[28.2793,36.8187,0.0],[28.289,36.8199,0.0]]],
[[[28.1993,36.9621,11.9688],[28.1985,36.9637,11.9688],[28.1965,36.9637,19.4545],[28.1893,36.9579,0.0],[28.1957,36.9571,29.6629],[28.1996,36.9585,0.0],[28.1993,36.9621,11.9688]]],
[[[28.2057,36.9949,0.0],[28.2065,36.9954,0.0],[28.2018,36.9935,4.0215],[28.2004,36.991,6.5285],[28.2104,36.9912,2.1477],[28.2096,36.9935,0.0],[28.2054,36.9932,1.0159],[28.2057,36.9949,0.0]]],
[[[28.2099,36.9979,0.0],[28.2088,36.9996,0.0],[28.2049,36.9993,0.0],[28.2051,36.9976,1.5942],[28.2099,36.9979,0.0]]],
[[[28.0454,36.8746,1.5865],[28.0451,36.8763,1.7505],[28.0413,36.876,0.0],[28.0424,36.8732,0.0],[28.0454,36.8746,1.5865]]],
[[[28.1571,36.9365,5.9905],[28.1549,36.9376,0.0],[28.153199999999998,36.9343,5.0254],[28.1565,36.9335,0.0],[28.1571,36.9365,5.9905]]],
[[[28.1565,36.9446,5.5694],[28.1546,36.946,0.0],[28.1535,36.9457,0.0],[28.154,36.944,0.0],[28.1565,36.9446,5.5694]]],
[[[28.2418,37.0029,0.0],[28.2388,37.0032,3.0141],[28.2379,37.0021,3.0141],[28.2418,37.0015,0.0],[28.2418,37.0029,0.0]]],
[[[28.0265,36.8682,0.5115],[28.0179,36.8679,0.992],[28.0215,36.866,2.0056],[28.0276,36.866,0.0],[28.0265,36.8682,0.5115]]],
[[[28.0374,36.8704,0.0],[28.0362,36.8715,10.6967],[28.0321,36.8682,0.0],[28.0335,36.8682,0.0],[28.0374,36.8704,0.0]]],
[[[28.0351,36.8851,0.8816],[28.0338,36.8854,0.8816],[28.0343,36.8826,0.0],[28.0362,36.884,0.0],[28.0351,36.8851,0.8816]]]]}}