{"type":"Feature","properties":{"GID_2":"TUR.18.7_1","GID_0":"TUR","country":"Turkey","GID_1":"TUR.18_1","province":"Bitlis","NL_NAME_1":"NA","county":"Tatvan","VARNAME_2":"NA","NL_NAME_2":"NA","TYPE_2":"District","ENGTYPE_2":"District","CC_2":"NA","HASC_2":"TR.BT.TA","name":"Tatvan.county"},
"geometry":{"type": "MultiPolygon","coordinates": [[[[42.5955,38.7459,1647.5],[42.5732,38.7415,1647.5],[42.5005,38.74,1647.5],[42.4719,38.7315,1647.5],[42.4515,38.7277,1647.5],[42.4418,38.7239,1647.5],[42.4184,38.71,1680.9843],[42.3999,38.7022,1686.0753],[42.3767,38.6882,1726.1565],[42.3627,38.6838,1778.6226],[42.3347,38.6823,1866.1389],[42.2941,38.6834,2162.4604],[42.2796,38.6865,2271.1877],[42.2599,38.6947,2400.4951],[42.2411,38.6726,2536.3633],[42.233,38.6491,2482.3977],[42.2184,38.6257,2247.5],[42.1958,38.6031,2318.2727],[42.1804,38.5797,1989.0017],[42.1764,38.5658,1958.5161],[42.1759,38.5355,1885.0787],[42.1739,38.5238,1791.1321],[42.1698,38.5163,1790.345],[42.1526,38.4955,1883.5361],[42.1641,38.479,1801.0508],[42.1804,38.4676,1946.9037],[42.1868,38.4603,2052.426],[42.1891,38.4546,2262.5522],[42.1928,38.4308,1795.0038],[42.1955,38.4254,1935.063],[42.2071,38.414,1982.6456],[42.2158,38.4086,2376.0229],[42.2438,38.4009,2220.4504],[42.2596,38.3871,1787.3566],[42.2672,38.3826,1720.0171],[42.3126,38.3649,2176.4019],[42.342,38.3476,2554.1221],[42.3873,38.3302,2199.8752],[42.3973,38.3232,1921.2577],[42.4091,38.311,1791.772],[42.4326,38.306399999999996,2102.1711],[42.4591,38.2909,2316.825],[42.4777,38.2834,1857.0771],[42.4921,38.2741,1567.6224],[42.5274,38.2469,2115.0312],[42.5439,38.2406,2128.9253],[42.5682,38.2405,1992.2394],[42.577,38.2436,1999.2834],[42.5901,38.2577,1891.0792],[42.6049,38.2706,1914.2158],[42.6395,38.2978,2673.1492],[42.6573,38.3078,2789.9858],[42.675,38.3103,2607.4966],[42.7311,38.3101,2286.6638],[42.7278,38.3206,2795.6543],[42.7185,38.337,2263.9458],[42.7129,38.3556,1861.6577],[42.6879,38.3951,2009.0171],[42.6861,38.4034,1975.2175],[42.686,38.4147,1965.2571],[42.6904,38.428,1674.5522],[42.7059,38.4425,1647.5],[42.7296,38.4582,1647.5],[42.8656,38.5098,1647.5],[42.8818,38.5193,1647.5],[42.9028,38.5373,1647.5],[42.9243,38.5668,1647.5],[42.9389,38.5903,1647.5],[42.9462,38.6143,1647.5],[42.8924,38.6344,1647.5],[42.8744,38.636,1647.5],[42.8259,38.6359,1647.5],[42.8082,38.6385,1647.5],[42.7756,38.6569,1647.5],[42.7001,38.6862,1647.5],[42.6616,38.7123,1647.5],[42.6401,38.7214,1647.5],[42.6139,38.7377,1647.5],[42.5955,38.7459,1647.5]]]]}}