{"type": "Feature","bbox": [38.9055,40.0125,39.3199,40.3507],"geometry": {"type": "MultiPolygon","coordinates": [[[[39.1158,40.0125,2420.4084],[39.1269,40.0254,2143.6199],[39.1326,40.0438,1919.4961],[39.1369,40.0511,1855.9269],[39.1454,40.0594,1738.8307],[39.1558,40.0662,1684.8176],[39.1654,40.0695,1884.0813],[39.1797,40.0701,1600.9905],[39.19,40.0682,1452.1687],[39.2102,40.0604,1687.3025],[39.2234,40.0595,1971.7744],[39.235,40.0638,1749.7599],[39.2463,40.0781,1592.8599],[39.2498,40.0855,1410.0112],[39.2505,40.0965,1332.7025],[39.2482,40.1046,1496.1189],[39.2395,40.1182,1457.0758],[39.2369,40.1262,1512.0861],[39.2354,40.1433,1632.6705],[39.237,40.1574,1573.0594],[39.2407,40.1653,1552.2842],[39.2472,40.1722,1547.7112],[39.3053,40.218,1911.3535],[39.3182,40.2387,1822.2205],[39.3199,40.2474,1999.5161],[39.3128,40.2658,1946.4668],[39.3112,40.2935,1936.1384],[39.2873,40.2932,1959.3267],[39.2696,40.2966,2146.9534],[39.2539,40.2816,2091.562],[39.2385,40.2716,2449.7656],[39.2249,40.2687,2444.2683],[39.2073,40.2704,2153.2349],[39.1395,40.298,2154.2092],[39.0715,40.3507,3023.6868],[39.043,40.3302,2615.5483],[38.9612,40.2985,1882.5171],[38.9222,40.2702,1713.5273],[38.9107,40.2588,1676.7562],[38.907,40.2508,1908.0413],[38.9055,40.2338,2019.2156],[38.9073,40.1836,1693.047],[38.9057,40.1698,1511.113],[38.9063,40.1498,1517.8754],[38.909,40.1417,1641.3617],[38.9128,40.1365,1619.2443],[38.9442,40.1101,1315.163],[38.948,40.1049,1353.1865],[38.9504,40.0968,1295.7616],[38.9481,40.0831,1697.8108],[38.9431,40.0764,1832.6917],[38.9285,40.0627,1977.8196],[38.9644,40.0567,2283.7288],[39.0091,40.0395,2286.1399],[39.0393,40.0332,2282.1663],[39.0871,40.0151,2367.1365],[39.1158,40.0125,2420.4084]]]]}
,"properties": {"GID_2": "TUR.35.5_1","GID_0": "TUR","country": "Turkey","GID_1": "TUR.35_1","province": "Gümüshane","NL_NAME_1": "NA","county": "Şiran","VARNAME_2": "NA","NL_NAME_2": "NA","TYPE_2": "District","ENGTYPE_2": "District","CC_2": "NA","HASC_2": "TR.GU.SI","name": "Şiran.county","area_km2": 850.0297,"hist_schema_id": "Elevation0-9000","hist_area_km2": {"1125": 0.0324,"1150": 0.7946,"1175": 1.7352,"1200": 2.6595,"1225": 3.0327,"1250": 6.4213,"1275": 12.7762,"1300": 16.9409,"1325": 22.6778,"1350": 25.8371,"1375": 29.9679,"1400": 36.2052,"1425": 40.5436,"1450": 47.0045,"1475": 44.6021,"1500": 40.7768,"1525": 42.1521,"1550": 41.518,"1575": 35.7965,"1600": 31.2598,"1625": 26.9342,"1650": 26.656,"1675": 22.8795,"1700": 23.1693,"1725": 22.4235,"1750": 21.032,"1775": 18.7982,"1800": 18.7977,"1825": 17.5652,"1850": 14.2636,"1875": 13.3576,"1900": 12.06,"1925": 11.2179,"1950": 9.631,"1975": 7.6884,"2000": 7.2843,"2025": 6.1354,"2050": 5.3591,"2075": 4.9549,"2100": 5.0038,"2125": 4.1779,"2150": 4.4046,"2175": 4.3725,"2200": 4.8438,"2225": 5.2335,"2250": 4.9748,"2275": 4.0509,"2300": 5.8352,"2325": 5.9343,"2350": 4.5544,"2375": 3.5168,"2400": 3.0306,"2425": 1.5862,"2450": 1.4716,"2475": 1.3744,"2500": 1.3907,"2525": 1.1319,"2550": 0.9863,"2575": 1.148,"2600": 0.9378,"2625": 0.8083,"2650": 0.6304,"2675": 0.6627,"2700": 0.4687,"2725": 0.5819,"2750": 0.5495,"2775": 0.598,"2800": 0.501,"2825": 0.3556,"2850": 0.3232,"2875": 0.404,"2900": 0.3232,"2925": 0.3232,"2950": 0.3394,"2975": 0.1616,"3000": 0.0485,"3025": 0.0485}}}