{"type":"Feature","properties":{"GID_2":"TUR.37.4_1","GID_0":"TUR","country":"Turkey","GID_1":"TUR.37_1","province":"Hatay","NL_NAME_1":"NA","county":"Erzin","VARNAME_2":"NA","NL_NAME_2":"NA","TYPE_2":"District","ENGTYPE_2":"District","CC_2":"NA","HASC_2":"TR.HT.ER","name":"Erzin.county"},
"geometry":{"type": "MultiPolygon","coordinates": [[[[35.934,36.8799,0.5337],[35.936,36.8807,0.3887],[35.9435,36.8743,0.0],[35.9443,36.8654,0.0],[35.9463,36.8646,0.0],[35.9449,36.8743,0.0],[35.9388,36.879,0.0],[35.9404,36.8824,0.0],[35.9371,36.8835,1.8376],[35.9371,36.886,3.4136],[35.9449,36.8899,0.0],[35.954,36.8907,0.0],[35.9588,36.894,0.5852],[35.964,36.904,12.98],[35.9751,36.9082,0.0],[35.9801,36.914,3.9295],[35.9837,36.9101,0.0],[35.9829,36.9071,0.0],[35.984,36.9057,0.0],[35.9854,36.9093,0.0],[35.9826,36.9157,2.1683],[35.9849,36.9188,7.4542],[35.9882,36.9185,0.0],[35.9921,36.9118,0.0],[35.9912,36.9068,0.0],[35.9926,36.9074,0.0],[35.9938,36.9113,0.0],[35.9893,36.9199,0.0],[36.0015,36.926,0.0],[36.0049,36.9301,3.087],[36.0071,36.9307,1.8118],[36.0171,36.9301,1.5549],[36.0185,36.9285,0.2148],[36.0276,36.9274,1.7106],[36.0315,36.9243,0.7326],[36.0365,36.924,2.0559],[36.0376,36.9218,0.0],[36.0429,36.9193,0.9184],[36.0576,36.916,1.2713],[36.0588,36.9137,0.0],[36.0699,36.9093,1.9257],[36.0807,36.9026,0.8637],[36.0826,36.9032,1.307],[36.079,36.9049,1.3147],[36.0785,36.9068,1.5757],[36.0826,36.9049,1.6247],[36.0851,36.9054,1.3445],[36.0829,36.9007,0.5239],[36.0849,36.9029,1.409],[36.089,36.9021,1.6274],[36.0882,36.9001,2.7208],[36.086,36.9013,0.5],[36.0854,36.9001,0.62],[36.1143,36.8839,1.3578],[36.1468,36.8825,18.2451],[36.171,36.8844,49.9508],[36.1765,36.8867,58.8203],[36.1896,36.8993,109.1293],[36.1971,36.9038,132.3143],[36.2786,36.936,566.498],[36.2995,36.9521,800.6464],[36.3117,36.9685,1056.2484],[36.2983,36.9866,1058.1287],[36.2899,36.9944,1275.6716],[36.2547,37.0087,746.3824],[36.2046,37.0124,276.1534],[36.1795,37.02,241.2864],[36.1645,37.0223,132.5987],[36.0881,37.0227,212.2257],[36.0416,37.0256,216.2116],[36.0118,37.0024,200.9411],[35.9956,36.9944,179.8536],[35.9786,36.9828,185.7419],[35.9542,36.9637,117.5266],[35.943,36.9521,133.1222],[35.9143,36.9085,170.1857],[35.9126,36.9035,87.3544],[35.9136,36.8955,67.9139],[35.9188,36.889,113.4628],[35.934,36.8799,0.5337]]]]}}