{"type": "Feature","bbox": [35.7796,36.2671,36.3371,36.6854],"geometry": {"type": "MultiPolygon","coordinates": [[[[36.2522,36.5399,1068.5879],[36.2805,36.5673,1380.8936],[36.3047,36.6047,1515.38],[36.3254,36.6255,1353.8802],[36.3371,36.6506,980.1906],[36.2971,36.6495,980.8401],[36.2784,36.6529,956.2093],[36.2721,36.6595,1022.0907],[36.267,36.6781,1022.4633],[36.2587,36.6836,863.6642],[36.239,36.6854,593.0089],[36.2112,36.6816,2.7698],[36.211,36.6746,0.0],[36.2124,36.6721,2.3441],[36.2107,36.6707,0.0],[36.2124,36.6668,0.0],[36.204,36.6635,0.0],[36.2121,36.6651,0.0],[36.2146,36.6632,0.1217],[36.2157,36.6593,12.7963],[36.2118,36.6524,0.0],[36.211,36.6407,0.0],[36.2071,36.639,3.6728],[36.2057,36.6351,5.017],[36.1976,36.6301,0.0],[36.1963,36.6221,0.0],[36.1974,36.6218,0.9302],[36.1971,36.6135,1.8196],[36.1982,36.6124,1.8196],[36.1968,36.6118,2.8041],[36.1968,36.6049,3.5618],[36.1951,36.6051,2.094],[36.1963,36.6029,2.413],[36.1946,36.599,2.5114],[36.1876,36.5996,0.0],[36.1946,36.5965,2.4362],[36.1929,36.5935,2.5305],[36.1907,36.596,2.6022],[36.1893,36.5932,2.1091],[36.1888,36.5951,1.5351],[36.1862,36.5954,0.7407],[36.1871,36.5937,1.6447],[36.1854,36.5924,1.0108],[36.1768,36.5915,1.853],[36.1774,36.5951,0.3793],[36.1757,36.5921,0.4258],[36.1732,36.5915,1.2351],[36.1621,36.5951,1.8482],[36.1532,36.5907,0.5153],[36.1488,36.5907,0.0],[36.1396,36.5851,2.23],[36.1374,36.5804,2.0721],[36.1218,36.5735,2.6486],[36.1218,36.5721,2.6486],[36.1101,36.5662,1.0544],[36.1043,36.5646,1.0189],[36.0971,36.5585,4.5009],[36.051,36.5376,21.3095],[36.0368,36.5337,2.7365],[36.034,36.5257,1.1093],[36.031,36.5229,0.0],[36.0296,36.519,0.0],[36.0218,36.5149,0.0],[36.0118,36.5018,9.8056],[36.0062,36.4976,15.1996],[35.9982,36.4949,4.0196],[35.9929,36.4851,2.052],[35.9826,36.4743,0.6756],[35.9712,36.4712,1.3457],[35.9607,36.466,2.3847],[35.9546,36.466,0.0],[35.9418,36.4596,13.6095],[35.9321,36.4604,1.8346],[35.9257,36.4501,5.3498],[35.9179,36.4468,0.0],[35.9154,36.4437,14.3953],[35.9132,36.4432,8.5727],[35.9096,36.4451,0.9352],[35.9068,36.4401,4.7657],[35.9015,36.4376,1.0786],[35.9004,36.4249,0.0],[35.896,36.4154,6.2698],[35.8943,36.414,6.2698],[35.8857,36.4137,6.0552],[35.8821,36.4165,0.0],[35.8801,36.4162,1.3011],[35.8743,36.4101,3.9438],[35.8732,36.4057,0.0],[35.8696,36.4012,21.9311],[35.8604,36.3957,0.0934],[35.859,36.3782,4.0487],[35.8568,36.3724,0.0],[35.8535,36.369,4.5137],[35.8382,36.3657,0.0],[35.8312,36.366,0.0],[35.821,36.3601,5.6236],[35.8174,36.3593,0.0],[35.816,36.3604,0.0],[35.816,36.3521,0.0],[35.8132,36.3457,10.9825],[35.8082,36.3421,1.4967],[35.8074,36.3396,7.0563],[35.8024,36.3385,7.8371],[35.7993,36.3351,20.3493],[35.7951,36.3349,0.0],[35.7887,36.3304,11.7963],[35.7854,36.3237,16.2036],[35.781,36.3224,0.0],[35.7796,36.3176,1.1912],[35.7843,36.3071,3.7659],[35.7832,36.3024,0.0],[35.7804,36.2993,0.0],[35.7832,36.2946,11.1846],[35.7829,36.2915,0.0],[35.7882,36.2874,12.096],[35.7901,36.2804,0.0],[35.799,36.2746,1.1684],[35.8049,36.2671,11.0736],[35.8321,36.2861,784.3168],[35.8778,36.3032,1311.5978],[35.9159,36.3201,875.4475],[35.9375,36.3325,687.8352],[35.9557,36.3395,703.3942],[35.9853,36.3571,527.6845],[36.0454,36.3804,843.2728],[36.0827,36.3931,884.7007],[36.0618,36.4315,686.8682],[36.0626,36.4401,434.6471],[36.0722,36.4513,727.1144],[36.112,36.4805,857.2755],[36.1364,36.4911,879.9962],[36.1627,36.5069,404.0302],[36.1961,36.5195,589.7148],[36.2264,36.5257,804.1331],[36.2522,36.5399,1068.5879]]]]}
,"properties": {"GID_2": "TUR.37.6_1","GID_0": "TUR","country": "Turkey","GID_1": "TUR.37_1","province": "Hatay","NL_NAME_1": "NA","county": "İskenderun","VARNAME_2": "NA","NL_NAME_2": "NA","TYPE_2": "District","ENGTYPE_2": "District","CC_2": "NA","HASC_2": "TR.HT.IS","name": "İskenderun.county","area_km2": 570.5051,"hist_schema_id": "Elevation0-9000","hist_area_km2": {"0": 41.3633,"25": 60.603,"50": 36.1007,"75": 25.9693,"100": 21.4151,"125": 19.2325,"150": 18.517,"175": 17.3752,"200": 15.2789,"225": 15.1928,"250": 13.8974,"275": 12.5342,"300": 12.3301,"325": 12.211,"350": 12.4492,"375": 11.1537,"400": 10.4875,"425": 10.2995,"450": 9.6348,"475": 8.7311,"500": 7.2995,"525": 8.1509,"550": 7.0254,"575": 8.3555,"600": 6.7686,"625": 8.0991,"650": 7.5012,"675": 7.7585,"700": 6.8879,"725": 6.7339,"750": 6.3082,"775": 6.8364,"800": 7.0408,"825": 6.0868,"850": 5.5739,"875": 4.8244,"900": 4.9427,"925": 5.01,"950": 4.43,"975": 4.4981,"1000": 4.2946,"1025": 3.629,"1050": 3.7658,"1075": 3.2374,"1100": 3.1524,"1125": 2.7258,"1150": 2.8625,"1175": 2.3685,"1200": 2.2664,"1225": 2.2655,"1250": 2.4529,"1275": 2.2834,"1300": 2.3345,"1325": 1.5164,"1350": 1.9255,"1375": 1.6354,"1400": 1.5841,"1425": 1.6531,"1450": 1.3804,"1475": 1.3973,"1500": 1.2609,"1525": 1.0905,"1550": 0.9373,"1575": 0.8857,"1600": 0.7158,"1625": 0.6133,"1650": 0.4091,"1675": 0.3066,"1700": 0.3065,"1725": 0.2044,"1750": 0.0852,"1775": 0.0511}}}