{"type":"Feature","properties":{"GID_2":"TUR.7.12_1","GID_0":"TUR","country":"Turkey","GID_1":"TUR.7_1","province":"Ankara","NL_NAME_1":"NA","county":"Gölbaşı","VARNAME_2":"NA","NL_NAME_2":"NA","TYPE_2":"District","ENGTYPE_2":"District","CC_2":"NA","HASC_2":"TR.AN.GO","name":"Gölbaşı.county"},
"geometry":{"type": "MultiPolygon","coordinates": [[[[32.9662,39.7624,1348.2668],[32.9578,39.7766,1632.8458],[32.9511,39.7818,1669.65],[32.9411,39.7839,1539.3904],[32.911,39.785,1338.6263],[32.8998,39.787,1331.5573],[32.8873,39.7929,1167.4915],[32.8583,39.812,1088.1658],[32.8071,39.8286,1102.2236],[32.8002,39.8299,1128.0797],[32.7826,39.8293,1198.8152],[32.7317,39.8102,1073.4227],[32.6959,39.8042,1156.8109],[32.6835,39.7831,1201.5759],[32.6625,39.7624,1223.9828],[32.6517,39.7461,1255.1588],[32.6002,39.7039,1239.8521],[32.6151,39.6806,1188.1658],[32.6211,39.6746,1223.1658],[32.6289,39.6699,1220.6099],[32.6715,39.6543,1128.5508],[32.6826,39.6483,1125.7959],[32.7433,39.6017,1001.2373],[32.7599,39.5856,1007.3433],[32.7905,39.5362,1054.854],[32.7926,39.5215,1100.1951],[32.7923,39.4824,1204.3311],[32.7954,39.4709,1168.5913],[32.8012,39.4636,1136.7937],[32.8089,39.4573,1122.2407],[32.8205,39.4504,1110.7202],[32.8411,39.4418,1209.5186],[32.8476,39.4361,1127.1748],[32.8505,39.4311,1103.3369],[32.8527,39.4197,1076.963],[32.8532,39.3748,1060.0022],[32.8561,39.3667,1058.2458],[32.8627,39.3591,1056.4868],[32.8927,39.366,1056.4207],[32.9021,39.3708,1078.2454],[32.9072,39.3754,1109.6477],[32.9117,39.3831,1156.5613],[32.9166,39.3986,1201.0359],[32.9243,39.4126,1160.9374],[32.9274,39.4281,1153.707],[32.9272,39.5879,1022.6741],[32.9234,39.5992,1060.4795],[32.8871,39.6544,1381.9932],[32.8854,39.6652,1321.3213],[32.9021,39.6925,1284.2009],[32.9368,39.7225,1222.4307],[32.9478,39.7389,1280.6151],[32.961,39.7537,1266.4073],[32.9662,39.7624,1348.2668]]]]}}