{"type": "Feature","bbox": [41.6964,38.5903,42.0613,38.7496],"geometry": {"type": "MultiPolygon","coordinates": [[[[42.0613,38.7134,1724.6344],[42.0165,38.7201,1683.3053],[41.9868,38.7286,1674.3945],[41.8746,38.7305,1399.5983],[41.8625,38.7326,1364.6223],[41.8408,38.7394,1481.2241],[41.7957,38.7432,1371.3726],[41.7619,38.7496,1306.364],[41.7437,38.729,1279.342],[41.7153,38.6847,1266.5984],[41.7068,38.6613,1302.2466],[41.6975,38.6451,1619.0345],[41.6964,38.6341,1764.7856],[41.6975,38.6286,1982.5134],[41.7033,38.6191,2126.2856],[41.7191,38.6018,1892.6814],[41.7878,38.601,1789.9392],[41.7993,38.599,1790.2539],[41.8207,38.5918,1616.7698],[41.832,38.5903,1706.8318],[41.8633,38.5905,1611.0426],[41.8745,38.5926,1560.0221],[41.8975,38.6027,1489.3827],[41.9405,38.6181,1288.0477],[41.9888,38.6534,1278.0852],[42.0208,38.6679,1279.0514],[42.0562,38.6948,1809.6517],[42.0613,38.7134,1724.6344]]]]}
,"properties": {"GID_2": "TUR.60.2_1","GID_0": "TUR","country": "Turkey","GID_1": "TUR.60_1","province": "Mus","NL_NAME_1": "NA","county": "Hasköy","VARNAME_2": "NA","NL_NAME_2": "NA","TYPE_2": "District","ENGTYPE_2": "District","CC_2": "NA","HASC_2": "TR.MS.HA","name": "Hasköy.county","area_km2": 373.9811,"hist_schema_id": "Elevation0-9000","hist_area_km2": {"1275": 175.2656,"1300": 50.3893,"1325": 11.337,"1350": 10.0131,"1375": 8.8051,"1400": 8.1101,"1425": 7.2002,"1450": 6.6544,"1475": 6.0418,"1500": 6.3067,"1525": 7.266,"1550": 7.3986,"1575": 7.5475,"1600": 7.0843,"1625": 6.9037,"1650": 8.69,"1675": 6.936,"1700": 4.9007,"1725": 3.196,"1750": 3.5936,"1775": 3.0641,"1800": 2.633,"1825": 1.7723,"1850": 1.5903,"1875": 1.0601,"1900": 1.1761,"1925": 0.9277,"1950": 0.9609,"1975": 1.1266,"2000": 1.0106,"2025": 0.9112,"2050": 1.1597,"2075": 1.5076,"2100": 0.9775,"2125": 0.2982,"2150": 0.1657}}}