{"type": "Feature","bbox": [41.0861,39.7553,41.5857,40.2545],"geometry": {"type": "MultiPolygon","coordinates": [[[[41.2647,39.807,2654.3838],[41.2939,39.8226,2908.3625],[41.3209,39.8331,2798.207],[41.3309,39.8355,2747.3132],[41.3599,39.8352,2604.8057],[41.3842,39.827,2533.6992],[41.398,39.8252,2634.3818],[41.4119,39.8267,2620.4287],[41.4349,39.8344,2669.667],[41.4494,39.8515,2715.0334],[41.4838,39.881,2390.1162],[41.4867,39.8862,2321.4106],[41.489,39.8973,2128.5154],[41.4888,39.9057,2064.8965],[41.4856,39.9167,1962.1608],[41.4747,39.9285,1877.3308],[41.4348,39.9602,1857.5057],[41.4161,39.9884,1970.1826],[41.4134,39.9993,2065.5249],[41.4127,40.0166,2108.8306],[41.4143,40.0395,2351.8613],[41.4161,40.0449,2324.5657],[41.4307,40.068,2191.5205],[41.4422,40.0771,2278.127],[41.4721,40.0834,2388.4893],[41.4901,40.0894,2656.8379],[41.5138,40.0935,2924.4011],[41.5275,40.1007,2936.6279],[41.5331,40.1072,2929.7461],[41.5457,40.128,3044.0718],[41.5525,40.1492,3088.8511],[41.5756,40.1747,2887.1658],[41.5857,40.1984,2749.491],[41.5452,40.1967,2681.4438],[41.52,40.1992,2347.8896],[41.484,40.2137,2111.6733],[41.4429,40.2417,2561.8179],[41.4096,40.2541,2616.5872],[41.3918,40.2545,2626.2864],[41.3816,40.2517,2217.3513],[41.3553,40.2362,2143.6851],[41.3398,40.2301,2188.9631],[41.3252,40.2213,2328.3298],[41.3133,40.2102,2500.7544],[41.3047,40.1956,2602.8804],[41.2921,40.1789,2912.2256],[41.2871,40.1757,2930.4673],[41.2742,40.1732,2832.1367],[41.2529,40.1745,2901.2607],[41.2434,40.1776,2942.4141],[41.225,40.1867,2839.5269],[41.2189,40.1954,2843.1409],[41.2157,40.215,2762.8804],[41.1901,40.2009,2742.8303],[41.1598,40.1947,2670.2085],[41.126,40.1826,2464.2227],[41.117,40.1774,2549.4539],[41.1048,40.1669,2555.2751],[41.1008,40.1591,2550.8257],[41.1008,40.1537,2536.4146],[41.1026,40.1487,2475.0811],[41.1253,40.1149,2249.0903],[41.1278,40.1067,2303.2766],[41.1277,40.0899,2080.3325],[41.1241,40.0793,1969.7108],[41.117,40.068,1894.9409],[41.1097,40.047,1847.9209],[41.0868,40.0104,1826.1475],[41.0861,40.0026,1813.2533],[41.0959,39.981,1796.9451],[41.1004,39.9451,1779.7952],[41.1113,39.9229,1763.7612],[41.114,39.8691,1797.6021],[41.1164,39.8607,1831.7078],[41.1239,39.8473,1878.08],[41.1247,39.8422,1904.7157],[41.1229,39.8346,1869.4254],[41.0997,39.7979,2005.4495],[41.0974,39.7839,2048.8523],[41.0971,39.7595,2197.2805],[41.12,39.7553,2443.0356],[41.1414,39.7571,2482.6929],[41.2315,39.7918,2859.1179],[41.2647,39.807,2654.3838]]]]}
,"properties": {"GID_2": "TUR.31.10_1","GID_0": "TUR","country": "Turkey","GID_1": "TUR.31_1","province": "Erzurum","NL_NAME_1": "NA","county": "Merkez","VARNAME_2": "ErzurumMerkez","NL_NAME_2": "NA","TYPE_2": "District","ENGTYPE_2": "District","CC_2": "NA","HASC_2": "TR.EM.EM","name": "Merkez.county","area_km2": 1418.303,"hist_schema_id": "Elevation0-9000","hist_area_km2": {"1750": 176.679,"1775": 98.744,"1800": 59.745,"1825": 52.155,"1850": 39.723,"1875": 40.154,"1900": 36.025,"1925": 32.952,"1950": 33.228,"1975": 32.967,"2000": 32.401,"2025": 32.053,"2050": 29.303,"2075": 27.784,"2100": 27.879,"2125": 24.713,"2150": 23.756,"2175": 25.569,"2200": 25.797,"2225": 24.679,"2250": 22.974,"2275": 23.199,"2300": 21.333,"2325": 22.551,"2350": 21.106,"2375": 21.057,"2400": 20.373,"2425": 18.684,"2450": 19.691,"2475": 19.075,"2500": 19.316,"2525": 19.382,"2550": 19.181,"2575": 19.929,"2600": 21.497,"2625": 22.34,"2650": 23.408,"2675": 22.777,"2700": 22.191,"2725": 22.478,"2750": 22.927,"2775": 21.691,"2800": 16.423,"2825": 12.451,"2850": 10.423,"2875": 8.349,"2900": 6.241,"2925": 4.539,"2950": 4.443,"2975": 3.503,"3000": 2.772,"3025": 2.092,"3050": 1.2,"3075": 0.859,"3100": 0.859,"3125": 0.649,"3150": 0.033}}}