{"type":"Feature","properties":{"GID_2":"TUR.31.9_1","GID_0":"TUR","country":"Turkey","GID_1":"TUR.31_1","province":"Erzurum","NL_NAME_1":"NA","county":"Köprüköy","VARNAME_2":"NA","NL_NAME_2":"NA","TYPE_2":"District","ENGTYPE_2":"District","CC_2":"NA","HASC_2":"TR.EM.KO","name":"Köprüköy.county"},
"geometry":{"type": "MultiPolygon","coordinates": [[[[41.9247,40.107,2306.9131],[41.8873,40.1029,2306.1472],[41.877,40.1001,2169.0632],[41.8599,40.0891,2090.8906],[41.8506,40.0765,2061.8535],[41.8486,40.0643,2173.739],[41.8488,40.0265,1812.5967],[41.8468,40.0143,1846.0452],[41.8312,39.988,1693.8383],[41.8079,39.9538,1612.7986],[41.8051,39.9461,1617.2286],[41.8059,39.9325,1653.8542],[41.8149,39.9163,1700.7164],[41.818,39.9045,1915.0721],[41.8185,39.8358,1690.8398],[41.903,39.8356,2092.9766],[41.9185,39.8339,2328.8638],[41.94,39.8268,2351.9194],[41.9516,39.8248,2353.3887],[42.0266,39.8243,2199.4312],[42.0424,39.8265,2388.1372],[42.0603,39.8327,2531.2449],[42.0874,39.8382,2583.6833],[42.1422,39.8598,2412.574],[42.105,39.8726,2152.9368],[42.0963,39.8771,1966.7847],[42.052,39.9106,1926.0769],[42.0333,39.9274,1752.9591],[42.0241,39.9416,1723.3215],[42.0037,39.9625,1678.7605],[41.9957,39.986,1616.4292],[41.9663,40.0327,1691.9904],[41.9579,40.0417,1770.9109],[41.935,40.0602,1985.9473],[41.9271,40.0695,2182.2964],[41.924,40.0819,2226.0312],[41.9247,40.107,2306.9131]]]]}}