{"type":"Feature","properties":{"GID_2":"TUR.54.6_1","GID_0":"TUR","country":"Turkey","GID_1":"TUR.54_1","province":"Kütahya","NL_NAME_1":"NA","county":"Emet","VARNAME_2":"NA","NL_NAME_2":"NA","TYPE_2":"District","ENGTYPE_2":"District","CC_2":"NA","HASC_2":"TR.KU.EM","name":"Emet.county"},
"geometry":{"type": "MultiPolygon","coordinates": [[[[29.662,39.3671,1273.936],[29.6378,39.3772,1015.363],[29.6201,39.3787,924.9747],[29.6064,39.3755,924.5598],[29.5835,39.3615,1032.1296],[29.5736,39.3577,1061.3224],[29.539,39.3554,1251.2788],[29.5119,39.357,1373.4734],[29.4836,39.3656,1318.3903],[29.4447,39.3701,1214.7854],[29.4113,39.3826,1221.5244],[29.3866,39.3997,1196.5011],[29.3728,39.4129,1211.3524],[29.3511,39.4482,1117.5985],[29.3397,39.4573,908.2781],[29.3301,39.4602,911.0502],[29.2983,39.4631,681.105],[29.2736,39.4706,817.2906],[29.2382,39.4746,619.6442],[29.2285,39.4783,671.3663],[29.2114,39.4889,509.9931],[29.1987,39.4944,645.0325],[29.1771,39.4967,633.1048],[29.1515,39.4954,497.3143],[29.1352,39.4893,625.4496],[29.0864,39.4557,972.2939],[29.0831,39.4495,1102.6874],[29.0821,39.4353,998.6326],[29.0798,39.4272,1077.9996],[29.0425,39.3693,1220.5095],[29.0341,39.346,1237.8243],[29.0249,39.3293,1074.4296],[29.0225,39.3114,1130.5037],[29.0236,39.275,1049.6609],[29.171,39.2745,1020.9277],[29.1866,39.2722,892.2354],[29.2044,39.2659,747.9861],[29.2281,39.2611,741.0296],[29.2569,39.2525,838.9575],[29.2774,39.2514,964.8506],[29.3312,39.2521,1224.6934],[29.3454,39.2496,1352.9586],[29.3507,39.2455,1388.4211],[29.3532,39.2404,1377.9504],[29.354,39.2319,1170.6785],[29.3518,39.2202,1227.5577],[29.311,39.1572,946.3774],[29.3028,39.1296,960.645],[29.3388,39.1446,1067.4305],[29.3729,39.1565,1264.1152],[29.4077,39.1603,1399.1653],[29.436,39.1685,1701.9989],[29.4504,39.169,1690.8135],[29.4672,39.1666,1406.5933],[29.5162,39.2012,1123.7959],[29.5794,39.2255,1024.8804],[29.6019,39.2281,1010.3256],[29.6767,39.2275,999.6913],[29.6559,39.2519,992.5025],[29.6414,39.2754,1046.2704],[29.6384,39.2869,1056.3696],[29.6379,39.3111,1090.8331],[29.6405,39.3289,1023.9778],[29.662,39.3671,1273.936]]]]}}