{"type":"Feature","properties":{"GID_2":"TUR.10.4_1","GID_0":"TUR","country":"Turkey","GID_1":"TUR.10_1","province":"Artvin","NL_NAME_1":"NA","county":"Hopa","VARNAME_2":"NA","NL_NAME_2":"NA","TYPE_2":"District","ENGTYPE_2":"District","CC_2":"NA","HASC_2":"TR.AV.HO","name":"Hopa.county"},
"geometry":{"type": "MultiPolygon","coordinates": [[[[41.5482,41.5263,0.0],[41.5462,41.5179,3.2435],[41.5446,41.5174,0.0],[41.5421,41.5118,21.0828],[41.5363,41.5093,0.0],[41.5218,41.4826,1.0286],[41.5107,41.4787,9.884],[41.5015,41.4715,5.0954],[41.4915,41.4707,0.0],[41.4813,41.4626,12.7425],[41.474,41.4615,1.2038],[41.4707,41.4538,0.2434],[41.464,41.451,2.1223],[41.4621,41.4474,69.1012],[41.4518,41.4385,0.0],[41.4476,41.4296,35.8705],[41.4404,41.4235,4.4586],[41.4338,41.4124,16.9848],[41.4249,41.4093,0.0],[41.4282,41.404,6.1591],[41.4107,41.3865,21.9627],[41.4057,41.3849,1.3491],[41.4012,41.3807,5.0343],[41.3846,41.3787,42.1307],[41.379,41.3765,6.1982],[41.3746,41.3782,3.9511],[41.3587,41.3774,0.0],[41.3554,41.3751,40.0283],[41.344,41.3735,5.6301],[41.3393,41.3713,15.4711],[41.3318,41.3643,43.31],[41.3237,41.3632,13.6807],[41.3093,41.3537,7.1432],[41.3029,41.3537,4.9939],[41.2951,41.3499,21.1243],[41.286,41.3493,0.5775],[41.2741,41.3454,22.6124],[41.2811,41.338,81.6675],[41.3031,41.3217,63.7974],[41.3195,41.3156,54.3906],[41.3479,41.3131,332.807],[41.3712,41.3083,498.7325],[41.3978,41.314,390.0925],[41.4309,41.3145,941.1636],[41.4453,41.3125,1519.0122],[41.4832,41.3011,1304.4141],[41.5002,41.3225,1636.9397],[41.5043,41.3302,1647.6633],[41.5064,41.3455,1132.1151],[41.5059,41.3796,220.3036],[41.5094,41.3902,307.2469],[41.5176,41.395,428.1561],[41.5532,41.3995,648.4604],[41.577,41.411,946.2387],[41.5802,41.4152,1002.1367],[41.5867,41.4321,707.384],[41.6222,41.4879,1197.2986],[41.6257,41.4966,1245.4893],[41.6079,41.508,1051.4111],[41.5828,41.515,792.2681],[41.5787,41.52,656.6766],[41.5711,41.5222,487.0649],[41.5577,41.523,277.6707],[41.5482,41.5263,0.0]]]]}}