{"type": "Feature","bbox": [34.9073,38.2399,35.3434,38.6135],"geometry": {"type": "MultiPolygon","coordinates": [[[[35.3062,38.5154,1519.5845],[35.2693,38.5274,1442.7982],[35.2369,38.5463,1127.6776],[35.1343,38.5857,1551.1443],[35.1019,38.6046,1350.1582],[35.0701,38.6135,1509.1914],[35.0524,38.6011,1582.7954],[35.0364,38.5796,1324.1812],[35.018,38.5654,1540.8015],[35.0082,38.5617,1496.6509],[34.9843,38.5576,1299.0869],[34.9663,38.5515,1570.8105],[34.9394,38.5464,1282.7927],[34.9268,38.5382,1265.6274],[34.9103,38.513,1610.4576],[34.908,38.5048,1594.9539],[34.9073,38.4732,1577.4371],[34.9106,38.4565,1568.6997],[34.9191,38.4426,1552.9906],[34.9225,38.4323,1540.808],[34.9738,38.4317,1604.1552],[34.984,38.4287,1604.1877],[34.9937,38.4217,1635.2134],[35.0096,38.3964,1620.2537],[35.015,38.3777,1449.7957],[35.0241,38.3613,1490.0925],[35.0308,38.3401,1307.3378],[35.0388,38.3262,1237.9108],[35.0453,38.3051,1326.4342],[35.0575,38.2877,1471.697],[35.0636,38.2823,1495.0673],[35.0881,38.2708,1334.692],[35.1223,38.259,1109.5819],[35.1423,38.2573,1081.0712],[35.2084,38.2578,1070.9073],[35.2285,38.2566,1071.0383],[35.2428,38.2519,1071.09],[35.26,38.2399,1071.3917],[35.29,38.262,1072.0934],[35.3148,38.2724,1072.2592],[35.3265,38.2794,1072.5128],[35.3384,38.2905,1073.074],[35.3428,38.3013,1072.7787],[35.3434,38.3126,1073.2294],[35.3414,38.3237,1073.4607],[35.3253,38.3498,1071.7166],[35.3137,38.3609,1071.7308],[35.2876,38.377,1071.8645],[35.2846,38.3813,1071.6654],[35.2826,38.3889,1071.7524],[35.2823,38.4,1072.3207],[35.286,38.4232,1073.2712],[35.2826,38.451,1224.5675],[35.2842,38.4832,1290.5417],[35.288,38.4921,1316.1599],[35.3062,38.5154,1519.5845]]]]}
,"properties": {"GID_2": "TUR.47.16_1","GID_0": "TUR","country": "Turkey","GID_1": "TUR.47_1","province": "Kayseri","NL_NAME_1": "NA","county": "Yeşilhisar","VARNAME_2": "NA","NL_NAME_2": "NA","TYPE_2": "District","ENGTYPE_2": "District","CC_2": "NA","HASC_2": "TR.KY.YE","name": "Yeşilhisar.county","area_km2": 964.3198,"hist_schema_id": "Elevation0-9000","hist_area_km2": {"1075": 354.3147,"1100": 95.7267,"1125": 44.1463,"1150": 28.4958,"1175": 22.2515,"1200": 19.5097,"1225": 15.0793,"1250": 14.9773,"1275": 16.9023,"1300": 20.703,"1325": 18.181,"1350": 16.6513,"1375": 15.0225,"1400": 13.9256,"1425": 14.7857,"1450": 17.3377,"1475": 19.81,"1500": 23.1629,"1525": 26.9771,"1550": 37.6639,"1575": 50.9016,"1600": 36.6985,"1625": 15.0688,"1650": 8.8444,"1675": 4.5949,"1700": 3.1346,"1725": 2.2221,"1750": 1.907,"1775": 1.2602,"1800": 1.1774,"1825": 0.9286,"1850": 0.4977,"1875": 0.4977,"1900": 0.3484,"1925": 0.6138}}}