{"type": "Feature","bbox": [40.1819,40.7799,40.3614,40.8385],"geometry": {"type": "MultiPolygon","coordinates": [[[[40.3471,40.7834,1415.8573],[40.3594,40.8013,1112.3373],[40.3614,40.809,956.7882],[40.3593,40.8167,855.2341],[40.3456,40.8348,822.5754],[40.3167,40.838,476.0475],[40.2707,40.8385,300.2178],[40.2378,40.8371,358.5276],[40.1988,40.8266,1120.6047],[40.1964,40.807,970.7505],[40.1819,40.7837,998.2072],[40.204,40.7807,605.6299],[40.2395,40.7799,786.9625],[40.3153,40.7801,1189.0864],[40.3471,40.7834,1415.8573]]]]}
,"properties": {"GID_2": "TUR.75.7_1","GID_0": "TUR","country": "Turkey","GID_1": "TUR.75_1","province": "Trabzon","NL_NAME_1": "NA","county": "Dernekpazarı","VARNAME_2": "NA","NL_NAME_2": "NA","TYPE_2": "District","ENGTYPE_2": "District","CC_2": "NA","HASC_2": "TR.TB.DE","name": "Dernekpazarı.county","area_km2": 83.40175,"hist_schema_id": "Elevation0-9000","hist_area_km2": {"125": 0.38501,"150": 0.56153,"175": 0.62572,"200": 0.78627,"225": 1.10721,"250": 1.15532,"275": 1.39602,"300": 1.73296,"325": 1.94165,"350": 2.0218,"375": 2.39096,"400": 2.35884,"425": 2.35892,"450": 2.35897,"475": 2.55148,"500": 2.61581,"525": 2.6158,"550": 2.59983,"575": 2.76031,"600": 2.18259,"625": 2.74429,"650": 2.55165,"675": 2.29491,"700": 2.32703,"725": 1.95791,"750": 2.34306,"775": 2.15041,"800": 1.9097,"825": 1.90967,"850": 1.98991,"875": 1.74922,"900": 1.68506,"925": 1.63692,"950": 1.71719,"975": 1.62091,"1000": 1.34806,"1025": 1.44437,"1050": 1.26786,"1075": 1.20369,"1100": 1.07531,"1125": 0.65801,"1150": 1.10743,"1175": 0.93091,"1200": 0.78646,"1225": 0.54571,"1250": 0.5457,"1275": 0.44942,"1300": 0.35311,"1325": 0.46545,"1350": 0.44943,"1375": 0.33708,"1400": 0.27287,"1425": 0.35313,"1450": 0.305,"1475": 0.24078,"1500": 0.24078,"1525": 0.27289,"1550": 0.19263,"1575": 0.36921,"1600": 0.16052,"1625": 0.27289,"1650": 0.19263,"1675": 0.16052,"1700": 0.08026,"1725": 0.08026,"1750": 0.11237,"1775": 0.01605,"1800": 0.01605}}}