{"type": "Feature","bbox": [30.2789,40.6565,30.6134,40.9503],"geometry": {"type": "MultiPolygon","coordinates": [[[[30.3408,40.8439,23.0767],[30.3039,40.8323,38.6063],[30.2961,40.8275,29.1423],[30.2903,40.8212,24.3876],[30.2869,40.8096,19.8906],[30.2876,40.7883,86.4813],[30.2909,40.7769,236.623],[30.2988,40.7636,199.7215],[30.2994,40.7557,184.5729],[30.2945,40.7463,151.0298],[30.2789,40.7291,28.5],[30.4257,40.73,31.3033],[30.4446,40.7273,33.688],[30.45,40.7231,34.2285],[30.4526,40.718,34.7863],[30.4528,40.7037,36.5232],[30.4499,40.695,46.8759],[30.4352,40.6724,201.6645],[30.451,40.6625,126.1896],[30.4674,40.6565,144.1128],[30.4885,40.6758,136.334],[30.5105,40.6908,34.1927],[30.5438,40.7035,46.64],[30.5746,40.7103,36.8133],[30.5715,40.7425,28.4594],[30.5688,40.7512,26.4157],[30.5599,40.7673,23.5845],[30.5587,40.7755,23.0385],[30.5597,40.7838,22.9169],[30.5917,40.8351,33.5876],[30.6134,40.8639,23.2591],[30.581,40.8683,21.6083],[30.5075,40.8684,22.8969],[30.4841,40.8713,29.0353],[30.4712,40.8777,19.8176],[30.4283,40.9067,17.5384],[30.4262,40.9112,15.76],[30.4261,40.916,16.2501],[30.431,40.9307,23.512],[30.4265,40.9337,50.2516],[30.3917,40.9479,184.8639],[30.3629,40.9503,208.1296],[30.364,40.9021,18.9186],[30.3668,40.8932,18.4084],[30.3761,40.8771,26.9284],[30.3769,40.8636,47.8357],[30.3732,40.856,93.8195],[30.3665,40.8503,99.7882],[30.3576,40.8467,54.3956],[30.3408,40.8439,23.0767]]]]}
,"properties": {"GID_2": "TUR.66.9_1","GID_0": "TUR","country": "Turkey","GID_1": "TUR.66_1","province": "Sakarya","NL_NAME_1": "NA","county": "Merkez","VARNAME_2": "SakaryaMerkezi","NL_NAME_2": "NA","TYPE_2": "District","ENGTYPE_2": "District","CC_2": "NA","HASC_2": "TR.SK.SK","name": "Merkez.county","area_km2": 457.7171,"hist_schema_id": "Elevation0-9000","hist_area_km2": {"0": 0.2084,"25": 340.6446,"50": 44.3327,"75": 19.7365,"100": 15.0853,"125": 11.5881,"150": 8.6026,"175": 6.7752,"200": 4.7211,"225": 2.345,"250": 1.3169,"275": 1.0117,"300": 0.6905,"325": 0.5621,"350": 0.0964}}}