{"type": "Feature","bbox": [42.836,40.3821,43.7406,40.8132],"geometry": {"type": "MultiPolygon","coordinates": [[[[43.7406,40.6673,1444.0],[43.7404,40.6705,1444.0],[43.7104,40.6761,1483.7023],[43.6985,40.6831,1513.8689],[43.6889,40.692,1514.918],[43.6836,40.7029,1539.9982],[43.6822,40.7264,1475.322],[43.6803,40.7342,1486.8652],[43.6748,40.74,1495.7195],[43.6551,40.7479,1512.0266],[43.641,40.767,1528.3341],[43.6392,40.7731,1509.7588],[43.6372,40.8007,1553.5421],[43.6348,40.806,1569.9333],[43.6296,40.8101,1609.7087],[43.6111,40.8132,1650.8174],[43.5292,40.8126,1679.4922],[43.508,40.8114,1698.9614],[43.4906,40.8075,1691.8184],[43.4672,40.7959,1585.2714],[43.4512,40.7839,1590.4376],[43.445,40.7768,1594.728],[43.4212,40.7389,1633.1282],[43.3984,40.719,1684.0552],[43.3856,40.7126,1708.4891],[43.3794,40.7128,1715.2483],[43.3722,40.7168,1715.1982],[43.3589,40.7365,1682.9919],[43.3419,40.7495,1684.5867],[43.333,40.7529,1714.4587],[43.3054,40.7581,1706.4678],[43.2752,40.7725,1627.5031],[43.2546,40.7607,1662.757],[43.2421,40.7562,1667.2145],[43.1995,40.754,1702.1091],[43.185,40.7506,1705.2412],[43.1708,40.7416,1710.8479],[43.1529,40.7233,1675.2307],[43.1409,40.7198,1752.5898],[43.1165,40.7209,1753.5994],[43.0921,40.7292,1917.146],[43.0567,40.7335,1875.5188],[43.0288,40.7422,1947.7692],[43.0108,40.7433,2045.0017],[43.0,40.7424,1951.4561],[42.9896,40.7394,1869.3014],[42.9488,40.7117,2165.0752],[42.9121,40.6977,2157.7258],[42.8941,40.6963,2349.2129],[42.8761,40.6979,2435.7046],[42.836,40.7135,2738.5305],[42.8437,40.6885,2586.8318],[42.8551,40.6665,2446.1914],[42.8566,40.651,2253.6807],[42.8567,40.5783,2033.5029],[42.8602,40.5669,1991.7654],[42.8752,40.544,1909.717],[42.885,40.5372,1854.8597],[42.9028,40.5337,1868.9424],[42.9291,40.5331,1828.5267],[42.942,40.5298,1803.819],[42.9559,40.514,1784.453],[42.9664,40.4973,1778.6411],[42.9904,40.4721,1783.145],[42.9978,40.4587,1853.0332],[42.9994,40.4521,1852.4332],[42.9976,40.4473,1850.2158],[42.9835,40.4325,1867.2245],[42.9786,40.4248,1866.0554],[42.9762,40.4127,1870.2823],[42.976,40.3938,1945.2312],[42.991,40.3821,2132.4932],[43.0046,40.3848,2030.3345],[43.0257,40.392,1978.1182],[43.0495,40.3966,1965.9651],[43.0674,40.4028,1988.0452],[43.0873,40.4053,2020.9797],[43.1582,40.4046,2309.0969],[43.1699,40.4026,2322.4001],[43.1911,40.3957,2359.604],[43.2163,40.3936,2253.2075],[43.2199,40.404,2337.6638],[43.2267,40.4151,2399.2664],[43.2284,40.4227,2464.2991],[43.2265,40.4302,2461.9929],[43.2187,40.4438,2502.415],[43.2167,40.452,2590.3542],[43.216,40.472,2483.3789],[43.2174,40.4804,2413.9917],[43.2212,40.4884,2353.7251],[43.2413,40.5088,2274.6626],[43.251,40.5233,2248.3733],[43.263,40.5343,2226.3037],[43.2776,40.5431,2230.9788],[43.3151,40.5557,2173.1016],[43.3809,40.5566,1990.5764],[43.3957,40.5587,1993.7664],[43.4288,40.5716,1833.9235],[43.461,40.5947,1741.2327],[43.473,40.601,1703.8971],[43.4906,40.6029,1676.2891],[43.5009,40.6009,1657.4758],[43.5089,40.5963,1626.762],[43.5147,40.5903,1598.8492],[43.5219,40.5789,1603.0146],[43.5335,40.5702,1558.8376],[43.6232,40.5352,1462.4615],[43.6311,40.5325,1396.3544],[43.63,40.5355,1451.795],[43.6319,40.5373,1443.4443],[43.6402,40.5318,1438.7899],[43.648,40.5315,1413.4581],[43.642,40.559,1441.4182],[43.6558,40.5637,1446.6793],[43.6635,40.573,1449.7117],[43.6752,40.5794,1444.0],[43.6865,40.593,1444.0],[43.7156,40.6378,1444.0],[43.7193,40.6465,1444.0],[43.7203,40.655,1444.0],[43.7264,40.6647,1444.0],[43.7393,40.6651,1444.0],[43.7406,40.6673,1444.0]]]]}
,"properties": {"GID_2": "TUR.45.5_1","GID_0": "TUR","country": "Turkey","GID_1": "TUR.45_1","province": "Kars","NL_NAME_1": "NA","county": "Merkez","VARNAME_2": "Kars","NL_NAME_2": "NA","TYPE_2": "District","ENGTYPE_2": "District","CC_2": "NA","HASC_2": "TR.KA.KA","name": "Merkez.county","area_km2": 1920.66,"hist_schema_id": "Elevation0-9000","hist_area_km2": {"1400": 0.451,"1425": 0.435,"1450": 31.346,"1475": 43.354,"1500": 55.323,"1525": 65.602,"1550": 67.615,"1575": 55.986,"1600": 56.695,"1625": 59.356,"1650": 49.309,"1675": 66.52,"1700": 56.931,"1725": 49.272,"1750": 102.651,"1775": 120.987,"1800": 115.162,"1825": 120.78,"1850": 98.987,"1875": 86.453,"1900": 74.088,"1925": 66.7,"1950": 54.634,"1975": 48.791,"2000": 42.119,"2025": 33.775,"2050": 29.553,"2075": 28.538,"2100": 26.573,"2125": 22.272,"2150": 23.448,"2175": 21.21,"2200": 16.895,"2225": 13.255,"2250": 10.987,"2275": 8.522,"2300": 8.684,"2325": 9.797,"2350": 9.655,"2375": 10.317,"2400": 9.205,"2425": 7.996,"2450": 7.431,"2475": 7.22,"2500": 6.106,"2525": 4.011,"2550": 3.059,"2575": 2.399,"2600": 1.626,"2625": 1.288,"2650": 1.272,"2675": 1.69,"2700": 1.882,"2725": 1.802,"2750": 0.563,"2775": 0.081}}}