{"type": "Feature","bbox": [33.708,38.8351,33.9444,39.1119],"geometry": {"type": "MultiPolygon","coordinates": [[[[33.9267,39.0081,934.6821],[33.9401,39.0202,926.4189],[33.9444,39.0265,893.328],[33.9443,39.0338,869.3726],[33.9386,39.0391,886.9073],[33.9201,39.0473,850.0277],[33.8409,39.0765,848.0],[33.8196,39.0869,853.6842],[33.7664,39.106,857.733],[33.7426,39.1119,848.0],[33.7344,39.0861,851.7872],[33.7093,39.0468,981.3191],[33.708,39.0386,1025.2288],[33.7101,39.0277,1080.855],[33.7272,39.0022,1131.0315],[33.7476,38.982,1301.8472],[33.7511,38.9741,1261.4526],[33.7503,38.9605,1249.7468],[33.7387,38.9391,1343.5026],[33.737,38.9251,1306.186],[33.7397,38.9112,1273.5673],[33.7559,38.89,1258.563],[33.7804,38.8788,1308.8011],[33.8107,38.8728,1304.1711],[33.8586,38.8548,1361.8676],[33.9009,38.8495,1305.993],[33.9371,38.8351,1342.7991],[33.9302,38.8601,1224.839],[33.9208,38.8766,1220.9657],[33.9151,38.8951,1167.9298],[33.9057,38.9114,1124.6396],[33.8998,38.9299,1118.3752],[33.8903,38.9461,1011.3122],[33.8883,38.9542,942.2581],[33.8902,38.9678,910.8489],[33.9051,38.991,868.2032],[33.9134,38.9991,880.3572],[33.9267,39.0081,934.6821]]]]}
,"properties": {"GID_2": "TUR.7.11_1","GID_0": "TUR","country": "Turkey","GID_1": "TUR.7_1","province": "Ankara","NL_NAME_1": "NA","county": "Evren","VARNAME_2": "NA","NL_NAME_2": "NA","TYPE_2": "District","ENGTYPE_2": "District","CC_2": "NA","HASC_2": "TR.AN.EV","name": "Evren.county","area_km2": 375.7093,"hist_schema_id": "Elevation0-9000","hist_area_km2": {"850": 84.8224,"875": 37.6515,"900": 20.9204,"925": 14.4482,"950": 9.8364,"975": 10.0353,"1000": 9.7727,"1025": 9.9219,"1050": 9.9721,"1075": 9.8085,"1100": 10.3372,"1125": 11.328,"1150": 12.4842,"1175": 14.1018,"1200": 14.747,"1225": 14.7667,"1250": 15.462,"1275": 12.7894,"1300": 13.4493,"1325": 11.2709,"1350": 8.7125,"1375": 5.3287,"1400": 4.2893,"1425": 3.5634,"1450": 2.7714,"1475": 1.5508,"1500": 0.9569,"1525": 0.4455,"1550": 0.165}}}