{"type": "Feature","bbox": [30.5232,39.9612,30.7432,40.077],"geometry": {"type": "MultiPolygon","coordinates": [[[[30.5232,40.0067,337.3888],[30.552,40.0073,451.1766],[30.5697,40.0046,263.2267],[30.5825,39.9981,365.2002],[30.6139,39.9758,893.1558],[30.644,39.9636,1146.9318],[30.6575,39.9612,1163.8918],[30.6717,39.962,1152.925],[30.6962,39.9697,724.8155],[30.7262,39.9736,1261.1149],[30.7337,39.9778,1255.0392],[30.7432,39.9917,1192.2512],[30.7075,39.9978,961.3708],[30.6473,40.0209,330.6518],[30.6301,40.0318,202.6283],[30.6115,40.0498,317.5375],[30.5854,40.0581,515.5656],[30.5782,40.0626,604.4208],[30.569,40.0715,840.7279],[30.5642,40.0743,1015.7251],[30.5549,40.0763,1008.3546],[30.5412,40.077,861.2238],[30.5376,40.0666,997.6439],[30.5295,40.0528,812.7234],[30.5263,40.0379,542.192],[30.5232,40.0067,337.3888]]]]}
,"properties": {"GID_2": "TUR.32.9_1","GID_0": "TUR","country": "Turkey","GID_1": "TUR.32_1","province": "Eskisehir","NL_NAME_1": "NA","county": "Mihalgazi","VARNAME_2": "NA","NL_NAME_2": "NA","TYPE_2": "District","ENGTYPE_2": "District","CC_2": "NA","HASC_2": "TR.ES.MG","name": "Mihalgazi.county","area_km2": 105.73148,"hist_schema_id": "Elevation0-9000","hist_area_km2": {"175": 0.21109,"200": 6.73778,"225": 4.91933,"250": 4.77315,"275": 4.41588,"300": 4.54574,"325": 3.52287,"350": 3.21447,"375": 2.54895,"400": 2.45167,"425": 2.24065,"450": 1.98085,"475": 2.06209,"500": 2.37059,"525": 2.54922,"550": 2.71163,"575": 2.25683,"600": 2.53313,"625": 2.45208,"650": 2.06225,"675": 2.54963,"700": 2.50103,"725": 2.33862,"750": 2.09501,"775": 2.32254,"800": 2.48477,"825": 2.37136,"850": 2.32259,"875": 1.98147,"900": 1.99772,"925": 2.25743,"950": 2.04651,"975": 2.12777,"1000": 1.91667,"1025": 1.64073,"1050": 1.67323,"1075": 1.99829,"1100": 1.81966,"1125": 1.64095,"1150": 1.90092,"1175": 1.20225,"1200": 0.99103,"1225": 0.60111,"1250": 0.29244,"1275": 0.09747}}}