{"type":"Feature","properties":{"GID_2":"TUR.77.3_1","GID_0":"TUR","country":"Turkey","GID_1":"TUR.77_1","province":"Usak","NL_NAME_1":"NA","county":"Karahallı","VARNAME_2":"NA","NL_NAME_2":"NA","TYPE_2":"District","ENGTYPE_2":"District","CC_2":"NA","HASC_2":"TR.US.KA","name":"Karahallı.county"},
"geometry":{"type": "MultiPolygon","coordinates": [[[[29.5759,38.1918,986.7047],[29.5795,38.2023,1142.2673],[29.5865,38.2136,1174.01],[29.5896,38.2217,1154.224],[29.5914,38.2608,1014.9121],[29.5941,38.2723,994.241],[29.6108,38.2981,954.0032],[29.6334,38.3207,946.3026],[29.6481,38.3441,935.1802],[29.6514,38.3547,921.1149],[29.6332,38.3553,929.8235],[29.6193,38.3584,906.7407],[29.6074,38.3653,886.1301],[29.5665,38.3963,866.8206],[29.5333,38.4098,737.6486],[29.5161,38.4128,799.1771],[29.4863,38.413,811.6415],[29.4677,38.4077,688.243],[29.4588,38.4003,794.0117],[29.4506,38.3887,698.2291],[29.4327,38.3707,801.262],[29.4282,38.3629,806.9999],[29.4276,38.3493,815.7507],[29.4368,38.3309,855.6685],[29.4377,38.3258,910.315],[29.4369,38.3207,928.4598],[29.4296,38.3072,1073.0439],[29.4271,38.2987,1065.7412],[29.4259,38.2617,1039.7634],[29.4393,38.2537,902.1014],[29.4603,38.245,924.1054],[29.4843,38.2304,990.5989],[29.5053,38.2217,1096.2753],[29.5441,38.1953,1180.8203],[29.5565,38.1924,1152.2197],[29.5759,38.1918,986.7047]]]]}}