{"type": "Feature","bbox": [33.1102,37.3732,33.8563,37.9458],"geometry": {"type": "MultiPolygon","coordinates": [[[[33.4544,37.9359,1031.1202],[33.3667,37.8694,1068.6228],[33.3428,37.8594,1078.7626],[33.3161,37.8433,1064.4829],[33.2977,37.8362,1062.7175],[33.2709,37.82,1039.6085],[33.2526,37.813,1049.696],[33.2284,37.7984,1035.9694],[33.2104,37.7913,1031.0361],[33.2026,37.7867,1030.5229],[33.1965,37.7807,1031.7197],[33.1834,37.7598,1020.9534],[33.1745,37.7338,1010.8403],[33.164,37.7233,1004.0347],[33.1249,37.6921,1002.4672],[33.1192,37.6836,1002.26],[33.1102,37.6611,1002.331],[33.1297,37.6432,999.8668],[33.1457,37.6178,999.3834],[33.1487,37.6029,999.1081],[33.1485,37.556,1017.5042],[33.1507,37.541,1016.3507],[33.1598,37.5243,1026.4531],[33.168,37.5009,1154.8198],[33.1827,37.4775,1170.3738],[33.2077,37.4457,1176.7183],[33.2172,37.4373,1129.8646],[33.2822,37.3861,1003.4198],[33.2963,37.3774,1004.0251],[33.303,37.3752,1003.7043],[33.3248,37.3732,1008.4966],[33.3538,37.3753,1004.2783],[33.3652,37.3807,1007.8767],[33.3781,37.3935,1048.8757],[33.3885,37.3973,1038.6119],[33.3896,37.4115,1004.0477],[33.3918,37.4196,1002.6749],[33.4,37.4334,1002.7922],[33.4067,37.4545,1003.1838],[33.4215,37.4779,1005.461],[33.4437,37.5007,1005.1843],[33.4575,37.5197,1007.5223],[33.4861,37.5419,997.9649],[33.4951,37.5465,1000.001],[33.6454,37.6043,998.2132],[33.6641,37.6066,998.8224],[33.7261,37.6081,1007.8977],[33.7664,37.6219,1010.7222],[33.7928,37.6375,1014.9381],[33.8085,37.6434,1016.6807],[33.8232,37.6521,1023.5455],[33.8373,37.6654,1030.6099],[33.8528,37.6915,1047.1165],[33.8563,37.7281,1080.5564],[33.8321,37.741,1139.1178],[33.7845,37.7761,1774.2759],[33.775,37.7797,1639.5242],[33.7511,37.7838,1236.4688],[33.6939,37.8052,991.886],[33.6823,37.8108,985.4837],[33.6678,37.8221,985.4998],[33.6622,37.8286,986.0887],[33.6253,37.8874,1001.4123],[33.6027,37.9103,1025.7692],[33.5877,37.9328,1077.8535],[33.5813,37.9458,1069.7672],[33.5451,37.9423,1100.647],[33.5234,37.9354,1090.3906],[33.5075,37.933,1084.931],[33.4782,37.9329,1069.0854],[33.4544,37.9359,1031.1202]]]]}
,"properties": {"GID_2": "TUR.53.21_1","GID_0": "TUR","country": "Turkey","GID_1": "TUR.53_1","province": "Konya","NL_NAME_1": "NA","county": "Karapınar","VARNAME_2": "NA","NL_NAME_2": "NA","TYPE_2": "District","ENGTYPE_2": "District","CC_2": "NA","HASC_2": "TR.KO.KP","name": "Karapınar.county","area_km2": 2227.764,"hist_schema_id": "Elevation0-9000","hist_area_km2": {"975": 84.882,"1000": 1023.457,"1025": 319.256,"1050": 358.063,"1075": 171.785,"1100": 91.336,"1125": 29.892,"1150": 23.621,"1175": 17.74,"1200": 12.798,"1225": 8.998,"1250": 7.94,"1275": 6.024,"1300": 5.435,"1325": 4.999,"1350": 4.579,"1375": 4.931,"1400": 4.008,"1425": 3.488,"1450": 4.176,"1475": 3.069,"1500": 2.7,"1525": 2.482,"1550": 2.481,"1575": 2.766,"1600": 2.331,"1625": 2.699,"1650": 2.599,"1675": 2.347,"1700": 2.364,"1725": 1.995,"1750": 2.179,"1775": 1.76,"1800": 1.308,"1825": 1.509,"1850": 1.19,"1875": 0.956,"1900": 0.972,"1925": 0.821,"1950": 1.324,"1975": 0.402,"2000": 0.101}}}