{"type": "Feature","bbox": [40.3349,40.5353,41.424,41.3029],"geometry": {"type": "MultiPolygon","coordinates": [[[[40.4789,40.6286,2075.7449],[40.4822,40.6162,2230.8989],[40.4835,40.6028,2884.9944],[40.4835,40.5353,3166.6069],[40.4985,40.5353,2725.0884],[40.5088,40.537,2795.47],[40.59,40.5676,2865.5078],[40.6204,40.5737,2837.0154],[40.8279,40.6537,3231.4172],[40.8548,40.6697,3144.4709],[40.8759,40.6783,3218.5566],[40.9027,40.6945,2967.9902],[40.9237,40.7031,3235.7288],[40.9477,40.7178,3025.0144],[40.9962,40.7364,3410.1985],[41.023,40.7525,3362.7573],[41.0468,40.7627,3318.7693],[41.0776,40.7844,3209.9941],[41.1041,40.7961,2890.4719],[41.1223,40.8085,3032.7925],[41.1223,40.8201,3181.1499],[41.1385,40.8341,3127.3103],[41.1494,40.8505,2898.5723],[41.1967,40.8902,3119.499],[41.2157,40.915,3172.2153],[41.272,40.9599,2367.7661],[41.2868,40.9806,3215.8115],[41.3196,41.0085,2729.8003],[41.337,41.0313,2608.5015],[41.354,41.0436,2644.7637],[41.3994,41.0604,2518.1719],[41.4073,41.0651,2227.3955],[41.4145,41.0731,2322.4075],[41.424,41.0935,2763.7393],[41.4093,41.1172,2408.613],[41.3824,41.1173,2374.9224],[41.3688,41.12,1897.3339],[41.3357,41.1333,2176.7141],[41.3068,41.1552,1808.4146],[41.3003,41.1619,1920.0504],[41.2889,41.1786,1484.8132],[41.2556,41.2085,684.3162],[41.2515,41.2192,806.866],[41.2503,41.2447,489.1987],[41.2479,41.2556,266.24],[41.232,41.2813,59.1244],[41.2113,41.3029,0.9642],[41.206,41.2985,10.6964],[41.1785,41.2871,0.0],[41.1582,41.2843,1.2266],[41.151,41.2815,1.8772],[41.1371,41.2696,1.3263],[41.1365,41.2674,5.2138],[41.1268,41.2574,0.0],[41.1004,41.2451,34.1626],[41.0932,41.2385,23.3932],[41.0793,41.2307,0.0],[41.0674,41.2201,7.6851],[41.044,41.2107,1.1998],[41.0363,41.2107,0.0],[41.0262,41.2074,0.0],[41.019,41.2029,7.6297],[41.0001,41.1954,14.0636],[40.989,41.1929,3.5186],[40.9865,41.1963,0.461],[40.9721,41.191,5.0757],[40.9621,41.1896,0.0],[40.931,41.1757,2.4798],[40.9154,41.1768,9.4491],[40.9085,41.1804,2.8478],[40.9085,41.1824,0.0],[40.899,41.1843,0.0],[40.8818,41.1813,1.5353],[40.8743,41.1832,0.0],[40.8682,41.1779,18.1283],[40.8571,41.1774,0.0],[40.8429,41.1712,21.6083],[40.8385,41.1754,0.0],[40.8351,41.1715,7.1179],[40.8324,41.1721,0.0],[40.8293,41.1685,41.0741],[40.8237,41.1685,0.0],[40.8196,41.1637,38.4252],[40.8157,41.1621,1.2858],[40.8032,41.1626,0.0],[40.7979,41.1599,1.3397],[40.7887,41.1515,18.2827],[40.7846,41.1507,0.0],[40.7729,41.139,0.0],[40.766,41.1362,0.0],[40.7557,41.1221,6.2864],[40.7535,41.1215,4.6078],[40.7457,41.1129,0.0],[40.7396,41.1029,3.3426],[40.7315,41.0976,0.0],[40.721,41.0876,1.6067],[40.719,41.0882,0.3825],[40.701,41.0821,0.0],[40.691,41.0771,0.0],[40.684,41.0768,4.5629],[40.6832,41.079,0.0],[40.6854,41.0796,0.0],[40.6821,41.0807,0.0],[40.6699,41.074,0.0],[40.6437,41.0676,0.0],[40.6318,41.0607,0.0],[40.6188,41.0571,0.0],[40.6118,41.0518,8.2177],[40.6032,41.0479,3.9134],[40.5743,41.046,0.0],[40.5685,41.0401,6.759],[40.5596,41.0365,0.749],[40.5582,41.034,3.2645],[40.5485,41.0285,6.601],[40.5407,41.0268,5.7358],[40.5226,41.0276,1.5314],[40.5151,41.0296,3.3939],[40.5126,41.0324,3.6616],[40.5132,41.0387,0.9851],[40.5082,41.0382,0.9008],[40.509,41.0407,0.0],[40.5182,41.0385,0.0],[40.5196,41.0393,0.0],[40.5107,41.0412,0.0],[40.4979,41.0412,1.0083],[40.4876,41.0371,2.091],[40.4821,41.0379,0.0],[40.4782,41.0351,4.1411],[40.4649,41.0315,8.6748],[40.4551,41.0324,0.0],[40.4504,41.0304,13.6505],[40.4404,41.0307,0.0],[40.4271,41.0274,0.0],[40.4254,41.0257,2.1136],[40.3838,41.0257,0.0],[40.3754,41.0221,0.0],[40.3726,41.0193,15.0617],[40.3685,41.019,0.0],[40.3685,41.0171,0.0],[40.3632,41.0146,0.697],[40.359,41.0146,0.0],[40.3571,41.0115,3.8978],[40.3518,41.0096,0.5199],[40.3349,40.9952,3.5837],[40.3603,40.9875,127.6575],[40.3741,40.9808,163.2621],[40.3897,40.9673,83.203],[40.3943,40.9545,201.524],[40.4093,40.9545,112.0811],[40.4214,40.9419,152.8707],[40.466,40.8719,314.4221],[40.4692,40.8613,240.8538],[40.471,40.8445,290.7073],[40.4815,40.8224,480.8724],[40.4865,40.7954,843.5889],[40.4956,40.7787,924.1897],[40.5026,40.7577,1361.4354],[40.5119,40.7411,1916.1072],[40.5144,40.7234,2122.2117],[40.514,40.7021,2568.0645],[40.5118,40.6904,2607.8669],[40.5026,40.6738,2689.2632],[40.4954,40.6528,2440.3447],[40.4789,40.6286,2075.7449]]]]}
,"properties": {"GID_1": "TUR.65_1","GID_0": "TUR","country": "Turkey","province": "Rize","VARNAME_1": "NA","NL_NAME_1": "NA","TYPE_1": "Il","ENGTYPE_1": "Province","CC_1": "NA","HASC_1": "TR.RI","ISO_1": "TR-53","name": "Rize.province","area_km2": 3637.132,"hist_schema_id": "Elevation0-9000","hist_area_km2": {"0": 17.536,"25": 20.791,"50": 25.953,"75": 28.606,"100": 34.776,"125": 38.25,"150": 42.487,"175": 43.272,"200": 44.172,"225": 46.122,"250": 45.931,"275": 45.696,"300": 45.666,"325": 43.368,"350": 43.639,"375": 41.133,"400": 40.75,"425": 39.875,"450": 37.684,"475": 36.31,"500": 35.915,"525": 35.052,"550": 32.575,"575": 33.568,"600": 32.914,"625": 30.584,"650": 30.535,"675": 30.17,"700": 29.867,"725": 30.827,"750": 29.951,"775": 29.761,"800": 30.56,"825": 29.779,"850": 29.669,"875": 29.879,"900": 29.48,"925": 29.69,"950": 27.978,"975": 28.19,"1000": 28.318,"1025": 28.129,"1050": 28.115,"1075": 28.05,"1100": 27.683,"1125": 28.18,"1150": 26.853,"1175": 26.933,"1200": 26.967,"1225": 26.217,"1250": 25.322,"1275": 26.234,"1300": 25.643,"1325": 26.013,"1350": 25.212,"1375": 25.458,"1400": 24.655,"1425": 24.129,"1450": 23.104,"1475": 22.529,"1500": 22.947,"1525": 23.974,"1550": 22.788,"1575": 23.656,"1600": 21.73,"1625": 23.064,"1650": 23.097,"1675": 23.209,"1700": 21.319,"1725": 23.23,"1750": 21.866,"1775": 21.964,"1800": 22.3,"1825": 22.944,"1850": 22.64,"1875": 22.383,"1900": 22.978,"1925": 22.481,"1950": 22.739,"1975": 21.923,"2000": 22.805,"2025": 22.581,"2050": 23.529,"2075": 22.937,"2100": 22.282,"2125": 22.488,"2150": 23.406,"2175": 24.013,"2200": 23.325,"2225": 23.838,"2250": 24.946,"2275": 25.248,"2300": 25.986,"2325": 26.31,"2350": 28.298,"2375": 27.82,"2400": 28.814,"2425": 29.248,"2450": 29.842,"2475": 30.87,"2500": 29.186,"2525": 30.84,"2550": 31.03,"2575": 31.286,"2600": 32.537,"2625": 31.704,"2650": 31.861,"2675": 31.721,"2700": 32.411,"2725": 31.785,"2750": 30.919,"2775": 31.45,"2800": 30.778,"2825": 30.409,"2850": 30.252,"2875": 28.087,"2900": 28.266,"2925": 27.143,"2950": 25.831,"2975": 24.403,"3000": 21.464,"3025": 21.064,"3050": 18.914,"3075": 18.128,"3100": 16.603,"3125": 14.612,"3150": 12.283,"3175": 10.887,"3200": 8.751,"3225": 6.808,"3250": 6.101,"3275": 4.142,"3300": 2.906,"3325": 2.216,"3350": 1.831,"3375": 1.397,"3400": 0.996,"3425": 0.723,"3450": 0.402,"3475": 0.209,"3500": 0.161,"3525": 0.064,"3550": 0.048}}}