{"type":"Feature","properties":{"ISO3166-1-Alpha-3":"TUR","country":"Turkey","fill":"#FF0","id":"2301","name":"Rize"},
"geometry":{"type": "Polygon","coordinates": [[[41.12744,40.81291,3075.042],[41.14171,40.8528,2820.5969],[41.23731,40.93662,3187.5488],[41.26046,40.94629,2370.7432],[41.2803,40.96086,2309.2961],[41.28981,40.9814,3130.4536],[41.30438,41.00228,3001.2605],[41.35875,41.02856,2523.8638],[41.38583,41.07535,2375.936],[41.35575,41.10002,2301.364],[41.31617,41.1146,2679.8667],[41.30655,41.13258,2591.4417],[41.29446,41.14875,2529.4697],[41.274,41.15956,2220.2],[41.25529,41.17273,1210.6831],[41.23586,41.2072,561.5452],[41.22842,41.24653,285.9436],[41.20186,41.2981,0.0],[41.19979,41.3012,0.0],[41.19975,41.30126,0.0],[41.19077,41.29572,0.0],[41.17262,41.29125,0.0],[41.14666,41.28998,0.0],[41.12135,41.28555,0.0],[41.10084,41.27416,0.0],[41.06137,41.24282,0.0],[41.04274,41.23249,0.0],[41.02027,41.2237,0.0],[40.99708,41.21772,0.0],[40.97608,41.21552,0.0],[40.95981,41.21064,0.0],[40.92205,41.19062,0.0],[40.89682,41.18757,0.0],[40.85401,41.19929,0.0],[40.83888,41.20124,0.0],[40.82748,41.19794,0.0],[40.75758,41.15835,0.0],[40.69825,41.09813,0.0],[40.68588,41.09199,0.0],[40.67066,41.08796,0.0],[40.63966,41.08515,0.0],[40.62615,41.08218,0.0],[40.58839,41.05728,0.0],[40.55738,41.04247,0.0],[40.52914,41.03628,0.0],[40.49969,41.03876,7.6034],[40.46485,41.05044,0.0],[40.35229,40.9941,50.7285],[40.3523,40.99409,50.7285],[40.38795,40.93187,95.5752],[40.41297,40.86531,453.4565],[40.42423,40.79449,1065.0096],[40.48686,40.67328,2827.314],[40.47539,40.60569,2663.5532],[40.48945,40.54213,2936.2583],[40.6514,40.60411,2964.4214],[40.6914,40.61225,2812.2314],[40.73212,40.61584,2657.8992],[40.79175,40.62915,2685.3481],[40.82193,40.68659,2615.7915],[40.85749,40.69798,3063.9817],[40.90162,40.69827,3011.9897],[40.94441,40.70896,3276.4309],[41.05086,40.77836,3304.4321],[41.12744,40.81291,3075.042]]]}}