{"type":"Feature","properties":{"featurecla":"River","scalerank":9,"rivernum":1059,"dissolve":"1059River","name":"Simav2","name_alt":null,"note":null,"min_zoom":7.1,"strokeweig":0.25,"name_en":"Simav","min_label":8.1},
"geometry":{"type": "LineString","coordinates": [[28.1708984375,39.988397528119116,41.2477],[28.174072265625,40.00336334843162,28.0518],[28.180273437500006,40.01422760624412,27.044],[28.198828125,40.03620026249412,25.1662],[28.186621093750006,40.04218170780662,24.378],[28.185546875,40.05194733280662,22.8071],[28.191308593750023,40.06256744999412,20.9705],[28.198828125,40.070917059369116,20.0326],[28.205957031250023,40.072626043744116,20.2834],[28.21484375,40.071405340619116,20.0753],[28.222265625,40.07257721561912,19.7178],[28.225488281250023,40.081170965619116,18.7397],[28.227636718750006,40.08295319218162,19.1087],[28.23974609375,40.098260809369116,16.9729],[28.308691406250006,40.15973541874412,12.1827],[28.332910156250023,40.190936590619117,8.5482],[28.375585937500006,40.22577545780662,5.1027],[28.4140625,40.27545807499412,3.9479],[28.43359375,40.29035065311912,3.5424],[28.458886718750023,40.296893621869117,4.6681],[28.457275390625,40.30097077030662,1.6001],[28.456640625,40.301776434369117,1.6001],[28.4619140625,40.31281159061912,2.594],[28.469335937500006,40.32623932499412,21.7725],[28.488037109375,40.37274811405662,0.0911],[28.4990234375,40.390643621869117,0.3442]]}}