{"type":"Feature","properties":{"featurecla":"River","scalerank":9,"rivernum":1059,"dissolve":"1059River","name":"Simav1","name_alt":null,"note":null,"min_zoom":7.1,"strokeweig":0.2,"name_en":"Simav","min_label":8.1},
"geometry":{"type": "LineString","coordinates": [[28.364990234375,39.26154205936912,661.6525],[28.344921875000011,39.26898834843162,652.5565],[28.290722656250011,39.273211981244117,532.3187],[28.245019531250023,39.27155182499412,355.9225],[28.230859375000023,39.26923248905662,370.6901],[28.218505859375,39.26935455936912,266.5],[28.1875,39.28400299686912,223.9024],[28.169921875,39.28693268436912,260.8028],[28.151464843750006,39.28400299686912,290.5001],[28.13046875,39.27521393436912,204.7733],[28.118359375000011,39.28070709843162,195.7414],[28.11083984375,39.288348699994117,214.0468],[28.09912109375,39.308856512494117,223.2153],[28.074804687500006,39.34015534061912,169.8908],[28.069726562500023,39.34894440311912,241.5758],[28.069921875,39.37787506718162,147.1769],[28.086816406250023,39.40070221561912,140.6684],[28.108496093750006,39.42194244999412,134.7671],[28.123437500000023,39.44562409061912,218.5066],[28.12548828125,39.47028229374412,126.8873],[28.116796875,39.53290436405662,193.2869],[28.109960937500006,39.557001043744116,172.9503],[28.101660156250006,39.57282135624412,101.3941],[28.069042968750011,39.61786530155662,91.912],[28.06689453125,39.62775299686912,90.1012],[28.066308593750023,39.64411041874412,87.1013],[28.069580078125,39.65949127811912,147.1739],[28.079003906250023,39.666278387494117,104.9503],[28.12890625,39.684100653119117,84.6831],[28.137304687500006,39.69013092655662,79.3443],[28.14306640625,39.70282623905662,80.1899],[28.156982421875,39.708514715619117,79.7989],[28.19140625,39.71466705936912,75.616],[28.20556640625,39.72272369999412,73.5182],[28.218652343750023,39.73493073124412,76.9459],[28.23974609375,39.76251862186912,159.7749],[28.223876953125,39.77521393436912,143.0666],[28.1845703125,39.78815338749412,56.4587],[28.168066406250006,39.79999420780662,52.5817],[28.16943359375,39.816424871869117,59.7707],[28.179882812500011,39.83710358280662,139.5116],[28.180273437500006,39.853778387494117,46.6624],[28.151757812500023,39.858026434369116,125.6503],[28.155175781250023,39.86286041874412,37.2532],[28.156640625000023,39.86615631718162,67.2354],[28.159082031250023,39.868670965619117,87.1219],[28.165283203125,39.871698309369116,180.661],[28.159423828125,39.888690496869117,36.8689],[28.163476562500023,39.91388580936912,40.9807],[28.1572265625,39.92694733280662,37.2502],[28.174414062500006,39.93805573124412,30.7899],[28.177148437500023,39.953387762494117,34.1546],[28.1708984375,39.988397528119116,41.2477]]}}