{"type":"Feature","properties":{"GID_2":"TUR.20.3_1","GID_0":"TUR","country":"Turkey","GID_1":"TUR.20_1","province":"Burdur","NL_NAME_1":"NA","county":"Bucak","VARNAME_2":"NA","NL_NAME_2":"NA","TYPE_2":"District","ENGTYPE_2":"District","CC_2":"NA","HASC_2":"TR.BD.BU","name":"Bucak.county"},
"geometry":{"type": "MultiPolygon","coordinates": [[[[30.4441,37.2236,984.458],[30.4827,37.2248,776.4078],[30.6734,37.2247,700.0022],[30.6946,37.2266,636.829],[30.7165,37.2335,850.5413],[30.7288,37.2355,626.1184],[30.7504,37.2364,429.728],[30.7902,37.2362,164.6047],[30.8052,37.2246,84.9117],[30.8177,37.2373,310.2317],[30.8318,37.2607,290.7152],[30.8387,37.2817,657.7917],[30.8471,37.2955,926.4343],[30.8526,37.3141,763.8275],[30.8617,37.3305,472.3167],[30.8662,37.3462,355.1396],[30.8701,37.3536,344.0273],[30.8819,37.3624,375.0118],[30.9159,37.3725,895.2529],[30.9099,37.3929,732.694],[30.8934,37.4217,345.6714],[30.8831,37.4322,255.0],[30.8646,37.4436,390.4111],[30.8459,37.4508,304.8507],[30.8266,37.4639,381.8144],[30.8106,37.4793,485.2567],[30.8058,37.4923,313.2711],[30.7931,37.4976,490.0289],[30.7696,37.5209,348.1453],[30.7619,37.5305,396.5384],[30.749,37.5516,434.6938],[30.7459,37.5622,517.5687],[30.6951,37.561,942.7931],[30.6693,37.5535,1115.8715],[30.6534,37.5511,1218.7927],[30.5667,37.5503,1306.7467],[30.5399,37.5324,855.6052],[30.5187,37.5236,840.9232],[30.4924,37.5079,839.6296],[30.4292,37.4831,1130.5491],[30.4151,37.481,1179.4509],[30.3967,37.481,1193.463],[30.3823,37.483,1519.7742],[30.3702,37.4872,1670.76],[30.3417,37.473,2079.7852],[30.3265,37.4675,2241.2197],[30.3189,37.4628,2092.0132],[30.3133,37.4565,1828.4536],[30.3077,37.438,1696.3352],[30.3014,37.4287,1819.8491],[30.2503,37.3886,1295.5856],[30.2497,37.2948,1027.5413],[30.2632,37.2976,880.9662],[30.281,37.304,861.8031],[30.2959,37.3064,847.0701],[30.3349,37.307,811.8026],[30.3534,37.3041,813.0016],[30.3616,37.2997,936.3602],[30.3694,37.2914,972.7198],[30.3815,37.2704,1079.5905],[30.3866,37.252,807.443],[30.3935,37.2432,807.7137],[30.4041,37.2371,809.2415],[30.431,37.2268,969.767],[30.4441,37.2236,984.458]]]]}}