{"type": "Feature","bbox": [31.8649,37.8988,32.2333,38.0998],"geometry": {"type": "MultiPolygon","coordinates": [[[[31.9847,37.8999,1356.075],[32.0405,37.8995,1547.2057],[32.0518,37.9015,1516.0801],[32.0734,37.9084,1472.2959],[32.1119,37.9128,1569.1802],[32.1393,37.9252,1690.0774],[32.1686,37.9558,1494.3057],[32.1801,37.9723,1549.6628],[32.2098,37.9975,1335.396],[32.2176,38.0068,1413.3257],[32.2318,38.0303,1577.6395],[32.2333,38.0443,1645.9681],[32.2314,38.0581,1717.3906],[32.2022,38.0707,1642.626],[32.1721,38.0771,1592.6843],[32.1588,38.0849,1750.0787],[32.1391,38.0998,1783.8209],[32.117,38.0606,1614.601],[32.1093,38.0371,1551.5469],[32.0983,38.0223,1503.4495],[32.0917,38.0173,1603.2499],[32.0521,38.0062,1790.2223],[32.0131,38.0016,1598.7253],[31.9883,37.993899999999996,1506.7744],[31.923,37.9905,1350.9482],[31.8889,37.9786,1384.8812],[31.8649,37.9671,1388.1512],[31.896,37.9376,1327.9108],[31.9115,37.9159,1262.345],[31.9276,37.904,1258.1752],[31.9375,37.9002,1414.4919],[31.9483,37.8988,1400.9694],[31.9847,37.8999,1356.075]]]]}
,"properties": {"GID_2": "TUR.53.10_1","GID_0": "TUR","country": "Turkey","GID_1": "TUR.53_1","province": "Konya","NL_NAME_1": "NA","county": "Derbent","VARNAME_2": "NA","NL_NAME_2": "NA","TYPE_2": "District","ENGTYPE_2": "District","CC_2": "NA","HASC_2": "TR.KO.DB","name": "Derbent.county","area_km2": 341.9594,"hist_schema_id": "Elevation0-9000","hist_area_km2": {"1250": 1.1208,"1275": 3.2283,"1300": 4.3987,"1325": 8.2436,"1350": 14.0939,"1375": 13.8081,"1400": 13.5885,"1425": 14.2728,"1450": 13.3353,"1475": 15.1724,"1500": 16.4584,"1525": 17.5108,"1550": 17.1765,"1575": 20.2172,"1600": 20.9692,"1625": 19.8678,"1650": 15.7257,"1675": 12.1341,"1700": 10.5128,"1725": 10.6293,"1750": 9.5769,"1775": 8.5072,"1800": 7.1202,"1825": 6.0841,"1850": 5.1818,"1875": 4.3793,"1900": 4.5297,"1925": 4.5968,"1950": 4.4131,"1975": 5.1985,"2000": 4.4464,"2025": 3.5603,"2050": 2.3568,"2075": 1.8219,"2100": 1.3539,"2125": 1.1199,"2150": 1.0195,"2175": 0.8023,"2200": 1.1031,"2225": 0.7522,"2250": 0.7187,"2275": 0.4346,"2300": 0.3343,"2325": 0.0836}}}