{"type": "Feature","bbox": [40.5791,39.7433,41.2162,40.3484],"geometry": {"type": "MultiPolygon","coordinates": [[[[40.5791,40.0696,2270.7744],[40.6071,40.0592,2197.6899],[40.6323,40.058,2482.1631],[40.6464,40.0601,2617.7415],[40.6675,40.0675,2238.2834],[40.6914,40.072,2223.6479],[40.7458,40.0922,2180.5972],[40.7712,40.0928,2404.3843],[40.7818,40.0908,2332.2351],[40.7913,40.0862,2403.3638],[40.8043,40.0758,2607.7009],[40.8197,40.0542,2284.7534],[40.8466,40.0309,2135.6362],[40.855,40.0219,2110.0122],[40.8984,39.9544,1817.6812],[40.9021,39.9439,1784.4413],[40.9031,39.9354,1760.3064],[40.9015,39.901,1907.7526],[40.8984,39.8932,1905.6094],[40.8823,39.8675,2000.198],[40.8723,39.8553,2152.3938],[40.8654,39.8506,2291.1045],[40.829,39.8464,2329.7644],[40.8185,39.8404,2425.0811],[40.8151,39.836,2414.3674],[40.8139,39.8306,2410.2725],[40.8151,39.8252,2398.9116],[40.8183,39.8204,2386.9272],[40.8504,39.7936,2336.9316],[40.8669,39.7718,2126.063],[40.9036,39.7576,2297.4065],[40.9603,39.7439,2411.5464],[41.0312,39.7433,2515.6873],[41.0542,39.7468,2451.0703],[41.0722,39.7532,2244.1858],[41.0971,39.7595,2197.2805],[41.0974,39.7839,2048.8523],[41.0997,39.7979,2005.4495],[41.1229,39.8346,1869.4254],[41.1245,39.8396,1892.2072],[41.1239,39.8473,1878.08],[41.1164,39.8607,1831.7078],[41.114,39.8691,1797.6021],[41.1113,39.9229,1763.7612],[41.1004,39.9451,1779.7952],[41.0959,39.981,1796.9451],[41.0861,40.0026,1813.2533],[41.0868,40.0104,1826.1475],[41.1097,40.047,1847.9209],[41.117,40.068,1894.9409],[41.1241,40.0793,1969.7108],[41.1277,40.0899,2080.3325],[41.1278,40.1067,2303.2766],[41.1253,40.1149,2249.0903],[41.1026,40.1487,2475.0811],[41.1008,40.1591,2550.8257],[41.103,40.1644,2542.1177],[41.1091,40.1714,2510.626],[41.126,40.1826,2464.2227],[41.1598,40.1947,2670.2085],[41.1901,40.2009,2742.8303],[41.2157,40.215,2762.8804],[41.2162,40.2286,2634.6118],[41.2129,40.2359,2561.1104],[41.1975,40.2592,2857.5073],[41.1501,40.2983,2590.0679],[41.128,40.3304,2832.498],[41.0977,40.3464,2704.9443],[41.0837,40.3484,2589.2273],[41.0695,40.3468,2461.5757],[41.0347,40.332,2233.4717],[41.0282,40.3263,2199.957],[41.0146,40.3077,2201.3125],[40.9987,40.2955,2370.7544],[40.9654,40.2821,2495.9438],[40.9475,40.2791,2263.1194],[40.8856,40.2781,2397.9385],[40.8497,40.2686,2275.7207],[40.788,40.2659,2157.5017],[40.7516,40.2524,1995.0472],[40.7418,40.2453,2113.0703],[40.7298,40.2311,2424.1152],[40.7678,40.2329,2534.3723],[40.7818,40.2307,2593.187],[40.7924,40.2243,2442.4524],[40.7979,40.2145,2150.9893],[40.7977,40.2035,1985.453],[40.7959,40.1981,1994.3474],[40.7795,40.1725,2275.7375],[40.7662,40.1558,2107.5298],[40.7591,40.151,2167.6301],[40.7397,40.1426,2694.9146],[40.7063,40.1357,2418.5024],[40.6461,40.1126,2357.2271],[40.6219,40.098,2220.4004],[40.5984,40.0878,2356.7837],[40.589,40.0803,2284.5796],[40.5791,40.0696,2270.7744]]]]}
,"properties": {"GID_2": "TUR.31.5_1","GID_0": "TUR","country": "Turkey","GID_1": "TUR.31_1","province": "Erzurum","NL_NAME_1": "NA","county": "Ilıca","VARNAME_2": "NA","NL_NAME_2": "NA","TYPE_2": "District","ENGTYPE_2": "District","CC_2": "NA","HASC_2": "TR.EM.IL","name": "Ilıca.county","area_km2": 1623.906,"hist_schema_id": "Elevation0-9000","hist_area_km2": {"1700": 0.39,"1725": 6.47,"1750": 24.316,"1775": 29.334,"1800": 31.334,"1825": 40.608,"1850": 58.648,"1875": 50.397,"1900": 33.77,"1925": 28.128,"1950": 27.865,"1975": 27.99,"2000": 31.79,"2025": 35.172,"2050": 34.974,"2075": 43.678,"2100": 48.121,"2125": 52.14,"2150": 57.464,"2175": 57.488,"2200": 58.698,"2225": 61.116,"2250": 64.996,"2275": 62.503,"2300": 62.76,"2325": 64.367,"2350": 60.085,"2375": 55.89,"2400": 51.513,"2425": 47.013,"2450": 40.306,"2475": 39.066,"2500": 34.2,"2525": 32.187,"2550": 28.097,"2575": 25.249,"2600": 19.519,"2625": 16.726,"2650": 13.32,"2675": 10.887,"2700": 10.157,"2725": 9.622,"2750": 8.942,"2775": 6.724,"2800": 5.638,"2825": 4.132,"2850": 2.771,"2875": 1.816,"2900": 1.573,"2925": 0.973,"2950": 0.794,"2975": 0.746,"3000": 0.746,"3025": 0.567,"3050": 0.13}}}