{"type":"Feature","properties":{"GID_2":"TUR.51.5_1","GID_0":"TUR","country":"Turkey","GID_1":"TUR.51_1","province":"Kirsehir","NL_NAME_1":"NA","county":"Kaman","VARNAME_2":"NA","NL_NAME_2":"NA","TYPE_2":"District","ENGTYPE_2":"District","CC_2":"NA","HASC_2":"TR.KH.KA","name":"Kaman.county"},
"geometry":{"type": "MultiPolygon","coordinates": [[[[33.8196,39.0869,853.6842],[33.8439,39.0943,891.5947],[33.8744,39.1004,920.5933],[33.9015,39.1161,933.0365],[33.9225,39.1246,943.0231],[33.9399,39.1375,1036.2521],[33.9455,39.144,1053.8672],[33.9827,39.2028,1373.8107],[34.0207,39.2371,1435.1414],[34.0353,39.2605,1273.8947],[34.0407,39.2908,1294.4207],[34.0538,39.3124,1173.7068],[34.0125,39.3326,1199.7196],[33.9978,39.3513,1167.781],[33.9891,39.3653,1205.2588],[33.9773,39.3741,1226.193],[33.9472,39.3851,1213.4551],[33.9119,39.3886,1221.1281],[33.8996,39.3929,1258.105],[33.8928,39.3984,1268.3761],[33.8835,39.4124,1432.5249],[33.8744,39.4219,1442.9038],[33.8581,39.4351,1268.48],[33.8423,39.4436,1220.6617],[33.8195,39.4464,1221.8396],[33.7602,39.4446,1007.7848],[33.7047,39.4465,1006.0474],[33.6901,39.4458,1004.1522],[33.6763,39.4425,1017.2792],[33.662,39.4339,997.6866],[33.6065,39.391,1063.0724],[33.5947,39.3844,1069.5819],[33.5849,39.3811,1050.7],[33.5761,39.3638,1114.0516],[33.5707,39.3449,1174.1024],[33.5613,39.3286,1061.2468],[33.5561,39.3139,1015.941],[33.5458,39.3012,989.3571],[33.5394,39.2843,918.951],[33.5313,39.2706,875.6816],[33.528,39.2548,848.0],[33.5619,39.2002,848.0],[33.5823,39.182,848.0],[33.598,39.1714,848.0],[33.6493,39.1515,848.0],[33.6788,39.1339,848.0],[33.7087,39.122,848.0],[33.7664,39.106,857.733],[33.8196,39.0869,853.6842]]]]}}