{"type": "Feature","bbox": [30.6134,40.6821,30.987,40.9562],"geometry": {"type": "MultiPolygon","coordinates": [[[[30.9346,40.7612,178.3392],[30.9162,40.7665,612.5582],[30.8927,40.7786,671.345],[30.8748,40.8139,384.3589],[30.8731,40.8292,309.1458],[30.875,40.8413,384.3324],[30.8967,40.8804,309.0289],[30.8487,40.8797,422.8459],[30.8294,40.8823,513.8159],[30.8199,40.8868,652.2594],[30.8094,40.8949,915.8615],[30.8017,40.9045,751.535],[30.7989,40.9127,586.6987],[30.7395,40.9177,727.9314],[30.7217,40.924,582.6443],[30.6946,40.9294,416.0987],[30.6768,40.9357,435.3504],[30.6496,40.9411,332.6612],[30.6149,40.9562,234.2232],[30.6181,40.9106,108.3295],[30.6167,40.8794,19.2305],[30.6134,40.8639,23.2591],[30.6198,40.8142,23.0777],[30.6292,40.8017,72.6382],[30.6669,40.7715,46.9933],[30.6748,40.7627,53.4737],[30.6825,40.7507,43.2689],[30.6999,40.7359,44.1773],[30.7277,40.7232,67.428],[30.7627,40.6994,416.1428],[30.7726,40.6955,691.3262],[30.793,40.6917,1227.4617],[30.814,40.6846,720.7826],[30.8369,40.6821,938.8746],[30.9546,40.6823,1077.0851],[30.9848,40.7109,1125.6462],[30.987,40.7148,1219.2238],[30.987,40.7193,1111.5654],[30.9771,40.7305,805.7759],[30.9346,40.7612,178.3392]]]]}
,"properties": {"GID_2": "TUR.66.4_1","GID_0": "TUR","country": "Turkey","GID_1": "TUR.66_1","province": "Sakarya","NL_NAME_1": "NA","county": "Hendek","VARNAME_2": "NA","NL_NAME_2": "NA","TYPE_2": "District","ENGTYPE_2": "District","CC_2": "NA","HASC_2": "TR.SK.HE","name": "Hendek.county","area_km2": 545.9202,"hist_schema_id": "Elevation0-9000","hist_area_km2": {"25": 12.158,"50": 19.0196,"75": 22.6508,"100": 24.32,"125": 29.1495,"150": 25.5686,"175": 23.7988,"200": 22.1596,"225": 19.3661,"250": 16.8456,"275": 15.0972,"300": 16.5562,"325": 15.9772,"350": 14.5171,"375": 12.8805,"400": 12.5772,"425": 12.8337,"450": 13.8121,"475": 13.219,"500": 12.4031,"525": 12.1476,"550": 11.2336,"575": 11.4098,"600": 10.4635,"625": 10.9432,"650": 10.4305,"675": 10.6069,"700": 10.19,"725": 9.2123,"750": 9.3096,"775": 8.7158,"800": 8.3943,"825": 7.9942,"850": 7.1601,"875": 6.4229,"900": 5.5722,"925": 5.5578,"950": 4.2741,"975": 3.6477,"1000": 4.548,"1025": 3.6321,"1050": 3.2949,"1075": 2.8771,"1100": 2.7807,"1125": 2.2664,"1150": 2.0414,"1175": 1.4788,"1200": 1.3503,"1225": 0.7877,"1250": 0.5948,"1275": 0.5305,"1300": 0.4662,"1325": 0.3376,"1350": 0.3216,"1375": 0.0161}}}