{"type": "Feature","bbox": [37.4957,40.7613,37.7139,40.91],"geometry": {"type": "MultiPolygon","coordinates": [[[[37.5258,40.8402,983.6709],[37.5206,40.8275,1118.4589],[37.5008,40.806399999999996,697.7867],[37.4957,40.7937,860.5494],[37.5183,40.7767,707.4794],[37.5293,40.7715,869.6559],[37.5611,40.7613,870.1578],[37.5696,40.7623,968.9445],[37.5906,40.7686,985.889],[37.602,40.7699,1131.5527],[37.6815,40.7704,898.5778],[37.7139,40.7721,762.5767],[37.6971,40.7864,675.2411],[37.6698,40.8002,570.9002],[37.6641,40.8065,750.4393],[37.6617,40.812,484.4997],[37.6599,40.8267,549.5841],[37.6612,40.8509,1061.4731],[37.6643,40.8624,1071.6434],[37.6734,40.8788,739.9429],[37.6752,40.887,975.7935],[37.6761,40.91,816.7376],[37.6596,40.9064,780.4478],[37.6415,40.8948,587.3158],[37.6226,40.8775,721.9652],[37.6093,40.8594,571.2317],[37.5824,40.8326,1026.9006],[37.5706,40.8314,1084.625],[37.5511,40.8379,1061.6403],[37.5258,40.8402,983.6709]]]]}
,"properties": {"GID_2": "TUR.63.8_1","GID_0": "TUR","country": "Turkey","GID_1": "TUR.63_1","province": "Ordu","NL_NAME_1": "NA","county": "Gürgentepe","VARNAME_2": "NA","NL_NAME_2": "NA","TYPE_2": "District","ENGTYPE_2": "District","CC_2": "NA","HASC_2": "TR.OR.GT","name": "Gürgentepe.county","area_km2": 138.1415,"hist_schema_id": "Elevation0-9000","hist_area_km2": {"450": 0.1282,"475": 0.3046,"500": 0.4971,"525": 0.7697,"550": 1.1709,"575": 1.4115,"600": 2.1014,"625": 2.1013,"650": 2.8071,"675": 3.0641,"700": 3.4814,"725": 3.9469,"750": 4.4282,"775": 4.8292,"800": 5.5193,"825": 5.5356,"850": 6.4498,"875": 5.9687,"900": 5.905,"925": 6.755,"950": 5.2632,"975": 5.6644,"1000": 6.1782,"1025": 5.9699,"1050": 6.355,"1075": 7.2855,"1100": 8.457,"1125": 7.9921,"1150": 5.9545,"1175": 4.7673,"1200": 3.7401,"1225": 2.4561,"1250": 0.8027,"1275": 0.0803}}}