{"type":"Feature","properties":{"GID_1":"TUR.32_1","GID_0":"TUR","country":"Turkey","province":"Eskisehir","VARNAME_1":"Eskişehir","NL_NAME_1":"NA","TYPE_1":"Il","ENGTYPE_1":"Province","CC_1":"NA","HASC_1":"TR.ES","ISO_1":"TR-26","name":"Eskisehir.province"},
"geometry":{"type": "MultiPolygon","coordinates": [[[[30.9836,39.1585,1188.8264],[30.9978,39.1627,1075.5673],[31.0202,39.1752,1095.5983],[31.0487,39.1823,1048.7391],[31.1419,39.2185,903.0917],[31.1613,39.2314,909.3434],[31.2249,39.2801,857.4922],[31.2347,39.2837,852.9668],[31.2524,39.2841,843.9296],[31.28,39.2752,834.1416],[31.3053,39.2732,829.4359],[31.3062,39.259,835.7278],[31.3097,39.2485,845.0093],[31.3604,39.1696,914.1765],[31.3681,39.146,918.7846],[31.3809,39.1252,868.8392],[31.3864,39.1187,875.6788],[31.3964,39.1121,922.4827],[31.4531,39.0901,928.8862],[31.4713,39.0867,906.5836],[31.5064,39.0877,894.4117],[31.5351,39.0966,892.2117],[31.5546,39.0984,891.5111],[31.6681,39.0982,923.3339],[31.6918,39.0951,872.2748],[31.7413,39.0771,856.0994],[31.7589,39.0755,845.0394],[31.7725,39.078,840.2672],[31.7997,39.0881,829.7874],[31.8291,39.1,819.2029],[31.8389,39.1068,838.7874],[31.8438,39.1136,846.3309],[31.8496,39.1318,924.0547],[31.8584,39.1483,919.2845],[31.8607,39.168,938.2194],[31.8832,39.1738,831.0115],[31.907,39.189,910.1893],[31.9795,39.2162,791.2246],[31.9872,39.221,751.9201],[31.9928,39.2274,748.637],[31.9956,39.2359,793.0789],[31.998,39.2658,803.225],[32.0096,39.2911,795.6434],[32.0114,39.3126,736.693],[32.0113,39.3818,750.1099],[32.009,39.3968,735.4769],[31.9998,39.4134,729.0906],[31.9973,39.422,701.3646],[31.9959,39.4959,698.7528],[31.9908,39.5093,696.2196],[31.9637,39.5511,688.0916],[31.9416,39.574,688.1945],[31.9295,39.5909,756.2276],[31.9112,39.609,770.299],[31.8962,39.6323,775.8897],[31.8883,39.6558,784.119],[31.8651,39.6929,740.8857],[31.8582,39.714,835.6705],[31.8491,39.7304,799.429],[31.8469,39.7444,796.9843],[31.8473,39.7683,920.212],[31.8539,39.777,970.2769],[31.8827,39.8016,841.3999],[31.886,39.8085,830.379],[31.8852,39.813,749.2404],[31.8706,39.8391,685.4228],[31.8597,39.8726,605.9249],[31.8551,39.876,607.0214],[31.8459,39.8781,685.5355],[31.8178,39.8786,579.4751],[31.8071,39.8798,625.5297],[31.7972,39.8832,636.2878],[31.7885,39.8884,629.9126],[31.7681,39.9049,556.3088],[31.7617,39.9117,725.9915],[31.7504,39.9284,549.6622],[31.7189,39.9561,836.5746],[31.696,39.9882,470.2706],[31.617,40.0163,469.2996],[31.6007,40.0179,467.0],[31.5456,40.019,627.3583],[31.5036,40.029,651.7044],[31.3998,40.0303,538.4813],[31.3835,40.0327,545.7599],[31.3617,40.0396,737.9772],[31.3453,40.0413,698.5638],[31.2115,40.0416,719.421],[31.176,40.044,497.7544],[31.1203,40.0404,841.9785],[31.0915,40.0322,1057.9941],[31.0569,40.028,1145.2148],[31.0353,40.0211,579.8919],[31.0234,40.0192,534.2486],[30.9728,40.0187,804.6769],[30.9539,40.0196,704.2004],[30.9441,40.0222,489.7661],[30.9235,40.0316,425.8452],[30.9194,40.0357,294.2852],[30.9162,40.0466,453.3375],[30.9166,40.084,475.1545],[30.9136,40.0991,399.9981],[30.8997,40.1191,381.5466],[30.874,40.1403,524.0443],[30.8217,40.1565,563.0179],[30.7717,40.1603,1409.8341],[30.7468,40.1682,1173.0232],[30.7268,40.1719,1156.4028],[30.6703,40.1689,1059.4773],[30.6413,40.1605,1035.9526],[30.6065,40.1566,977.2223],[30.5849,40.1496,911.9786],[30.5714,40.1469,985.1411],[30.5633,40.1386,1048.6046],[30.5589,40.1314,972.1313],[30.5537,40.104,1135.1626],[30.5446,40.0876,969.2657],[30.5376,40.0666,997.6439],[30.5295,40.0528,812.7234],[30.5263,40.0379,542.192],[30.5232,40.0067,337.3888],[30.5023,39.9779,658.498],[30.4821,39.9612,1232.1594],[30.4648,39.9509,1205.3911],[30.4377,39.9406,1156.4104],[30.4277,39.9383,1279.8491],[30.3562,39.937,1279.3904],[30.3405,39.922,1152.6194],[30.2828,39.877,984.9051],[30.2753,39.8691,946.2815],[30.2722,39.8624,894.8629],[30.262,39.8588,904.2521],[30.2487,39.8549,878.6515],[30.2165,39.8562,869.1813],[30.1968,39.8589,915.4507],[30.1789,39.8651,963.4613],[30.1637,39.8675,900.4236],[30.136,39.8683,891.3514],[30.1133,39.8671,903.2289],[30.1032,39.8646,833.6547],[30.067,39.8494,905.7449],[30.0366,39.8268,872.3571],[30.0193,39.8113,1046.4943],[30.0027,39.7855,1172.1217],[30.0009,39.7801,1243.0698],[29.999,39.7457,1128.4014],[30.0006,39.7346,1089.6962],[30.0046,39.7271,1118.3273],[30.0137,39.7199,1059.5222],[30.0355,39.7095,1070.1166],[30.0411,39.7034,1022.755],[30.0448,39.6932,986.723],[30.0809,39.6945,946.8815],[30.1096,39.703,927.3585],[30.1311,39.705,940.0364],[30.1605,39.7035,969.6345],[30.187,39.6967,982.0632],[30.1759,39.673,903.0306],[30.1395,39.6372,1027.875],[30.137,39.6292,986.9994],[30.1392,39.6214,1072.6023],[30.1515,39.6093,906.3701],[30.1979,39.5745,945.3978],[30.2321,39.5576,1097.6458],[30.237,39.5524,1055.5712],[30.2441,39.5405,1015.2245],[30.2523,39.5322,1014.348],[30.3146,39.4835,1361.0254],[30.314,39.3855,1523.3464],[30.3161,39.3707,1453.4597],[30.3215,39.361,1530.4604],[30.3333,39.3468,1353.9189],[30.3636,39.3286,1282.6489],[30.4,39.3007,1310.4478],[30.4148,39.2871,1340.375],[30.4311,39.2612,1221.3184],[30.4367,39.2426,1236.1752],[30.446,39.2262,1299.6631],[30.4533,39.206,1228.7887],[30.4781,39.2018,1282.1986],[30.5055,39.1894,1315.3494],[30.5198,39.1704,1439.3605],[30.5262,39.1495,1374.0675],[30.533,39.1395,1332.0369],[30.6027,39.0842,1465.0393],[30.6185,39.077,1476.9462],[30.6398,39.077,1560.3756],[30.6907,39.0938,1468.3827],[30.6973,39.1015,1339.4684],[30.6975,39.1067,1312.2969],[30.7261,39.1114,1408.9382],[30.7389,39.1154,1564.4685],[30.7666,39.1285,1606.1089],[30.7692,39.1355,1765.2986],[30.7835,39.1586,1630.8763],[30.7995,39.1724,1376.864],[30.8288,39.1856,1230.7451],[30.8557,39.2016,1227.3969],[30.8927,39.2143,1118.3821],[30.8997,39.2153,1097.3599],[30.9694,39.1616,1152.6731],[30.9836,39.1585,1188.8264]]]]}}