{"type":"Feature","properties":{"id":138904.0,"fillOpacity":1,"fill":"#F0F","name":"Porsuk-Dam","title":"Porsuk-Dam","lge_id":null,"pfafstette":6755.0,"lke_type":"N","altitude":975,"objectid":87873,"scalerank":12,"featurecla":"Lake","note":"Porsuk-Dam","funkyname":0,"min_zoom":7.0,"min_label":8.0},
"geometry":{"type": "Polygon","coordinates": [[[30.245860222271233,39.638006903119077,887.5],[30.245860222271233,39.638006903119077,887.5],[30.239024284771233,39.648688055462827,950.6753],[30.210459831646233,39.660040594525327,972.3932],[30.187022331646233,39.657965399212827,964.9097],[30.161143425396233,39.631232000775327,987.7852],[30.148326042583733,39.605963446087827,895.5905],[30.153086784771233,39.596686102337827,887.5],[30.161143425396233,39.604986883587827,887.5],[30.179576042583733,39.628790594525327,887.5],[30.214610222271233,39.637091375775327,887.5],[30.245860222271233,39.638006903119077,887.5]]]}}