{"type": "Feature","id": 138486.0,"bbox": [31.471446159771233,40.000067449994077,31.750987175396233,40.100653387494077],"geometry": {"type": "Polygon","coordinates": [[[31.750987175396233,40.049200750775327,470.7756],[31.750987175396233,40.049200750775327,470.7756],[31.742198112896233,40.050665594525327,639.9968],[31.694956901958733,40.031927801556577,713.8193],[31.672984245708733,40.047735907025327,467.0],[31.667979362896233,40.085821844525327,474.2233],[31.643809441021233,40.100653387494077,812.049],[31.629893425396233,40.095892645306577,532.5014],[31.641123894146233,40.086371160931577,467.0],[31.655406120708733,40.069098211712827,467.0],[31.645640495708733,40.046820379681577,508.4755],[31.621104362896233,40.044989324994077,584.2773],[31.601084831646233,40.043585516400327,512.6066],[31.573985222271233,40.048346258587827,649.6069],[31.541880730083733,40.051031805462827,562.1237],[31.516856316021233,40.042669989056577,496.4725],[31.503916862896233,40.046942449994077,677.0297],[31.471446159771233,40.050421453900327,643.7081],[31.474619987896233,40.033270574994077,556.0829],[31.521494987896233,40.025458074994077,467.0],[31.546885612896233,40.027411199994077,506.2403],[31.595713737896233,40.028448797650327,467.0],[31.628916862896233,40.019598699994077,474.4571],[31.654307487896233,40.015692449994077,467.0],[31.675791862896233,40.000067449994077,478.7888],[31.716685417583733,40.029547430462827,467.0],[31.750987175396233,40.049200750775327,470.7756]]]}
,"properties": {"fillOpacity": 1,"fill": "#F0F","name": "Sarıyar-Barajı","title": "Sarıyar-Barajı","lge_id": null,"pfafstette": 1793.0,"lke_type": "N","altitude": 467,"objectid": 86390,"scalerank": 11,"featurecla": "Lake","note": "Sarıyar-Barajı","funkyname": 0,"min_zoom": 6.7,"min_label": 7.7,"area_km2": 65.62762,"hist_schema_id": "Elevation0-9000","hist_area_km2": {"475": 34.21761,"500": 4.70716,"525": 4.00928,"550": 3.70107,"575": 4.99987,"600": 4.00987,"625": 2.58106,"650": 1.31475,"675": 1.33103,"700": 1.36345,"725": 1.52582,"750": 1.44467,"775": 0.38953,"800": 0.03247}}}