{"type": "Feature","bbox": [41.107,37.0785,41.8878,37.3666],"geometry": {"type": "MultiPolygon","coordinates": [[[[41.8692,37.139,623.9591],[41.8752,37.1657,650.0317],[41.8864,37.1882,652.3859],[41.8878,37.1971,652.991],[41.8871,37.2183,686.266],[41.8834,37.2294,731.7042],[41.8755,37.2438,774.2627],[41.872,37.2651,836.4742],[41.8686,37.2761,842.5603],[41.8621,37.2876,826.9408],[41.8575,37.3016,802.1653],[41.8539,37.3053,799.3489],[41.8483,37.3072,791.2064],[41.8422,37.307,788.5364],[41.8231,37.3001,831.6722],[41.7995,37.2949,842.2455],[41.7855,37.2894,846.4481],[41.7723,37.2882,845.183],[41.7632,37.2913,890.1151],[41.7564,37.2967,877.0862],[41.7427,37.3234,808.9189],[41.7183,37.3213,840.4267],[41.6942,37.3217,871.6406],[41.6791,37.3241,865.6517],[41.6583,37.3313,902.5446],[41.6478,37.3322,952.9133],[41.6306,37.3291,990.5726],[41.6076,37.3153,1003.4133],[41.5939,37.3108,1013.4394],[41.5742,37.3094,979.8727],[41.465,37.3093,920.0026],[41.4506,37.3063,844.8907],[41.4063,37.2888,935.7126],[41.3887,37.287,930.2354],[41.3751,37.2895,907.3534],[41.3434,37.3032,961.9975],[41.3351,37.311,981.1946],[41.3251,37.3252,935.418],[41.3083,37.3402,913.9009],[41.2887,37.3468,925.5114],[41.2724,37.3565,935.1866],[41.2247,37.3556,895.9351],[41.1995,37.3486,826.8208],[41.1898,37.3475,865.563],[41.1769,37.3509,904.653],[41.1581,37.363,925.6248],[41.1452,37.3666,826.5766],[41.1325,37.3634,893.9083],[41.1244,37.3555,947.7009],[41.1216,37.344,972.2164],[41.1197,37.314,1006.4469],[41.1106,37.2973,977.4958],[41.107,37.2868,1044.0197],[41.1175,37.2764,1048.2793],[41.1285,37.2601,945.8047],[41.1472,37.2414,852.8337],[41.1605,37.2228,801.2844],[41.2114,37.1824,699.3558],[41.2226,37.1717,699.8883],[41.2536,37.1227,550.5047],[41.2588,37.0924,480.0607],[41.2687,37.0785,457.5035],[41.286,37.0801,454.987],[41.5009,37.0795,436.1231],[41.5581,37.0852,461.0148],[41.5897,37.0924,480.233],[41.6265,37.1051,503.0327],[41.6574,37.1124,534.2224],[41.6869,37.1145,537.1781],[41.7284,37.1135,547.2296],[41.7586,37.1175,574.5923],[41.8692,37.139,623.9591]]]]}
,"properties": {"GID_2": "TUR.57.7_1","GID_0": "TUR","country": "Turkey","GID_1": "TUR.57_1","province": "Mardin","NL_NAME_1": "NA","county": "Nusaybin","VARNAME_2": "NA","NL_NAME_2": "NA","TYPE_2": "District","ENGTYPE_2": "District","CC_2": "NA","HASC_2": "TR.MR.NU","name": "Nusaybin.county","area_km2": 1518.756,"hist_schema_id": "Elevation0-9000","hist_area_km2": {"425": 0.829,"450": 43.415,"475": 60.401,"500": 53.304,"525": 45.74,"550": 46.074,"575": 48.097,"600": 44.507,"625": 50.991,"650": 56.407,"675": 50.437,"700": 49.384,"725": 40.817,"750": 41.556,"775": 43.813,"800": 48.181,"825": 55.837,"850": 84.212,"875": 109.21,"900": 135.846,"925": 125.264,"950": 106.521,"975": 69.859,"1000": 36.721,"1025": 25.128,"1050": 17.621,"1075": 12.171,"1100": 6.989,"1125": 4.424,"1150": 2.769,"1175": 1.452,"1200": 0.676,"1225": 0.101}}}