{"type": "Feature","bbox": [38.8867,38.1847,39.1423,38.3383],"geometry": {"type": "MultiPolygon","coordinates": [[[[39.1191,38.3383,862.7004],[39.0607,38.3348,699.2014],[39.0317,38.3266,740.8926],[38.9971,38.3227,687.0],[38.9874,38.3194,687.0],[38.9686,38.309,697.7717],[38.9478,38.2905,778.1237],[38.8974,38.2521,1013.2641],[38.8878,38.2399,1118.583],[38.8867,38.2346,1129.3842],[38.8876,38.2269,1115.4669],[38.8905,38.2223,1180.3206],[38.8953,38.2191,1259.7549],[38.9211,38.2092,1643.5171],[38.9982,38.2069,1828.8337],[39.0303,38.1977,1208.7845],[39.0918,38.1945,808.2504],[39.1012,38.1911,1143.9031],[39.1117,38.1847,1183.785],[39.1198,38.1929,754.5847],[39.1243,38.2003,1120.281],[39.1288,38.2361,1251.0438],[39.1398,38.2584,683.0],[39.1423,38.2732,683.0],[39.1422,38.2854,898.7007],[39.1401,38.2973,952.8256],[39.1191,38.3383,862.7004]]]]}
,"properties": {"GID_2": "TUR.55.7_1","GID_0": "TUR","country": "Turkey","GID_1": "TUR.55_1","province": "Malatya","NL_NAME_1": "NA","county": "Doğanyol","VARNAME_2": "NA","NL_NAME_2": "NA","TYPE_2": "District","ENGTYPE_2": "District","CC_2": "NA","HASC_2": "TR.ML.DY","name": "Doğanyol.county","area_km2": 259.4917,"hist_schema_id": "Elevation0-9000","hist_area_km2": {"550": 0.5498,"575": 0.2666,"600": 0.4499,"625": 0.3832,"650": 0.3999,"675": 2.8955,"700": 1.6974,"725": 3.6609,"750": 4.4099,"775": 5.7408,"800": 5.4751,"825": 4.6931,"850": 4.6265,"875": 4.9261,"900": 4.9593,"925": 5.7586,"950": 5.7256,"975": 5.293,"1000": 5.4597,"1025": 5.7094,"1050": 5.8761,"1075": 5.6099,"1100": 5.9096,"1125": 5.5103,"1150": 5.9101,"1175": 6.0933,"1200": 5.3938,"1225": 5.5103,"1250": 5.1443,"1275": 5.7104,"1300": 5.2773,"1325": 5.5106,"1350": 5.5273,"1375": 5.0778,"1400": 5.5609,"1425": 6.3438,"1450": 6.5936,"1475": 6.3775,"1500": 5.345,"1525": 5.2116,"1550": 5.3282,"1575": 4.9786,"1600": 5.1784,"1625": 5.0286,"1650": 4.4624,"1675": 4.0625,"1700": 3.9127,"1725": 3.5963,"1750": 3.5298,"1775": 3.6462,"1800": 3.4966,"1825": 2.6309,"1850": 2.5978,"1875": 2.0151,"1900": 2.1484,"1925": 2.265,"1950": 2.0485,"1975": 1.8986,"2000": 1.3991,"2025": 1.1659,"2050": 1.2492,"2075": 1.1326,"2100": 0.9827,"2125": 0.8828,"2150": 0.5996,"2175": 0.6829,"2200": 0.483,"2225": 0.3664,"2250": 0.2498,"2275": 0.2665,"2300": 0.2332,"2325": 0.2332,"2350": 0.0833,"2375": 0.0833}}}