{"type":"Feature","properties":{"GID_2":"TUR.35.3_1","GID_0":"TUR","country":"Turkey","GID_1":"TUR.35_1","province":"Gümüshane","NL_NAME_1":"NA","county":"Kürtün","VARNAME_2":"NA","NL_NAME_2":"NA","TYPE_2":"District","ENGTYPE_2":"District","CC_2":"NA","HASC_2":"TR.GU.KU","name":"Kürtün.county"},
"geometry":{"type": "MultiPolygon","coordinates": [[[[38.9316,40.4477,2034.6003],[38.9602,40.4748,2635.4504],[38.9752,40.4954,2370.4966],[39.0053,40.5214,2135.6392],[39.0161,40.5378,1602.4674],[39.0269,40.5481,1460.7153],[39.0429,40.5578,1944.1276],[39.1188,40.5864,1417.8259],[39.1429,40.601,1980.9813],[39.1662,40.6111,1974.7609],[39.1746,40.618899999999996,1651.8506],[39.1948,40.6519,987.6],[39.2004,40.6584,1237.1381],[39.2178,40.6712,1860.2316],[39.2389,40.6794,2269.2996],[39.2469,40.684,2242.8115],[39.2586,40.6936,1667.9155],[39.2684,40.7051,2113.7632],[39.2387,40.7131,1843.5394],[39.2301,40.7173,1419.4651],[39.2155,40.7286,1414.4294],[39.2005,40.7475,1685.9722],[39.1496,40.7755,1667.3336],[39.1219,40.7622,1388.5811],[39.108,40.7585,1307.6105],[39.0265,40.7576,1018.0074],[38.9893,40.7291,569.3578],[38.9654,40.7194,1523.3337],[38.9423,40.7037,1920.8888],[38.922,40.6832,1844.8497],[38.9043,40.6538,2139.4775],[38.8525,40.5753,1719.6052],[38.8472,40.5619,2122.1233],[38.8462,40.5468,1772.3644],[38.8469,40.5283,1894.4353],[38.8495,40.5131,2013.7317],[38.8465,40.4982,2349.6948],[38.8461,40.4796,2284.0752],[38.8471,40.4736,2441.1558],[38.851,40.4655,2180.1582],[38.8599,40.458,2216.709],[38.8656,40.4552,2276.729],[38.8959,40.4447,2089.6257],[38.9138,40.4441,1952.1616],[38.9316,40.4477,2034.6003]]]]}}