{"type":"Feature","properties":{"GID_2":"TUR.41.19_1","GID_0":"TUR","country":"Turkey","GID_1":"TUR.41_1","province":"Izmir","NL_NAME_1":"NA","county":"Konak","VARNAME_2":"NA","NL_NAME_2":"NA","TYPE_2":"District","ENGTYPE_2":"District","CC_2":"NA","HASC_2":"TR.IZ.KO","name":"Konak.county"},
"geometry":{"type": "MultiPolygon","coordinates": [[[[27.0637,38.3477,268.0389],[27.0625,38.3416,307.2402],[27.065,38.3279,423.5045],[27.0633,38.3255,382.9908],[27.0651,38.3244,402.494],[27.0675,38.3273,467.4396],[27.1113,38.3273,224.9828],[27.1245,38.3366,125.8911],[27.1548,38.3536,162.2587],[27.1508,38.361,94.9666],[27.1577,38.3711,77.3462],[27.162,38.3843,81.1471],[27.1806,38.3935,142.9046],[27.1909,38.4042,278.9197],[27.1864,38.4174,120.1286],[27.1847,38.4439,5.4127],[27.171,38.4484,0.2186],[27.1707,38.4412,2.3891],[27.1688,38.4407,0.4314],[27.1696,38.4437,0.4093],[27.1671,38.446,0.1523],[27.1685,38.444,0.0449],[27.1676,38.4404,2.5151],[27.1637,38.4399,3.5423],[27.1621,38.4407,1.1551],[27.1618,38.4451,2.2048],[27.1596,38.4437,3.5726],[27.1588,38.4418,0.6201],[27.1604,38.4407,1.9676],[27.1593,38.4407,1.9676],[27.1576,38.4421,0.0],[27.1596,38.446,0.0],[27.154,38.4468,0.6978],[27.1513,38.4424,1.2657],[27.149,38.4424,0.0],[27.1476,38.4443,0.9594],[27.1499,38.4468,0.0],[27.1474,38.4471,0.0],[27.1454,38.4449,0.0],[27.1457,38.4424,0.6355],[27.1424,38.4421,0.0],[27.141,38.4362,8.6651],[27.1374,38.434,0.0],[27.134,38.429,0.0],[27.1321,38.4287,0.0],[27.1313,38.4235,9.037],[27.1293,38.4246,0.0],[27.1279,38.4235,0.0],[27.1287,38.4215,1.3289],[27.1249,38.419,0.0],[27.1251,38.4174,1.2519],[27.1187,38.4104,16.9305],[27.099,38.4065,2.934],[27.0901,38.3999,2.8064],[27.090699999999998,38.3623,241.9319],[27.0869,38.3542,298.03],[27.0794,38.3504,375.3517],[27.0637,38.3477,268.0389]]]]}}