{"type": "Feature","bbox": [26.972,41.9065,27.3368,42.1067],"geometry": {"type": "MultiPolygon","coordinates": [[[[27.2757,42.1051,471.369],[27.2719,42.1063,488.4347],[27.2628,42.1035,492.9933],[27.2481,42.1067,472.6456],[27.2298,42.1011,523.0021],[27.2217,42.0897,482.7263],[27.208,42.084,560.8093],[27.2074,42.0811,536.1302],[27.2093,42.0742,569.6313],[27.2126,42.0696,566.7762],[27.2095,42.0649,616.7483],[27.2033,42.065,634.9246],[27.1864,42.0742,558.0526],[27.1824,42.0742,579.2501],[27.1716,42.0701,618.0739],[27.1485,42.0723,555.0513],[27.1397,42.0751,507.2653],[27.1239,42.0869,485.6405],[27.1142,42.0902,534.1741],[27.1029,42.09,540.5151],[27.0777,42.0943,539.479],[27.0697,42.0923,617.6433],[27.0605,42.087,535.8636],[27.0509,42.0839,501.163],[27.0385,42.0838,500.1762],[27.0281,42.0812,540.6984],[27.0304,42.065,500.5773],[27.0196,42.0506,449.6109],[27.0145,42.0462,435.7673],[27.0026,42.0406,417.6764],[26.9878,42.0374,439.4796],[26.9831,42.0332,470.9839],[26.9831,42.0172,426.9065],[26.9728,42.0058,452.1251],[26.9783,42.0044,409.3651],[26.972,41.986,436.2441],[26.973,41.9724,403.2493],[26.9754,41.9675,373.7508],[26.9836,41.9602,401.6107],[27.0213,41.9441,302.6465],[27.0713,41.9405,378.9108],[27.1264,41.9207,383.2328],[27.161,41.9168,491.0553],[27.1828,41.9096,513.8471],[27.194,41.9075,551.6358],[27.2169,41.9065,526.6654],[27.2341,41.9095,575.2755],[27.2404,41.9152,661.6224],[27.2458,41.9292,677.4717],[27.2535,41.943,609.278],[27.2597,41.9645,687.7508],[27.2743,41.9879,639.179],[27.2828,41.9969,507.0999],[27.3103,42.0199,347.8755],[27.3276,42.0455,367.3046],[27.3368,42.0755,268.1457],[27.3294,42.0841,365.6661],[27.3095,42.0904,425.9865],[27.2987,42.0964,425.8811],[27.2857,42.099,457.4528],[27.2757,42.1051,471.369]]]]}
,"properties": {"GID_2": "TUR.50.3_1","GID_0": "TUR","country": "Turkey","GID_1": "TUR.50_1","province": "Kirklareli","NL_NAME_1": "NA","county": "Kofçaz","VARNAME_2": "NA","NL_NAME_2": "NA","TYPE_2": "District","ENGTYPE_2": "District","CC_2": "NA","HASC_2": "TR.KL.KO","name": "Kofçaz.county","area_km2": 442.6377,"hist_schema_id": "Elevation0-9000","hist_area_km2": {"250": 0.0944,"275": 1.6546,"300": 6.634,"325": 13.5664,"350": 22.3259,"375": 31.6207,"400": 36.1412,"425": 38.6421,"450": 34.4183,"475": 35.2517,"500": 35.0773,"525": 31.1894,"550": 30.433,"575": 30.1193,"600": 31.5565,"625": 26.8324,"650": 20.3431,"675": 11.9143,"700": 4.145,"725": 0.5045,"750": 0.1735}}}