{"type":"Feature","properties":{"GID_2":"TUR.27.2_1","GID_0":"TUR","country":"Turkey","GID_1":"TUR.27_1","province":"Düzce","NL_NAME_1":"NA","county":"Çilimli","VARNAME_2":"NA","NL_NAME_2":"NA","TYPE_2":"District","ENGTYPE_2":"District","CC_2":"NA","HASC_2":"TR.DU.CI","name":"Çilimli.county"},
"geometry":{"type": "MultiPolygon","coordinates": [[[[31.0236,40.9498,585.2607],[31.0285,40.937,627.7275],[31.0408,40.9212,691.0282],[31.0382,40.8975,302.742],[31.0414,40.8809,159.891],[31.0517,40.8694,142.2244],[31.0835,40.845,128.6608],[31.0985,40.845,131.9603],[31.1033,40.8532,133.0144],[31.1243,40.8655,140.6747],[31.1526,40.8856,152.0583],[31.1625,40.8937,154.7759],[31.167,40.9003,170.8408],[31.1667,40.9052,188.7176],[31.1638,40.9091,220.0744],[31.157,40.9133,230.0022],[31.1403,40.9198,195.4645],[31.1337,40.9253,256.3704],[31.1306,40.9301,340.9417],[31.1286,40.9383,378.976],[31.1281,40.9497,572.1045],[31.1313,40.9793,999.8718],[31.094,40.9631,795.686],[31.0703,40.9585,908.7249],[31.049,40.9516,745.2062],[31.0236,40.9498,585.2607]]]]}}