{"type":"Feature","properties":{"GID_2":"TUR.80.8_1","GID_0":"TUR","country":"Turkey","GID_1":"TUR.80_1","province":"Yozgat","NL_NAME_1":"NA","county":"Merkez","VARNAME_2":"Yozgat","NL_NAME_2":"NA","TYPE_2":"District","ENGTYPE_2":"District","CC_2":"NA","HASC_2":"TR.YZ.YZ","name":"Merkez.county"},
"geometry":{"type": "MultiPolygon","coordinates": [[[[34.6874,39.9925,1289.3542],[34.4603,39.9919,1449.6677],[34.4068,39.993,1408.4766],[34.3871,39.9898,1455.5481],[34.3752,39.9822,1324.9834],[34.37,39.976,1328.8741],[34.418,39.9005,1169.2024],[34.4385,39.8796,997.6708],[34.4533,39.8589,1094.8831],[34.4678,39.8477,1134.5466],[34.4944,39.8362,1011.8535],[34.5185,39.8216,953.6861],[34.5396,39.813,938.1559],[34.5702,39.7911,977.2275],[34.5812,39.785,920.7284],[34.6114,39.7737,899.7173],[34.6389,39.769,1026.4187],[34.6749,39.755,1062.3232],[34.6905,39.7443,1187.7869],[34.7069,39.7304,1111.6311],[34.7198,39.7118,1121.1865],[34.7399,39.6908,1221.1996],[34.7491,39.677,1275.7269],[34.756,39.6716,1309.6332],[34.7617,39.6689,1342.3708],[34.7764,39.6664,1397.5353],[34.8183,39.6663,1339.4215],[34.8283,39.6642,1291.2019],[34.8334,39.6611,1323.7585],[34.8464,39.6447,1237.5662],[34.8551,39.6302,1194.8333],[34.877,39.6073,1150.2983],[34.9012,39.5697,1065.1337],[34.9466,39.5322,940.2964],[34.9614,39.5115,955.2316],[34.9932,39.4813,1035.2579],[35.0288,39.4937,1095.5261],[35.1063,39.5242,1105.4246],[35.1278,39.5263,1108.1467],[35.1521,39.5243,1103.7715],[35.1518,39.538,1100.9594],[35.1542,39.5536,1064.21],[35.1377,39.571,1007.5134],[35.0542,39.6366,1007.5057],[35.0479,39.6438,1004.7732],[35.0345,39.6647,1081.8646],[35.0309,39.6759,1113.4877],[35.0309,39.8134,1160.4534],[35.0331,39.8254,1125.8966],[35.0443,39.8475,1186.0704],[35.0464,39.8743,1261.251],[35.0448,39.9013,1261.1089],[35.0422,39.9096,1213.3892],[35.0328,39.9258,1139.0575],[35.0319,39.9395,1129.668],[35.0373,39.95,1107.8126],[35.0529,39.9623,1131.6897],[35.0944,39.979,1188.0035],[35.1034,39.9855,1187.632],[35.1058,39.9928,1112.8988],[35.1049,40.0007,1156.8035],[35.085,40.0306,1322.7793],[35.0762,40.0388,1314.5066],[35.0633,40.0314,1333.5316],[35.057,40.0298,1317.0792],[35.0438,40.0307,1238.8883],[34.9777,40.0494,1014.2938],[34.9431,40.051,981.8469],[34.9045,40.0497,1030.9901],[34.8941,40.0473,1056.823],[34.8638,40.0354,1074.6807],[34.8175,40.0015,1237.4657],[34.8009,39.993899999999996,1358.7351],[34.7775,39.992,1422.2939],[34.6874,39.9925,1289.3542]]]]}}