{"type": "Feature","bbox": [39.5988,40.8672,39.8222,41.0129],"geometry": {"type": "MultiPolygon","coordinates": [[[[39.5988,40.8787,865.4211],[39.6411,40.8932,657.7437],[39.6542,40.8944,413.2711],[39.6785,40.8875,387.0647],[39.7169,40.8826,502.0372],[39.7657,40.8672,822.2357],[39.7629,40.91,743.179],[39.7638,40.9221,532.2728],[39.7667,40.9307,433.6044],[39.7751,40.9406,540.0684],[39.8046,40.9649,298.2919],[39.8222,40.9857,0.0],[39.8126,40.9876,0.0],[39.7946,40.9968,0.7969],[39.7874,40.9976,4.682],[39.7849,41.0007,0.0],[39.7801,41.0026,0.3583],[39.7618,41.001,5.3034],[39.7579,41.0024,0.0],[39.7501,41.0013,4.2709],[39.7479,41.0026,0.0],[39.7474,41.0004,4.9444],[39.7454,41.0004,9.1319],[39.744,41.0029,1.4107],[39.746,41.004,0.0],[39.7407,41.0032,1.3852],[39.7374,41.0046,0.7668],[39.7388,41.0088,0.0],[39.7249,41.0093,5.6908],[39.7207,41.0121,2.647],[39.7096,41.0088,3.8504],[39.7054,41.009,0.4958],[39.6818,40.9987,23.2747],[39.6726,40.9982,4.0814],[39.6629,40.9949,7.0118],[39.6415,40.9985,5.6462],[39.6321,41.0076,0.1077],[39.6249,41.0085,24.5603],[39.6145,41.0129,4.5926],[39.6117,40.9853,119.8196],[39.602,40.9656,119.0813],[39.5989,40.9533,174.1503],[39.5988,40.8787,865.4211]]]]}
,"properties": {"GID_2": "TUR.75.12_1","GID_0": "TUR","country": "Turkey","GID_1": "TUR.75_1","province": "Trabzon","NL_NAME_1": "NA","county": "Merkez","VARNAME_2": "TrabzonMerkez","NL_NAME_2": "NA","TYPE_2": "District","ENGTYPE_2": "District","CC_2": "NA","HASC_2": "TR.TB.TB","name": "Merkez.county","area_km2": 202.425,"hist_schema_id": "Elevation0-9000","hist_area_km2": {"0": 3.9203,"25": 5.6809,"50": 4.257,"75": 5.0261,"100": 5.4591,"125": 6.4679,"150": 6.612,"175": 7.5408,"200": 8.5816,"225": 9.6065,"250": 9.1264,"275": 9.0632,"300": 9.1913,"325": 8.279,"350": 8.2954,"375": 8.7922,"400": 7.6874,"425": 7.3993,"450": 6.7751,"475": 6.3109,"500": 5.6706,"525": 6.3115,"550": 5.1584,"575": 4.8863,"600": 3.9572,"625": 3.8772,"650": 3.3807,"675": 3.1405,"700": 2.8843,"725": 2.6119,"750": 2.3395,"775": 2.4197,"800": 1.6505,"825": 1.7468,"850": 1.266,"875": 1.3141,"900": 1.1379,"925": 0.9295,"950": 0.7853,"975": 0.8654,"1000": 0.625,"1025": 0.3686,"1050": 0.4167,"1075": 0.1603,"1100": 0.1443,"1125": 0.1443,"1150": 0.1282,"1175": 0.0321}}}