{"type": "Feature","bbox": [27.45,39.8876,27.8834,40.3268],"geometry": {"type": "MultiPolygon","coordinates": [[[[27.7477,39.9511,95.0],[27.7477,39.9741,272.1878],[27.751,39.9848,364.8015],[27.7592,39.9928,302.5643],[27.7791,40.0013,188.2429],[27.7865,40.0063,171.3178],[27.792,40.0126,176.66],[27.7995,40.0261,168.6796],[27.8014,40.0326,103.3667],[27.7962,40.0473,244.3752],[27.7973,40.0549,266.738],[27.8023,40.062,130.7002],[27.8157,40.0753,157.4635],[27.8205,40.0828,185.8273],[27.8258,40.1103,100.1506],[27.8355,40.1294,30.1091],[27.8387,40.1513,30.3801],[27.8415,40.1592,15.4882],[27.852,40.1689,14.5],[27.8697,40.1761,14.5],[27.8834,40.1838,14.5],[27.8753,40.1921,16.8079],[27.8712,40.1993,36.0032],[27.8666,40.2265,91.4259],[27.8638,40.2313,111.2436],[27.8546,40.2385,123.6243],[27.8252,40.2449,125.1783],[27.8128,40.251,117.3515],[27.7772,40.2779,94.4142],[27.7652,40.2847,134.3139],[27.7549,40.2874,179.3538],[27.7307,40.2893,171.8259],[27.7215,40.2919,81.7066],[27.716,40.2963,115.2487],[27.7128,40.3055,134.4097],[27.7233,40.3096,3.1257],[27.7165,40.3149,26.1093],[27.7049,40.3151,20.1353],[27.6918,40.3093,2.4933],[27.6879,40.3099,10.6235],[27.6815,40.3079,10.1495],[27.6599,40.3118,0.1227],[27.6626,40.3101,0.0477],[27.6596,40.3093,0.0537],[27.6626,40.3071,0.0514],[27.6596,40.3068,0.3931],[27.6554,40.3101,0.0],[27.6593,40.3118,0.1227],[27.659,40.3129,0.072],[27.6524,40.3154,0.0713],[27.6446,40.3154,0.2758],[27.6437,40.3171,0.2906],[27.6476,40.3165,0.0413],[27.6482,40.3176,0.3418],[27.6351,40.326,0.0],[27.6332,40.3243,0.0],[27.6329,40.3268,0.0],[27.614,40.3262,0.1941],[27.5871,40.3182,0.0],[27.5768,40.3121,0.0],[27.5807,40.3119,0.8058],[27.5834,40.2916,6.4654],[27.5817,40.2806,36.9063],[27.5753,40.2712,71.5501],[27.5455,40.2486,210.7399],[27.5213,40.2388,254.5169],[27.5073,40.2302,299.2974],[27.4792,40.2078,359.3735],[27.4683,40.1947,382.2422],[27.5038,40.1391,409.6154],[27.5071,40.1259,357.4118],[27.505,40.115,259.9612],[27.4966,40.1014,444.5904],[27.4894,40.0804,542.3033],[27.4799,40.064,727.4354],[27.4743,40.0455,651.8084],[27.465699999999998,40.0317,596.7026],[27.4596,40.0132,468.5087],[27.45,39.9949,320.1715],[27.4503,39.9897,224.3751],[27.4545,39.9828,165.696],[27.4613,39.9778,225.271],[27.4834,39.9679,492.7421],[27.4894,39.9618,563.6846],[27.4924,39.9538,544.2881],[27.4916,39.9343,542.4822],[27.4797,39.9126,498.4761],[27.4726,39.8876,348.8149],[27.5388,39.9138,376.8981],[27.5627,39.9181,218.3431],[27.5839,39.9252,219.0441],[27.6111,39.9306,221.3438],[27.6437,39.949,366.8719],[27.6772,39.9615,292.4303],[27.6915,39.9629,519.5512],[27.7097,39.9619,346.9653],[27.7342,39.9539,120.4209],[27.7477,39.9511,95.0]]]]}
,"properties": {"GID_2": "TUR.12.10_1","GID_0": "TUR","country": "Turkey","GID_1": "TUR.12_1","province": "Balikesir","NL_NAME_1": "NA","county": "Gönen","VARNAME_2": "NA","NL_NAME_2": "NA","TYPE_2": "District","ENGTYPE_2": "District","CC_2": "NA","HASC_2": "TR.BK.GN","name": "Gönen.county","area_km2": 1102.7536,"hist_schema_id": "Elevation0-9000","hist_area_km2": {"0": 25.6936,"25": 120.1684,"50": 108.1334,"75": 82.8231,"100": 86.8888,"125": 86.5536,"150": 64.1646,"175": 43.9842,"200": 38.6279,"225": 36.7786,"250": 37.8593,"275": 38.4832,"300": 35.9744,"325": 34.0987,"350": 29.9814,"375": 30.2433,"400": 28.3766,"425": 27.3264,"450": 25.7567,"475": 22.8679,"500": 21.0007,"525": 17.7198,"550": 15.7546,"575": 12.6358,"600": 7.2276,"625": 5.5707,"650": 4.2552,"675": 3.9628,"700": 3.801,"725": 2.5501,"750": 1.6078,"775": 0.6657,"800": 0.2922,"825": 0.3571,"850": 0.1948,"875": 0.1623,"900": 0.1623,"925": 0.0487}}}