{"type": "Feature","bbox": [29.6862,40.5898,29.8894,40.7301],"geometry": {"type": "MultiPolygon","coordinates": [[[[29.8665,40.5898,1036.7683],[29.8701,40.6004,981.0031],[29.8891,40.632,664.534],[29.8894,40.6407,463.6166],[29.8845,40.6518,346.2957],[29.8786,40.6818,308.6329],[29.8588,40.7049,20.2381],[29.8365,40.7243,0.5912],[29.8318,40.7218,2.3657],[29.8185,40.7285,0.0],[29.8157,40.7285,0.0],[29.8135,40.7246,1.3389],[29.8079,40.7254,2.0724],[29.8132,40.7301,0.4192],[29.8088,40.7299,0.747],[29.7951,40.7265,3.4726],[29.7904,40.7221,0.0],[29.7804,40.7224,0.0],[29.7749,40.719,0.0],[29.7693,40.7182,5.21],[29.7665,40.7193,0.0],[29.7599,40.7174,0.0],[29.7501,40.719,0.0],[29.7426,40.714,0.0],[29.7265,40.7129,0.0],[29.7251,40.7107,0.0],[29.7226,40.7104,36.5167],[29.7126,40.7118,2.1722],[29.7062,40.7082,4.8005],[29.6946,40.7079,0.0],[29.6872,40.7054,7.2658],[29.6862,40.6778,574.5635],[29.6874,40.6584,804.7642],[29.6899,40.6492,814.9258],[29.6989,40.6324,549.3905],[29.7073,40.5971,625.0875],[29.7513,40.6117,774.405],[29.7863,40.6134,811.2362],[29.8053,40.6108,746.087],[29.8499,40.5935,973.1167],[29.8665,40.5898,1036.7683]]]]}
,"properties": {"GID_2": "TUR.52.3_1","GID_0": "TUR","country": "Turkey","GID_1": "TUR.52_1","province": "Kocaeli","NL_NAME_1": "NA","county": "Gölcük","VARNAME_2": "NA","NL_NAME_2": "NA","TYPE_2": "District","ENGTYPE_2": "District","CC_2": "NA","HASC_2": "TR.KC.GO","name": "Gölcük.county","area_km2": 196.3316,"hist_schema_id": "Elevation0-9000","hist_area_km2": {"0": 3.8406,"25": 6.8626,"50": 6.574,"75": 5.6741,"100": 4.919,"125": 4.7103,"150": 4.4696,"175": 4.7917,"200": 5.419,"225": 6.2233,"250": 5.9178,"275": 6.4328,"300": 6.4007,"325": 6.3686,"350": 6.4653,"375": 6.2883,"400": 6.0312,"425": 6.2565,"450": 6.1926,"475": 5.7745,"500": 6.1444,"525": 6.1124,"550": 6.0805,"575": 5.6624,"600": 5.4695,"625": 4.9067,"650": 4.6012,"675": 4.5208,"700": 4.6336,"725": 4.0224,"750": 4.312,"775": 3.6525,"800": 3.2341,"825": 2.6392,"850": 2.4946,"875": 1.7865,"900": 1.4486,"925": 1.6739,"950": 1.7383,"975": 1.4486,"1000": 1.2072,"1025": 0.821,"1050": 0.8854,"1075": 0.7083,"1100": 0.4668,"1125": 0.0483}}}