{"type":"Feature","properties":{"GID_1":"TUR.70_1","GID_0":"TUR","country":"Turkey","province":"Sinop","VARNAME_1":"NA","NL_NAME_1":"NA","TYPE_1":"Il","ENGTYPE_1":"Province","CC_1":"NA","HASC_1":"TR.SP","ISO_1":"TR-57","name":"Sinop.province"},
"geometry":{"type": "MultiPolygon","coordinates": [[[[34.7918,41.2067,969.4129],[34.8449,41.1958,328.9745],[34.8504,41.1966,540.9126],[34.8792,41.2248,365.3759],[34.889,41.2442,447.2086],[34.8921,41.2537,343.905],[34.9076,41.2694,425.9025],[34.9183,41.2858,437.6753],[34.9371,41.3076,315.0],[35.1037,41.3735,595.2787],[35.113,41.3759,431.2098],[35.1232,41.375,182.7437],[35.1356,41.3672,198.8991],[35.1445,41.3531,382.1075],[35.1643,41.3324,411.4254],[35.1739,41.3179,185.0245],[35.205,41.29,429.0328],[35.2204,41.2697,214.483],[35.2308,41.2635,179.5],[35.2692,41.2589,334.4174],[35.2973,41.2503,238.5561],[35.3303,41.2491,206.6292],[35.3512,41.2525,298.5609],[35.3814,41.2638,336.3447],[35.4055,41.2755,385.001],[35.4204,41.2943,279.7325],[35.4285,41.3088,358.3499],[35.441,41.3255,398.8902],[35.4427,41.3387,420.4917],[35.4502,41.3525,458.0739],[35.4532,41.3629,639.9494],[35.4529,41.3711,741.7369],[35.4503,41.3788,998.036],[35.4425,41.393,1166.4965],[35.4373,41.4199,1186.8992],[35.4273,41.4392,1111.5864],[35.4227,41.4583,1302.5782],[35.4176,41.4698,1185.1603],[35.4357,41.4923,1270.0793],[35.4504,41.5157,895.3607],[35.4534,41.5234,747.4672],[35.4562,41.5427,448.1039],[35.46,41.5529,495.1164],[35.4726,41.5742,281.0186],[35.4851,41.5868,370.7869],[35.4853,41.6057,468.997],[35.4871,41.618,426.892],[35.4987,41.6421,0.0],[35.4949,41.6437,1.5664],[35.4732,41.6463,0.9884],[35.4576,41.6515,30.9366],[35.4437,41.6607,0.0],[35.4412,41.6646,0.8706],[35.421,41.6743,0.5396],[35.4182,41.6793,23.3554],[35.419,41.6815,0.0],[35.4143,41.6838,0.0],[35.3929,41.6854,41.6544],[35.389,41.6879,1.2655],[35.3499,41.6954,70.3253],[35.3387,41.7004,11.4542],[35.3324,41.6999,46.104],[35.3165,41.7043,2.0227],[35.3088,41.7046,39.2887],[35.3049,41.7071,0.0],[35.2776,41.7151,12.9623],[35.2632,41.7268,14.2933],[35.2626,41.7324,0.0],[35.266,41.7363,5.9631],[35.2649,41.7382,0.0],[35.2443,41.7463,10.5197],[35.2385,41.751,1.3514],[35.229,41.754,1.3017],[35.2096,41.766,0.0],[35.2079,41.771,0.0],[35.2032,41.7746,0.6203],[35.2018,41.7821,0.0],[35.1974,41.7857,4.0559],[35.1968,41.789,0.0],[35.1935,41.7921,0.0],[35.1935,41.7962,0.0],[35.1954,41.7999,2.7289],[35.1999,41.8004,0.0],[35.2026,41.799,0.0],[35.2021,41.8013,2.6321],[35.2057,41.8013,0.5422],[35.2054,41.7999,0.0],[35.2068,41.7996,0.0],[35.2076,41.8024,0.0],[35.1985,41.8096,6.3722],[35.1888,41.8146,2.4015],[35.1799,41.816,6.0966],[35.1738,41.8196,0.7905],[35.1729,41.8224,0.0],[35.1688,41.824,0.0],[35.1601,41.8315,0.7845],[35.1604,41.8349,0.0],[35.1576,41.8407,0.0],[35.1507,41.841,6.0248],[35.1335,41.8543,5.8585],[35.1265,41.8638,23.1674],[35.1285,41.8696,2.7824],[35.1263,41.8785,0.6806],[35.1182,41.8826,0.8739],[35.1071,41.8918,3.3053],[35.104,41.8999,1.1375],[35.0901,41.9218,0.0],[35.089,41.9304,4.3499],[35.0904,41.9332,0.3059],[35.0918,41.9326,0.0],[35.0935,41.9346,9.7943],[35.0926,41.9449,11.7142],[35.0949,41.9454,0.0],[35.094,41.9529,0.0],[35.0954,41.9557,0.0],[35.0957,41.9657,3.2233],[35.0988,41.9718,0.0],[35.1063,41.9757,0.0],[35.1093,41.9929,0.3822],[35.1132,42.0026,1.7444],[35.1218,42.0135,0.0],[35.1301,42.0171,14.5893],[35.1351,42.0168,0.0],[35.141,42.0235,2.4888],[35.1521,42.0232,0.533],[35.1624,42.0185,0.0],[35.1757,42.0171,19.5249],[35.1796,42.0151,0.0],[35.184,42.016,3.5343],[35.191,42.0146,0.0],[35.1957,42.0163,13.4341],[35.2007,42.0151,0.0],[35.2038,42.0124,10.7777],[35.2065,42.0126,13.3456],[35.2115,42.0174,0.0],[35.211,42.0196,9.6899],[35.201,42.0274,0.0],[35.1971,42.0343,0.0],[35.1929,42.0349,0.0],[35.1937,42.0396,0.0],[35.1896,42.0418,17.6081],[35.186,42.0407,2.8479],[35.1768,42.0418,13.855],[35.1751,42.0401,65.3712],[35.1707,42.0412,0.0],[35.169,42.0393,9.3374],[35.166,42.0396,3.1266],[35.1637,42.0376,1.9314],[35.1621,42.0385,1.9314],[35.1587,42.0326,8.9555],[35.1563,42.0326,5.7127],[35.1557,42.0313,42.6347],[35.1474,42.0299,5.7049],[35.1446,42.0271,0.0],[35.1401,42.0268,2.4923],[35.139,42.0254,19.0148],[35.1287,42.0238,0.0],[35.0979,42.0235,5.8514],[35.0776,42.0268,0.4647],[35.0635,42.0313,0.6922],[35.0499,42.0374,1.6382],[35.0438,42.0418,1.7737],[35.044,42.0449,3.2695],[35.0482,42.0479,1.1006],[35.0457,42.0476,2.6211],[35.0438,42.051,0.4971],[35.041,42.0501,13.2353],[35.0407,42.0532,0.0],[35.0451,42.0546,3.9418],[35.0482,42.0532,0.0],[35.0518,42.0599,0.0],[35.044,42.0621,3.779],[35.0424,42.0596,14.0995],[35.0432,42.0624,3.779],[35.0451,42.0643,0.0],[35.0446,42.0682,0.0],[35.0349,42.0746,0.0],[35.0324,42.0779,0.0],[35.024,42.081,0.0],[35.0243,42.0843,0.0],[35.0218,42.0849,8.5563],[35.0213,42.0885,19.8391],[35.0193,42.0887,38.3282],[35.0163,42.0932,2.7618],[35.011,42.0904,20.7361],[35.0043,42.0921,0.0],[35.0018,42.091,2.8997],[34.9993,42.0932,0.0],[34.9963,42.0924,0.0],[34.9885,42.0949,10.0445],[34.9835,42.0926,2.2212],[34.9813,42.0946,2.0486],[34.9804,42.0924,0.0],[34.9776,42.0924,6.7488],[34.966,42.0965,3.65],[34.9585,42.0954,14.1494],[34.9538,42.0974,0.0],[34.944,42.0976,1.3572],[34.9446,42.0954,18.2584],[34.9424,42.0938,0.0],[34.9479,42.0899,8.1575],[34.946,42.0796,14.3012],[34.9493,42.076,0.8997],[34.949,42.0737,9.0803],[34.9449,42.071,1.127],[34.9421,42.066,23.0177],[34.939,42.0654,0.9039],[34.9354,42.0557,9.7622],[34.9257,42.0479,19.0922],[34.9238,42.0482,3.9336],[34.9243,42.0443,0.0],[34.9196,42.0407,5.2209],[34.9199,42.0382,49.1545],[34.9076,42.024,0.2421],[34.8838,42.0068,0.0],[34.8763,41.9996,19.1378],[34.8354,41.9724,0.0],[34.8251,41.9663,14.5536],[34.8176,41.9643,0.0],[34.8124,41.9604,22.2085],[34.7982,41.9546,9.6114],[34.7907,41.9565,0.0],[34.7874,41.9538,1.9484],[34.7851,41.9543,0.0],[34.7818,41.9518,12.5703],[34.7779,41.9512,12.984],[34.7701,41.9535,14.7678],[34.7599,41.9532,6.1516],[34.7463,41.9504,25.3294],[34.7374,41.9468,41.2331],[34.7176,41.9435,2.1384],[34.6993,41.9435,32.8566],[34.6932,41.9471,0.0],[34.6799,41.9432,37.841],[34.6596,41.941,6.4549],[34.6532,41.9426,0.0],[34.6454,41.9412,7.0685],[34.6404,41.9429,0.0],[34.6179,41.9421,0.0],[34.6029,41.9451,24.8807],[34.6021,41.9471,0.0],[34.5968,41.9496,0.0],[34.589,41.9499,1.1343],[34.5776,41.9471,0.0],[34.5668,41.949,0.0],[34.5649,41.9471,6.7761],[34.5624,41.9482,1.7186],[34.5588,41.9465,9.6297],[34.5563,41.9487,47.2128],[34.546,41.9493,12.0833],[34.5374,41.9532,15.7238],[34.531,41.9535,49.9472],[34.5257,41.956,0.0],[34.5079,41.9582,46.5637],[34.4999,41.9632,2.5788],[34.4996,41.9657,0.0],[34.5024,41.9679,0.0],[34.5018,41.9712,0.0],[34.4907,41.9768,6.3428],[34.4888,41.9765,0.0],[34.4854,41.9712,6.3464],[34.4813,41.9704,18.7975],[34.481,41.9682,77.463],[34.4768,41.966,4.8667],[34.4688,41.9671,0.0],[34.4579,41.9651,31.3806],[34.4487,41.9657,0.0],[34.4463,41.9635,58.7024],[34.4421,41.9629,10.7523],[34.4393,41.9632,46.254],[34.4379,41.9663,0.0],[34.4343,41.9665,0.0],[34.426,41.9632,12.8935],[34.421,41.964,0.0],[34.4188,41.9615,1.7217],[34.4165,41.9621,0.1769],[34.4129,41.9593,2.5348],[34.4051,41.9588,0.0],[34.3935,41.9518,6.368],[34.3851,41.9538,0.0],[34.3832,41.9524,0.0],[34.3763,41.9526,0.0],[34.371,41.949,0.9581],[34.3571,41.9457,1.0943],[34.3476,41.9463,8.0697],[34.3443,41.9474,3.4962],[34.3443,41.9501,1.2489],[34.339,41.9515,0.3559],[34.334,41.949,0.0],[34.3318,41.9443,10.1494],[34.3182,41.9421,0.0],[34.3143,41.9429,0.0],[34.3099,41.941,1.5665],[34.2985,41.941,0.0],[34.294,41.9429,0.0],[34.2904,41.9418,18.1131],[34.2863,41.9443,0.0],[34.2785,41.9451,65.1422],[34.2796,41.9479,0.0],[34.2657,41.9474,0.0],[34.241,41.9499,17.7198],[34.2304,41.9549,0.3076],[34.2265,41.9551,0.923],[34.2243,41.9249,266.3427],[34.224,41.8896,430.9616],[34.2256,41.874,643.7285],[34.2288,41.8657,584.7647],[34.2517,41.8314,433.1406],[34.2672,41.805,768.5225],[34.2694,41.7895,1042.3065],[34.2691,41.7391,1568.8649],[34.3158,41.7393,1718.2476],[34.3409,41.7411,1344.894],[34.381,41.7377,1317.3082],[34.4056,41.73,1452.1633],[34.4169,41.7281,1450.8575],[34.4737,41.7272,1305.3872],[34.4931,41.7248,1486.5935],[34.5564,41.7003,1274.8923],[34.573,41.6889,1188.2126],[34.589,41.673,1311.5464],[34.5993,41.669,1066.308],[34.5989,41.6459,556.3934],[34.5962,41.6349,434.9203],[34.5804,41.6092,650.1165],[34.5671,41.5925,1006.9346],[34.5466,41.5805,1034.3484],[34.5109,41.5561,1241.8639],[34.4806,41.5444,1282.9045],[34.4651,41.5409,1199.6431],[34.4639,41.4416,1264.7831],[34.4661,41.4287,1187.6487],[34.4761,41.4087,1070.5183],[34.4786,41.3923,1010.5878],[34.4783,41.3306,1179.8458],[34.4756,41.3039,1396.4865],[34.4824,41.2956,1410.7362],[34.4919,41.2884,1489.2537],[34.5215,41.2765,1227.4989],[34.5635,41.2711,1402.5682],[34.5916,41.2629,1264.4589],[34.6134,41.2615,1326.5664],[34.63,41.2524,1143.5861],[34.657,41.2471,1167.5226],[34.6781,41.24,1093.525],[34.7021,41.2356,1239.0369],[34.7498,41.2174,1538.9803],[34.777,41.2121,1248.4152],[34.7918,41.2067,969.4129]]]]}}