{"type": "Feature","id": "2294","bbox": [34.14038,41.20162,35.50484,42.09878],"geometry": {"type": "Polygon","coordinates": [[[35.50012,41.6416,0.9952],[35.48585,41.64509,0.0],[35.44907,41.66055,0.0],[35.41733,41.68342,0.5419],[35.40105,41.69156,0.0],[35.35768,41.69684,0.0],[35.29819,41.71516,0.0],[35.28256,41.72419,0.0],[35.25359,41.75064,0.0],[35.22478,41.76187,0.0],[35.21176,41.77538,0.0],[35.202,41.79145,0.0],[35.19581,41.80451,37.2314],[35.20948,41.80451,0.0],[35.20948,41.81135,0.0],[35.15577,41.84569,0.0],[35.12574,41.87531,3.4883],[35.09864,41.91267,0.0],[35.09213,41.92805,0.0],[35.09303,41.94668,46.0095],[35.09881,41.96971,0.0],[35.10743,41.99169,9.7415],[35.11671,42.0069,0.0],[35.13754,42.01952,0.0],[35.16261,42.02171,43.9537],[35.21632,42.01679,0.0],[35.21632,42.02363,0.0],[35.19581,42.03807,0.0],[35.18621,42.04247,0.0],[35.17123,42.04413,0.0],[35.16041,42.04149,0.0],[35.14422,42.02851,0.0],[35.1338,42.02363,28.8976],[35.1045,42.02188,25.7692],[35.08155,42.0292,0.0],[35.04444,42.05158,0.0],[35.04444,42.05781,36.1566],[35.04884,42.06513,0.0],[35.04184,42.07209,0.0],[35.0311,42.08063,0.0],[35.02394,42.09252,0.0],[35.01612,42.09219,2.7618],[35.0101,42.09276,0.0],[35.00587,42.09138,10.7044],[35.00343,42.08511,53.5156],[34.99073,42.09113,52.8453],[34.96209,42.09504,33.2395],[34.94809,42.09878,0.0],[34.94191,42.06928,0.0],[34.91879,42.03555,0.0],[34.88901,42.0078,33.9272],[34.85288,41.99152,0.0],[34.81511,41.96914,0.0],[34.79859,41.96223,0.0],[34.74635,41.95038,25.3294],[34.69418,41.94595,4.6313],[34.56178,41.95185,0.0],[34.52703,41.96064,0.0],[34.49871,41.97191,113.944],[34.48268,41.97525,0.0],[34.44549,41.97285,0.0],[34.33131,41.94794,0.0],[34.21613,41.96014,0.0],[34.21613,41.96007,0.0],[34.22089,41.90354,191.7953],[34.19257,41.84509,912.4659],[34.14224,41.80024,1400.0017],[34.14038,41.76706,1493.2296],[34.20508,41.74784,1584.0226],[34.24094,41.74861,1622.9323],[34.28424,41.74526,1569.5028],[34.34429,41.73254,1598.2618],[34.46614,41.72745,1252.8125],[34.5325,41.71316,1346.5358],[34.58789,41.65748,893.0247],[34.55327,41.59116,737.574],[34.52092,41.57416,1189.6394],[34.49178,41.5523,1208.7319],[34.47204,41.5185,1196.6462],[34.46294,41.47985,1101.0791],[34.46945,41.46098,1123.0809],[34.47979,41.44161,1120.6873],[34.47193,41.31081,1449.6606],[34.49849,41.28585,1404.729],[34.5357,41.28771,1495.9921],[34.55751,41.28456,1463.8676],[34.57415,41.2705,1313.2935],[34.60815,41.2658,1377.7842],[34.64102,41.27211,863.3024],[34.67037,41.26614,845.3759],[34.69579,41.25244,1149.6509],[34.70665,41.23748,1188.0544],[34.72391,41.22927,1411.3965],[34.83728,41.20162,377.4501],[34.85837,41.22079,323.5843],[34.87615,41.23304,315.0],[34.88069,41.23857,315.0],[34.88348,41.24614,316.2436],[34.88524,41.26286,315.0],[34.88803,41.26981,315.0],[34.90395,41.27908,315.0],[34.92669,41.288,430.4169],[34.94177,41.29986,315.0],[34.93454,41.31787,315.0],[34.94384,41.326,315.0],[34.95376,41.32983,315.0],[34.97919,41.33091,315.0],[34.99128,41.33484,315.0],[35.02394,41.35882,347.6374],[35.07675,41.37432,184.673],[35.10238,41.38528,181.1887],[35.11334,41.3998,180.5],[35.12409,41.39184,180.5],[35.13277,41.37706,180.5],[35.13856,41.35908,397.4221],[35.14063,41.34146,180.0],[35.14724,41.33218,180.0],[35.16285,41.32347,246.7345],[35.19582,41.31104,228.2761],[35.18486,41.29903,359.0556],[35.19437,41.29342,180.0],[35.23974,41.28921,665.946],[35.24811,41.28575,576.9568],[35.26537,41.2712,502.2911],[35.29627,41.25826,329.2446],[35.33989,41.25448,288.9648],[35.38309,41.26017,179.5],[35.41327,41.27567,230.5202],[35.41389,41.27678,230.5202],[35.43384,41.28327,178.0],[35.4851,41.2728,178.0],[35.50484,41.28453,247.9614],[35.49688,41.34438,714.0579],[35.48954,41.3735,1030.4414],[35.47632,41.39396,1090.6418],[35.47094,41.41714,1176.1349],[35.47446,41.44641,1459.4457],[35.47228,41.47548,1038.4318],[35.45596,41.52362,781.8279],[35.46081,41.57423,633.204],[35.50009,41.64154,0.9952],[35.50012,41.6416,0.9952]]]}
,"properties": {"ISO3166-1-Alpha-3": "TUR","country": "Turkey","fill": "#F0F","name": "Sinop","area_km2": 6215.732,"hist_schema_id": "Elevation0-9000","hist_area_km2": {"0": 110.141,"25": 76.671,"50": 100.943,"75": 103.141,"100": 89.821,"125": 70.637,"150": 62.734,"175": 77.594,"200": 77.976,"225": 80.499,"250": 85.343,"275": 93.262,"300": 107.571,"325": 128.648,"350": 121.17,"375": 126.271,"400": 128.697,"425": 134.954,"450": 138.035,"475": 134.03,"500": 137.982,"525": 137.164,"550": 133.868,"575": 132.954,"600": 128.634,"625": 126.699,"650": 124.172,"675": 121.076,"700": 120.201,"725": 116.734,"750": 116.81,"775": 114.003,"800": 113.413,"825": 113.603,"850": 111.326,"875": 107.708,"900": 108.679,"925": 109.848,"950": 113.762,"975": 117.48,"1000": 123.954,"1025": 124.627,"1050": 132.044,"1075": 135.225,"1100": 137.717,"1125": 131.635,"1150": 126.852,"1175": 121.474,"1200": 112.063,"1225": 104.079,"1250": 91.151,"1275": 76.341,"1300": 65.312,"1325": 55.212,"1350": 43.49,"1375": 32.848,"1400": 25.581,"1425": 20.87,"1450": 17.936,"1475": 13.837,"1500": 12.814,"1525": 11.018,"1550": 10.54,"1575": 7.99,"1600": 6.248,"1625": 5.535,"1650": 4.254,"1675": 3.195,"1700": 2.467,"1725": 2.024,"1750": 1.392,"1775": 0.696,"1800": 0.443,"1825": 0.38,"1850": 0.19}}}