{"type": "Feature","bbox": [33.7602,39.3124,34.1441,39.6205],"geometry": {"type": "MultiPolygon","coordinates": [[[[33.7602,39.4446,1007.7848],[33.8195,39.4464,1221.8396],[33.8349,39.4453,1233.6765],[33.8458,39.4423,1236.8102],[33.8581,39.4351,1268.48],[33.8744,39.4219,1442.9038],[33.8835,39.4124,1432.5249],[33.8928,39.3984,1268.3761],[33.8996,39.3929,1258.105],[33.9119,39.3886,1221.1281],[33.9472,39.3851,1213.4551],[33.9773,39.3741,1226.193],[33.9891,39.3653,1205.2588],[33.9978,39.3513,1167.781],[34.0125,39.3326,1199.7196],[34.0538,39.3124,1173.7068],[34.0702,39.3302,1149.8672],[34.1221,39.3718,1215.8402],[34.1409,39.4,1349.1995],[34.1433,39.4086,1349.2855],[34.1441,39.4206,1299.7454],[34.144,39.5156,1060.1991],[34.0812,39.5148,1068.5541],[34.0424,39.5043,1061.1299],[34.0316,39.5044,1054.6014],[34.0211,39.5069,1033.7759],[34.0071,39.5157,937.9534],[34.0005,39.5248,953.5963],[34.0021,39.5323,1017.8597],[34.0189,39.5489,1132.7463],[34.0235,39.5593,1095.3184],[34.0235,39.5677,1071.8103],[34.0217,39.5732,1100.6326],[34.011,39.585,1066.03],[33.9928,39.595,1179.0084],[33.9538,39.5992,1015.6528],[33.9325,39.6062,863.7216],[33.9087,39.6106,836.3881],[33.8876,39.6179,827.2809],[33.874,39.6205,858.7267],[33.8705,39.61,854.716],[33.8613,39.5936,831.481],[33.8558,39.5633,824.5408],[33.8428,39.5425,828.1328],[33.8324,39.5326,835.0032],[33.8125,39.5238,894.1322],[33.8014,39.5147,910.0273],[33.7867,39.4916,924.2173],[33.7788,39.468,981.1561],[33.7602,39.4446,1007.7848]]]]}
,"properties": {"GID_2": "TUR.51.2_1","GID_0": "TUR","country": "Turkey","GID_1": "TUR.51_1","province": "Kirsehir","NL_NAME_1": "NA","county": "Akpınar","VARNAME_2": "NA","NL_NAME_2": "NA","TYPE_2": "District","ENGTYPE_2": "District","CC_2": "NA","HASC_2": "TR.KH.AP","name": "Akpınar.county","area_km2": 591.5489,"hist_schema_id": "Elevation0-9000","hist_area_km2": {"775": 1.0781,"800": 7.5485,"825": 7.746,"850": 9.1685,"875": 13.2736,"900": 15.6147,"925": 23.7111,"950": 21.5216,"975": 18.9056,"1000": 18.4984,"1025": 19.6772,"1050": 22.7702,"1075": 24.7654,"1100": 26.1748,"1125": 28.1153,"1150": 38.1828,"1175": 43.6649,"1200": 38.1721,"1225": 40.5843,"1250": 43.1416,"1275": 35.5904,"1300": 30.6248,"1325": 22.5823,"1350": 14.3458,"1375": 8.7786,"1400": 5.6832,"1425": 3.3412,"1450": 2.3094,"1475": 1.4905,"1500": 1.2612,"1525": 0.819,"1550": 0.8354,"1575": 0.606,"1600": 0.344,"1625": 0.2457,"1650": 0.2293,"1675": 0.1147,"1700": 0.0328}}}