{"type": "Feature","bbox": [38.8923,40.7576,39.1496,40.9207],"geometry": {"type": "MultiPolygon","coordinates": [[[[39.0265,40.7576,1018.0074],[39.108,40.7585,1307.6105],[39.1219,40.7622,1388.5811],[39.1496,40.7755,1667.3336],[39.1349,40.7965,1411.4893],[39.1298,40.8233,962.7506],[39.1193,40.8454,738.5233],[39.1165,40.871,1653.9021],[39.0859,40.8774,1626.7087],[39.0558,40.8894,1361.4451],[39.0262,40.9062,495.6404],[38.9992,40.912,363.404],[38.9815,40.9183,577.4171],[38.9542,40.9207,415.7217],[38.9252,40.9171,324.7812],[38.9098,40.8935,341.1179],[38.9055,40.8577,656.3904],[38.895,40.8355,463.5731],[38.8923,40.8159,948.6351],[38.909,40.8124,250.6819],[38.9962,40.7789,1006.4323],[39.0095,40.7712,1303.8822],[39.0265,40.7576,1018.0074]]]]}
,"properties": {"GID_2": "TUR.34.4_1","GID_0": "TUR","country": "Turkey","GID_1": "TUR.34_1","province": "Giresun","NL_NAME_1": "NA","county": "Çanakçı","VARNAME_2": "NA","NL_NAME_2": "NA","TYPE_2": "District","ENGTYPE_2": "District","CC_2": "NA","HASC_2": "TR.GI.CN","name": "Çanakçı.county","area_km2": 263.4131,"hist_schema_id": "Elevation0-9000","hist_area_km2": {"125": 0.1123,"150": 0.4492,"175": 0.4973,"200": 0.6574,"225": 0.9621,"250": 1.2025,"275": 1.8597,"300": 2.1642,"325": 2.5169,"350": 2.9977,"375": 3.1743,"400": 3.6069,"425": 4.0719,"450": 4.0722,"475": 4.4889,"500": 5.483,"525": 5.5308,"550": 6.7015,"575": 5.5472,"600": 6.1728,"625": 5.9164,"650": 5.5641,"675": 5.2596,"700": 5.7247,"725": 5.9012,"750": 5.1155,"775": 4.9073,"800": 5.4688,"825": 4.6191,"850": 4.7477,"875": 4.7639,"900": 4.812,"925": 4.4432,"950": 4.5718,"975": 4.5558,"1000": 4.4758,"1025": 4.5082,"1050": 4.3317,"1075": 3.9627,"1100": 4.2679,"1125": 4.0272,"1150": 4.1717,"1175": 4.0117,"1200": 3.8191,"1225": 4.0597,"1250": 4.1562,"1275": 3.8193,"1300": 3.8837,"1325": 3.5626,"1350": 4.1566,"1375": 3.515,"1400": 3.4507,"1425": 3.5149,"1450": 3.5952,"1475": 3.0655,"1500": 3.146,"1525": 3.2741,"1550": 3.3867,"1575": 2.8889,"1600": 2.6645,"1625": 2.8568,"1650": 2.905,"1675": 2.9211,"1700": 2.9211,"1725": 2.9533,"1750": 2.7767,"1775": 2.3273,"1800": 2.0385,"1825": 2.1669,"1850": 1.8619,"1875": 1.6854,"1900": 1.3001,"1925": 1.0756,"1950": 0.5619,"1975": 0.4656,"2000": 0.1926,"2025": 0.0482}}}