{"type":"Feature","properties":{"GID_2":"TUR.79.3_1","GID_0":"TUR","country":"Turkey","GID_1":"TUR.79_1","province":"Yalova","NL_NAME_1":"NA","county":"Çiftlikköy","VARNAME_2":"NA","NL_NAME_2":"NA","TYPE_2":"District","ENGTYPE_2":"District","CC_2":"NA","HASC_2":"TR.YL.CT","name":"Çiftlikköy.county"},
"geometry":{"type": "MultiPolygon","coordinates": [[[[29.3627,40.58,372.9667],[29.3825,40.6029,210.645],[29.389,40.6326,62.4684],[29.3997,40.6553,132.9885],[29.4015,40.6709,229.9458],[29.4012,40.6965,0.4548],[29.4008,40.699,0.0],[29.3949,40.7021,0.0],[29.3888,40.7001,-0.0629],[29.3807,40.7012,0.2126],[29.3743,40.6987,0.1217],[29.3437,40.6738,0.5495],[29.3121,40.6693,0.0],[29.3048,40.6668,1.2324],[29.309,40.6563,12.3553],[29.3136,40.6291,77.2153],[29.3244,40.6068,199.9182],[29.326,40.5917,202.3262],[29.3259,40.5669,424.1498],[29.3425,40.5707,640.704],[29.3627,40.58,372.9667]]]]}}