{"type": "Feature","bbox": [33.8809,38.4908,34.3285,38.7995],"geometry": {"type": "MultiPolygon","coordinates": [[[[33.8809,38.5427,1151.2058],[33.9,38.5274,1072.0808],[33.9145,38.518,1084.5211],[33.9447,38.5061,1045.5896],[33.9633,38.503,1037.4645],[34.0909,38.5026,1226.5944],[34.1067,38.5009,1236.5588],[34.1281,38.4938,1285.8407],[34.1393,38.4918,1337.6227],[34.1995,38.4908,1238.2251],[34.2269,38.4929,1207.774],[34.2557,38.5012,1171.6156],[34.2984,38.5037,1284.3641],[34.3285,38.51,1182.6174],[34.3188,38.5365,1166.191],[34.3102,38.5502,1140.1709],[34.2896,38.5949,1117.666],[34.273,38.6205,1114.7051],[34.2543,38.6358,1116.4945],[34.2308,38.6458,1157.8667],[34.2234,38.6509,1150.4664],[34.2076,38.6731,1120.8488],[34.2046,38.6804,1117.04],[34.2065,38.6908,1108.0159],[34.2443,38.7481,1263.3954],[34.2498,38.7667,1221.7535],[34.2593,38.7831,1088.3035],[34.2626,38.7937,1044.8663],[34.2401,38.7995,1119.9989],[34.1787,38.7832,1042.1791],[34.118,38.7821,1069.8706],[34.0985,38.7798,1049.1497],[34.0684,38.7684,1187.498],[34.039,38.7511,1206.2451],[34.0103,38.7397,1368.7488],[34.025,38.7133,1352.655],[34.0478,38.6904,1366.6008],[34.0647,38.6651,1435.0242],[34.067,38.653,1551.5397],[34.0631,38.6408,1947.067],[34.0525,38.6303,1599.6774],[34.0346,38.6173,1433.726],[34.0237,38.611,1324.0134],[33.9997,38.6011,1200.2904],[33.9513,38.5658,1290.3773],[33.9156,38.5514,1094.5525],[33.8809,38.5427,1151.2058]]]]}
,"properties": {"GID_2": "TUR.5.6_1","GID_0": "TUR","country": "Turkey","GID_1": "TUR.5_1","province": "Aksaray","NL_NAME_1": "NA","county": "Ortaköy","VARNAME_2": "NA","NL_NAME_2": "NA","TYPE_2": "District","ENGTYPE_2": "District","CC_2": "NA","HASC_2": "TR.AK.OR","name": "Ortaköy.county","area_km2": 710.3974,"hist_schema_id": "Elevation0-9000","hist_area_km2": {"1000": 5.67,"1025": 17.863,"1050": 26.707,"1075": 33.0595,"1100": 40.2794,"1125": 64.2565,"1150": 59.5726,"1175": 57.7502,"1200": 49.68,"1225": 47.4776,"1250": 49.9762,"1275": 39.7816,"1300": 33.7867,"1325": 30.0096,"1350": 25.9849,"1375": 22.0097,"1400": 18.8954,"1425": 16.5577,"1450": 13.7399,"1475": 11.9,"1500": 9.2476,"1525": 7.6896,"1550": 6.1977,"1575": 5.1703,"1600": 3.7283,"1625": 2.9827,"1650": 2.5354,"1675": 1.74,"1700": 1.5246,"1725": 1.2926,"1750": 0.8121,"1775": 0.4309,"1800": 0.6795,"1825": 0.4144,"1850": 0.3481,"1875": 0.2319,"1900": 0.1159,"1925": 0.1159,"1950": 0.0994,"1975": 0.0662,"2000": 0.0166}}}