{"type": "Feature","bbox": [40.4985,40.2908,40.8294,40.6047],"geometry": {"type": "MultiPolygon","coordinates": [[[[40.5881,40.2908,2092.7444],[40.6046,40.2996,2408.0396],[40.6317,40.3051,2333.1206],[40.6796,40.323,2088.7717],[40.7069,40.3282,2082.7324],[40.7547,40.3463,2496.4226],[40.7688,40.3482,2286.4946],[40.8016,40.3489,2294.6841],[40.8119,40.3508,2308.0396],[40.8226,40.3571,2300.4409],[40.8275,40.3641,2064.7227],[40.8294,40.3751,1918.892],[40.8279,40.3891,1947.2943],[40.8174,40.4082,1822.918],[40.8093,40.4317,1461.8594],[40.7921,40.4575,1528.4409],[40.7498,40.4916,2126.1453],[40.7404,40.5039,2107.1184],[40.7381,40.5179,2103.7798],[40.7392,40.535,1999.3064],[40.7425,40.5457,1965.061],[40.7505,40.5588,2319.3872],[40.7513,40.564,2318.3254],[40.7501,40.5692,2418.2542],[40.747,40.5735,2552.8809],[40.7402,40.5787,2752.7156],[40.7229,40.5857,2890.604],[40.7152,40.5905,2822.1152],[40.7005,40.6047,2898.3308],[40.6204,40.5737,2837.0154],[40.59,40.5676,2865.5078],[40.5152,40.5389,2939.5518],[40.4985,40.5353,2725.0884],[40.502,40.5248,2711.3452],[40.5238,40.4901,2415.0605],[40.5269,40.482,2538.0613],[40.5302,40.449,2098.4421],[40.5398,40.4295,1752.7377],[40.5423,40.4206,1638.8436],[40.5442,40.3705,1616.6852],[40.5466,40.3617,1676.3633],[40.5561,40.3421,1882.5785],[40.558,40.3152,2327.8257],[40.5599,40.3066,2488.0776],[40.563,40.3016,2464.3843],[40.5696,40.296,2224.9551],[40.5783,40.2924,2054.7983],[40.5881,40.2908,2092.7444]]]]}
,"properties": {"GID_2": "TUR.31.15_1","GID_0": "TUR","country": "Turkey","GID_1": "TUR.31_1","province": "Erzurum","NL_NAME_1": "NA","county": "Pazaryolu","VARNAME_2": "NA","NL_NAME_2": "NA","TYPE_2": "District","ENGTYPE_2": "District","CC_2": "NA","HASC_2": "TR.EM.PR","name": "Pazaryolu.county","area_km2": 602.9752,"hist_schema_id": "Elevation0-9000","hist_area_km2": {"1250": 0.3066,"1275": 2.3078,"1300": 4.164,"1325": 5.5847,"1350": 5.7463,"1375": 6.4729,"1400": 8.1358,"1425": 9.2656,"1450": 10.5893,"1475": 12.4616,"1500": 13.0588,"1525": 12.2193,"1550": 13.2363,"1575": 14.0432,"1600": 13.3331,"1625": 13.171,"1650": 13.1872,"1675": 13.0585,"1700": 13.5425,"1725": 13.6883,"1750": 15.287,"1775": 14.7712,"1800": 14.3833,"1825": 14.5607,"1850": 14.5288,"1875": 13.8836,"1900": 12.6727,"1925": 12.3823,"1950": 12.1405,"1975": 10.978,"2000": 11.8655,"2025": 11.7535,"2050": 11.3173,"2075": 11.4457,"2100": 10.1217,"2125": 10.4275,"2150": 10.3142,"2175": 9.1678,"2200": 9.6662,"2225": 8.6175,"2250": 8.2623,"2275": 7.6161,"2300": 7.2436,"2325": 5.3874,"2350": 6.1137,"2375": 5.4522,"2400": 6.1127,"2425": 5.3864,"2450": 4.9173,"2475": 4.6432,"2500": 4.2232,"2525": 3.8035,"2550": 4.1092,"2575": 3.5611,"2600": 3.8996,"2625": 4.3183,"2650": 4.3019,"2675": 4.0602,"2700": 4.5111,"2725": 4.6561,"2750": 3.9471,"2775": 4.5917,"2800": 3.8503,"2825": 4.398,"2850": 4.1079,"2875": 4.2529,"2900": 4.5107,"2925": 4.4299,"2950": 4.4945,"2975": 4.2206,"3000": 3.5924,"3025": 3.56,"3050": 3.1736,"3075": 2.642,"3100": 1.8044,"3125": 1.3694,"3150": 1.0633,"3175": 0.6122,"3200": 0.7572,"3225": 0.5156,"3250": 0.3544,"3275": 0.1933,"3300": 0.0483,"3325": 0.0483}}}