{"type":"Feature","properties":{"GID_2":"TUR.11.16_1","GID_0":"TUR","country":"Turkey","GID_1":"TUR.11_1","province":"Aydin","NL_NAME_1":"NA","county":"Sultanhisar","VARNAME_2":"NA","NL_NAME_2":"NA","TYPE_2":"District","ENGTYPE_2":"District","CC_2":"NA","HASC_2":"TR.AY.SH","name":"Sultanhisar.county"},
"geometry":{"type": "MultiPolygon","coordinates": [[[[28.3287,37.8523,56.6791],[28.3292,37.9035,70.2176],[28.327,37.9212,104.5689],[28.3092,37.9498,339.5277],[28.2806,37.9743,555.8204],[28.2722,37.9842,641.5374],[28.2695,37.9923,787.6394],[28.2689,38.0007,1026.6632],[28.2718,38.0238,1247.7444],[28.257,38.0201,1115.0886],[28.2409,38.0185,1079.8441],[28.2204,38.0192,1535.4473],[28.202,38.0219,1595.4116],[28.1909,37.9842,911.4803],[28.1763,37.9608,761.1259],[28.1655,37.9499,414.99],[28.1293,37.9217,564.8241],[28.1231,37.915,581.567],[28.1187,37.9044,364.7565],[28.1178,37.8844,106.2697],[28.1205,37.8705,65.5962],[28.1233,37.8655,52.6293],[28.1335,37.8552,43.3553],[28.1442,37.8617,43.9875],[28.1537,37.8653,46.2888],[28.1689,37.8673,53.7599],[28.1843,37.8674,53.2845],[28.2015,37.8643,47.7089],[28.2225,37.8477,48.7189],[28.2401,37.8436,51.4418],[28.2682,37.844,51.7952],[28.2818,37.8458,53.2963],[28.3033,37.8531,53.8632],[28.314,37.8538,54.9536],[28.3287,37.8523,56.6791]]]]}}