{"type": "Feature","bbox": [29.006,40.9649,29.0981,41.029],"geometry": {"type": "MultiPolygon","coordinates": [[[[29.0656,41.011,138.35059999999999],[29.062,41.011,100.9756],[29.0524,41.0164,117.076],[29.035,41.029,63.4305],[29.0302,41.0284,78.0132],[29.0236,41.0242,58.4822],[29.0093,41.0134,0.0],[29.009,41.0104,0.0],[29.0071,41.0126,0.0],[29.006,41.0099,0.0],[29.009,41.0085,0.0],[29.0071,41.0065,2.6513],[29.0076,41.0049,1.0279],[29.0124,41.0037,0.0],[29.0107,41.0007,0.0],[29.0149,41.0004,0.0],[29.0176,40.9979,3.2245],[29.0171,40.9957,0.0],[29.0229,40.9949,0.0],[29.0218,40.9924,0.0],[29.0165,40.9921,0.0],[29.0204,40.9851,5.9663],[29.0199,40.9815,7.9821],[29.0218,40.9782,0.0],[29.0326,40.9813,7.8451],[29.0376,40.9796,0.718],[29.0382,40.9707,5.5308],[29.0365,40.9699,2.716],[29.0329,40.9715,0.0],[29.031,40.9688,0.0],[29.0315,40.9663,0.0],[29.0393,40.9676,0.0],[29.0429,40.9649,0.0],[29.0462,40.9693,2.9081],[29.0479,40.9693,2.9081],[29.0546,40.9659,8.0943],[29.0859,40.9774,65.6108],[29.0981,40.9786,68.9896],[29.0877,40.9948,28.2759],[29.0812,41.002,53.4626],[29.0656,41.011,138.35059999999999]]]]}
,"properties": {"GID_2": "TUR.40.23_1","GID_0": "TUR","country": "Turkey","GID_1": "TUR.40_1","province": "Istanbul","NL_NAME_1": "NA","county": "Kadıköy","VARNAME_2": "NA","NL_NAME_2": "NA","TYPE_2": "District","ENGTYPE_2": "District","CC_2": "NA","HASC_2": "TR.IB.KD","name": "Kadıköy.county","area_km2": 29.90893,"hist_schema_id": "Elevation0-9000","hist_area_km2": {"0": 4.1931,"25": 9.10617,"50": 10.08199,"75": 4.30404,"100": 2.09564,"125": 0.12798}}}