{"type":"Feature","properties":{"GID_2":"TUR.53.16_1","GID_0":"TUR","country":"Turkey","GID_1":"TUR.53_1","province":"Konya","NL_NAME_1":"NA","county":"Hadım","VARNAME_2":"NA","NL_NAME_2":"NA","TYPE_2":"District","ENGTYPE_2":"District","CC_2":"NA","HASC_2":"TR.KO.HD","name":"Hadım.county"},
"geometry":{"type": "MultiPolygon","coordinates": [[[[32.3633,36.8411,1724.9553],[32.367,36.8562,1677.8671],[32.3709,36.864,1952.5098],[32.3799,36.8732,1986.7711],[32.391,36.8809,1964.899],[32.4576,36.9066,1836.9019],[32.4856,36.9092,1746.3307],[32.6566,36.9092,1340.8281],[32.6806,36.9067,1353.774],[32.7029,36.8973,1727.3593],[32.7117,36.8904,1808.8744],[32.7238,36.873,1760.0519],[32.7306,36.8472,1693.2825],[32.7481,36.8509,1643.6676],[32.7623,36.8658,1807.9152],[32.7959,36.8936,1573.5355],[32.8097,36.9109,1638.3698],[32.7857,36.9182,1575.1013],[32.7581,36.9231,1483.7891],[32.7404,36.9295,1470.0502],[32.7015,36.9341,1620.9905],[32.677,36.9419,1714.5081],[32.6335,36.9443,1798.922],[32.6229,36.9462,1739.4016],[32.6076,36.9543,1728.0953],[32.5724,36.9815,1862.4104],[32.5658,36.9885,1776.7081],[32.5622,36.9965,1761.625],[32.5618,37.0049,1914.0083],[32.5642,37.013,1758.9282],[32.5726,37.0225,1465.1365],[32.6155,37.0563,1200.3632],[32.6291,37.0753,1439.7881],[32.5966,37.0702,1429.271],[32.5754,37.0629,874.7319],[32.5483,37.0575,1267.2683],[32.5305,37.051,1288.001],[32.5155,37.0488,1381.4531],[32.4804,37.0497,1517.2456],[32.4553,37.0577,1597.0647],[32.44,37.0601,1534.1237],[32.3953,37.0608,1571.0764],[32.3715,37.059,1817.2133],[32.3374,37.047,1385.5958],[32.3228,37.0381,1370.4359],[32.3111,37.027,1358.5436],[32.3025,37.0124,1467.064],[32.2915,36.9978,1907.5967],[32.2847,36.9929,1922.4695],[32.2648,36.9906,1803.8591],[32.2391,36.9941,1865.6973],[32.2496,36.9685,2096.1685],[32.2589,36.9518,2068.4497],[32.2629,36.9159,2057.5688],[32.2734,36.8935,1945.2297],[32.2786,36.8667,2212.8828],[32.2831,36.8592,2159.8491],[32.291,36.8509,2087.0012],[32.3045,36.8481,2193.8884],[32.3192,36.8427,2310.9824],[32.3437,36.8397,2223.3611],[32.3633,36.8411,1724.9553]]]]}}