{"type":"Feature","properties":{"GID_2":"TUR.33.7_1","GID_0":"TUR","country":"Turkey","GID_1":"TUR.33_1","province":"Gaziantep","NL_NAME_1":"NA","county":"Şahinbey","VARNAME_2":"NA","NL_NAME_2":"NA","TYPE_2":"District","ENGTYPE_2":"District","CC_2":"NA","HASC_2":"TR.GA.GB","name":"Şahinbey.county"},
"geometry":{"type": "MultiPolygon","coordinates": [[[[37.0133,37.0105,721.6422],[37.125,37.0103,849.6009],[37.1446,37.0069,952.2366],[37.1704,36.9965,885.947],[37.1831,36.9859,961.7648],[37.1981,36.9652,891.7976],[37.2136,36.9394,886.3336],[37.2191,36.9091,794.5676],[37.2279,36.8926,788.1956],[37.2347,36.8718,789.8344],[37.2404,36.8655,766.6113],[37.248,36.8607,740.119],[37.2777,36.8491,731.6671],[37.3033,36.8415,739.0106],[37.3378,36.8259,698.53],[37.3681,36.8148,652.7257],[37.3817,36.8122,640.7996],[37.3833,36.8292,650.4227],[37.3944,36.8509,678.0688],[37.4001,36.8811,685.5421],[37.4297,36.9277,733.0353],[37.4507,36.9472,710.5364],[37.5014,36.986,696.2733],[37.5217,36.9996,777.6208],[37.4738,37.018,786.0327],[37.4492,37.0242,776.6946],[37.4236,37.0482,800.132],[37.4149,37.0535,817.5939],[37.4048,37.0563,815.6442],[37.3885,37.0546,866.8289],[37.3837,37.0514,879.5996],[37.3736,37.0388,851.8947],[37.3642,37.0309,913.8316],[37.3557,37.027,922.6124],[37.3458,37.0278,925.8049],[37.3349,37.0342,899.1001],[37.3031,37.0596,932.8336],[37.2911,37.0665,928.9375],[37.2605,37.0775,963.6896],[37.2334,37.08,977.7031],[37.2249,37.0821,1006.7551],[37.2211,37.0857,1043.2139],[37.2203,37.09,1070.2872],[37.2255,37.1011,1109.6854],[37.2246,37.1079,1076.0728],[37.2213,37.1123,1068.252],[37.2118,37.1196,1080.2673],[37.2023,37.122,1135.7866],[37.1959,37.1206,1095.4586],[37.171,37.1061,1004.0848],[37.157,37.1035,981.3565],[37.1317,37.1049,978.0153],[37.1108,37.1125,1080.4719],[37.0968,37.1148,1283.4954],[37.0709,37.115,1071.4141],[37.0494,37.1131,1079.3392],[37.0524,37.0848,1007.6229],[37.05,37.0607,847.0444],[37.0327,37.0322,816.9888],[37.0133,37.0105,721.6422]]]]}}