{"type":"Feature","properties":{"GID_2":"TUR.70.7_1","GID_0":"TUR","country":"Turkey","GID_1":"TUR.70_1","province":"Sinop","NL_NAME_1":"NA","county":"Merkez","VARNAME_2":"Sinop","NL_NAME_2":"NA","TYPE_2":"District","ENGTYPE_2":"District","CC_2":"NA","HASC_2":"TR.SP.SP","name":"Merkez.county"},
"geometry":{"type": "MultiPolygon","coordinates": [[[[34.8867,41.6737,1178.7148],[34.8847,41.6927,1205.9656],[34.8842,41.735,1162.0914],[34.8865,41.7464,1037.7065],[34.8935,41.7554,940.4495],[34.9464,41.7824,627.4607],[34.9886,41.7877,461.6172],[35.0521,41.8119,207.6141],[35.0667,41.821,197.7205],[35.0885,41.838,169.7731],[35.1149,41.8627,109.26],[35.1282,41.8671,2.7557],[35.1257,41.8793,0.0],[35.1182,41.8826,0.8739],[35.1071,41.8918,3.3053],[35.104,41.8999,1.1375],[35.0901,41.9218,0.0],[35.089,41.9304,4.3499],[35.0904,41.9332,0.3059],[35.0918,41.9326,0.0],[35.0935,41.9346,9.7943],[35.0926,41.9449,11.7142],[35.0949,41.9454,0.0],[35.094,41.9529,0.0],[35.0954,41.9557,0.0],[35.0957,41.9657,3.2233],[35.0988,41.9718,0.0],[35.1063,41.9757,0.0],[35.1093,41.9929,0.3822],[35.1132,42.0026,1.7444],[35.1179,42.009,12.4849],[35.1249,42.0151,0.0],[35.1265,42.0146,0.0],[35.1301,42.0171,14.5893],[35.1351,42.0168,0.0],[35.141,42.0235,2.4888],[35.1521,42.0232,0.533],[35.1624,42.0185,0.0],[35.1757,42.0171,19.5249],[35.1796,42.0151,0.0],[35.184,42.016,3.5343],[35.191,42.0146,0.0],[35.1957,42.0163,13.4341],[35.2007,42.0151,0.0],[35.2038,42.0124,10.7777],[35.2065,42.0126,13.3456],[35.2115,42.0185,0.0],[35.201,42.0274,0.0],[35.1971,42.0343,0.0],[35.1929,42.0349,0.0],[35.1932,42.0401,0.0],[35.1896,42.0418,17.6081],[35.186,42.0407,2.8479],[35.1768,42.0418,13.855],[35.1751,42.0401,65.3712],[35.1707,42.0412,0.0],[35.169,42.0393,9.3374],[35.166,42.0396,3.1266],[35.1637,42.0376,1.9314],[35.1621,42.0385,1.9314],[35.1582,42.0324,8.9555],[35.1474,42.0299,5.7049],[35.1446,42.0271,0.0],[35.136,42.0246,9.0757],[35.1004,42.0232,9.5625],[35.0776,42.0268,0.4647],[35.0588,42.0332,0.8319],[35.0438,42.0418,1.7737],[35.044,42.0449,3.2695],[35.0482,42.0479,1.1006],[35.0457,42.0476,2.6211],[35.0438,42.051,0.4971],[35.041,42.0501,13.2353],[35.0407,42.0532,0.0],[35.0451,42.0546,3.9418],[35.0482,42.0532,0.0],[35.0518,42.0599,0.0],[35.044,42.0621,3.779],[35.0424,42.0596,14.0995],[35.0432,42.0624,3.779],[35.0451,42.0643,0.0],[35.0446,42.0682,0.0],[35.0349,42.0746,0.0],[35.0324,42.0779,0.0],[35.024,42.081,0.0],[35.0243,42.0843,0.0],[35.0218,42.0849,8.5563],[35.0213,42.0885,19.8391],[35.0193,42.0887,38.3282],[35.0163,42.0932,2.7618],[35.0096,42.0904,20.7361],[35.0043,42.0921,0.0],[35.0018,42.091,2.8997],[34.9993,42.0932,0.0],[34.9963,42.0924,0.0],[34.9915,42.0946,2.1927],[34.9857,42.0946,0.0],[34.9829,42.0926,2.2212],[34.9813,42.0946,2.0486],[34.9804,42.0924,0.0],[34.9776,42.0924,6.7488],[34.966,42.0965,3.65],[34.9585,42.0954,14.1494],[34.9538,42.0974,0.0],[34.9437,42.0974,1.3572],[34.9446,42.0954,18.2584],[34.9424,42.0949,0.0],[34.9426,42.0932,0.0],[34.9479,42.0899,8.1575],[34.946,42.0796,14.3012],[34.9493,42.076,0.8997],[34.949,42.0737,9.0803],[34.9449,42.071,1.127],[34.9421,42.066,23.0177],[34.939,42.0654,0.9039],[34.9354,42.0557,9.7622],[34.9257,42.0479,19.0922],[34.9238,42.0482,3.9336],[34.9243,42.0443,0.0],[34.9196,42.0407,5.2209],[34.9199,42.0382,49.1545],[34.9149,42.0318,44.7061],[34.8978,42.0163,1.0641],[34.9211,41.9912,9.6598],[34.9543,41.9634,123.6448],[34.9725,41.9355,78.7809],[34.9756,41.9185,132.5659],[34.975,41.8679,429.1935],[34.9705,41.8581,472.2364],[34.9326,41.8336,452.9966],[34.874,41.7888,700.1298],[34.858,41.7724,787.3859],[34.8509,41.7515,855.6599],[34.841,41.732,1051.7168],[34.8393,41.7109,1134.6316],[34.8406,41.6792,996.326],[34.853,41.6728,1147.2554],[34.8627,41.6706,1263.4347],[34.8733,41.6708,1115.4825],[34.8867,41.6737,1178.7148]]]]}}