{"type": "Feature","id": "3014","bbox": [28.83848,38.21216,29.88875,38.88509],"geometry": {"type": "Polygon","coordinates": [[[29.88813,38.70686,1229.0918],[29.88875,38.81029,1162.6118],[29.84131,38.85251,1160.8419],[29.81175,38.86197,1297.0581],[29.68814,38.88509,1607.2068],[29.62437,38.88383,1311.6414],[29.59657,38.87773,1330.178],[29.57135,38.86522,1172.5681],[29.5543,38.80923,1347.8488],[29.52929,38.76296,1283.201],[29.4712,38.75962,1104.6268],[29.34573,38.73164,1189.0663],[29.27349,38.72914,846.2209],[29.20672,38.73681,644.5258],[29.14554,38.76668,682.3726],[29.08683,38.76725,810.451],[29.03226,38.73014,773.1488],[28.99547,38.70105,708.6063],[28.91785,38.65369,777.6915],[28.90638,38.63395,515.5378],[28.87672,38.60837,452.8496],[28.8484,38.60012,546.5729],[28.85191,38.56467,597.8605],[28.88044,38.5571,604.2885],[28.90287,38.53537,793.0978],[28.90669,38.51326,895.3119],[28.90814,38.4893,914.1108],[28.91548,38.44073,857.2414],[28.90824,38.39321,867.7578],[28.89491,38.36319,741.7479],[28.87506,38.33802,880.8632],[28.84809,38.31782,934.7355],[28.83848,38.3034,661.6549],[28.8638,38.288,727.8481],[28.89377,38.28743,939.155],[28.93098,38.25513,916.0116],[28.99051,38.24521,824.6434],[29.04487,38.21932,758.14],[29.1011,38.21919,706.7802],[29.15153,38.24637,542.4702],[29.1876,38.24123,627.879],[29.21913,38.21328,440.5],[29.2522,38.21216,442.5146],[29.28496,38.22077,493.3837],[29.29871,38.22687,440.5],[29.31194,38.23131,462.0368],[29.33612,38.218,734.0812],[29.34832,38.21984,727.6263],[29.36144,38.23942,881.0995],[29.36186,38.25167,789.0464],[29.41229,38.28268,1033.4385],[29.4833,38.27679,953.0316],[29.55916,38.27828,925.8708],[29.59585,38.28712,971.8375],[29.62768,38.30957,957.1743],[29.61993,38.36825,882.7743],[29.62861,38.42882,867.4814],[29.75325,38.45016,1767.7322],[29.75077,38.4777,1405.2498],[29.77392,38.50067,1567.7256],[29.79315,38.54168,1738.4987],[29.8071,38.58119,1360.4611],[29.86808,38.62772,1123.6086],[29.88317,38.66544,1113.0327],[29.88813,38.70686,1229.0918]]]}
,"properties": {"ISO3166-1-Alpha-3": "TUR","country": "Turkey","fill": "#FF0","name": "Usak","area_km2": 4443.671,"hist_schema_id": "Elevation0-9000","hist_area_km2": {"425": 1.756,"450": 17.285,"475": 15.72,"500": 24.941,"525": 40.708,"550": 49.818,"575": 60.836,"600": 75.522,"625": 106.005,"650": 158.8,"675": 179.739,"700": 203.573,"725": 195.784,"750": 194.798,"775": 201.644,"800": 201.262,"825": 205.145,"850": 237.932,"875": 285.683,"900": 343.889,"925": 270.155,"950": 213.249,"975": 177.482,"1000": 140.548,"1025": 112.82,"1050": 94.644,"1075": 86.045,"1100": 75.944,"1125": 66.942,"1150": 53.978,"1175": 49.9,"1200": 48.715,"1225": 38.298,"1250": 34.752,"1275": 34.286,"1300": 27.344,"1325": 18.799,"1350": 13.807,"1375": 11.544,"1400": 9.195,"1425": 8.304,"1450": 6.965,"1475": 6.205,"1500": 6.505,"1525": 6.937,"1550": 6.785,"1575": 5.912,"1600": 4.258,"1625": 4.143,"1650": 3.282,"1675": 2.42,"1700": 1.393,"1725": 0.63,"1750": 0.398,"1775": 0.232}}}