{"type":"Feature","properties":{"GID_1":"TUR.77_1","GID_0":"TUR","country":"Turkey","province":"Usak","VARNAME_1":"Uşak","NL_NAME_1":"NA","TYPE_1":"Il","ENGTYPE_1":"Province","CC_1":"NA","HASC_1":"TR.US","ISO_1":"TR-64","name":"Usak.province"},
"geometry":{"type": "MultiPolygon","coordinates": [[[[29.4122,38.2593,986.6835],[29.4259,38.2617,1039.7634],[29.4393,38.2537,902.1014],[29.4547,38.2478,886.2684],[29.4843,38.2304,990.5989],[29.5053,38.2217,1096.2753],[29.5441,38.1953,1180.8203],[29.5565,38.1924,1152.2197],[29.5759,38.1918,986.7047],[29.5795,38.2023,1142.2673],[29.5865,38.2136,1174.01],[29.5896,38.2217,1154.224],[29.5914,38.2608,1014.9121],[29.5941,38.2723,994.241],[29.6108,38.2981,954.0032],[29.6334,38.3207,946.3026],[29.6481,38.3441,935.1802],[29.6548,38.3652,921.6454],[29.6639,38.382,888.4925],[29.667,38.4032,904.8811],[29.6694,38.412,909.7734],[29.6736,38.4189,919.4528],[29.6835,38.431,947.7555],[29.6912,38.4351,965.2145],[29.7101,38.4391,1012.7809],[29.7554,38.4541,1810.4521],[29.7603,38.4699,1257.3373],[29.7693,38.4864,1710.9243],[29.7718,38.506,1561.2842],[29.7906,38.5208,1720.0762],[29.7992,38.5301,1751.8816],[29.874,38.6466,1106.6372],[29.8798,38.6768,1180.0742],[29.8891,38.6932,1220.1047],[29.8944,38.7097,1296.8888],[29.8927,38.7305,1162.5797],[29.8927,38.7779,1223.5602],[29.8893,38.7959,1113.3545],[29.8662,38.8329,1123.3362],[29.8638,38.841,1132.5658],[29.8627,38.8551,1119.5291],[29.8343,38.8555,1208.4197],[29.8189,38.8577,1136.0051],[29.801,38.864,1413.8207],[29.7769,38.8685,1465.9501],[29.7389,38.8796,1536.6527],[29.7354,38.8819,1583.3671],[29.7347,38.8866,1673.139],[29.7083,38.89,1701.3317],[29.6611,38.8892,1600.6189],[29.6326,38.8808,1338.0667],[29.5973,38.8768,1300.6923],[29.5875,38.8732,1315.8284],[29.561,38.8578,1192.5109],[29.504,38.8356,1350.8478],[29.456,38.826,1287.665],[29.4317,38.8192,1031.197],[29.3506,38.7883,993.1093],[29.3117,38.784,897.3912],[29.2778,38.7722,776.4668],[29.2607,38.761,716.7009],[29.2518,38.752,712.2075],[29.2429,38.7387,724.2552],[29.2338,38.7333,683.6039],[29.2282,38.7328,677.8889],[29.2116,38.737,676.1514],[29.1925,38.7389,699.9536],[29.091,38.7394,839.0168],[29.0714,38.7377,845.835],[29.05,38.7304,842.3571],[29.0228,38.7253,735.7618],[29.0089,38.7181,729.0221],[28.9989,38.7107,712.9137],[28.9896,38.7027,711.3503],[28.978,38.6894,809.6726],[28.9417,38.6764,903.4775],[28.8961,38.643,583.3914],[28.8882,38.639,557.5282],[28.8788,38.6374,532.4189],[28.8677,38.6124,445.3785],[28.8584,38.5989,541.4387],[28.8488,38.5807,561.7479],[28.848,38.5743,585.051],[28.8519,38.564,597.8605],[28.8522,38.5566,586.1481],[28.8433,38.5379,638.4321],[28.8411,38.5263,646.2098],[28.8403,38.4991,702.6647],[28.8416,38.4812,802.6863],[28.8441,38.4728,923.255],[28.8533,38.4564,924.9538],[28.8554,38.4452,1042.5461],[28.8565,38.4042,954.8386],[28.8555,38.3886,847.2194],[28.8522,38.3799,779.5628],[28.8448,38.3728,754.1898],[28.8383,38.3696,714.0859],[28.8255,38.367,675.6395],[28.8254,38.3553,756.6028],[28.8599,38.328,988.6912],[28.866,38.3217,949.8766],[28.8788,38.3032,929.9058],[28.9096,38.2774,886.3694],[28.921,38.2655,881.666],[28.959,38.2595,834.9961],[29.0068,38.2414,781.1433],[29.034,38.236,745.1946],[29.0518,38.2297,739.6102],[29.0789,38.2243,707.3048],[29.0967,38.218,708.4315],[29.1116,38.2159,706.8452],[29.1656,38.2136,522.027],[29.2213,38.1955,440.5],[29.2326,38.2015,459.925],[29.262,38.2127,486.7273],[29.2981,38.2163,514.3403],[29.3254,38.225,660.6096],[29.3493,38.2295,749.1295],[29.382,38.2479,972.9402],[29.4122,38.2593,986.6835]]]]}}