{"type": "Feature","bbox": [34.8584,36.9704,35.4395,37.5011],"geometry": {"type": "MultiPolygon","coordinates": [[[[35.0923,37.4999,1483.8187],[35.0373,37.5011,1459.0923],[35.0269,37.4991,1481.5552],[35.0163,37.4927,1588.6134],[35.0108,37.4829,1153.9537],[35.0118,37.4692,1407.7432],[35.0345,37.435,1881.4539],[35.0377,37.4252,1909.4907],[35.036,37.4176,1637.1908],[35.0283,37.404,1735.8091],[35.0224,37.3854,1210.176],[35.0076,37.3621,937.4912],[34.9991,37.3531,831.5497],[34.9719,37.3298,1199.864],[34.961,37.3131,1228.105],[34.9462,37.2944,610.8768],[34.9188,37.2821,1181.572],[34.8884,37.2761,1340.6326],[34.8584,37.2617,1398.7499],[34.862,37.2485,1156.1407],[34.8713,37.2321,1060.2891],[34.8781,37.211,763.9355],[34.9024,37.1713,586.0216],[34.9072,37.1438,395.4279],[34.917,37.1246,224.1276],[34.9208,37.0997,215.7592],[34.9252,37.0897,243.8912],[34.9346,37.077,271.0678],[34.9408,37.0716,114.1998],[34.9815,37.055,112.9678],[35.0008,37.0415,178.7362],[35.007,37.0344,140.0624],[35.0271,37.001,45.5747],[35.0414,36.9812,35.9273],[35.0546,36.9704,30.9384],[35.072,36.9994,45.206],[35.0822,37.01,54.7838],[35.0978,37.0202,68.7244],[35.1217,37.0301,92.0453],[35.1608,37.0566,95.9147],[35.1873,37.0669,199.1881],[35.1987,37.0683,159.5394],[35.21,37.0651,159.1891],[35.2304,37.0524,146.5547],[35.2418,37.0486,138.7269],[35.2627,37.0707,62.0],[35.2759,37.0912,80.0461],[35.2776,37.0989,90.2552],[35.2732,37.1084,174.8169],[35.2523,37.1215,213.7573],[35.2385,37.138,152.5407],[35.2346,37.1512,229.6544],[35.236,37.1594,138.7973],[35.2389,37.1644,97.5654],[35.2457,37.1702,71.1851],[35.2549,37.1737,105.4952],[35.2984,37.1755,109.8046],[35.312,37.1781,137.9135],[35.3395,37.188,238.3163],[35.3741,37.2029,313.8707],[35.3819,37.211,188.5005],[35.3904,37.234,171.1931],[35.4109,37.2548,117.0],[35.428,37.2802,165.6619],[35.4395,37.3067,117.0],[35.4139,37.3271,256.7703],[35.4039,37.3387,259.5757],[35.4011,37.3496,284.8975],[35.4002,37.3749,516.2203],[35.396,37.3852,525.9427],[35.3871,37.3926,637.541],[35.3604,37.4045,849.1409],[35.3392,37.4204,942.0879],[35.3303,37.4293,886.4875],[35.319,37.4464,903.9479],[35.292,37.474,1334.3167],[35.2831,37.477,1344.8933],[35.2659,37.4774,1160.3079],[35.2521,37.475,1073.6233],[35.235,37.4687,831.3229],[35.2249,37.4681,726.1752],[35.1711,37.4874,809.8343],[35.1202,37.4907,1180.4546],[35.0923,37.4999,1483.8187]]]]}
,"properties": {"GID_2": "TUR.1.5_1","GID_0": "TUR","country": "Turkey","GID_1": "TUR.1_1","province": "Adana","NL_NAME_1": "NA","county": "Karaisali","VARNAME_2": "NA","NL_NAME_2": "NA","TYPE_2": "District","ENGTYPE_2": "District","CC_2": "NA","HASC_2": "TR.AA.KS","name": "Karaisali.county","area_km2": 1735.181,"hist_schema_id": "Elevation0-9000","hist_area_km2": {"25": 3.726,"50": 23.725,"75": 47.833,"100": 79.858,"125": 192.305,"150": 146.477,"175": 132.822,"200": 113.34,"225": 89.553,"250": 64.527,"275": 47.33,"300": 40.164,"325": 34.878,"350": 29.596,"375": 28.042,"400": 26.439,"425": 25.378,"450": 26.389,"475": 25.764,"500": 24.06,"525": 22.256,"550": 19.96,"575": 19.066,"600": 17.193,"625": 15.962,"650": 13.72,"675": 13.382,"700": 14.747,"725": 14.225,"750": 12.657,"775": 14.728,"800": 15.975,"825": 16.598,"850": 16.378,"875": 15.686,"900": 15.129,"925": 15.467,"950": 15.28,"975": 15.568,"1000": 13.631,"1025": 13.108,"1050": 13.293,"1075": 13.594,"1100": 12.313,"1125": 12.719,"1150": 13.462,"1175": 13.463,"1200": 11.018,"1225": 10.342,"1250": 9.062,"1275": 8.287,"1300": 7.864,"1325": 6.567,"1350": 5.844,"1375": 5.574,"1400": 4.344,"1425": 4.226,"1450": 4.748,"1475": 5.994,"1500": 5.085,"1525": 4.967,"1550": 3.973,"1575": 3.62,"1600": 3.132,"1625": 2.29,"1650": 2.458,"1675": 2.02,"1700": 1.886,"1725": 1.465,"1750": 1.28,"1775": 1.128,"1800": 0.96,"1825": 0.758,"1850": 0.791,"1875": 0.623,"1900": 0.69,"1925": 0.438,"1950": 0.471,"1975": 0.354,"2000": 0.387,"2025": 0.202,"2050": 0.202,"2075": 0.185,"2100": 0.118,"2125": 0.067}}}