{"type": "Feature","bbox": [30.8731,40.6468,31.7593,41.1368],"geometry": {"type": "MultiPolygon","coordinates": [[[[31.0515,40.6665,1421.3333],[31.0784,40.6704,1476.8773],[31.12,40.6717,1513.7502],[31.1445,40.6795,1278.5149],[31.1752,40.6825,1362.9856],[31.1908,40.6818,1201.0369],[31.2019,40.6795,1295.8143],[31.2174,40.6708,1348.744],[31.2461,40.6507,1527.8053],[31.2649,40.6468,1469.0271],[31.2884,40.6483,1486.7231],[31.3166,40.6572,1440.9995],[31.3609,40.6615,1352.0355],[31.3789,40.6763,1324.8154],[31.4192,40.6934,1066.5974],[31.4238,40.6966,1007.9469],[31.4271,40.7013,944.3685],[31.4293,40.7156,939.8751],[31.429,40.785,1066.1125],[31.4315,40.8051,1054.5359],[31.4466,40.8322,1092.8102],[31.4562,40.8456,1026.7439],[31.4693,40.871,956.4073],[31.4935,40.8682,1040.2507],[31.5175,40.8683,1236.9301],[31.5327,40.8706,1224.3232],[31.5579,40.8781,1096.0273],[31.6042,40.8813,1035.7388],[31.6382,40.893,1294.9377],[31.6909,40.9147,1436.1898],[31.7081,40.9307,1284.2596],[31.7306,40.9412,1228.2764],[31.7412,40.9507,1004.2708],[31.7486,40.9712,710.5712],[31.7556,40.9826,598.0264],[31.7592,40.9932,380.6779],[31.7593,41.0101,851.2494],[31.7568,41.0182,944.3156],[31.7363,41.0427,1318.2341],[31.5999,41.0428,882.3477],[31.5845,41.0445,1153.3556],[31.5631,41.0514,869.1735],[31.5513,41.0534,807.9498],[31.4647,41.0546,567.1667],[31.439,41.0563,387.9266],[31.42,41.0732,275.4526],[31.3382,41.1368,0.0],[31.3076,41.1207,8.4415],[31.2774,41.111,5.4803],[31.2596,41.1076,0.0],[31.249,41.1035,13.1353],[31.2429,41.1035,6.3386],[31.211,41.0971,0.5874],[31.169,41.0929,20.6577],[31.1468,41.0921,0.0],[31.1357,41.0901,13.7754],[31.1246,41.0901,4.6747],[31.1224,41.0924,0.0],[31.1193,41.0926,0.0],[31.1199,41.0899,10.2447],[31.1082,41.0899,0.0],[31.1032,41.0876,2.8126],[31.0918,41.0874,0.0],[31.0888,41.0838,0.0],[31.0701,41.0782,7.5238],[31.0568,41.0774,0.0],[31.0549,41.0788,0.0],[31.0485,41.0768,18.9456],[31.0285,41.076,13.9955],[31.0201,41.0774,0.0],[31.0174,41.074,4.5878],[31.0129,41.0726,0.7462],[30.9759,41.0726,0.7197],[30.9986,41.042,8.0189],[31.008,41.0352,40.0273],[31.0226,41.0296,169.8495],[31.0322,41.0232,391.432],[31.0363,41.0163,548.3904],[31.0348,41.006,596.9515],[31.0134,40.9744,318.3627],[31.0087,40.9615,464.5619],[30.958,40.9228,302.3151],[30.9473,40.917,202.8597],[30.9322,40.9116,301.8547],[30.9069,40.8972,395.7855],[30.875,40.8413,384.3324],[30.8731,40.8292,309.1458],[30.8735,40.82,425.3516],[30.8771,40.8086,262.3226],[30.8927,40.7786,671.345],[30.9162,40.7665,612.5582],[30.9346,40.7612,178.3392],[30.9771,40.7305,805.7759],[30.9861,40.7214,1091.1804],[30.9874,40.717,1209.7853],[30.9848,40.7109,1125.6462],[30.9546,40.6823,1077.0851],[31.006,40.662,1459.9473],[31.0159,40.6598,1483.7493],[31.0336,40.6604,1411.5925],[31.0515,40.6665,1421.3333]]]]}
,"properties": {"GID_1": "TUR.27_1","GID_0": "TUR","country": "Turkey","province": "Düzce","VARNAME_1": "NA","NL_NAME_1": "NA","TYPE_1": "Il","ENGTYPE_1": "Province","CC_1": "NA","HASC_1": "TR.DU","ISO_1": "NA","name": "Düzce.province","area_km2": 2385.243,"hist_schema_id": "Elevation0-9000","hist_area_km2": {"0": 7.048,"25": 18.444,"50": 27.971,"75": 29.011,"100": 27.275,"125": 166.048,"150": 133.494,"175": 89.775,"200": 63.932,"225": 52.145,"250": 52.255,"275": 52.497,"300": 54.916,"325": 55.879,"350": 54.455,"375": 52.722,"400": 51.76,"425": 49.55,"450": 48.977,"475": 49.233,"500": 50.503,"525": 51.189,"550": 54.828,"575": 55.45,"600": 52.841,"625": 49.606,"650": 46.869,"675": 44.597,"700": 44.507,"725": 42.506,"750": 40.298,"775": 39.948,"800": 38.136,"825": 36.378,"850": 35.881,"875": 35.177,"900": 34.234,"925": 33.225,"950": 32.168,"975": 29.201,"1000": 28.721,"1025": 29.171,"1050": 27.165,"1075": 24.599,"1100": 24.523,"1125": 24.106,"1150": 21.973,"1175": 21.109,"1200": 19.57,"1225": 19.956,"1250": 18.385,"1275": 17.97,"1300": 15.434,"1325": 14.072,"1350": 13.576,"1375": 12.84,"1400": 12.008,"1425": 10.582,"1450": 10.503,"1475": 9.541,"1500": 7.404,"1525": 6.022,"1550": 4.127,"1575": 2.666,"1600": 1.124,"1625": 0.787,"1650": 0.514,"1675": 0.691,"1700": 0.578,"1725": 0.386,"1750": 0.161,"1775": 0.048}}}