{"type":"Feature","properties":{"ISO3166-1-Alpha-3":"TUR","country":"Turkey","fill":"#F0F","id":"5519","name":"Düzce"},
"geometry":{"type": "Polygon","coordinates": [[[31.79911,41.0418,680.6337],[31.55604,41.05946,684.6122],[31.38458,41.12323,50.9267],[31.34644,41.15072,16.9434],[31.34642,41.15073,16.9434],[31.32358,41.13386,0.0],[31.29021,41.11787,0.0],[31.24887,41.10566,0.0],[31.24293,41.10236,6.3386],[31.24098,41.09772,54.7172],[31.23878,41.0937,94.4326],[31.23121,41.09199,67.7911],[31.22608,41.09296,50.9064],[31.21648,41.09724,1.3432],[31.21046,41.09813,0.0],[31.16944,41.09199,48.1247],[31.15846,41.09309,0.0],[31.13705,41.0976,0.0],[31.12477,41.09813,0.0],[31.11524,41.09601,0.0],[31.09059,41.08515,8.6076],[30.95587,41.0824,0.0],[30.95587,41.08235,0.0],[30.95463,41.07258,0.9169],[30.96031,41.04395,41.8072],[30.96166,41.02204,96.3749],[30.90429,40.98158,84.7412],[30.86936,40.92226,645.3682],[30.87649,40.8919,376.5706],[30.89334,40.86552,460.0274],[30.89613,40.83518,334.4886],[30.88311,40.80723,266.9178],[30.89293,40.78035,636.796],[30.91246,40.75756,360.6396],[30.89117,40.72679,1000.0875],[30.97374,40.70442,962.1954],[31.13537,40.70846,1312.8127],[31.24852,40.67209,1325.8667],[31.3455,40.68018,1234.1643],[31.42228,40.72463,875.1211],[31.45865,40.79736,1121.1907],[31.46269,40.84989,913.2847],[31.51118,40.87818,1120.4801],[31.64049,40.89434,1158.4377],[31.73343,40.91051,1424.7189],[31.78192,40.95496,1065.8346],[31.79911,41.0418,680.6337]]]}}