{"type":"Feature","properties":{"GID_2":"TUR.58.8_1","GID_0":"TUR","country":"Turkey","GID_1":"TUR.58_1","province":"Mersin","NL_NAME_1":"NA","county":"Mut","VARNAME_2":"NA","NL_NAME_2":"NA","TYPE_2":"District","ENGTYPE_2":"District","CC_2":"NA","HASC_2":"TR.IC.MU","name":"Mut.county"},
"geometry":{"type": "MultiPolygon","coordinates": [[[[33.2132,36.5226,428.4204],[33.2373,36.5148,1029.6055],[33.2484,36.5131,992.8184],[33.3181,36.5127,709.0135],[33.3368,36.5109,502.6183],[33.3879,36.492,462.6927],[33.4232,36.4881,249.2646],[33.4334,36.4853,267.6177],[33.4481,36.4764,305.4995],[33.4804,36.4513,451.3691],[33.4928,36.445,485.3353],[33.5077,36.4426,482.1194],[33.5581,36.4414,319.8569],[33.5773,36.4365,461.1338],[33.6074,36.4434,263.3795],[33.6457,36.459,323.3256],[33.6524,36.4646,372.3595],[33.6636,36.4806,451.9219],[33.6857,36.504,828.6309],[33.6999,36.5275,1106.2368],[33.7065,36.5485,1266.5327],[33.7441,36.6064,1457.8351],[33.7501,36.6249,1553.0435],[33.7596,36.6433,1468.5096],[33.7587,36.6513,1393.9633],[33.7521,36.66,1231.4584],[33.7356,36.6763,1153.5861],[33.7277,36.6881,1419.7111],[33.7052,36.7111,1161.1993],[33.6396,36.8141,1449.9324],[33.6152,36.8392,1772.1943],[33.6007,36.8626,1773.432],[33.5953,36.8929,1692.8073],[33.5861,36.9093,1735.2783],[33.5795,36.9305,1827.8202],[33.5501,36.9772,1588.4097],[33.5296,37.003,1605.5768],[33.4995,37.0014,1564.5098],[33.407,37.0015,1465.4944],[33.3857,36.9981,1538.184],[33.3287,36.976,1614.9125],[33.2992,36.9588,1605.4485],[33.2777,36.9498,1587.5344],[33.2448,36.9271,1660.7487],[33.2176,36.9148,1584.8291],[33.1847,36.8922,945.8555],[33.1574,36.8799,860.8856],[33.1158,36.8524,280.4538],[33.0856,36.8411,646.9574],[33.0583,36.8361,1405.9592],[33.0105,36.818,2022.5499],[32.9618,36.8092,1856.6277],[32.971,36.7792,1928.8882],[33.0291,36.6883,1804.9816],[33.04,36.677,1843.3317],[33.0798,36.6456,1614.2183],[33.0966,36.6343,1586.8622],[33.1063,36.6307,1436.1018],[33.1302,36.6266,1636.5758],[33.1604,36.6153,1613.0811],[33.1902,36.598,1469.5076],[33.2081,36.5908,1144.2975],[33.2176,36.5837,1136.1907],[33.2286,36.5658,891.0192],[33.2306,36.5592,783.7112],[33.2196,36.5334,500.4865],[33.2132,36.5226,428.4204]]]]}}