{"type": "Feature","bbox": [35.7932,40.1893,36.4438,40.5914],"geometry": {"type": "MultiPolygon","coordinates": [[[[35.7932,40.4334,1124.6586],[35.8095,40.4141,1182.0808],[35.826,40.4025,1295.6271],[35.9317,40.3618,1228.7307],[35.964,40.3429,933.6152],[35.9979,40.3308,717.868],[36.0441,40.3284,845.0086],[36.0514,40.3267,864.7235],[36.0597,40.3224,792.6108],[36.0676,40.3142,744.8514],[36.079,40.2958,558.204],[36.082,40.2876,552.2565],[36.0832,40.2693,568.0291],[36.0821,40.2199,983.5012],[36.0852,40.2063,929.4169],[36.0942,40.1994,1165.9028],[36.1172,40.1905,1527.9724],[36.1356,40.1893,1510.4755],[36.1606,40.1906,1332.1266],[36.1455,40.2133,1249.9871],[36.1432,40.2214,1145.9312],[36.1436,40.2297,880.05],[36.1471,40.2378,731.1161],[36.1536,40.2448,664.3561],[36.1737,40.2575,575.4996],[36.2041,40.2685,546.8447],[36.2266,40.271,541.6496],[36.2773,40.2702,587.3024],[36.2917,40.2678,688.5886],[36.309,40.2619,898.3467],[36.3224,40.2619,1054.0842],[36.3522,40.2724,1052.7074],[36.3857,40.2885,727.1688],[36.383,40.32,559.4056],[36.3834,40.3359,572.8038],[36.3856,40.3482,617.0811],[36.3957,40.3678,834.5762],[36.4022,40.3975,1351.6096],[36.4257,40.4229,1272.9164],[36.4406,40.4461,1174.6901],[36.4435,40.4581,1147.9315],[36.4438,40.4801,1227.6106],[36.4403,40.4906,1180.3599],[36.4311,40.5073,1216.8053],[36.428,40.5403,998.7675],[36.4257,40.549,1100.3813],[36.4101,40.5748,1381.9105],[36.3972,40.5914,1430.4424],[36.3764,40.5789,1267.8658],[36.3621,40.5673,1332.7334],[36.3475,40.5467,1084.9686],[36.3252,40.5237,1270.6304],[36.292,40.5117,1238.2306],[36.2652,40.4956,1182.7938],[36.2468,40.4883,1166.2412],[36.2084,40.462,1270.9067],[36.1723,40.4476,1090.1028],[36.1545,40.4452,853.1141],[36.1101,40.4461,523.4138],[36.0781,40.4549,544.8513],[36.0435,40.4589,507.2718],[36.027,40.4663,568.7582],[35.9954,40.4885,546.6227],[35.9584,40.5023,509.6689],[35.9313,40.5041,570.3756],[35.8595,40.5041,584.5168],[35.8447,40.5015,631.3352],[35.839,40.4988,589.5015],[35.8303,40.4912,512.4993],[35.7932,40.4334,1124.6586]]]]}
,"properties": {"GID_2": "TUR.74.10_1","GID_0": "TUR","country": "Turkey","GID_1": "TUR.74_1","province": "Tokat","NL_NAME_1": "NA","county": "Turhal","VARNAME_2": "NA","NL_NAME_2": "NA","TYPE_2": "District","ENGTYPE_2": "District","CC_2": "NA","HASC_2": "TR.TT.TU","name": "Turhal.county","area_km2": 1099.37,"hist_schema_id": "Elevation0-9000","hist_area_km2": {"425": 0.0322,"450": 0.9997,"475": 3.6761,"500": 5.1116,"525": 63.5008,"550": 121.3936,"575": 45.2676,"600": 32.6581,"625": 27.7741,"650": 23.7813,"675": 22.3094,"700": 20.3862,"725": 21.5479,"750": 21.3518,"775": 20.4152,"800": 20.8675,"825": 20.641,"850": 19.3474,"875": 17.6337,"900": 16.6638,"925": 18.0363,"950": 18.6004,"975": 20.1335,"1000": 21.2457,"1025": 22.9559,"1050": 24.8424,"1075": 27.1321,"1100": 31.0043,"1125": 34.6655,"1150": 31.6944,"1175": 37.4064,"1200": 42.8905,"1225": 43.8084,"1250": 37.5438,"1275": 33.0916,"1300": 31.8502,"1325": 26.3637,"1350": 19.4593,"1375": 14.6375,"1400": 11.0246,"1425": 8.8473,"1450": 7.6209,"1475": 5.6032,"1500": 2.9556,"1525": 0.436,"1550": 0.1454,"1575": 0.0162}}}