{"type":"Feature","properties":{"GID_2":"TUR.12.9_1","GID_0":"TUR","country":"Turkey","GID_1":"TUR.12_1","province":"Balikesir","NL_NAME_1":"NA","county":"Gömeç","VARNAME_2":"NA","NL_NAME_2":"NA","TYPE_2":"District","ENGTYPE_2":"District","CC_2":"NA","HASC_2":"TR.BK.GM","name":"Gömeç.county"},
"geometry":{"type": "MultiPolygon","coordinates": [[[[26.7718,39.3688,0.0],[26.7715,39.3688,0.0],[26.7718,39.3686,1.3307],[26.7718,39.3688,0.0]]],
[[[26.7715,39.369,0.0],[26.7712,39.369,0.0],[26.7715,39.3688,0.0],[26.7715,39.369,0.0]]],
[[[26.7713,39.3693,0.0],[26.7708,39.3693,0.0],[26.7712,39.369,0.0],[26.7713,39.3693,0.0]]],
[[[26.9975,39.3084,717.6714],[27.013,39.3016,766.0209],[27.0502,39.3304,1106.4011],[27.0379,39.357,726.545],[27.0083,39.4037,149.769],[27.0021,39.4108,145.348],[26.9859,39.4227,98.3247],[26.976,39.4264,159.6176],[26.9491,39.4315,98.9062],[26.9343,39.4368,108.6554],[26.907,39.4419,125.5138],[26.8776,39.4575,32.2193],[26.8642,39.4599,48.9405],[26.8524,39.4574,0.0],[26.8568,39.4507,6.4422],[26.8571,39.4443,0.84],[26.8554,39.4404,3.5066],[26.8518,39.4393,0.0],[26.8496,39.4362,0.5667],[26.846,39.4365,2.1257],[26.8421,39.434,1.2342],[26.8371,39.4343,0.0],[26.834,39.4296,3.093],[26.8321,39.4296,3.093],[26.8301,39.4321,0.0],[26.8279,39.4315,1.603],[26.8282,39.4326,0.0],[26.8249,39.4313,4.7867],[26.8215,39.4332,1.1936],[26.8176,39.4318,3.3462],[26.8143,39.4343,3.0951],[26.8154,39.4368,11.8577],[26.8132,39.4388,0.0],[26.8068,39.4332,17.1844],[26.8015,39.4354,13.7778],[26.7971,39.4324,0.0],[26.7962,39.4268,0.0],[26.7999,39.4238,11.1459],[26.7996,39.4201,0.0],[26.8026,39.4204,0.0],[26.8037,39.4188,3.4927],[26.8007,39.4079,0.0],[26.8018,39.4029,1.6015],[26.8057,39.4038,4.8647],[26.8082,39.4063,0.394],[26.8082,39.4018,0.1684],[26.8113,39.3999,0.4296],[26.8076,39.3988,0.2168],[26.8082,39.3971,0.3925],[26.8057,39.3921,0.0],[26.8032,39.3935,0.0],[26.7971,39.3879,0.264],[26.7907,39.3863,0.1357],[26.7879,39.3776,0.198],[26.7846,39.3749,2.1777],[26.776,39.369,0.0],[26.7719,39.3685,1.3307],[26.7923,39.3534,110.6046],[26.8047,39.3473,97.5467],[26.8615,39.3254,113.2062],[26.8799,39.323,243.8641],[26.9571,39.3221,445.3054],[26.9975,39.3084,717.6714]]]]}}