{"type":"Feature","properties":{"GID_2":"TUR.75.6_1","GID_0":"TUR","country":"Turkey","GID_1":"TUR.75_1","province":"Trabzon","NL_NAME_1":"NA","county":"Çaykara","VARNAME_2":"NA","NL_NAME_2":"NA","TYPE_2":"District","ENGTYPE_2":"District","CC_2":"NA","HASC_2":"TR.TB.CK","name":"Çaykara.county"},
"geometry":{"type": "MultiPolygon","coordinates": [[[[40.2859,40.5144,2744.3782],[40.3117,40.5122,2687.8008],[40.3356,40.5129,2789.8384],[40.3761,40.5229,2925.8784],[40.4446,40.5249,3123.0525],[40.4835,40.5353,3166.6069],[40.4835,40.6028,2884.9944],[40.4822,40.6162,2230.8989],[40.4789,40.6286,2075.7449],[40.4669,40.6318,2471.6318],[40.4308,40.6469,2692.0334],[40.3849,40.6816,2269.5991],[40.368,40.6968,2041.2003],[40.3529,40.7202,1941.1923],[40.3498,40.7279,1778.2637],[40.3471,40.7834,1415.8573],[40.3153,40.7801,1189.0864],[40.2395,40.7799,786.9625],[40.204,40.7807,605.6299],[40.1819,40.7837,998.2072],[40.1837,40.7628,876.1884],[40.1831,40.7454,994.0037],[40.1802,40.7345,1433.4418],[40.172,40.7208,1863.9724],[40.1694,40.7121,1690.5291],[40.1686,40.6592,2049.0017],[40.1664,40.6441,2144.7959],[40.151,40.6178,1788.3562],[40.1336,40.5923,2302.2563],[40.1081,40.5705,2282.7578],[40.1062,40.5537,2305.0361],[40.0957,40.5319,2590.3757],[40.093,40.5123,2325.3242],[40.1406,40.5115,2160.9812],[40.1771,40.5018,2483.0996],[40.2097,40.5002,2290.7458],[40.238,40.5023,2146.3198],[40.2631,40.5103,2217.4258],[40.2859,40.5144,2744.3782]]]]}}