{"type":"Feature","properties":{"GID_2":"TUR.46.2_1","GID_0":"TUR","country":"Turkey","GID_1":"TUR.46_1","province":"Kastamonu","NL_NAME_1":"NA","county":"Ağlı","VARNAME_2":"NA","NL_NAME_2":"NA","TYPE_2":"District","ENGTYPE_2":"District","CC_2":"NA","HASC_2":"TR.KS.AG","name":"Ağlı.county"},
"geometry":{"type": "MultiPolygon","coordinates": [[[[33.4738,41.6065,1151.8173],[33.5038,41.5904,1036.2941],[33.5143,41.5887,1054.9688],[33.525,41.589,1038.7866],[33.5407,41.5943,1026.7054],[33.5554,41.6029,977.1619],[33.5945,41.6147,1072.3423],[33.6051,41.6244,1121.446],[33.6133,41.6475,1006.3204],[33.6352,41.6707,1135.5447],[33.6463,41.6945,1195.4058],[33.6321,41.7095,1221.0564],[33.6132,41.723,1230.4047],[33.5618,41.7433,1108.5559],[33.5351,41.7593,1179.3944],[33.518,41.7628,1138.1819],[33.49,41.7621,1127.29],[33.4881,41.7347,1016.1951],[33.4885,41.6861,1206.3014],[33.4907,41.6738,1244.851],[33.4991,41.6575,1367.6809],[33.4997,41.6497,1242.9562],[33.4969,41.6425,1193.2151],[33.4738,41.6065,1151.8173]]]]}}