{"type":"Feature","properties":{"GID_2":"TUR.40.21_1","GID_0":"TUR","country":"Turkey","GID_1":"TUR.40_1","province":"Istanbul","NL_NAME_1":"NA","county":"Gaziosmanpaşa","VARNAME_2":"NA","NL_NAME_2":"NA","TYPE_2":"District","ENGTYPE_2":"District","CC_2":"NA","HASC_2":"TR.IB.GA","name":"Gaziosmanpaşa.county"},
"geometry":{"type": "MultiPolygon","coordinates": [[[[28.9096,41.0558,113.3808],[28.9114,41.058,119.6644],[28.9242,41.0583,112.4311],[28.9279,41.0601,110.2491],[28.93,41.0642,120.2124],[28.9271,41.0729,78.6116],[28.9213,41.0707,90.7312],[28.9143,41.0711,46.592],[28.9107,41.0758,81.815],[28.9107,41.0813,108.9186],[28.916,41.0909,80.7059],[28.8984,41.0912,90.1105],[28.886,41.0896,87.2244],[28.8759,41.0851,105.8266],[28.9004,41.0668,125.2089],[28.9096,41.0558,113.3808]]]]}}