{"type":"Feature","properties":{"GID_2":"TUR.52.4_1","GID_0":"TUR","country":"Turkey","GID_1":"TUR.52_1","province":"Kocaeli","NL_NAME_1":"NA","county":"Kandıra","VARNAME_2":"NA","NL_NAME_2":"NA","TYPE_2":"District","ENGTYPE_2":"District","CC_2":"NA","HASC_2":"TR.KC.KD","name":"Kandıra.county"},
"geometry":{"type": "MultiPolygon","coordinates": [[[[29.8564,41.072,35.0394],[29.8489,41.0692,27.0133],[29.8559,41.0449,274.9859],[29.8698,41.0268,363.4423],[29.8761,41.015,258.9411],[29.8865,41.0003,205.7817],[29.9222,40.979,294.1523],[29.9557,40.9657,288.3737],[30.0012,40.9597,142.1675],[30.0491,40.9418,186.3482],[30.0787,40.9353,233.5517],[30.0894,40.9258,213.1457],[30.0946,40.9077,163.8857],[30.0991,40.9,240.6171],[30.1084,40.891,243.5539],[30.1201,40.8838,390.1638],[30.1377,40.8802,326.9083],[30.1631,40.8817,355.9365],[30.1992,40.8958,190.1565],[30.2255,40.9122,136.4736],[30.232,40.9143,110.8684],[30.2462,40.9154,153.8488],[30.2568,40.9135,171.7245],[30.2711,40.9057,134.7748],[30.3221,40.8652,80.2838],[30.3408,40.8439,23.0767],[30.3609,40.8477,50.4924],[30.3712,40.8539,109.3508],[30.3748,40.8583,71.3183],[30.3774,40.869,61.2668],[30.3761,40.8771,26.9284],[30.3668,40.8932,18.4084],[30.364,40.9021,18.9186],[30.3629,40.9503,208.1296],[30.347,40.9543,244.1085],[30.3374,40.961,126.9247],[30.3236,40.9792,83.8792],[30.2943,41.0045,69.3765],[30.289,41.0148,43.1822],[30.289,41.0258,72.6606],[30.3002,41.0473,115.4973],[30.3062,41.0774,71.5846],[30.3206,41.101,48.548],[30.3376,41.1161,61.5366],[30.3696,41.1314,19.7419],[30.3754,41.1377,32.7957],[30.3782,41.1457,49.3362],[30.3774,41.1627,15.3546],[30.3727,41.1763,3.1339],[30.3685,41.1796,0.0],[30.3507,41.1857,0.0],[30.3518,41.1874,0.0],[30.3499,41.1879,2.7765],[30.3499,41.1926,0.0],[30.344,41.1935,0.7854],[30.3429,41.1924,0.7854],[30.3346,41.1954,0.0],[30.3296,41.1993,10.574],[30.3318,41.1996,0.4264],[30.3312,41.201,0.0],[30.324,41.2015,1.3554],[30.3179,41.1968,18.7522],[30.3179,41.1985,0.0],[30.3118,41.199,1.0077],[30.3096,41.201,0.0],[30.3012,41.2004,24.6919],[30.3004,41.2018,0.0],[30.2787,41.2054,0.0],[30.276,41.2099,0.0],[30.2729,41.2115,0.0],[30.2732,41.2129,0.0],[30.271,41.2129,0.0],[30.2693,41.2093,5.3223],[30.2629,41.2076,0.0],[30.2624,41.1996,25.5891],[30.2571,41.1954,0.0],[30.2565,41.1915,5.8582],[30.2537,41.1885,5.0627],[30.251,41.1879,0.8034],[30.251,41.1865,3.5215],[30.2449,41.1849,16.8147],[30.2343,41.189,0.0],[30.2237,41.1862,0.0],[30.2243,41.1849,0.0],[30.2301,41.184,8.1099],[30.231,41.1793,0.0],[30.2329,41.1787,0.0],[30.2329,41.1768,2.4331],[30.2301,41.1754,14.1469],[30.226,41.1762,4.7295],[30.2274,41.179,0.0],[30.2229,41.1785,1.2327],[30.2201,41.176,0.0],[30.2199,41.1724,0.5808],[30.2229,41.1715,0.0],[30.2232,41.1701,0.2604],[30.2254,41.1707,7.6662],[30.2249,41.1665,0.0],[30.2285,41.1649,11.5127],[30.226,41.1618,2.6863],[30.2176,41.1582,14.222],[30.2168,41.161,0.0],[30.2126,41.1607,3.5553],[30.2118,41.1635,0.0],[30.2088,41.164,0.0],[30.2051,41.164,0.0],[30.2065,41.1607,4.257],[30.2043,41.1618,14.6574],[30.2043,41.1635,0.0],[30.2007,41.1613,9.8964],[30.1996,41.1626,0.0],[30.1924,41.1621,0.0],[30.1907,41.1582,0.0],[30.1951,41.1579,3.3336],[30.1965,41.1538,10.6792],[30.1929,41.1507,2.0856],[30.1932,41.1474,8.358],[30.1876,41.1457,4.066],[30.1874,41.1493,1.4666],[30.1821,41.1485,17.4677],[30.1799,41.1535,0.0],[30.1774,41.1532,0.0],[30.1787,41.1474,3.4224],[30.1701,41.1437,24.8173],[30.1663,41.1446,4.8537],[30.1612,41.141,4.3704],[30.1593,41.1421,0.0],[30.1526,41.1376,0.9768],[30.1465,41.1385,2.9148],[30.1415,41.1426,0.0],[30.1307,41.1418,42.0128],[30.126,41.1435,6.5482],[30.1215,41.1424,7.1195],[30.1171,41.1435,17.8087],[30.1099,41.1418,0.0],[30.1054,41.1374,0.0],[30.1021,41.1379,2.8744],[30.1026,41.1357,0.0],[30.1012,41.1346,1.0014],[30.0987,41.1365,5.3695],[30.0996,41.1404,1.6659],[30.0946,41.1376,8.3829],[30.090699999999998,41.1396,0.0],[30.0882,41.1385,14.8687],[30.0876,41.1399,0.0],[30.0812,41.1401,5.111],[30.0793,41.1382,26.7514],[30.0765,41.1393,0.0],[30.0771,41.1349,15.4797],[30.0746,41.1354,1.0088],[30.0735,41.1338,1.0088],[30.066,41.1349,22.9306],[30.0651,41.1376,0.0],[30.059,41.1363,20.6794],[30.0585,41.1379,0.9278],[30.0535,41.1385,5.6504],[30.0524,41.1363,10.4565],[30.0482,41.1376,0.0],[30.0462,41.1338,1.0315],[30.0435,41.1379,0.0],[30.0407,41.1365,13.953],[30.0385,41.1387,7.5562],[30.0346,41.1379,11.4446],[30.0274,41.1401,2.4555],[30.0226,41.1387,0.0],[30.0229,41.1354,2.8525],[30.0204,41.1329,2.5644],[30.0179,41.1346,0.0],[30.0176,41.1382,0.0],[30.0154,41.139,0.0],[30.0082,41.1385,6.1325],[30.0054,41.136,9.4836],[30.0004,41.1357,2.5069],[29.999,41.1385,0.0],[29.9938,41.139,0.0],[29.991,41.1346,25.8739],[29.9821,41.136,1.833],[29.9799,41.1346,16.2634],[29.9757,41.1354,41.0929],[29.974,41.1393,0.0],[29.966,41.141,0.0],[29.9643,41.141,0.0],[29.9638,41.1393,1.6149],[29.9615,41.1407,0.0],[29.9615,41.1379,5.3092],[29.9596,41.1374,5.4146],[29.9574,41.139,0.0],[29.9535,41.1379,19.3544],[29.9526,41.1399,3.8537],[29.944,41.1385,12.9928],[29.9396,41.1413,0.0],[29.9313,41.1424,0.0],[29.9304,41.141,10.7053],[29.9115,41.1437,0.8269],[29.8835,41.1424,0.0],[29.8765,41.1393,3.7994],[29.8732,41.1401,23.9023],[29.8754,41.1426,0.0],[29.8735,41.1435,1.1003],[29.8696,41.1435,0.0],[29.8651,41.1404,40.8727],[29.8634,41.1421,0.0],[29.8802,41.1128,31.9809],[29.8828,41.104,23.2821],[29.883,41.0922,71.0293],[29.8781,41.0818,31.6933],[29.8564,41.072,35.0394]]],
[[[30.264,41.2168,2.3729],[30.2574,41.2176,0.0],[30.2557,41.2151,0.0],[30.2599,41.2143,0.519],[30.264,41.2168,2.3729]]]]}}