{"type":"Feature","properties":{"GID_2":"TUR.49.2_1","GID_0":"TUR","country":"Turkey","GID_1":"TUR.49_1","province":"Kinkkale","NL_NAME_1":"NA","county":"Balışeyh","VARNAME_2":"NA","NL_NAME_2":"NA","TYPE_2":"District","ENGTYPE_2":"District","CC_2":"NA","HASC_2":"TR.KK.BL","name":"Balışeyh.county"},
"geometry":{"type": "MultiPolygon","coordinates": [[[[33.4999,39.8362,715.7502],[33.4993,39.8219,737.2094],[33.5014,39.811,715.8408],[33.5105,39.8007,743.4692],[33.5181,39.7959,765.1062],[33.5753,39.7746,994.1347],[33.6027,39.7697,1062.61],[33.6359,39.7573,1145.6917],[33.6466,39.7507,1277.7463],[33.6579,39.7408,1487.5645],[33.6721,39.7177,1433.7017],[33.7079,39.7275,1139.845],[33.7375,39.7451,1214.0188],[33.753,39.7507,1115.8271],[33.7665,39.7585,1170.7117],[33.8297,39.8068,1112.7672],[33.8298,39.8299,1051.2485],[33.8338,39.8432,1043.4247],[33.8625,39.8873,899.5771],[33.8976,39.9191,845.4496],[33.9026,39.9271,861.2565],[33.9053,39.9486,933.3934],[33.9046,40.05,1144.066],[33.9017,40.062,1100.6901],[33.8936,40.0757,1144.9613],[33.89,40.0862,1188.2794],[33.8764,40.0837,1227.3997],[33.8674,40.0795,1253.4988],[33.8196,40.0446,1067.9155],[33.768,40.0247,1013.7883],[33.7263,39.9966,1026.691],[33.6362,39.9618,1169.1221],[33.6194,39.9583,1094.5847],[33.6183,39.9183,941.851],[33.6138,39.9078,998.2086],[33.5997,39.8876,949.0613],[33.5905,39.8812,887.2632],[33.5609,39.8684,803.9922],[33.5155,39.8515,761.694],[33.5059,39.8449,729.3666],[33.4999,39.8362,715.7502]]]]}}