{"type":"Feature","properties":{"GID_2":"TUR.31.12_1","GID_0":"TUR","country":"Turkey","GID_1":"TUR.31_1","province":"Erzurum","NL_NAME_1":"NA","county":"Oltu","VARNAME_2":"NA","NL_NAME_2":"NA","TYPE_2":"District","ENGTYPE_2":"District","CC_2":"NA","HASC_2":"TR.EM.OT","name":"Oltu.county"},
"geometry":{"type": "MultiPolygon","coordinates": [[[[41.735,40.6547,1774.0024],[41.7307,40.6392,1659.1501],[41.7313,40.6222,1727.3833],[41.7367,40.6123,1984.6461],[41.7538,40.5964,1929.6545],[41.7584,40.5892,2300.5298],[41.7599,40.5782,2602.6006],[41.7562,40.5676,2511.7954],[41.7454,40.5573,2149.2297],[41.732,40.549,2462.3767],[41.6985,40.537,2500.4263],[41.6712,40.532,2172.7815],[41.6562,40.5242,1644.4481],[41.6404,40.5122,2235.2759],[41.6291,40.5011,2179.843],[41.61,40.4698,1979.0208],[41.6104,40.4514,2338.0425],[41.6124,40.4466,2519.0332],[41.6163,40.4427,2425.4238],[41.638,40.4331,2537.1687],[41.6674,40.4278,2536.7063],[41.6763,40.4216,2324.2812],[41.6782,40.415,2267.6111],[41.6695,40.3948,2324.9458],[41.7195,40.3944,1923.7373],[41.7395,40.3964,2296.9946],[41.7497,40.4001,2234.7944],[41.7759,40.4156,2518.0493],[41.8028,40.4262,2364.481],[41.8135,40.4287,2452.8438],[41.8375,40.4299,2374.0322],[41.9311,40.4283,1638.6716],[41.9601,40.4199,1478.2526],[41.9948,40.4158,1678.1367],[42.0201,40.4081,1869.2637],[42.0549,40.4042,2124.1045],[42.0765,40.3972,2410.0144],[42.1036,40.3918,2666.4983],[42.1214,40.3855,2568.7983],[42.1489,40.3805,2279.6929],[42.1733,40.3725,2668.7935],[42.1822,40.3751,2679.9285],[42.1966,40.3835,2406.4705],[42.2059,40.3925,2462.0542],[42.2089,40.3978,2516.9021],[42.211,40.409,2368.2207],[42.2084,40.4257,2231.9124],[42.2034,40.4333,2066.4578],[42.1853,40.4511,1988.4597],[42.181399999999996,40.4589,2202.5244],[42.1799,40.4673,2257.0066],[42.1799,40.4845,2156.4214],[42.1823,40.4957,1924.1409],[42.2033,40.532,2187.2419],[42.2034,40.5363,2168.6343],[42.199,40.549,2086.2485],[42.1991,40.554,2112.4824],[42.2084,40.5725,1900.9717],[42.2106,40.5864,1701.3118],[42.2096,40.5976,1577.6823],[42.2065,40.6054,1566.2758],[42.1697,40.6606,1168.9675],[42.1666,40.6684,1187.043],[42.1655,40.6796,1100.5833],[42.1668,40.6908,1108.8707],[42.1772,40.7099,1057.3976],[42.1808,40.7204,1040.7996],[42.0918,40.7199,1829.3269],[42.077,40.7176,1831.2253],[42.0561,40.7105,2008.4397],[42.0386,40.7098,1654.5613],[42.0285,40.712,1639.5195],[42.0018,40.7227,1296.7383],[41.9692,40.741,1348.5798],[41.9406,40.7438,1826.6898],[41.9371,40.7333,1607.1238],[41.9301,40.7219,1635.4963],[41.9271,40.7138,1893.5607],[41.9233,40.6777,2164.47],[41.9144,40.6611,1832.4755],[41.909,40.6465,1683.9954],[41.9037,40.6405,1756.2349],[41.8851,40.6316,2132.5156],[41.852,40.6242,2093.5396],[41.8346,40.6185,1838.6743],[41.8244,40.6182,1676.1595],[41.8147,40.6212,1627.3142],[41.7889,40.6366,1691.9169],[41.7589,40.6486,1507.8027],[41.735,40.6547,1774.0024]]]]}}