{"type": "Feature","bbox": [31.3083,40.8682,31.7599,41.0563],"geometry": {"type": "MultiPolygon","coordinates": [[[[31.7363,41.0427,1318.2341],[31.5999,41.0428,882.3477],[31.5845,41.0445,1153.3556],[31.5631,41.0514,869.1735],[31.5513,41.0534,807.9498],[31.4647,41.0546,567.1667],[31.439,41.0563,387.9266],[31.4289,41.0385,401.1405],[31.4223,41.0334,637.5953],[31.3892,41.0289,648.8835],[31.3678,41.0222,547.2962],[31.3439,41.0178,574.6259],[31.3142,41.0062,298.0505],[31.3091,40.9873,597.2633],[31.3083,40.9729,730.1494],[31.3098,40.9559,662.6819],[31.3155,40.9455,589.1887],[31.3225,40.9387,472.8009],[31.3523,40.9156,688.6678],[31.3669,40.9064,722.2],[31.4003,40.8938,732.828],[31.4307,40.8878,853.1143],[31.4577,40.8774,513.0236],[31.4693,40.871,956.4073],[31.4935,40.8682,1040.2507],[31.5175,40.8683,1236.9301],[31.5327,40.8706,1224.3232],[31.5579,40.8781,1096.0273],[31.6042,40.8813,1035.7388],[31.6382,40.893,1294.9377],[31.6909,40.9147,1436.1898],[31.7081,40.9307,1284.2596],[31.7306,40.9412,1228.2764],[31.7395,40.9485,1132.2893],[31.7436,40.9557,869.3159],[31.7486,40.9712,710.5712],[31.7579,40.9877,557.3636],[31.7599,41.0016,748.5728],[31.7568,41.0182,944.3156],[31.7363,41.0427,1318.2341]]]]}
,"properties": {"GID_2": "TUR.27.8_1","GID_0": "TUR","country": "Turkey","GID_1": "TUR.27_1","province": "Düzce","NL_NAME_1": "NA","county": "Yığılca","VARNAME_2": "NA","NL_NAME_2": "NA","TYPE_2": "District","ENGTYPE_2": "District","CC_2": "NA","HASC_2": "TR.DU.YI","name": "Yığılca.county","area_km2": 591.0485,"hist_schema_id": "Elevation0-9000","hist_area_km2": {"175": 0.032,"200": 0.1279,"225": 0.3198,"250": 0.8804,"275": 2.3056,"300": 4.1468,"325": 5.4273,"350": 7.7168,"375": 8.6294,"400": 10.1663,"425": 11.3344,"450": 12.9673,"475": 14.6474,"500": 15.6875,"525": 17.6725,"550": 20.2173,"575": 21.2733,"600": 21.4814,"625": 21.1613,"650": 19.577,"675": 18.7928,"700": 17.0485,"725": 16.4076,"750": 15.896,"775": 15.528,"800": 15.208,"825": 12.9823,"850": 13.159,"875": 12.6624,"900": 13.0478,"925": 12.9838,"950": 12.8079,"975": 12.7914,"1000": 13.2082,"1025": 13.4164,"1050": 13.3847,"1075": 12.584,"1100": 12.1841,"1125": 12.0711,"1150": 11.2874,"1175": 10.6949,"1200": 9.7025,"1225": 10.0234,"1250": 9.0466,"1275": 8.8233,"1300": 7.8141,"1325": 7.1103,"1350": 6.4538,"1375": 5.7172,"1400": 4.8849,"1425": 3.7962,"1450": 3.3476,"1475": 2.675,"1500": 2.2264,"1525": 1.9375,"1550": 1.3612,"1575": 0.8328,"1600": 0.4164,"1625": 0.3684,"1650": 0.1763,"1675": 0.2404,"1700": 0.1282,"1725": 0.032,"1750": 0.016}}}