{"type":"Feature","properties":{"GID_2":"TUR.20.6_1","GID_0":"TUR","country":"Turkey","GID_1":"TUR.20_1","province":"Burdur","NL_NAME_1":"NA","county":"Gölhisar","VARNAME_2":"NA","NL_NAME_2":"NA","TYPE_2":"District","ENGTYPE_2":"District","CC_2":"NA","HASC_2":"TR.BD.GO","name":"Gölhisar.county"},
"geometry":{"type": "MultiPolygon","coordinates": [[[[29.6488,37.1069,1037.9517],[29.6465,37.1287,1063.062],[29.6374,37.1451,1033.8121],[29.6314,37.1635,974.7875],[29.6265,37.171,979.6642],[29.6107,37.1866,1021.9573],[29.6061,37.1943,1109.6763],[29.6043,37.2025,1155.8623],[29.6031,37.2279,1021.2753],[29.5992,37.2386,1038.889],[29.5883,37.2497,1045.3947],[29.5354,37.2903,1019.377],[29.5166,37.3072,924.2787],[29.492,37.2892,885.9231],[29.477,37.2685,946.8508],[29.4498,37.2453,1051.5548],[29.4414,37.2363,1129.6469],[29.4117,37.1897,1401.9744],[29.405,37.1685,1461.9255],[29.3955,37.1522,1425.0903],[29.3926,37.1387,1610.947],[29.4055,37.1348,1572.6104],[29.4368,37.1295,1567.3318],[29.4586,37.1227,1424.8545],[29.5194,37.1194,974.2469],[29.5527,37.1103,957.5831],[29.6488,37.1069,1037.9517]]]]}}