{"type":"Feature","properties":{"GID_2":"TUR.38.4_1","GID_0":"TUR","country":"Turkey","GID_1":"TUR.38_1","province":"Iğdır","NL_NAME_1":"NA","county":"Tuzluca","VARNAME_2":"NA","NL_NAME_2":"NA","TYPE_2":"District","ENGTYPE_2":"District","CC_2":"NA","HASC_2":"TR.IG.TU","name":"Tuzluca.county"},
"geometry":{"type": "MultiPolygon","coordinates": [[[[43.6628,40.2187,1182.9939],[43.65,40.2147,1319.02],[43.6198,40.1982,1449.2571],[43.5637,40.1843,1696.9534],[43.4422,40.1842,2007.7894],[43.4119,40.182,2106.5527],[43.3924,40.174,1724.8755],[43.3837,40.1672,1684.0876],[43.3818,40.1599,1553.429],[43.3831,40.1522,1473.3251],[43.3911,40.1392,1235.1592],[43.3933,40.1317,1085.6088],[43.3925,40.1264,1055.2736],[43.3896,40.1212,1136.5879],[43.3804,40.1124,1389.3209],[43.3684,40.106,1469.4401],[43.358,40.1045,1406.5824],[43.3484,40.1062,1527.0989],[43.3316,40.1125,1243.2722],[43.3153,40.1129,1258.9127],[43.3069,40.1092,1283.827],[43.297,40.0972,1492.5123],[43.2912,40.0849,1876.1281],[43.291,40.0765,1690.4312],[43.2931,40.0684,1785.3174],[43.3082,40.0451,2246.3057],[43.3309,40.0225,2263.2351],[43.3463,39.9992,2056.4028],[43.3502,39.9858,2261.3943],[43.3505,39.9628,2462.1604],[43.3658,39.962,2560.8726],[43.376,39.959,2649.0127],[43.3877,39.9468,2814.8154],[43.394,39.9355,2870.0605],[43.396,39.9158,2717.6084],[43.3942,39.7946,2813.0764],[43.4233,39.7796,2590.991],[43.4533,39.7683,2482.5486],[43.4702,39.7662,2421.0981],[43.4783,39.7667,2487.4138],[43.498,39.7814,2578.0969],[43.5215,39.8141,2431.3828],[43.5319,39.8204,2271.2107],[43.5435,39.8229,2249.5],[43.6225,39.8224,2193.2417],[43.6373,39.8193,2428.2634],[43.6854,39.8012,2489.0444],[43.7046,39.7994,2695.3098],[43.7406,39.7995,2450.3069],[43.7526,39.8121,2342.875],[43.7756,39.8475,1889.8124],[43.7983,39.8701,1425.4141],[43.8101,39.8885,1306.3391],[43.8131,39.8984,1241.4548],[43.8122,39.9036,1200.2198],[43.8035,39.9196,1194.4653],[43.8011,39.9338,1173.425],[43.8016,40.0114,1023.3912],[43.8067,40.0245,995.9604],[43.8187,40.0431,962.7402],[43.826,40.0509,943.9296],[43.8195,40.0553,965.4347],[43.8056,40.0587,991.2645],[43.7699,40.0795,919.6749],[43.7375,40.0763,927.2717],[43.7188,40.0797,930.7508],[43.7072,40.0859,940.8628],[43.6958,40.0952,936.8568],[43.6723,40.1017,943.5828],[43.6626,40.1057,946.0239],[43.6555,40.1108,953.0479],[43.6484,40.1195,1005.1261],[43.6465,40.1298,959.0002],[43.6502,40.1419,971.6923],[43.655,40.1483,978.0745],[43.6635,40.156,1023.5972],[43.6945,40.1628,1058.3308],[43.7085,40.1639,1067.6953],[43.7136,40.1664,1062.3519],[43.714,40.1725,1106.5919],[43.7072,40.1797,1135.0729],[43.6957,40.1873,1115.7673],[43.6917,40.1972,1138.6653],[43.6825,40.2013,1128.8694],[43.6628,40.2187,1182.9939]]]]}}