{"type": "Feature","bbox": [32.7481,36.8092,33.6211,37.4557],"geometry": {"type": "MultiPolygon","coordinates": [[[[33.3885,37.3973,1038.6119],[33.3781,37.3935,1048.8757],[33.3652,37.3807,1007.8767],[33.3538,37.3753,1004.2783],[33.3248,37.3732,1008.4966],[33.303,37.3752,1003.7043],[33.2963,37.3774,1004.0251],[33.2822,37.3861,1003.4198],[33.2172,37.4373,1129.8646],[33.2013,37.4533,1170.0464],[33.1772,37.4555,1142.7928],[33.1311,37.4557,1138.761],[33.1201,37.4534,1140.0798],[33.1072,37.4451,1342.8918],[33.0979,37.4312,1254.3589],[33.0784,37.4104,1230.8552],[33.0709,37.3985,1241.14],[33.0623,37.3909,1308.2838],[33.0566,37.3882,1185.452],[33.0422,37.3857,1083.8557],[32.9803,37.3862,1025.0491],[32.9541,37.3838,1031.0509],[32.9176,37.3695,1042.5704],[32.9015,37.3574,1058.4277],[32.8939,37.3478,1070.901],[32.8792,37.3214,1048.0873],[32.8752,37.3083,1040.8438],[32.8638,37.2866,1077.569],[32.8626,37.2698,1095.9344],[32.8653,37.2588,1090.1434],[32.88,37.2355,1126.4269],[32.9,37.2138,1609.7764],[32.9214,37.2093,1327.0267],[32.9464,37.1984,1177.974],[32.9508,37.1949,1181.3787],[32.9619,37.1801,1230.4989],[32.9658,37.1729,1302.9498],[32.9713,37.1544,1516.4384],[32.9796,37.1405,1650.1985],[32.9821,37.1296,1628.5596],[32.9807,37.1128,1423.7843],[32.9702,37.0919,1400.798],[32.9714,37.0841,1458.5498],[32.979,37.0763,1629.9581],[32.9986,37.0686,1636.1062],[33.0055,37.0641,1701.0463],[33.0094,37.0576,1591.9805],[33.0089,37.0527,1490.7708],[33.0031,37.0473,1491.2742],[32.987,37.0409,1506.3267],[32.9544,37.0351,1417.1732],[32.9455,37.0289,1422.3859],[32.9439,37.0244,1401.5466],[32.9455,37.0197,1391.8906],[32.9603,37.0059,1413.6338],[32.9652,36.9988,1430.7721],[32.9664,36.9885,1378.38],[32.9625,36.9817,1246.0723],[32.9573,36.9789,957.1132],[32.9388,36.9752,625.521],[32.9175,36.9686,903.89],[32.8782,36.9646,1466.283],[32.8428,36.9503,1532.2697],[32.8361,36.9446,1553.9819],[32.8164,36.9163,1641.1897],[32.8097,36.9109,1638.3698],[32.7959,36.8936,1573.5355],[32.7623,36.8658,1807.9152],[32.7481,36.8509,1643.6676],[32.804,36.8498,1855.3212],[32.8153,36.8479,1973.6053],[32.8403,36.8402,2031.5193],[32.9019,36.8373,2013.8075],[32.9388,36.8237,1884.8022],[32.9618,36.8092,1856.6277],[33.0037,36.8164,2037.4736],[33.0583,36.8361,1405.9592],[33.0856,36.8411,646.9574],[33.1158,36.8524,280.4538],[33.1574,36.8799,860.8856],[33.1847,36.8922,945.8555],[33.2176,36.9148,1584.8291],[33.2448,36.9271,1660.7487],[33.2777,36.9498,1587.5344],[33.2992,36.9588,1605.4485],[33.3287,36.976,1614.9125],[33.3857,36.9981,1538.184],[33.407,37.0015,1465.4944],[33.4995,37.0014,1564.5098],[33.5296,37.003,1605.5768],[33.5696,37.0165,1643.9495],[33.6211,37.046,1723.4829],[33.6027,37.0699,1637.4835],[33.5946,37.0934,1572.8259],[33.5716,37.1305,1373.5051],[33.5672,37.1578,1400.226],[33.5635,37.1654,1390.7561],[33.5518,37.1742,1340.4668],[33.5096,37.1897,1215.0781],[33.5018,37.1943,1182.8217],[33.4958,37.2004,1159.7527],[33.4734,37.2357,1093.4802],[33.4511,37.2584,1045.7965],[33.4364,37.2819,1028.4114],[33.4298,37.303,1017.6918],[33.4218,37.3168,1013.7534],[33.416,37.347,1011.6801],[33.4071,37.3635,1009.2068],[33.4011,37.3819,1125.9861],[33.3966,37.389,1137.9277],[33.3885,37.3973,1038.6119]]]]}
,"properties": {"GID_2": "TUR.44.5_1","GID_0": "TUR","country": "Turkey","GID_1": "TUR.44_1","province": "Karaman","NL_NAME_1": "NA","county": "Merkez","VARNAME_2": "Karaman","NL_NAME_2": "NA","TYPE_2": "District","ENGTYPE_2": "District","CC_2": "NA","HASC_2": "TR.KR.KR","name": "Merkez.county","area_km2": 2940.164,"hist_schema_id": "Elevation0-9000","hist_area_km2": {"275": 1.578,"300": 4.155,"325": 4.477,"350": 4.223,"375": 4.291,"400": 4.273,"425": 5.34,"450": 5.306,"475": 5.204,"500": 5.475,"525": 4.865,"550": 5.001,"575": 4.831,"600": 4.746,"625": 4.983,"650": 4.949,"675": 5.458,"700": 6.034,"725": 6.576,"750": 6.22,"775": 5.508,"800": 5.779,"825": 6.169,"850": 6.05,"875": 6.729,"900": 6.593,"925": 6.084,"950": 6.678,"975": 7.627,"1000": 388.378,"1025": 360.798,"1050": 192.651,"1075": 122.182,"1100": 103.69,"1125": 85.414,"1150": 79.964,"1175": 75.784,"1200": 72.435,"1225": 71.812,"1250": 72.482,"1275": 71.63,"1300": 68.189,"1325": 71.601,"1350": 79.273,"1375": 90.029,"1400": 85.793,"1425": 83.78,"1450": 73.297,"1475": 63.862,"1500": 70.524,"1525": 75.776,"1550": 60.19,"1575": 49.115,"1600": 38.422,"1625": 26.272,"1650": 18.789,"1675": 14.517,"1700": 14.584,"1725": 8.865,"1750": 7.851,"1775": 6.585,"1800": 6.72,"1825": 6.483,"1850": 6.808,"1875": 7.166,"1900": 5.827,"1925": 5.335,"1950": 4.828,"1975": 4.759,"2000": 3.897,"2025": 3.846,"2050": 4.32,"2075": 4.287,"2100": 3.61,"2125": 2.576,"2150": 2.119,"2175": 2.135,"2200": 1.83,"2225": 1.169,"2250": 1.102,"2275": 0.441,"2300": 0.238,"2325": 0.238,"2350": 0.221,"2375": 0.238,"2400": 0.204,"2425": 0.034}}}