{"type": "Feature","bbox": [30.3153,39.937,30.5714,40.1588],"geometry": {"type": "MultiPolygon","coordinates": [[[[30.3562,39.937,1279.3904],[30.4094,39.9372,1272.1779],[30.4346,39.9397,1209.1157],[30.4738,39.9556,1249.0549],[30.5023,39.9779,658.498],[30.5232,40.0067,337.3888],[30.5276,40.047,684.4419],[30.5376,40.0666,997.6439],[30.5446,40.0876,969.2657],[30.5537,40.104,1135.1626],[30.5589,40.1314,972.1313],[30.5633,40.1386,1048.6046],[30.5714,40.1469,985.1411],[30.5678,40.1523,1012.2297],[30.5632,40.1556,1004.3307],[30.5563,40.1576,808.4057],[30.5444,40.1588,773.8323],[30.3828,40.1584,489.3715],[30.3711,40.134,449.374],[30.3509,40.1135,785.8718],[30.3333,40.0881,175.8505],[30.3189,40.0647,242.5897],[30.316,40.0532,433.1359],[30.3153,40.017,887.3367],[30.3177,39.9994,956.014],[30.3562,39.937,1279.3904]]]]}
,"properties": {"GID_2": "TUR.16.3_1","GID_0": "TUR","country": "Turkey","GID_1": "TUR.16_1","province": "Bilecik","NL_NAME_1": "NA","county": "İnhisar","VARNAME_2": "NA","NL_NAME_2": "NA","TYPE_2": "District","ENGTYPE_2": "District","CC_2": "NA","HASC_2": "TR.BC.IN","name": "İnhisar.county","area_km2": 396.8917,"hist_schema_id": "Elevation0-9000","hist_area_km2": {"150": 2.2549,"175": 11.4564,"200": 9.3799,"225": 9.1366,"250": 9.2986,"275": 10.1098,"300": 9.5739,"325": 9.4278,"350": 9.7846,"375": 10.1743,"400": 9.9468,"425": 9.5413,"450": 8.8764,"475": 9.0714,"500": 9.1365,"525": 9.3468,"550": 9.476,"575": 8.7786,"600": 9.1189,"625": 8.9077,"650": 9.1185,"675": 8.0807,"700": 8.5504,"725": 8.7935,"750": 9.5403,"775": 8.6465,"800": 9.0519,"825": 9.0034,"850": 8.2903,"875": 8.0636,"900": 8.1779,"925": 9.4931,"950": 10.4526,"975": 10.9252,"1000": 9.172,"1025": 8.1341,"1050": 7.7926,"1075": 7.4343,"1100": 10.1731,"1125": 12.5913,"1150": 6.8837,"1175": 6.2867,"1200": 5.7696,"1225": 5.5747,"1250": 4.5187,"1275": 2.9422,"1300": 0.5039,"1325": 0.1301}}}