{"type":"Feature","properties":{"GID_2":"TUR.65.8_1","GID_0":"TUR","country":"Turkey","GID_1":"TUR.65_1","province":"Rize","NL_NAME_1":"NA","county":"İkizdere","VARNAME_2":"NA","NL_NAME_2":"NA","TYPE_2":"District","ENGTYPE_2":"District","CC_2":"NA","HASC_2":"TR.RI.IK","name":"İkizdere.county"},
"geometry":{"type": "MultiPolygon","coordinates": [[[[40.4985,40.5353,2725.0884],[40.5152,40.5389,2939.5518],[40.59,40.5676,2865.5078],[40.6204,40.5737,2837.0154],[40.798,40.6419,2993.3054],[40.8279,40.6537,3231.4172],[40.8548,40.6697,3144.4709],[40.8759,40.6783,3218.5566],[40.8893,40.6864,2837.4028],[40.8778,40.6992,2981.9841],[40.8712,40.7203,3051.6599],[40.8553,40.746,3041.012],[40.8492,40.7521,3304.7856],[40.8332,40.7633,3059.8176],[40.8212,40.7694,2904.498],[40.7827,40.7829,2889.3508],[40.7411,40.8112,2293.1382],[40.7014,40.824,2280.644],[40.6776,40.8297,2319.0618],[40.6092,40.8567,973.8797],[40.5962,40.8602,996.4514],[40.4692,40.8613,240.8538],[40.471,40.8445,290.7073],[40.4815,40.8224,480.8724],[40.4865,40.7954,843.5889],[40.4956,40.7787,924.1897],[40.5026,40.7577,1361.4354],[40.5119,40.7411,1916.1072],[40.5137,40.7324,1943.6632],[40.514,40.7021,2568.0645],[40.5118,40.6904,2607.8669],[40.5026,40.6738,2689.2632],[40.4954,40.6528,2440.3447],[40.4789,40.6286,2075.7449],[40.4822,40.6162,2230.8989],[40.4835,40.6028,2884.9944],[40.4835,40.5353,3166.6069],[40.4985,40.5353,2725.0884]]]]}}