{"type":"Feature","properties":{"GID_2":"TUR.49.1_1","GID_0":"TUR","country":"Turkey","GID_1":"TUR.49_1","province":"Kinkkale","NL_NAME_1":"NA","county":"Bahşılı","VARNAME_2":"NA","NL_NAME_2":"NA","TYPE_2":"District","ENGTYPE_2":"District","CC_2":"NA","HASC_2":"TR.KK.BH","name":"Bahşılı.county"},
"geometry":{"type": "MultiPolygon","coordinates": [[[[33.2729,39.4347,803.8373],[33.3212,39.4354,847.272],[33.3317,39.4372,790.0182],[33.3529,39.4441,860.3117],[33.3882,39.4478,740.8338],[33.4038,39.4547,752.4681],[33.4292,39.4755,798.2704],[33.439,39.4877,828.0482],[33.4358,39.5098,809.1755],[33.4214,39.5186,781.9482],[33.4128,39.5265,750.2729],[33.4089,39.5345,737.371],[33.4074,39.5465,725.644],[33.4081,39.5618,724.8239],[33.4102,39.5706,720.6653],[33.4327,39.6078,720.0],[33.4313,39.6233,768.3135],[33.3947,39.6184,787.409],[33.3469,39.6002,920.5767],[33.3204,39.595,944.2676],[33.3158,39.5664,894.0237],[33.3057,39.5471,945.4291],[33.3005,39.5202,863.9611],[33.2898,39.4978,900.8405],[33.2855,39.4619,807.6697],[33.2764,39.4452,811.9185],[33.2729,39.4347,803.8373]]]]}}