{"type": "Feature","bbox": [28.9848,41.0332,29.0574,41.1083],"geometry": {"type": "MultiPolygon","coordinates": [[[[29.0546,41.0949,0.0],[29.0492,41.0968,11.9178],[29.0446,41.0877,99.9722],[29.0097,41.1083,83.9482],[29.0021,41.1034,101.075],[29.0008,41.0936,107.5767],[29.0079,41.0891,125.974],[29.011,41.0844,127.1167],[29.0103,41.0778,124.5947],[29.0072,41.0758,117.4179],[28.998,41.0755,55.7092],[28.9928,41.071,97.1666],[28.988,41.0498,92.8622],[28.9848,41.044,80.6252],[28.994,41.0332,0.0],[28.9951,41.036,0.7033],[28.9988,41.0385,0.0],[29.0096,41.0399,0.0],[29.0107,41.0415,0.601],[29.0274,41.0465,0.0],[29.0332,41.0499,4.2824],[29.0371,41.0546,0.0],[29.0382,41.0588,0.0],[29.0404,41.0599,0.0],[29.0421,41.0651,0.0],[29.0465,41.0674,0.0],[29.0449,41.0776,1.5079],[29.0574,41.0824,1.879],[29.0571,41.0915,0.0],[29.0546,41.0949,0.0]]]]}
,"properties": {"GID_2": "TUR.40.10_1","GID_0": "TUR","country": "Turkey","GID_1": "TUR.40_1","province": "Istanbul","NL_NAME_1": "NA","county": "Beşiktaş","VARNAME_2": "NA","NL_NAME_2": "NA","TYPE_2": "District","ENGTYPE_2": "District","CC_2": "NA","HASC_2": "TR.IB.BE","name": "Beşiktaş.county","area_km2": 25.67092,"hist_schema_id": "Elevation0-9000","hist_area_km2": {"0": 1.59881,"25": 2.22232,"50": 2.76566,"75": 4.97112,"100": 6.98458,"125": 6.13746,"150": 0.99098}}}