{"type":"Feature","properties":{"GID_2":"TUR.72.10_1","GID_0":"TUR","country":"Turkey","GID_1":"TUR.72_1","province":"Sivas","NL_NAME_1":"NA","county":"Kangal","VARNAME_2":"NA","NL_NAME_2":"NA","TYPE_2":"District","ENGTYPE_2":"District","CC_2":"NA","HASC_2":"TR.SV.KA","name":"Kangal.county"},
"geometry":{"type": "MultiPolygon","coordinates": [[[[36.9361,39.0362,1715.1815],[36.9528,39.0326,1700.9602],[37.0275,39.0037,1725.078],[37.0546,38.9983,1734.7009],[37.076,38.9911,1762.8613],[37.0873,38.9898,1754.5215],[37.1902,38.9892,1831.7413],[37.2086,38.9928,1759.7913],[37.2231,39.0019,1709.9656],[37.2318,39.0112,1687.5452],[37.2407,39.0374,1672.4401],[37.2513,39.0522,1661.2168],[37.2554,39.0559,1654.0356],[37.2615,39.0584,1624.9486],[37.2797,39.0601,1626.1135],[37.2953,39.0595,1524.8518],[37.3135,39.056,1603.9113],[37.3704,39.0336,1638.2352],[37.3826,39.0266,1472.6588],[37.4052,39.01,1446.0164],[37.418,39.0035,1428.1992],[37.4328,39.001,1536.269],[37.4831,38.9996,1652.3418],[37.5115,38.9911,1553.978],[37.5357,38.987,1601.8014],[37.5588,38.9811,1479.5303],[37.5649,38.9841,1516.63],[37.5831,39.0069,1862.6447],[37.5943,39.0114,1912.3779],[37.6075,39.011,1917.196],[37.6317,39.0029,1677.0635],[37.6474,39.001,1591.5469],[37.6904,39.0005,1583.3837],[37.7249,39.0021,1403.1508],[37.747,39.0007,1346.7179],[37.7804,39.0011,1357.4338],[37.7969,39.0051,1345.7151],[37.8983,39.045,2143.5334],[37.9395,39.0591,2496.2427],[37.9422,39.0799,2385.1624],[37.9423,39.1509,1931.4878],[37.9394,39.1626,1926.9286],[37.9253,39.1861,2005.0288],[37.9101,39.2093,2007.2482],[37.8963,39.2227,2296.0049],[37.8816,39.2314,2283.4097],[37.809,39.2584,1740.3748],[37.7973,39.2673,1721.6733],[37.7943,39.2724,1633.1257],[37.7923,39.2813,1623.7817],[37.7937,39.3572,1316.5117],[37.7904,39.3721,1624.5165],[37.7845,39.3784,1758.4681],[37.7763,39.3828,1622.3302],[37.7625,39.3845,1592.6232],[37.7523,39.3835,1522.531],[37.7357,39.379,1539.297],[37.7274,39.3794,1598.1249],[37.6864,39.3936,1593.5996],[37.6438,39.3986,1763.9624],[37.6193,39.4085,1721.1868],[37.6151,39.4151,1706.0386],[37.6157,39.4201,1612.7831],[37.6185,39.4244,1588.2349],[37.6324,39.4351,1449.7974],[37.6511,39.4445,1584.0365],[37.6194,39.4538,1385.8369],[37.5575,39.4562,1848.9021],[37.5268,39.4666,1557.7793],[37.5184,39.4709,1587.0452],[37.5105,39.4792,1667.3698],[37.5083,39.4872,1687.4324],[37.5097,39.498,1597.7426],[37.5176,39.5115,1811.5427],[37.5198,39.519,1876.2506],[37.5187,39.5265,1904.396],[37.5125,39.5418,1803.696],[37.4792,39.5339,1889.7451],[37.4519,39.519,1903.1473],[37.4221,39.512,2087.4763],[37.3743,39.4934,1973.9602],[37.3409,39.4863,1972.4336],[37.2661,39.4575,1641.7942],[37.2389,39.4523,1915.6791],[37.2176,39.4453,1763.8448],[37.1786,39.441,2145.9761],[37.1483,39.4299,2026.2985],[37.1304,39.419,2018.223],[37.1108,39.404,1470.5464],[37.081,39.3801,1473.2822],[37.0745,39.3729,1446.5889],[37.0588,39.3467,1521.5327],[37.0572,39.338,1535.0459],[37.0569,39.2934,1653.5542],[37.0524,39.2836,1624.0808],[37.0317,39.2728,1641.6979],[36.9991,39.2617,1661.6807],[36.9713,39.2564,1712.0769],[36.9501,39.2485,1659.3854],[36.9229,39.2434,1732.3809],[36.9089,39.236,1725.1978],[36.9018,39.2302,1685.9961],[36.894,39.2217,1711.8696],[36.8866,39.2097,1723.6323],[36.866,39.1889,1654.9918],[36.8387,39.1498,1768.0858],[36.881,39.1363,1733.7219],[36.9016,39.1219,1714.9121],[36.9171,39.1075,1716.6543],[36.9342,39.082,1706.5272],[36.9449,39.0616,1676.6151],[36.9449,39.0572,1671.0245],[36.9361,39.0362,1715.1815]]]]}}