{"type": "Feature","bbox": [37.1897,38.3688,37.8211,38.7764],"geometry": {"type": "MultiPolygon","coordinates": [[[[37.6632,38.3688,2021.9414],[37.6903,38.4079,1609.6769],[37.6996,38.4148,1727.171],[37.7167,38.4221,1620.5482],[37.7256,38.4297,1582.9434],[37.7293,38.4374,1644.1453],[37.7337,38.4562,1195.1909],[37.7388,38.4621,1039.5327],[37.7458,38.4651,1098.7407],[37.7425,38.4757,969.191],[37.733,38.492,922.0349],[37.7274,38.5105,982.5009],[37.7172,38.5299,1201.4883],[37.7157,38.5416,1281.4969],[37.7162,38.5809,1780.8535],[37.7203,38.5947,1873.3928],[37.7527,38.6435,1856.8329],[37.8076,38.6876,1826.1064],[37.8211,38.703,1760.2175],[37.7846,38.726,1670.2141],[37.7751,38.7304,1692.7585],[37.7567,38.733,1693.3397],[37.6948,38.7326,1301.1206],[37.6761,38.7345,1210.2944],[37.6633,38.7399,1174.8247],[37.6391,38.7575,1301.3025],[37.6249,38.7653,1558.334],[37.5739,38.7764,1658.3713],[37.5614,38.7741,1786.1665],[37.5338,38.7546,1458.2068],[37.5239,38.7438,1585.3669],[37.5129,38.7274,1623.7355],[37.486,38.7062,1615.8887],[37.4566,38.6932,1530.7141],[37.4203,38.6683,1339.5347],[37.3936,38.6568,1354.9373],[37.3328,38.6115,1778.6895],[37.3212,38.6067,1882.2488],[37.3033,38.6037,2071.5635],[37.2931,38.5997,2042.2935],[37.2884,38.5959,2070.3567],[37.2894,38.58,2224.2773],[37.2797,38.5618,1912.7246],[37.2741,38.5544,1887.7719],[37.2465,38.5328,1802.7189],[37.2139,38.517,1694.2732],[37.2076,38.5111,1677.7734],[37.191,38.4855,1671.1315],[37.1897,38.4746,1748.4144],[37.192,38.4668,1770.6631],[37.1978,38.4611,1762.4233],[37.206,38.4584,1877.1177],[37.2252,38.4632,1891.1995],[37.2437,38.4651,1702.7651],[37.3617,38.4654,1605.2272],[37.3805,38.4636,1647.7325],[37.4091,38.4551,1719.432],[37.4555,38.452,1860.1216],[37.4894,38.4401,1851.895],[37.6394,38.3815,2018.8281],[37.6632,38.3688,2021.9414]]]]}
,"properties": {"GID_2": "TUR.55.5_1","GID_0": "TUR","country": "Turkey","GID_1": "TUR.55_1","province": "Malatya","NL_NAME_1": "NA","county": "Darende","VARNAME_2": "NA","NL_NAME_2": "NA","TYPE_2": "District","ENGTYPE_2": "District","CC_2": "NA","HASC_2": "TR.ML.DA","name": "Darende.county","area_km2": 1285.0681,"hist_schema_id": "Elevation0-9000","hist_area_km2": {"925": 2.3733,"950": 16.259,"975": 19.8389,"1000": 22.0459,"1025": 24.1529,"1050": 25.5465,"1075": 28.251,"1100": 26.7071,"1125": 27.6531,"1150": 23.8516,"1175": 27.2734,"1200": 27.7528,"1225": 26.2455,"1250": 25.8292,"1275": 25.2651,"1300": 23.4077,"1325": 23.4074,"1350": 23.5902,"1375": 23.4563,"1400": 24.1335,"1425": 28.7889,"1450": 40.6925,"1475": 41.9335,"1500": 45.8772,"1525": 55.19,"1550": 56.571,"1575": 54.0547,"1600": 56.7634,"1625": 50.8705,"1650": 45.5602,"1675": 39.7992,"1700": 36.9506,"1725": 32.6794,"1750": 30.703,"1775": 24.3275,"1800": 24.2503,"1825": 23.1478,"1850": 21.1399,"1875": 22.8937,"1900": 18.6222,"1925": 15.2605,"1950": 13.2038,"1975": 9.7026,"2000": 8.1257,"2025": 5.6872,"2050": 4.0282,"2075": 3.0171,"2100": 2.3203,"2125": 1.9224,"2150": 1.3754,"2175": 1.0275,"2200": 0.6298,"2225": 0.4309,"2250": 0.4309,"2275": 0.0497}}}