{"type":"Feature","properties":{"GID_2":"TUR.49.3_1","GID_0":"TUR","country":"Turkey","GID_1":"TUR.49_1","province":"Kinkkale","NL_NAME_1":"NA","county":"Çelebi","VARNAME_2":"NA","NL_NAME_2":"NA","TYPE_2":"District","ENGTYPE_2":"District","CC_2":"NA","HASC_2":"TR.KK.CE","name":"Çelebi.county"},
"geometry":{"type": "MultiPolygon","coordinates": [[[[33.528,39.2548,848.0],[33.5313,39.2706,875.6816],[33.5394,39.2843,918.951],[33.5458,39.3012,989.3571],[33.5561,39.3139,1015.941],[33.5613,39.3286,1061.2468],[33.5707,39.3449,1174.1024],[33.5761,39.3638,1114.0516],[33.5849,39.3811,1050.7],[33.5685,39.3863,1099.8641],[33.5444,39.3905,1175.4475],[33.5266,39.3969,1111.2783],[33.4995,39.4022,1012.0348],[33.4876,39.4083,1080.8147],[33.4577,39.4292,1051.3708],[33.438,39.4346,969.6016],[33.4328,39.4267,898.9945],[33.4191,39.4181,837.0512],[33.4117,39.41,837.7552],[33.4086,39.4015,785.0413],[33.4053,39.3805,790.2426],[33.3965,39.3636,890.5759],[33.3907,39.3452,960.8966],[33.3865,39.3379,934.5316],[33.3694,39.3172,828.4514],[33.3884,39.2851,904.1406],[33.3903,39.2774,923.6296],[33.3882,39.2698,887.4562],[33.3658,39.2362,937.5443],[33.3656,39.2256,941.8316],[33.3816,39.2003,916.9691],[33.4005,39.1815,898.5986],[33.4104,39.1658,900.6976],[33.4169,39.1611,900.7743],[33.4259,39.1599,880.3745],[33.4339,39.1632,874.922],[33.4448,39.1724,875.7167],[33.4594,39.1936,856.7081],[33.4908,39.2214,875.4781],[33.5042,39.2398,882.759],[33.5138,39.2471,848.0],[33.528,39.2548,848.0]]]]}}