{"type":"Feature","properties":{"GID_2":"TUR.73.7_1","GID_0":"TUR","country":"Turkey","GID_1":"TUR.73_1","province":"Tekirdag","NL_NAME_1":"NA","county":"Muratlı","VARNAME_2":"NA","NL_NAME_2":"NA","TYPE_2":"District","ENGTYPE_2":"District","CC_2":"NA","HASC_2":"TR.TG.MU","name":"Muratlı.county"},
"geometry":{"type": "MultiPolygon","coordinates": [[[[27.4361,41.2501,120.8559],[27.4099,41.2367,88.7796],[27.4004,41.2336,79.2314],[27.3568,41.2321,114.086],[27.3434,41.2292,110.196],[27.3381,41.2261,99.7297],[27.3326,41.2197,80.4903],[27.3313,41.2143,104.3233],[27.3324,41.2088,131.6324],[27.338,41.2016,143.8834],[27.3544,41.1901,151.9152],[27.3984,41.1742,144.9955],[27.4781,41.142,161.5625],[27.4963,41.1387,124.4719],[27.52,41.1387,164.9735],[27.5389,41.1416,126.3815],[27.5594,41.149,87.6676],[27.5755,41.1488,84.6079],[27.5829,41.1446,87.7243],[27.5897,41.1304,129.5868],[27.6086,41.1104,225.5324],[27.6193,41.1045,241.0854],[27.6463,41.0943,127.1426],[27.6977,41.0826,100.6452],[27.7044,41.0833,76.8831],[27.7352,41.092,71.7127],[27.7358,41.1721,107.4184],[27.7348,41.1872,139.4212],[27.7324,41.1959,147.6227],[27.6989,41.2473,90.952],[27.6867,41.2584,104.1497],[27.6536,41.2831,133.4073],[27.6444,41.2878,122.1823],[27.608,41.2987,124.5265],[27.59,41.2796,103.0555],[27.579,41.2632,115.0657],[27.5516,41.2347,92.1868],[27.5209,41.2211,84.9756],[27.5029,41.2197,75.5026],[27.4814,41.2224,111.8564],[27.4727,41.2265,111.7102],[27.4361,41.2501,120.8559]]]]}}