{"type":"Feature","properties":{"GID_2":"TUR.39.8_1","GID_0":"TUR","country":"Turkey","GID_1":"TUR.39_1","province":"Isparta","NL_NAME_1":"NA","county":"Şarkikaraağaç","VARNAME_2":"NA","NL_NAME_2":"NA","TYPE_2":"District","ENGTYPE_2":"District","CC_2":"NA","HASC_2":"TR.IP.SA","name":"Şarkikaraağaç.county"},
"geometry":{"type": "MultiPolygon","coordinates": [[[[31.2337,37.8763,2214.2207],[31.331,37.9135,1122.0],[31.3636,37.9319,1122.0],[31.3741,37.934,1122.0],[31.3924,37.9346,1122.0],[31.4248,37.9312,1122.0],[31.4225,37.9517,1122.0],[31.4243,37.9657,1122.0],[31.4399,37.9918,1528.5497],[31.446,37.9987,1358.9407],[31.4664,38.0152,1307.8945],[31.4809,38.0237,1412.228],[31.5113,38.0301,1411.9996],[31.5345,38.0379,1519.7687],[31.5561,38.0475,1690.0828],[31.5749,38.0536,1601.9061],[31.5993,38.065,1605.8434],[31.6128,38.0815,1650.1541],[31.6168,38.0888,1514.7346],[31.6188,38.1057,1468.702],[31.6176,38.1141,1501.6742],[31.6139,38.1221,1504.6652],[31.6076,38.129,1566.5833],[31.5866,38.1451,1445.495],[31.572,38.1532,1524.1171],[31.5511,38.1619,1645.705],[31.5051,38.1956,2100.6763],[31.4788,38.2069,1776.6265],[31.4587,38.2208,1940.8567],[31.4275,38.2127,1560.2766],[31.4181,38.2087,1681.7162],[31.3557,38.1622,1402.803],[31.3196,38.1472,1202.5288],[31.2926,38.142,1192.5392],[31.2716,38.1346,1201.8728],[31.2611,38.1328,1256.0238],[31.2315,38.1325,1352.1592],[31.2057,38.136,1376.5416],[31.1945,38.1101,1484.9503],[31.1702,38.0849,1477.2872],[31.1669,38.074,1585.0814],[31.167,38.0632,1802.6411],[31.1698,38.0558,2045.2632],[31.1739,38.052,2107.1191],[31.2165,38.0346,1558.9487],[31.2249,38.0266,1632.4167],[31.2272,38.0213,1785.0686],[31.2281,38.0045,1521.0848],[31.2248,37.9935,1912.5872],[31.2167,37.9842,1750.7374],[31.1838,37.9582,2066.9114],[31.182,37.9375,2048.8481],[31.1832,37.9292,1989.4573],[31.1889,37.9197,1966.0278],[31.1987,37.9132,2041.764],[31.2132,37.9074,2106.9951],[31.2224,37.9004,1980.3054],[31.2269,37.8934,2125.4517],[31.2337,37.8763,2214.2207]]]]}}