{"type":"Feature","properties":{"GID_2":"TUR.6.1_1","GID_0":"TUR","country":"Turkey","GID_1":"TUR.6_1","province":"Amasya","NL_NAME_1":"NA","county":"Göynücek","VARNAME_2":"NA","NL_NAME_2":"NA","TYPE_2":"District","ENGTYPE_2":"District","CC_2":"NA","HASC_2":"TR.AM.GO","name":"Göynücek.county"},
"geometry":{"type": "MultiPolygon","coordinates": [[[[35.3437,40.3583,817.094],[35.347,40.3375,674.857],[35.347,40.3113,535.6328],[35.3447,40.2987,667.6303],[35.3357,40.2819,731.2171],[35.333,40.2728,578.957],[35.3318,40.2567,774.6183],[35.3323,40.2289,754.8431],[35.3432,40.2167,749.848],[35.3652,40.1988,854.6747],[35.3819,40.1913,800.5108],[35.4056,40.1894,830.0621],[35.5121,40.1898,790.2576],[35.5129,40.204,748.4276],[35.5151,40.2121,726.5862],[35.5296,40.2355,961.7158],[35.5434,40.2492,883.6582],[35.5764,40.2742,1178.0261],[35.5885,40.2809,1038.84],[35.6157,40.2911,1278.1619],[35.6461,40.297,1302.6846],[35.6766,40.3079,1273.6685],[35.7062,40.3197,1194.2982],[35.7162,40.3263,1173.218],[35.7278,40.3422,1218.4072],[35.7499,40.3651,1154.0616],[35.7707,40.3982,1124.5627],[35.7833,40.4149,1105.7325],[35.7932,40.4334,1124.6586],[35.7569,40.4488,838.4235],[35.7421,40.4675,734.4768],[35.7295,40.4868,747.306],[35.7072,40.5058,676.6176],[35.6925,40.5133,578.2694],[35.682,40.5139,612.3333],[35.672,40.5107,540.2838],[35.6323,40.4799,545.2374],[35.6239,40.4753,492.3366],[35.6176,40.4739,502.9617],[35.6091,40.4754,498.2234],[35.5715,40.4898,445.11],[35.5443,40.4952,490.2825],[35.5232,40.5025,637.9522],[35.494,40.5044,845.7226],[35.4532,40.5029,1113.1346],[35.4526,40.4839,897.3463],[35.4507,40.4728,740.6622],[35.4349,40.4468,585.7993],[35.4124,40.4241,943.1991],[35.4026,40.4096,1197.7209],[35.3844,40.3914,1441.5643],[35.3708,40.3731,974.1678],[35.3637,40.3679,960.7095],[35.3437,40.3583,817.094]]]]}}