{"type":"Feature","properties":{"GID_2":"TUR.23.8_1","GID_0":"TUR","country":"Turkey","GID_1":"TUR.23_1","province":"Çankiri","NL_NAME_1":"NA","county":"Kurşunlu","VARNAME_2":"NA","NL_NAME_2":"NA","TYPE_2":"District","ENGTYPE_2":"District","CC_2":"NA","HASC_2":"TR.CI.KU","name":"Kurşunlu.county"},
"geometry":{"type": "MultiPolygon","coordinates": [[[[33.1693,40.7113,1420.8188],[33.1858,40.7146,1510.9292],[33.2006,40.7156,1427.7599],[33.219,40.7151,1250.8309],[33.2326,40.7123,1457.1672],[33.2685,40.6971,1450.8723],[33.2897,40.6811,1714.5591],[33.3068,40.6649,1754.2963],[33.3316,40.7022,1626.3899],[33.3347,40.71,1603.8226],[33.3357,40.7213,1545.1235],[33.3342,40.7324,1430.3584],[33.3239,40.7526,1247.8579],[33.3243,40.7572,1223.2723],[33.3286,40.7625,1214.9623],[33.3395,40.7707,1313.4685],[33.3451,40.7725,1275.9227],[33.3759,40.7755,1400.9623],[33.4007,40.7831,1444.5181],[33.4327,40.786,1431.037],[33.443,40.7888,1352.8069],[33.4549,40.7957,1342.4447],[33.4933,40.8246,1473.3668],[33.5245,40.8392,1395.4841],[33.5146,40.863,937.2158],[33.4911,40.8881,1096.9811],[33.4888,40.8984,1122.04],[33.4919,40.9056,1037.6327],[33.5421,40.9816,1281.2214],[33.5466,40.9945,1509.665],[33.5246,40.9943,1673.2375],[33.5088,40.9923,1755.1919],[33.4967,40.9864,1601.2997],[33.478,40.981,1499.3445],[33.4669,40.9749,1415.0135],[33.4535,40.9704,1400.2734],[33.4489,40.9663,1395.6372],[33.4492,40.9623,1469.1626],[33.4395,40.9491,1502.7855],[33.4305,40.9414,1442.2622],[33.4221,40.9371,1446.2484],[33.3914,40.9264,1442.686],[33.345,40.9234,1548.0044],[33.3198,40.9159,1494.8685],[33.3043,40.9136,1451.3728],[33.259,40.9132,1336.686],[33.2294,40.9155,1450.2754],[33.2322,40.8758,1306.3407],[33.2347,40.8678,1308.1467],[33.2441,40.8516,1217.2288],[33.2454,40.8435,1163.5437],[33.2441,40.8353,1197.88],[33.2374,40.8255,1233.6187],[33.2055,40.7983,1488.9556],[33.1751,40.7518,1642.8081],[33.171,40.7385,1537.4462],[33.1693,40.7113,1420.8188]]]]}}