{"type": "Feature","bbox": [38.7929,39.1979,39.7081,39.4995],"geometry": {"type": "MultiPolygon","coordinates": [[[[38.7929,39.28,2853.9434],[38.8205,39.263,2430.9155],[38.8339,39.2576,2422.8276],[38.8495,39.2559,2078.446],[38.8901,39.2558,2133.6567],[38.9138,39.254,2004.7739],[38.9354,39.2471,1849.7988],[38.9591,39.2423,2018.9156],[38.9789,39.2326,2096.0522],[39.0041,39.2305,2046.8877],[39.0252,39.2234,1926.2859],[39.0364,39.2214,1803.6816],[39.0559,39.2205,1763.7428],[39.0754,39.2216,1539.9692],[39.0859,39.2241,1657.9222],[39.1428,39.2462,1587.1595],[39.1592,39.2557,1529.297],[39.1607,39.2642,1681.3413],[39.1668,39.2729,1834.5457],[39.1773,39.2783,1869.1614],[39.1884,39.278,1810.3574],[39.1961,39.2738,1761.2483],[39.1994,39.2669,1728.0601],[39.1961,39.2603,1734.2427],[39.1741,39.2441,1807.0144],[39.1729,39.2194,1508.9531],[39.1739,39.2083,1852.0789],[39.1763,39.2033,1909.2839],[39.1812,39.1996,1713.9733],[39.1969,39.1981,1811.8387],[39.228,39.2077,1995.7673],[39.2566,39.2095,1658.4575],[39.2892,39.2071,1732.391],[39.318,39.198,1659.0786],[39.3404,39.1979,1558.8431],[39.3468,39.1998,1617.8324],[39.3514,39.2031,1599.9586],[39.3577,39.2151,1620.5044],[39.3613,39.2186,1589.5472],[39.3795,39.2277,1593.377],[39.393,39.2315,1736.0559],[39.4241,39.2347,1951.9529],[39.4419,39.2404,2238.8047],[39.4551,39.2414,1971.3826],[39.465,39.2384,1735.3103],[39.4736,39.2332,1379.5908],[39.4894,39.2205,1310.0923],[39.5057,39.2298,1931.947],[39.5659,39.2529,2548.9856],[39.5847,39.2551,2713.9495],[39.6272,39.2553,2246.0525],[39.6381,39.2575,2010.2523],[39.6485,39.2638,2115.9797],[39.6542,39.2738,1850.2555],[39.6547,39.3126,2435.9131],[39.6566,39.3213,2479.3513],[39.6596,39.3263,2607.0408],[39.6722,39.3346,2570.3635],[39.7053,39.3392,2109.5161],[39.708,39.3417,2282.7227],[39.7081,39.3447,2300.7175],[39.7019,39.3638,2764.6482],[39.6975,39.391,1744.3315],[39.6867,39.413,1985.2266],[39.6856,39.4432,1817.0839],[39.64,39.4407,2599.2593],[39.6283,39.4413,2653.4902],[39.618,39.444,2725.2253],[39.613,39.4482,2927.9563],[39.6109,39.4535,2979.5884],[39.6088,39.4792,2587.1965],[39.6025,39.4859,2427.9233],[39.5852,39.4887,2976.2546],[39.5665,39.4862,2861.6543],[39.5488,39.4797,2351.1169],[39.5368,39.4774,2387.6504],[39.4775,39.477,2237.4722],[39.4653,39.4785,1930.661],[39.4358,39.487,2692.5024],[39.3929,39.4908,2584.3584],[39.3666,39.4895,2416.3406],[39.3563,39.4912,2427.4912],[39.3349,39.4983,2314.7434],[39.3075,39.4995,2731.5061],[39.2961,39.4977,2672.3594],[39.2746,39.4906,2899.3984],[39.24,39.4864,2431.0942],[39.2146,39.4787,2808.002],[39.1536,39.4758,2955.9062],[39.1252,39.4674,3236.1201],[39.0977,39.4617,3046.2241],[39.081,39.4512,3065.9863],[39.0469,39.4255,2631.4727],[39.0141,39.4103,2809.2659],[38.9661,39.3757,2917.4197],[38.8757,39.3409,2765.6121],[38.8487,39.3358,2738.103],[38.8339,39.3294,2948.9124],[38.8199,39.3179,2586.1765],[38.7929,39.28,2853.9434]]]]}
,"properties": {"GID_2": "TUR.76.6_1","GID_0": "TUR","country": "Turkey","GID_1": "TUR.76_1","province": "Tunceli","NL_NAME_1": "NA","county": "Ovacık","VARNAME_2": "NA","NL_NAME_2": "NA","TYPE_2": "District","ENGTYPE_2": "District","CC_2": "NA","HASC_2": "TR.TC.OV","name": "Ovacık.county","area_km2": 1756.384,"hist_schema_id": "Elevation0-9000","hist_area_km2": {"1000": 0.049,"1025": 0.443,"1050": 0.64,"1075": 0.985,"1100": 1.248,"1125": 1.461,"1150": 2.642,"1175": 2.921,"1200": 5.971,"1225": 10.398,"1250": 19.579,"1275": 36.598,"1300": 38.861,"1325": 35.499,"1350": 33.831,"1375": 26.239,"1400": 25.32,"1425": 24.057,"1450": 24.993,"1475": 24.271,"1500": 25.306,"1525": 25.848,"1550": 27.243,"1575": 27.95,"1600": 29.296,"1625": 29.741,"1650": 32.219,"1675": 33.925,"1700": 33.22,"1725": 34.926,"1750": 35.928,"1775": 36.682,"1800": 38.305,"1825": 36.714,"1850": 36.55,"1875": 36.221,"1900": 36.073,"1925": 34.151,"1950": 31.443,"1975": 29.523,"2000": 29.128,"2025": 26.074,"2050": 23.992,"2075": 24.04,"2100": 21.744,"2125": 21.431,"2150": 20.085,"2175": 19.479,"2200": 17.74,"2225": 17.855,"2250": 18.033,"2275": 16.442,"2300": 16.179,"2325": 16.818,"2350": 16.424,"2375": 16.752,"2400": 16.536,"2425": 16.47,"2450": 16.354,"2475": 17.682,"2500": 17.91,"2525": 16.647,"2550": 16.581,"2575": 17.53,"2600": 19.283,"2625": 20.185,"2650": 20.315,"2675": 20.627,"2700": 21.773,"2725": 21.051,"2750": 20.266,"2775": 20.708,"2800": 20.053,"2825": 19.317,"2850": 18.595,"2875": 17.513,"2900": 14.351,"2925": 13.63,"2950": 11.631,"2975": 10.189,"3000": 9.14,"3025": 8.026,"3050": 6.387,"3075": 5.159,"3100": 4.422,"3125": 3.21,"3150": 1.998,"3175": 1.539,"3200": 0.721,"3225": 0.606,"3250": 0.18,"3275": 0.164,"3300": 0.082,"3325": 0.049,"3350": 0.016}}}