{"type":"Feature","properties":{"GID_2":"TUR.50.4_1","GID_0":"TUR","country":"Turkey","GID_1":"TUR.50_1","province":"Kirklareli","NL_NAME_1":"NA","county":"Lüleburgaz","VARNAME_2":"NA","NL_NAME_2":"NA","TYPE_2":"District","ENGTYPE_2":"District","CC_2":"NA","HASC_2":"TR.KL.LU","name":"Lüleburgaz.county"},
"geometry":{"type": "MultiPolygon","coordinates": [[[[27.2252,41.3483,52.5108],[27.255,41.3481,51.098],[27.2691,41.346,38.374],[27.2868,41.3396,43.7163],[27.314,41.3343,47.2753],[27.3774,41.3101,96.3367],[27.3889,41.3028,92.3805],[27.3987,41.2941,102.4715],[27.4103,41.2771,108.3345],[27.4361,41.2501,120.8559],[27.4727,41.2265,111.7102],[27.4814,41.2224,111.8564],[27.4919,41.2202,62.0943],[27.5209,41.2211,84.9756],[27.5467,41.2318,74.8801],[27.5536,41.2366,99.8045],[27.579,41.2632,115.0657],[27.59,41.2796,103.0555],[27.608,41.2987,124.5265],[27.6279,41.3258,82.3938],[27.6575,41.3725,110.2341],[27.6643,41.3936,114.9951],[27.6736,41.4099,124.5565],[27.6821,41.4412,132.8768],[27.6603,41.4416,128.2737],[27.647,41.4435,146.7327],[27.6119,41.4577,152.3674],[27.6057,41.4637,137.5796],[27.6028,41.4688,138.3613],[27.5977,41.4985,163.2604],[27.5836,41.5219,178.472],[27.5725,41.5312,207.6507],[27.5429,41.5429,198.9334],[27.5159,41.5483,179.3924],[27.4872,41.5568,178.6612],[27.3735,41.5585,129.3853],[27.3621,41.5605,171.1904],[27.3443,41.5668,165.8356],[27.3308,41.5696,139.8536],[27.3158,41.5696,160.6078],[27.3038,41.557,143.2158],[27.2808,41.5216,127.5389],[27.2585,41.4988,83.0088],[27.2285,41.4523,114.9573],[27.226,41.4437,67.0353],[27.2251,41.4316,56.3777],[27.2252,41.3483,52.5108]]]]}}