{"type":"Feature","properties":{"GID_2":"TUR.23.12_1","GID_0":"TUR","country":"Turkey","GID_1":"TUR.23_1","province":"Çankiri","NL_NAME_1":"NA","county":"Yapraklı","VARNAME_2":"NA","NL_NAME_2":"NA","TYPE_2":"District","ENGTYPE_2":"District","CC_2":"NA","HASC_2":"TR.CI.YA","name":"Yapraklı.county"},
"geometry":{"type": "MultiPolygon","coordinates": [[[[33.7931,40.8203,1574.1613],[33.8106,40.8003,1482.3406],[33.8152,40.7902,1511.8844],[33.8144,40.7766,1235.7755],[33.8038,40.7579,1155.2571],[33.8007,40.7382,1073.3757],[33.8013,40.7124,986.6568],[33.8041,40.7044,945.4934],[33.8098,40.698,934.2471],[33.8175,40.6933,1040.8077],[33.8746,40.6719,1144.1616],[33.8846,40.6697,1166.5979],[33.9163,40.6671,1242.4551],[33.9279,40.6618,1229.7512],[33.9337,40.6555,1233.6127],[33.9363,40.6474,1319.6055],[33.9364,40.6132,906.8309],[33.9395,40.5994,868.0044],[33.9609,40.5764,979.5061],[33.9747,40.5572,751.456],[33.9891,40.5444,801.8644],[34.0022,40.5357,820.7181],[34.0113,40.5332,685.9628],[34.0199,40.5346,669.7328],[34.0433,40.5435,711.6885],[34.0695,40.5592,670.2873],[34.0863,40.5634,644.2162],[34.0828,40.5739,699.6435],[34.0738,40.5906,788.904],[34.0688,40.6176,761.7227],[34.0589,40.6372,848.0355],[34.0538,40.6641,894.696],[34.0449,40.6808,1084.4622],[34.0424,40.6899,1094.1238],[34.0411,40.7157,1191.8625],[34.0421,40.7481,1230.2772],[34.0452,40.7602,1366.6407],[34.0554,40.7797,1370.6401],[34.0572,40.8008,1684.3977],[34.0538,40.8186,1806.2385],[34.0359,40.851,1542.2826],[34.0015,40.8563,1537.5898],[33.9803,40.8633,1776.0905],[33.9532,40.8688,1650.9948],[33.9257,40.8829,1277.7738],[33.8991,40.86,1384.9895],[33.8785,40.8461,1735.4968],[33.8454,40.8337,1650.9926],[33.8177,40.829,1520.1343],[33.7931,40.8203,1574.1613]]]]}}