{"type":"Feature","properties":{"GID_2":"TUR.66.5_1","GID_0":"TUR","country":"Turkey","GID_1":"TUR.66_1","province":"Sakarya","NL_NAME_1":"NA","county":"Karapürçek","VARNAME_2":"NA","NL_NAME_2":"NA","TYPE_2":"District","ENGTYPE_2":"District","CC_2":"NA","HASC_2":"TR.SK.KP","name":"Karapürçek.county"},
"geometry":{"type": "MultiPolygon","coordinates": [[[[30.5746,40.7103,36.8133],[30.5438,40.7035,46.64],[30.5105,40.6908,34.1927],[30.4885,40.6758,136.334],[30.4674,40.6565,144.1128],[30.4903,40.6414,273.0659],[30.5949,40.5603,1146.7732],[30.6098,40.5523,980.4795],[30.6362,40.5424,973.0126],[30.6499,40.5859,551.8115],[30.6544,40.5926,350.8723],[30.6684,40.6059,284.937],[30.6709,40.6101,274.496],[30.671,40.6148,199.4345],[30.6624,40.6251,137.6801],[30.5959,40.6765,49.6947],[30.5902,40.6833,45.4002],[30.5746,40.7103,36.8133]]]]}}