{"type": "Feature","bbox": [40.1988,40.8266,40.3943,40.9952],"geometry": {"type": "MultiPolygon","coordinates": [[[[40.3349,40.9952,3.5837],[40.3299,40.9912,0.6625],[40.3293,40.9885,0.524],[40.3237,40.9829,3.2308],[40.319,40.9787,6.9688],[40.3171,40.9787,0.0],[40.3093,40.9707,2.0787],[40.3046,40.9704,0.4479],[40.3049,40.969,0.4479],[40.2935,40.9632,0.0],[40.2821,40.9543,1.1866],[40.2793,40.9557,0.0],[40.2807,40.9535,2.8992],[40.2768,40.9532,1.47],[40.2776,40.9554,0.0],[40.2804,40.9568,0.0],[40.2796,40.9585,0.0],[40.2762,40.9554,0.0],[40.276,40.9529,1.47],[40.2671,40.9496,2.0235],[40.2646,40.9479,0.0],[40.264,40.9454,7.0902],[40.2599,40.9449,2.5306],[40.2532,40.9385,10.5276],[40.2504,40.939,0.0],[40.2501,40.9376,0.0],[40.2429,40.9354,4.9154],[40.2399,40.9326,0.0],[40.236,40.9326,0.0],[40.2307,40.9285,4.2718],[40.2285,40.929,0.0],[40.2274,40.9276,0.0],[40.2128,40.9246,7.7846],[40.214,40.9127,183.0955],[40.2135,40.8866,412.3791],[40.2105,40.8742,481.3893],[40.2015,40.8573,668.0319],[40.1988,40.8382,1012.5258],[40.1988,40.8266,1120.6047],[40.2123,40.8294,699.9615],[40.2301,40.8356,380.0099],[40.2459,40.8379,261.8051],[40.3167,40.838,476.0475],[40.3456,40.8348,822.5754],[40.3485,40.853,418.1686],[40.3493,40.8956,237.2745],[40.3521,40.9071,145.854],[40.3687,40.9329,219.3887],[40.3943,40.9545,201.524],[40.3897,40.9673,83.203],[40.3792,40.9773,124.3143],[40.3662,40.9852,212.5957],[40.3349,40.9952,3.5837]]]]}
,"properties": {"GID_2": "TUR.75.13_1","GID_0": "TUR","country": "Turkey","GID_1": "TUR.75_1","province": "Trabzon","NL_NAME_1": "NA","county": "Of","VARNAME_2": "NA","NL_NAME_2": "NA","TYPE_2": "District","ENGTYPE_2": "District","CC_2": "NA","HASC_2": "TR.TB.OF","name": "Of.county","area_km2": 177.939,"hist_schema_id": "Elevation0-9000","hist_area_km2": {"0": 5.2196,"25": 6.7254,"50": 6.1338,"75": 7.6396,"100": 9.274,"125": 9.755,"150": 10.4281,"175": 9.5314,"200": 9.965,"225": 8.5555,"250": 8.3805,"275": 7.3877,"300": 7.4685,"325": 7.0846,"350": 6.6201,"375": 6.4281,"400": 6.1722,"425": 5.2909,"450": 4.81,"475": 3.9282,"500": 3.9764,"525": 3.752,"550": 3.1107,"575": 2.8542,"600": 2.8702,"625": 2.5496,"650": 2.0204,"675": 2.1328,"700": 1.4272,"725": 1.1547,"750": 0.9462,"775": 0.7377,"800": 0.834,"825": 0.6896,"850": 0.3849,"875": 0.3048,"900": 0.3368,"925": 0.1765,"950": 0.2246,"975": 0.2085,"1000": 0.1925,"1025": 0.1123,"1050": 0.1123,"1075": 0.0321}}}