{"type":"Feature","properties":{"GID_2":"TUR.41.4_1","GID_0":"TUR","country":"Turkey","GID_1":"TUR.41_1","province":"Izmir","NL_NAME_1":"NA","county":"Bergama","VARNAME_2":"NA","NL_NAME_2":"NA","TYPE_2":"District","ENGTYPE_2":"District","CC_2":"NA","HASC_2":"TR.IZ.BE","name":"Bergama.county"},
"geometry":{"type": "MultiPolygon","coordinates": [[[[26.8902,39.2299,232.0272],[26.9035,39.2219,380.7563],[26.9219,39.2143,558.3361],[26.9484,39.1989,615.6746],[26.979,39.1925,571.219],[27.0091,39.1819,456.2149],[27.0188,39.1753,368.2884],[27.0219,39.1708,402.4545],[27.0229,39.1628,261.2673],[27.0211,39.1579,247.2243],[26.9983,39.1241,219.0821],[26.995,39.1099,222.0186],[26.9954,39.0558,14.7459],[26.9984,39.0446,5.7194],[27.0087,39.0256,5.7801],[27.01,39.0116,4.0523],[27.0082,39.0005,4.0232],[26.9903,38.9721,18.0141],[26.9579,38.943,0.1166],[26.9576,38.9404,-0.0126],[26.9585,38.9404,-0.0126],[26.9599,38.9435,0.0309],[26.9682,38.9435,-0.1237],[26.964,38.9404,0.0],[26.9579,38.9393,-0.0126],[26.9571,38.9376,0.0],[26.964,38.9338,-0.1116],[26.9688,38.9285,0.0],[26.9701,38.929,0.0],[26.9696,38.9268,0.0],[26.9749,38.9268,0.0522],[26.9837,38.9215,0.0],[26.9846,38.9193,-0.0172],[27.0082,38.9129,0.0285],[27.0185,38.9137,0.0],[27.0171,38.9182,0.0],[27.0063,38.9162,0.0463],[27.0063,38.919,0.0],[27.0124,38.9179,0.0],[27.0104,38.9207,0.0196],[27.0132,38.9201,0.0],[27.0132,38.9224,-0.0603],[27.0157,38.9232,0.0178],[27.0157,38.9243,0.0],[27.0107,38.9238,-0.2025],[27.011,38.9249,-0.018],[27.0163,38.9257,-0.1887],[27.0193,38.929,-0.0131],[27.0274,38.9307,0.0485],[27.0324,38.9374,0.0],[27.0354,38.9379,0.0],[27.0379,38.9407,-0.384],[27.041,38.9393,-0.1406],[27.0438,38.941,-0.3015],[27.0454,38.9379,-0.0241],[27.0501,38.936,0.7993],[27.054,38.931,0.3893],[27.0529,38.9279,0.2379],[27.0485,38.929,-0.0112],[27.0537,38.9249,0.4724],[27.0571,38.9132,10.4591],[27.0549,38.911,12.4636],[27.0435,38.909,0.0],[27.0446,38.9046,13.7583],[27.0421,38.901,0.6688],[27.0426,38.8993,1.1849],[27.0413,38.8971,0.0],[27.0374,38.8965,2.966],[27.0368,38.8951,1.431],[27.0376,38.8929,0.0],[27.0399,38.8935,1.2961],[27.0435,38.8907,0.0],[27.0482,38.8937,0.0],[27.0487,38.8965,1.2194],[27.0518,38.8968,-0.5],[27.0501,38.8946,0.438],[27.051,38.8935,0.0],[27.0743,38.9079,71.7641],[27.0827,38.9121,67.2116],[27.0927,38.9146,125.7723],[27.1033,38.915,209.3209],[27.1167,38.9124,329.1202],[27.1682,38.8917,489.5523],[27.1995,38.894,438.7162],[27.2289,38.9023,364.7088],[27.2898,38.9055,621.2969],[27.3115,38.9124,572.3337],[27.3348,38.9169,588.7246],[27.3475,38.921,621.3479],[27.3225,38.961,370.1983],[27.3138,38.9702,535.0004],[27.3001,38.9799,386.5414],[27.2783,38.9889,452.1234],[27.2664,38.9959,361.6355],[27.2362,39.0186,220.7179],[27.2248,39.0301,169.4795],[27.221,39.0383,150.5638],[27.2195,39.0501,201.229],[27.2196,39.0833,108.6085],[27.2221,39.0978,29.7813],[27.2289,39.1068,30.8759],[27.2456,39.1169,31.2429],[27.2613,39.1315,33.2501],[27.2966,39.1458,38.8803],[27.3206,39.1501,39.0744],[27.3417,39.1572,42.2402],[27.3526,39.1591,42.7374],[27.4373,39.1606,59.4858],[27.471,39.1719,62.9784],[27.4738,39.1803,67.0463],[27.4757,39.1958,117.2398],[27.4744,39.211,148.0526],[27.4644,39.2306,212.2149],[27.4619,39.2394,328.7009],[27.4607,39.2833,281.0128],[27.4588,39.2955,355.1674],[27.4497,39.3122,392.36],[27.4415,39.3356,309.5365],[27.4268,39.359,533.3038],[27.4077,39.3815,485.5816],[27.3909,39.3831,536.3088],[27.3623,39.3911,673.3336],[27.316,39.3944,724.4962],[27.2609,39.4142,714.406],[27.1999,39.4166,772.7332],[27.1768,39.4215,1031.8707],[27.167,39.4102,647.8621],[27.1579,39.4024,824.5402],[27.1475,39.396,779.6042],[27.1292,39.3893,705.4305],[27.1186,39.383,790.1417],[26.9575,39.2594,423.1364],[26.9064,39.2394,196.7056],[26.8902,39.2299,232.0272]]]]}}