{"type":"Feature","properties":{"GID_2":"TUR.67.5_1","GID_0":"TUR","country":"Turkey","GID_1":"TUR.67_1","province":"Samsun","NL_NAME_1":"NA","county":"Çarşamba","VARNAME_2":"NA","NL_NAME_2":"NA","TYPE_2":"District","ENGTYPE_2":"District","CC_2":"NA","HASC_2":"TR.SS.CA","name":"Çarşamba.county"},
"geometry":{"type": "MultiPolygon","coordinates": [[[[36.666,41.0236,443.4223],[36.6678,41.0233,443.4223],[36.6874,41.046,344.8611],[36.6967,41.0534,209.23],[36.7133,41.0718,400.3855],[36.7902,41.1315,46.9209],[36.8167,41.1477,60.6494],[36.8197,41.1586,42.3837],[36.821,41.1736,23.6613],[36.821,41.1979,17.6358],[36.819,41.2097,16.2846],[36.8008,41.2375,13.2954],[36.7806,41.2512,13.7727],[36.7779,41.2555,12.8393],[36.7768,41.263,10.5496],[36.7806,41.2733,10.2776],[36.8019,41.296,7.1194],[36.8096,41.3286,4.8533],[36.8243,41.3493,0.4911],[36.7554,41.3613,0.8691],[36.7485,41.3607,1.9095],[36.7379,41.3638,0.0],[36.699,41.364,1.7149],[36.6754,41.3732,0.2883],[36.6618,41.3812,0.2832],[36.6607,41.3812,0.0],[36.6626,41.3768,0.0],[36.6615,41.3649,0.5],[36.6579,41.3649,1.1482],[36.6579,41.3743,0.284],[36.654,41.3821,0.0],[36.6504,41.3835,0.0],[36.6396,41.3796,0.0],[36.6204,41.3671,0.0],[36.6174,41.3618,0.0],[36.6188,41.359,0.2706],[36.6149,41.3599,0.0],[36.6149,41.3587,0.7554],[36.6174,41.3554,0.0726],[36.6207,41.354,0.4799],[36.6168,41.3543,0.0726],[36.6143,41.3493,0.6701],[36.6138,41.3518,0.6195],[36.6118,41.3512,1.5035],[36.6079,41.3451,0.5717],[36.6074,41.3351,7.4479],[36.5946,41.3257,1.4804],[36.5876,41.3163,1.0168],[36.5815,41.3129,0.4091],[36.5757,41.3035,2.6859],[36.574,41.2965,2.0095],[36.5671,41.2876,1.4256],[36.5326,41.2679,4.6136],[36.524,41.2651,1.6079],[36.5146,41.2593,1.6397],[36.495,41.2532,0.0],[36.5117,41.233,2.8928],[36.5395,41.21,7.5879],[36.5479,41.201,11.7842],[36.5635,41.1749,59.0023],[36.5674,41.15,41.8955],[36.5737,41.1342,57.9559],[36.5736,41.1298,60.9165],[36.5678,41.1166,119.5656],[36.5634,41.1007,366.584],[36.5538,41.0844,189.5554],[36.547,41.0632,320.4684],[36.5267,41.0389,540.3705],[36.5825,41.0381,712.0477],[36.5938,41.0361,698.3655],[36.6153,41.0292,567.3552],[36.666,41.0236,443.4223]]],
[[[36.659,41.3804,1.1301],[36.6557,41.3787,1.0813],[36.6587,41.3746,0.284],[36.6607,41.3746,0.5361],[36.6613,41.3771,0.5577],[36.659,41.3804,1.1301]]]]}}