{"type":"Feature","properties":{"GID_2":"TUR.1.8_1","GID_0":"TUR","country":"Turkey","GID_1":"TUR.1_1","province":"Adana","NL_NAME_1":"NA","county":"Pozantı","VARNAME_2":"NA","NL_NAME_2":"NA","TYPE_2":"District","ENGTYPE_2":"District","CC_2":"NA","HASC_2":"TR.AA.PO","name":"Pozantı.county"},
"geometry":{"type": "MultiPolygon","coordinates": [[[[35.1981,37.8141,3112.9802],[35.1811,37.8065,3113.9849],[35.1521,37.7849,3183.8848],[35.1379,37.7722,2517.6353],[35.1226,37.7511,2873.4551],[35.0897,37.7244,3071.2659],[35.0731,37.7136,2881.3752],[35.043,37.7019,1941.1045],[35.0258,37.6989,1275.9683],[34.9509,37.6988,1621.0126],[34.9124,37.7097,1584.2358],[34.889,37.7112,1584.5432],[34.8695,37.71,1712.3977],[34.8585,37.7071,1881.1497],[34.846,37.7,2144.7642],[34.8267,37.6849,1958.7048],[34.8184,37.6749,1786.5328],[34.816,37.6639,1797.2937],[34.8183,37.653,2119.5757],[34.8423,37.6164,1769.4988],[34.8493,37.5953,1962.1665],[34.8585,37.5788,1756.3687],[34.8609,37.5612,1771.9711],[34.8608,37.525,1255.5957],[34.8573,37.5139,1259.3372],[34.8516,37.5076,1230.9165],[34.8439,37.5029,1147.7905],[34.8254,37.4955,940.1803],[34.8133,37.488,998.7125],[34.7966,37.4752,1262.2988],[34.7883,37.4652,1735.1826],[34.7849,37.4507,1809.7126],[34.7833,37.396,2016.5337],[34.7863,37.3793,1875.8494],[34.7894,37.3716,1982.4108],[34.8422,37.2906,1761.0007],[34.8584,37.2617,1398.7499],[34.8884,37.2761,1340.6326],[34.9188,37.2821,1181.572],[34.9462,37.2944,610.8768],[34.961,37.3131,1228.105],[34.9719,37.3298,1199.864],[35.0037,37.3574,929.3917],[35.0224,37.3854,1210.176],[35.0283,37.404,1735.8091],[35.036,37.4176,1637.1908],[35.0377,37.4252,1909.4907],[35.0345,37.435,1881.4539],[35.0118,37.4692,1407.7432],[35.0103,37.4774,1208.4503],[35.0127,37.4883,1342.7373],[35.0211,37.4964,1806.6434],[35.0373,37.5011,1459.0923],[35.0923,37.4999,1483.8187],[35.1114,37.5227,1099.0828],[35.1356,37.5605,1300.4701],[35.1539,37.5785,1298.3792],[35.1658,37.5953,1556.7584],[35.1881,37.6181,1503.0298],[35.2036,37.6412,1464.0055],[35.218,37.6647,2039.7957],[35.2249,37.6858,1591.5646],[35.2344,37.7021,1739.996],[35.2363,37.7189,2244.5737],[35.2333,37.7326,2193.6831],[35.2232,37.7516,2852.252],[35.2193,37.7881,2945.7195],[35.2135,37.7976,3399.9797],[35.1981,37.8141,3112.9802]]]]}}