{"type": "Feature","bbox": [36.7771,41.0153,37.1525,41.3493],"geometry": {"type": "MultiPolygon","coordinates": [[[[37.1525,41.1147,35.35],[37.1507,41.1479,1.3559],[37.1349,41.1493,3.4704],[37.0776,41.1649,1.6422],[37.0501,41.1754,1.8104],[37.0482,41.1779,2.3804],[37.0318,41.1874,10.8862],[37.0321,41.189,1.7774],[37.0271,41.1937,2.2506],[37.0251,41.199,2.3021],[37.0271,41.2004,0.3976],[37.029,41.1987,0.0],[37.0335,41.199,0.0],[37.0271,41.2007,0.3395],[37.0254,41.2101,0.7],[37.0171,41.2137,1.9771],[37.0176,41.2143,0.3104],[37.024,41.2126,0.2474],[37.0249,41.2132,0.2474],[37.0238,41.221,0.7604],[37.0254,41.2315,0.0],[37.0243,41.2354,0.0],[37.0251,41.2537,0.0],[37.0215,41.2618,2.2329],[37.0082,41.2771,0.0],[36.9996,41.2804,3.1351],[36.9951,41.2843,1.0855],[36.9357,41.3079,0.0],[36.8899,41.3299,1.4672],[36.881,41.3326,1.4853],[36.8757,41.3368,1.4473],[36.8243,41.3493,0.4911],[36.8096,41.3286,4.8533],[36.8019,41.296,7.1194],[36.7806,41.2733,10.2776],[36.7779,41.2682,10.6098],[36.7771,41.2579,11.0861],[36.7806,41.2512,13.7727],[36.8008,41.2375,13.2954],[36.819,41.2097,16.2846],[36.821,41.1979,17.6358],[36.821,41.1736,23.6613],[36.8197,41.1586,42.3837],[36.8167,41.1477,60.6494],[36.8463,41.1214,42.2648],[36.8718,41.082,185.2804],[36.8819,41.0755,374.6356],[36.9245,41.0599,250.956],[36.9356,41.0539,419.4675],[36.9495,41.0422,656.7162],[36.9603,41.0257,437.3282],[36.9705,41.0153,511.91],[36.9808,41.0257,690.1245],[36.9918,41.0421,616.9924],[37.011,41.0571,511.604],[37.1198,41.0987,165.0641],[37.1525,41.1147,35.35]]]]}
,"properties": {"GID_2": "TUR.67.13_1","GID_0": "TUR","country": "Turkey","GID_1": "TUR.67_1","province": "Samsun","NL_NAME_1": "NA","county": "Terme","VARNAME_2": "NA","NL_NAME_2": "NA","TYPE_2": "District","ENGTYPE_2": "District","CC_2": "NA","HASC_2": "TR.SS.TM","name": "Terme.county","area_km2": 583.9747,"hist_schema_id": "Elevation0-9000","hist_area_km2": {"0": 289.4577,"25": 104.3403,"50": 28.0899,"75": 13.991,"100": 11.6604,"125": 9.1851,"150": 9.5849,"175": 8.3391,"200": 8.4195,"225": 8.276,"250": 7.877,"275": 8.1967,"300": 7.6539,"325": 7.5423,"350": 7.3508,"375": 6.5841,"400": 6.4884,"425": 7.2078,"450": 6.7607,"475": 6.6331,"500": 4.9074,"525": 3.5649,"550": 3.1014,"575": 2.3022,"600": 1.4549,"625": 1.1673,"650": 1.0714,"675": 0.8635,"700": 0.9115,"725": 0.7516,"750": 0.1599,"775": 0.08}}}