{"type": "Feature","bbox": [28.9343,39.3554,29.7977,39.7993],"geometry": {"type": "MultiPolygon","coordinates": [[[[28.9406,39.5198,638.8903],[28.9531,39.5142,713.2083],[28.9764,39.5,775.5078],[28.9968,39.4908,974.2998],[29.0034,39.4853,993.1623],[29.0109,39.4739,972.5001],[29.0192,39.4662,925.2562],[29.0577,39.451,1008.2456],[29.0831,39.4495,1102.6874],[29.09,39.4592,922.9372],[29.1028,39.4664,873.2471],[29.1352,39.4893,625.4496],[29.1445,39.4937,612.6401],[29.1623,39.4965,492.8867],[29.1917,39.4957,617.9074],[29.2053,39.4921,614.6432],[29.2285,39.4783,671.3663],[29.2382,39.4746,619.6442],[29.2736,39.4706,817.2906],[29.2983,39.4631,681.105],[29.3301,39.4602,911.0502],[29.3397,39.4573,908.2781],[29.3511,39.4482,1117.5985],[29.3728,39.4129,1211.3524],[29.3866,39.3997,1196.5011],[29.4113,39.3826,1221.5244],[29.4447,39.3701,1214.7854],[29.4836,39.3656,1318.3903],[29.5119,39.357,1373.4734],[29.539,39.3554,1251.2788],[29.5736,39.3577,1061.3224],[29.5835,39.3615,1032.1296],[29.6064,39.3755,924.5598],[29.6201,39.3787,924.9747],[29.6378,39.3772,1015.363],[29.662,39.3671,1273.936],[29.6731,39.3724,1376.2635],[29.7093,39.3953,1425.7397],[29.7289,39.4028,1358.1893],[29.7378,39.4102,1358.5642],[29.7407,39.4147,1372.1361],[29.7416,39.4227,1276.0901],[29.7317,39.4411,1243.4977],[29.7259,39.4596,1159.6562],[29.6867,39.5197,1042.4302],[29.6837,39.5335,1133.464],[29.6847,39.5476,1064.9137],[29.6879,39.5554,1096.7563],[29.7035,39.5786,1061.1582],[29.7399,39.6106,1138.0339],[29.7572,39.636,1143.2318],[29.7659,39.6521,1229.5073],[29.7675,39.6607,1256.8835],[29.7612,39.6736,1120.4192],[29.7599,39.6816,1199.1438],[29.761,39.6898,1316.3649],[29.7635,39.6949,1288.3947],[29.7766,39.7068,1367.4768],[29.7977,39.7184,1388.9244],[29.7431,39.7375,1261.0671],[29.7229,39.741,1149.5873],[29.6713,39.7201,893.793],[29.6569,39.7173,904.8732],[29.5324,39.7164,809.7419],[29.513,39.7175,691.5117],[29.5029,39.7206,662.6004],[29.4955,39.7256,656.3643],[29.4775,39.7488,711.2725],[29.4616,39.7622,864.9399],[29.4496,39.7698,947.2839],[29.4359,39.7742,1004.7109],[29.4006,39.7779,830.0417],[29.3672,39.7898,864.0459],[29.3458,39.7993,630.2443],[29.3347,39.7739,922.1114],[29.3136,39.7532,915.4833],[29.3029,39.7373,986.8986],[29.2833,39.7184,1159.1427],[29.2671,39.6928,1126.861],[29.2612,39.6629,851.0612],[29.2521,39.6463,841.5345],[29.2497,39.6375,901.925],[29.2489,39.5936,1004.4842],[29.2472,39.5812,1044.6829],[29.2434,39.5735,1015.5038],[29.2294,39.5577,915.0698],[29.2164,39.5542,869.8525],[29.1787,39.552,671.0603],[29.1571,39.5451,638.6441],[29.1455,39.5431,641.5039],[29.1167,39.5422,643.3699],[29.0923,39.5436,658.96],[29.0631,39.5521,512.0513],[29.0321,39.5553,528.057],[29.0214,39.5577,536.9915],[28.9919,39.5696,419.3252],[28.9736,39.5852,550.7906],[28.9633,39.5893,591.7124],[28.9509,39.5768,533.7694],[28.9349,39.5509,482.0393],[28.9343,39.5342,478.7573],[28.9406,39.5198,638.8903]]]]}
,"properties": {"GID_2": "TUR.54.13_1","GID_0": "TUR","country": "Turkey","GID_1": "TUR.54_1","province": "Kütahya","NL_NAME_1": "NA","county": "Tavşanlı","VARNAME_2": "NA","NL_NAME_2": "NA","TYPE_2": "District","ENGTYPE_2": "District","CC_2": "NA","HASC_2": "TR.KU.TA","name": "Tavşanlı.county","area_km2": 1799.885,"hist_schema_id": "Elevation0-9000","hist_area_km2": {"400": 1.52,"425": 5.559,"450": 8.307,"475": 9.876,"500": 10.694,"525": 12.984,"550": 13.525,"575": 15.503,"600": 21.582,"625": 26.366,"650": 28.776,"675": 27.173,"700": 27.853,"725": 27.654,"750": 24.958,"775": 25.692,"800": 32.272,"825": 92.316,"850": 71.218,"875": 76.225,"900": 78.135,"925": 80.544,"950": 83.261,"975": 81.544,"1000": 87.472,"1025": 86.4,"1050": 91.389,"1075": 95.097,"1100": 89.638,"1125": 78.755,"1150": 70.859,"1175": 61.503,"1200": 49.093,"1225": 41.636,"1250": 35.21,"1275": 32.583,"1300": 25.719,"1325": 20.677,"1350": 15.47,"1375": 9.824,"1400": 7.236,"1425": 4.796,"1450": 3.358,"1475": 2.949,"1500": 2.179,"1525": 1.753,"1550": 1.409,"1575": 0.868,"1600": 0.475}}}