{"type":"Feature","properties":{"GID_2":"TUR.40.31_1","GID_0":"TUR","country":"Turkey","GID_1":"TUR.40_1","province":"Istanbul","NL_NAME_1":"NA","county":"Şile","VARNAME_2":"NA","NL_NAME_2":"NA","TYPE_2":"District","ENGTYPE_2":"District","CC_2":"NA","HASC_2":"TR.IB.SL","name":"Şile.county"},
"geometry":{"type": "MultiPolygon","coordinates": [[[[29.3653,41.1284,183.3288],[29.3822,41.1154,172.7988],[29.3858,41.108,182.8761],[29.3864,41.0998,145.4487],[29.3832,41.0892,164.4592],[29.3569,41.048,63.8221],[29.4118,41.0283,58.5],[29.4257,41.0049,140.5215],[29.4649,41.035,214.3119],[29.4776,41.04,202.3745],[29.504,41.0343,126.7312],[29.5621,41.0305,259.8942],[29.5721,41.0267,271.9315],[29.5986,41.0118,313.8865],[29.6059,41.01,264.9393],[29.637,41.0087,235.3679],[29.6523,41.0105,188.6814],[29.6928,41.0256,172.5894],[29.7153,41.0404,127.1906],[29.7487,41.0532,198.5669],[29.7726,41.0575,41.3866],[29.8006,41.066,104.3836],[29.8489,41.0692,27.0133],[29.8758,41.0801,59.4719],[29.8801,41.0841,25.1375],[29.883,41.0922,71.0293],[29.8828,41.104,23.2821],[29.8802,41.1128,31.9809],[29.8621,41.1437,13.4193],[29.8518,41.1421,0.0],[29.8538,41.1396,0.6624],[29.8518,41.1379,3.7344],[29.8463,41.1379,1.4436],[29.8196,41.1432,54.8049],[29.8157,41.1465,0.0],[29.8093,41.1476,24.9082],[29.8082,41.1501,0.0],[29.7965,41.1538,0.0],[29.7929,41.154,0.0],[29.7899,41.1524,5.1283],[29.7899,41.1554,0.0],[29.7804,41.1585,7.4749],[29.7779,41.1579,0.0],[29.7771,41.1557,2.618],[29.7751,41.1565,21.9342],[29.7763,41.159,0.0],[29.7682,41.1604,30.7719],[29.7599,41.1593,1.4036],[29.7568,41.1568,7.0955],[29.7543,41.1571,0.0],[29.7537,41.1613,9.1751],[29.7512,41.1618,0.0],[29.7504,41.1585,23.0642],[29.7488,41.1585,40.6651],[29.7479,41.1607,0.0],[29.7415,41.1601,0.0],[29.7315,41.1546,6.281],[29.7237,41.1582,0.0],[29.7176,41.1576,2.2031],[29.7107,41.1596,7.1199],[29.7074,41.1582,0.8511],[29.7057,41.159,1.8072],[29.7057,41.161,0.0],[29.7029,41.161,6.3093],[29.7029,41.1637,0.0],[29.6999,41.1643,0.0],[29.6887,41.1629,4.9309],[29.6865,41.1643,0.0],[29.6746,41.1615,20.8164],[29.6685,41.1671,0.0],[29.6615,41.1654,18.2148],[29.6357,41.1707,2.1437],[29.636,41.1718,2.1437],[29.6332,41.1724,0.0],[29.6335,41.1746,0.0],[29.629,41.1757,0.0],[29.6268,41.1746,2.6966],[29.6243,41.1801,2.5326],[29.6185,41.1782,14.841],[29.6096,41.1824,0.0],[29.5999,41.1787,0.0],[29.601,41.1782,0.0],[29.6038,41.1796,0.0],[29.6057,41.1785,0.0],[29.606,41.1804,0.0],[29.6082,41.1793,1.3152],[29.6082,41.1776,1.49],[29.6057,41.1763,0.6024],[29.6021,41.1771,0.0],[29.6029,41.1754,0.0],[29.601,41.174,0.0],[29.604,41.1749,2.9443],[29.6021,41.1721,2.3902],[29.5882,41.1699,2.6407],[29.5449,41.1771,0.0],[29.5179,41.184,0.0],[29.5054,41.1843,6.455],[29.4876,41.1899,0.0],[29.4693,41.1929,6.7219],[29.4568,41.1979,0.0],[29.4468,41.1979,5.3714],[29.4318,41.2015,5.4193],[29.4196,41.206,0.0],[29.4137,41.2065,6.6042],[29.4096,41.2096,1.0827],[29.4046,41.209,3.3781],[29.3968,41.2124,0.0],[29.3924,41.2124,3.7032],[29.3899,41.2151,0.0],[29.379,41.2115,15.0833],[29.3751,41.2132,2.6322],[29.3638,41.211,4.9265],[29.3554,41.211,0.0],[29.3521,41.2132,0.0],[29.3465,41.2124,25.7242],[29.3457,41.2143,0.0],[29.342,41.2149,12.3528],[29.3402,41.202,114.8765],[29.3307,41.1834,95.6877],[29.3302,41.1756,73.4459],[29.334,41.168,108.7582],[29.3527,41.1504,81.6622],[29.3652,41.1352,157.7565],[29.3653,41.1284,183.3288]]]]}}