{"type":"Feature","properties":{"GID_2":"TUR.21.16_1","GID_0":"TUR","country":"Turkey","GID_1":"TUR.21_1","province":"Bursa","NL_NAME_1":"NA","county":"Yenişehir","VARNAME_2":"NA","NL_NAME_2":"NA","TYPE_2":"District","ENGTYPE_2":"District","CC_2":"NA","HASC_2":"TR.BU.YS","name":"Yenişehir.county"},
"geometry":{"type": "MultiPolygon","coordinates": [[[[29.8059,40.3454,446.8881],[29.8053,40.4101,245.4984],[29.7746,40.3946,510.9028],[29.7361,40.3899,323.0875],[29.7108,40.3823,291.5599],[29.6761,40.3783,341.2493],[29.6545,40.3714,304.1852],[29.639,40.3691,409.0799],[29.5524,40.3682,398.8828],[29.5132,40.3599,607.4171],[29.5036,40.3617,758.9498],[29.4906,40.368899999999996,503.8693],[29.3254,40.369,933.439],[29.3254,40.3574,636.5302],[29.3288,40.3468,772.8792],[29.338,40.3304,565.7822],[29.3429,40.3029,722.723],[29.3528,40.2838,631.0405],[29.3555,40.2529,439.5],[29.3584,40.242,453.3824],[29.3684,40.2304,512.0681],[29.3975,40.2073,388.3478],[29.4667,40.2048,232.4356],[29.4951,40.1963,240.2605],[29.5189,40.1918,293.68],[29.5522,40.1788,269.6311],[29.5814,40.1614,461.8983],[29.6084,40.1509,571.902],[29.6268,40.1477,520.2272],[29.7142,40.1478,657.0106],[29.7184,40.1698,489.587],[29.7314,40.1908,384.401],[29.739,40.2002,433.884],[29.7652,40.2204,437.6104],[29.792,40.2324,394.0717],[29.8031,40.2417,448.0278],[29.8315,40.2853,218.7983],[29.8335,40.2929,366.1437],[29.8301,40.3028,417.0102],[29.8106,40.3324,425.294],[29.8059,40.3454,446.8881]]]]}}