{"type": "Feature","bbox": [34.2096,40.9681,34.8449,41.3076],"geometry": {"type": "MultiPolygon","coordinates": [[[[34.5217,40.9681,1051.1617],[34.5231,40.9847,1347.8473],[34.5272,40.9954,1234.5439],[34.5409,41.0086,1163.8188],[34.5628,41.0238,771.6816],[34.732,41.089,645.5869],[34.759,41.1048,488.5527],[34.7821,41.1151,422.6932],[34.7888,41.1207,574.3316],[34.8024,41.139,753.7903],[34.8338,41.1668,402.0831],[34.8449,41.1958,328.9745],[34.7982,41.2049,891.5232],[34.777,41.2121,1248.4152],[34.7498,41.2174,1538.9803],[34.7021,41.2356,1239.0369],[34.6781,41.24,1093.525],[34.657,41.2471,1167.5226],[34.63,41.2524,1143.5861],[34.6134,41.2615,1326.5664],[34.5916,41.2629,1264.4589],[34.5635,41.2711,1402.5682],[34.5215,41.2765,1227.4989],[34.4919,41.2884,1489.2537],[34.4824,41.2956,1410.7362],[34.4756,41.3039,1396.4865],[34.4665,41.3065,1476.5645],[34.4414,41.3076,1217.0977],[34.4311,41.3049,1283.7288],[34.4168,41.2962,1236.8796],[34.3947,41.2771,1441.1931],[34.3792,41.2558,1699.6279],[34.3497,41.2304,1529.8762],[34.3383,41.2139,1639.0951],[34.3177,41.193,1824.4453],[34.3083,41.1792,1829.3008],[34.3017,41.1734,1893.614],[34.291,41.1674,1893.0941],[34.2798,41.1463,1652.098],[34.2651,41.1229,1243.6102],[34.213,41.0447,534.412],[34.2096,41.0347,470.0905],[34.2105,41.0294,473.9361],[34.2261,41.0086,1037.395],[34.2451,40.9985,1303.4235],[34.2791,40.9763,1496.9762],[34.296,40.9927,1547.2534],[34.3135,41.0038,1503.6099],[34.3436,41.0153,1589.0867],[34.3687,41.0176,1689.4269],[34.3795,41.0165,1759.5552],[34.3897,41.0136,1764.9298],[34.4158,40.9977,2055.2744],[34.4489,40.9846,1282.0985],[34.4762,40.9795,1428.9712],[34.4973,40.9721,1190.4684],[34.5217,40.9681,1051.1617]]]]}
,"properties": {"GID_2": "TUR.24.6_1","GID_0": "TUR","country": "Turkey","GID_1": "TUR.24_1","province": "Çorum","NL_NAME_1": "NA","county": "Kargı","VARNAME_2": "NA","NL_NAME_2": "NA","TYPE_2": "District","ENGTYPE_2": "District","CC_2": "NA","HASC_2": "TR.CM.KA","name": "Kargı.county","area_km2": 1138.3263,"hist_schema_id": "Elevation0-9000","hist_area_km2": {"325": 34.3521,"350": 27.5225,"375": 27.2557,"400": 21.6471,"425": 20.6894,"450": 21.7773,"475": 23.9365,"500": 23.9196,"525": 22.5616,"550": 20.5477,"575": 20.3561,"600": 20.164,"625": 19.3011,"650": 19.1413,"675": 19.716,"700": 19.4614,"725": 18.6936,"750": 18.9661,"775": 19.365,"800": 18.1823,"825": 16.7607,"850": 17.3997,"875": 16.6636,"900": 15.9291,"925": 15.6249,"950": 15.3687,"975": 14.6661,"1000": 13.7872,"1025": 12.9239,"1050": 13.4981,"1075": 12.8112,"1100": 12.7148,"1125": 14.0085,"1150": 13.4817,"1175": 14.1042,"1200": 15.3019,"1225": 15.2357,"1250": 16.7373,"1275": 15.9695,"1300": 15.6486,"1325": 16.1092,"1350": 17.7062,"1375": 19.8444,"1400": 19.4586,"1425": 20.9408,"1450": 22.119,"1475": 22.5633,"1500": 24.971,"1525": 25.6697,"1550": 27.4527,"1575": 27.7862,"1600": 26.5569,"1625": 25.3293,"1650": 21.4529,"1675": 18.6135,"1700": 15.313,"1725": 11.0874,"1750": 9.8601,"1775": 8.1852,"1800": 6.2072,"1825": 4.5952,"1850": 3.862,"1875": 2.7611,"1900": 1.8196,"1925": 0.7663,"1950": 0.2877,"1975": 0.128,"2000": 0.208,"2025": 0.096,"2050": 0.224,"2075": 0.112,"2100": 0.048}}}