{"type": "Feature","bbox": [27.2643,39.6305,27.8678,39.9625],"geometry": {"type": "MultiPolygon","coordinates": [[[[27.4726,39.8876,348.8149],[27.4653,39.8802,281.6184],[27.4558,39.8663,295.063],[27.4371,39.8476,393.3846],[27.4277,39.8338,310.4721],[27.4184,39.8266,385.3127],[27.2986,39.7801,215.7267],[27.2643,39.7708,273.8029],[27.2667,39.7453,389.8828],[27.2699,39.7355,422.4119],[27.2918,39.7194,314.1658],[27.3203,39.6776,700.4601],[27.3354,39.6652,768.2139],[27.3527,39.6545,853.9012],[27.3721,39.658,617.6476],[27.3823,39.658,574.3447],[27.4365,39.6387,268.6848],[27.4945,39.6358,359.9945],[27.5217,39.6305,321.6212],[27.5475,39.6378,319.8616],[27.568,39.6459,357.8135],[27.5794,39.6479,242.844],[27.6804,39.6491,196.1984],[27.6992,39.6726,309.0505],[27.7297,39.719,301.3102],[27.7441,39.7425,293.6461],[27.7518,39.7661,493.3242],[27.7952,39.8337,252.5358],[27.8037,39.8427,223.2579],[27.8331,39.8681,323.0205],[27.8556,39.9035,266.2319],[27.8678,39.916,309.6872],[27.8491,39.9299,429.702],[27.8403,39.9334,403.568],[27.8344,39.9337,447.2681],[27.8151,39.9291,386.7352],[27.8001,39.9307,339.2015],[27.7959,39.9336,374.7258],[27.7896,39.945,388.3172],[27.7828,39.9492,342.0574],[27.7697,39.9511,250.4304],[27.7477,39.9511,95.0],[27.7342,39.9539,120.4209],[27.7097,39.9619,346.9653],[27.6843,39.9625,486.9636],[27.6707,39.9597,232.3103],[27.6437,39.949,366.8719],[27.6111,39.9306,221.3438],[27.5839,39.9252,219.0441],[27.5627,39.9181,218.3431],[27.5388,39.9138,376.8981],[27.4726,39.8876,348.8149]]]]}
,"properties": {"GID_2": "TUR.12.2_1","GID_0": "TUR","country": "Turkey","GID_1": "TUR.12_1","province": "Balikesir","NL_NAME_1": "NA","county": "Balya","VARNAME_2": "NA","NL_NAME_2": "NA","TYPE_2": "District","ENGTYPE_2": "District","CC_2": "NA","HASC_2": "TR.BK.BL","name": "Balya.county","area_km2": 1117.1118,"hist_schema_id": "Elevation0-9000","hist_area_km2": {"100": 10.3622,"125": 20.3246,"150": 31.8849,"175": 49.5911,"200": 51.0462,"225": 61.8483,"250": 72.9464,"275": 84.0956,"300": 88.1852,"325": 84.9375,"350": 82.5395,"375": 76.7626,"400": 65.8497,"425": 56.8305,"450": 48.5603,"475": 43.6077,"500": 37.5094,"525": 32.8961,"550": 28.2659,"575": 22.8714,"600": 17.0358,"625": 13.0092,"650": 10.9884,"675": 8.0054,"700": 5.4464,"725": 4.2892,"750": 3.0342,"775": 2.1209,"800": 1.2073,"825": 0.4568,"850": 0.31,"875": 0.2284,"900": 0.0653}}}