{"type":"Feature","properties":{"GID_2":"TUR.67.3_1","GID_0":"TUR","country":"Turkey","GID_1":"TUR.67_1","province":"Samsun","NL_NAME_1":"NA","county":"Ayvacık","VARNAME_2":"NA","NL_NAME_2":"NA","TYPE_2":"District","ENGTYPE_2":"District","CC_2":"NA","HASC_2":"TR.SS.AY","name":"Ayvacık.county"},
"geometry":{"type": "MultiPolygon","coordinates": [[[[36.448,40.8698,193.9054],[36.4608,40.8659,391.2769],[36.4724,40.8644,614.1359],[36.4998,40.8657,595.7595],[36.5512,40.8849,707.9447],[36.5782,40.8904,340.5537],[36.5997,40.8975,581.3851],[36.6187,40.8994,229.2908],[36.6461,40.8995,188.2888],[36.6651,40.8976,165.375],[36.6776,40.8929,169.4383],[36.6999,40.8809,320.4747],[36.7004,40.9436,734.0166],[36.6988,40.9621,815.9452],[36.6953,40.9708,671.7306],[36.6736,41.005,453.0273],[36.6678,41.0233,443.4223],[36.6153,41.0292,567.3552],[36.5938,41.0361,698.3655],[36.5825,41.0381,712.0477],[36.5626,41.039,743.4166],[36.4839,41.0376,285.8868],[36.4551,41.0294,422.2141],[36.43,41.0273,406.5094],[36.4324,41.0194,398.1054],[36.4373,41.0118,528.2318],[36.466,40.9874,580.7004],[36.4721,40.9799,582.4113],[36.4747,40.9717,787.5976],[36.4729,40.9579,1001.7019],[36.4585,40.939,1060.4076],[36.4532,40.9358,977.6544],[36.4429,40.9337,944.4523],[36.4278,40.9332,862.7175],[36.4046,40.9354,1095.7386],[36.3921,40.9403,1033.5449],[36.3724,40.9521,983.1374],[36.3698,40.9371,1034.2819],[36.3695,40.9229,1121.8815],[36.3727,40.9121,796.7856],[36.3833,40.9024,778.7015],[36.4012,40.8951,781.3497],[36.4275,40.8796,428.3229],[36.448,40.8698,193.9054]]]]}}