{"type": "Feature","bbox": [32.0984,38.0581,32.4393,38.6087],"geometry": {"type": "MultiPolygon","coordinates": [[[[32.2314,38.0581,1717.3906],[32.2625,38.0639,1643.9409],[32.2926,38.0754,1789.6295],[32.3314,38.0994,1686.8992],[32.317,38.1142,1871.3081],[32.3111,38.1236,1892.8734],[32.3061,38.151,1530.3834],[32.2971,38.1674,1345.6072],[32.2946,38.1761,1299.7172],[32.2936,38.1913,1165.7286],[32.2951,38.2064,1127.833],[32.3065,38.2284,1133.0265],[32.3125,38.2469,1096.9792],[32.3348,38.2814,1046.8137],[32.338,38.2895,1037.842],[32.3396,38.3046,1023.7882],[32.3392,38.3573,1020.8023],[32.3424,38.3751,1019.8749],[32.3592,38.4009,1005.6663],[32.3925,38.4303,1017.9904],[32.4043,38.447,1022.0149],[32.4259,38.4676,1023.4364],[32.4372,38.4856,1015.8093],[32.4393,38.4922,1022.9015],[32.4362,38.4988,1028.1777],[32.4225,38.5096,1029.7185],[32.393,38.522,1028.8948],[32.3686,38.5419,1037.6631],[32.338,38.5544,1020.4584],[32.3086,38.5717,1020.8917],[32.2485,38.5947,1000.9639],[32.2096,38.5994,1016.5074],[32.1817,38.6084,999.4266],[32.1574,38.6087,998.8242],[32.1462,38.604,990.7798],[32.1347,38.5896,981.4951],[32.1203,38.5643,968.426],[32.1189,38.556399999999996,969.4664],[32.1117,38.5403,981.3066],[32.0995,38.5275,993.8276],[32.0991,38.4698,1315.8138],[32.1006,38.4533,1055.4442],[32.1052,38.4424,1029.0675],[32.1411,38.3869,1007.238],[32.144,38.3752,1007.8014],[32.1446,38.3568,1014.8318],[32.1443,38.3164,1032.9841],[32.1427,38.3013,1033.135],[32.1316,38.2792,1062.5234],[32.1256,38.2608,1073.3733],[32.1008,38.2211,1113.9026],[32.0984,38.2064,1157.1968],[32.0994,38.1761,1228.7554],[32.1031,38.1652,1261.4772],[32.11,38.1537,1334.9114],[32.1169,38.1327,1406.8044],[32.1314,38.1092,1586.281],[32.1391,38.0998,1783.8209],[32.1588,38.0849,1750.0787],[32.1721,38.0771,1592.6843],[32.2022,38.0707,1642.626],[32.2314,38.0581,1717.3906]]]]}
,"properties": {"GID_2": "TUR.53.20_1","GID_0": "TUR","country": "Turkey","GID_1": "TUR.53_1","province": "Konya","NL_NAME_1": "NA","county": "Kadınhanı","VARNAME_2": "NA","NL_NAME_2": "NA","TYPE_2": "District","ENGTYPE_2": "District","CC_2": "NA","HASC_2": "TR.KO.KD","name": "Kadınhanı.county","area_km2": 1133.9028,"hist_schema_id": "Elevation0-9000","hist_area_km2": {"975": 195.9853,"1000": 183.7234,"1025": 306.1622,"1050": 68.3738,"1075": 42.4262,"1100": 41.227,"1125": 26.7462,"1150": 24.6203,"1175": 21.6603,"1200": 19.7146,"1225": 20.5165,"1250": 14.2341,"1275": 11.7844,"1300": 9.1178,"1325": 7.6353,"1350": 7.5182,"1375": 7.2362,"1400": 6.203,"1425": 4.7692,"1450": 4.7194,"1475": 4.2026,"1500": 3.9526,"1525": 3.6527,"1550": 3.6027,"1575": 4.0869,"1600": 5.8059,"1625": 6.7742,"1650": 8.9267,"1675": 9.6275,"1700": 9.2104,"1725": 9.7612,"1750": 8.0593,"1775": 7.3251,"1800": 4.872,"1825": 3.7872,"1850": 3.32,"1875": 2.3356,"1900": 2.102,"1925": 2.1021,"1950": 1.8018,"1975": 1.318,"2000": 1.635,"2025": 1.0511,"2050": 0.2169}}}