{"type":"Feature","properties":{"GID_1":"TUR.26_1","GID_0":"TUR","country":"Turkey","province":"Diyarbakir","VARNAME_1":"Diyarbakır","NL_NAME_1":"NA","TYPE_1":"Il","ENGTYPE_1":"Province","CC_1":"NA","HASC_1":"TR.DY","ISO_1":"TR-21","name":"Diyarbakir.province"},
"geometry":{"type": "MultiPolygon","coordinates": [[[[40.5688,37.7656,637.9088],[40.602,37.7877,604.2901],[40.6344,37.771,653.0054],[40.6476,37.7663,627.4901],[40.6638,37.7646,624.0739],[40.7006,37.7643,631.7352],[40.7158,37.7616,664.5018],[40.7277,37.7539,649.9597],[40.738,37.74,632.9078],[40.752,37.7303,676.4556],[40.7824,37.7192,673.9203],[40.8186,37.7172,664.2472],[40.8588,37.7189,612.191],[40.8842,37.7266,653.8364],[40.8955,37.7285,677.5294],[40.9639,37.7306,648.4514],[41.0005,37.7401,617.3277],[41.0245,37.7409,605.0636],[41.0518,37.7396,636.5194],[41.0648,37.7442,667.3307],[41.0737,37.7492,577.073],[41.0996,37.7695,596.3408],[41.1064,37.7794,650.4347],[41.1124,37.8047,784.275],[41.079,37.8125,767.1663],[41.0517,37.8251,698.9454],[41.0352,37.8462,528.0888],[41.033,37.8544,524.7554],[41.0336,37.8626,525.6312],[41.0357,37.868,525.9627],[41.0416,37.8743,528.4785],[41.0736,37.8892,537.5847],[41.0975,37.9072,541.1741],[41.1058,37.9163,545.9668],[41.153,37.9916,555.4734],[41.155,38.0023,560.5594],[41.1596,38.0122,562.8159],[41.1943,38.0654,581.7664],[41.2024,38.0889,581.4866],[41.2115,38.1056,585.6398],[41.2167,38.1325,601.5215],[41.2278,38.1549,660.3044],[41.2294,38.176,690.4594],[41.2258,38.1937,656.0],[41.2178,38.2075,716.803],[41.2152,38.2162,730.5475],[41.2141,38.2285,738.4648],[41.2149,38.333,982.6572],[41.2179,38.3451,1050.5798],[41.2268,38.3618,848.0483],[41.233,38.3917,791.3289],[41.2406,38.4056,748.843],[41.2454,38.4212,851.6002],[41.2494,38.4284,1011.4475],[41.2611,38.4373,995.2083],[41.3512,38.4716,1324.3838],[41.3661,38.4737,1345.384],[41.4083,38.4739,1724.2406],[41.4184,38.4758,1896.2906],[41.4256,38.4808,1784.3278],[41.4335,38.4927,1831.5797],[41.4343,38.4973,2027.3352],[41.4317,38.504,1889.9902],[41.4169,38.5222,2059.3596],[41.4053,38.5257,1823.9292],[41.3948,38.532,1643.0531],[41.3859,38.54,1830.7268],[41.3814,38.5474,1517.7522],[41.3796,38.5586,1645.3038],[41.3806,38.5699,1354.0903],[41.3833,38.5779,1467.9852],[41.3932,38.5939,1836.8057],[41.3946,38.6049,1895.5939],[41.3914,38.6154,1814.6702],[41.378,38.6363,1778.1182],[41.372,38.643,1759.8036],[41.3334,38.6733,1886.601],[41.322,38.68,1932.7915],[41.3008,38.6885,1752.2522],[41.288,38.6973,1905.5732],[41.2795,38.7055,1940.1045],[41.2663,38.7256,1769.5795],[41.2315,38.7164,1798.9398],[41.2019,38.699,1637.3871],[41.0188,38.6277,1385.7073],[40.9885,38.6166,1771.016],[40.9612,38.6115,1794.7729],[40.9101,38.5924,1712.8088],[40.8957,38.591,1474.1989],[40.7625,38.5916,1734.1897],[40.706,38.6054,1894.8408],[40.6882,38.6117,1735.373],[40.673,38.6139,2004.2224],[40.5535,38.6149,1360.0215],[40.5254,38.6123,1188.949],[40.5101,38.6041,1155.0974],[40.5027,38.5977,1161.0599],[40.4971,38.5901,1096.8252],[40.4945,38.5814,1088.0264],[40.4916,38.5484,1005.9435],[40.4827,38.5317,948.9034],[40.4757,38.5107,874.432],[40.466,38.4927,865.5328],[40.4448,38.4785,987.8372],[40.438,38.4761,1076.8989],[40.4131,38.4743,1050.6171],[40.0546,38.475,1031.0825],[40.0338,38.4769,1028.6997],[40.008,38.4846,944.0325],[39.9582,38.4888,961.2566],[39.9295,38.4973,1093.458],[39.9014,38.499,1061.5259],[39.862,38.4982,1023.4118],[39.8523,38.4949,947.1425],[39.848,38.4913,1045.2899],[39.8372,38.4767,1167.0909],[39.8295,38.4531,960.0165],[39.8181,38.4329,905.2128],[39.8111,38.4249,998.3392],[39.7546,38.3795,902.117],[39.7451,38.3743,892.1964],[39.734,38.3713,957.0591],[39.5715,38.3695,1320.0752],[39.5461,38.3617,1442.4738],[39.5177,38.3555,1563.0979],[39.4979,38.3584,1452.5493],[39.4737,38.3565,1709.0327],[39.4224,38.3375,1775.6699],[39.3987,38.3354,1640.9597],[39.358,38.3357,1368.5731],[39.3385,38.3382,1467.6423],[39.3013,38.3539,1609.3997],[39.2832,38.367,1828.0476],[39.267,38.3681,1818.5146],[39.2422,38.3613,2051.3467],[39.2074,38.3573,2022.3513],[39.182,38.3496,1916.7751],[39.1433,38.3452,1460.6554],[39.1191,38.3383,862.7004],[39.1401,38.2973,952.8256],[39.1422,38.2854,898.7007],[39.1423,38.2732,683.0],[39.1398,38.2584,683.0],[39.1288,38.2361,1251.0438],[39.1243,38.2003,1120.281],[39.1198,38.1929,754.5847],[39.1117,38.1847,1183.785],[39.1221,38.1779,1175.3763],[39.1327,38.174,1250.2678],[39.1602,38.1733,746.2642],[39.1768,38.1785,830.8943],[39.193,38.1886,805.1322],[39.205,38.1913,829.1838],[39.2337,38.182,863.3705],[39.2408,38.1766,835.7185],[39.2463,38.1667,900.5116],[39.2473,38.1583,860.3953],[39.246,38.1439,885.0446],[39.2412,38.1246,551.7779],[39.234,38.1111,537.0],[39.2309,38.089,537.0],[39.2274,38.0784,537.0],[39.2101,38.0525,694.6301],[39.1941,38.0398,668.4814],[39.1787,38.0307,537.0],[39.2152,38.0192,1094.542],[39.2413,38.0036,959.2063],[39.2548,37.9992,958.526],[39.2772,37.9979,928.4957],[39.3886,37.9984,825.982],[39.4136,37.995,759.7545],[39.4497,37.9797,993.0207],[39.5209,37.9255,1081.606],[39.5297,37.9203,1174.2228],[39.5509,37.9116,1253.5343],[39.5988,37.8772,1153.5825],[39.6262,37.8646,1080.1165],[39.6616,37.8402,1065.7115],[39.6748,37.8358,1072.9143],[39.6856,37.8348,1075.8423],[39.7616,37.8334,1243.4309],[39.7992,37.8018,1441.972],[39.8122,37.793,1551.7673],[39.8232,37.788,1605.6857],[39.8495,37.7629,1622.1438],[39.8582,37.7523,1607.9424],[39.8605,37.7463,1658.9532],[39.8621,37.7305,1720.1731],[39.8617,37.6036,1580.028],[39.8646,37.5914,1509.963],[39.8728,37.5776,1487.6448],[39.8814,37.5563,1428.1031],[39.9927,37.555,1062.6759],[40.0173,37.5563,1002.6184],[40.0315,37.5608,990.1555],[40.0577,37.5764,943.8805],[40.0845,37.587,909.8711],[40.0945,37.5891,903.501],[40.112,37.5884,896.3559],[40.1329,37.5815,888.3116],[40.1433,37.5797,880.9691],[40.172,37.5805,859.1991],[40.1901,37.5761,843.4788],[40.2066,37.5669,892.101],[40.2617,37.5666,918.7297],[40.2804,37.5692,913.076],[40.2957,37.5774,944.066],[40.337,37.608,830.8574],[40.3587,37.6173,812.2527],[40.3849,37.633,862.4998],[40.4182,37.6459,767.4761],[40.4367,37.6482,748.5999],[40.4912,37.6483,778.51],[40.5161,37.6504,775.7277],[40.531,37.6677,752.7234],[40.5351,37.6752,743.4993],[40.5371,37.6869,727.9219],[40.5374,37.7111,700.0037],[40.5393,37.7258,684.7274],[40.5549,37.7521,652.8082],[40.5688,37.7656,637.9088]]]]}}