{"type":"Feature","properties":{"id":141458.0,"name":null,"lge_id":null,"pfafstette":49919.0,"lke_type":"N","altitude":788,"objectid":88385,"scalerank":12,"featurecla":"Lake","note":"_untitled_88385","funkyname":0,"min_zoom":7.0,"min_label":8.0},
"geometry":{"type": "Polygon","coordinates": [[[39.914805534771233,38.390692449994077,810.926],[39.898448112896233,38.378668524212827,855.9688],[39.915049675396233,38.369208074994077,820.7618],[39.939707878521233,38.371161199994077,868.079],[39.969493034771233,38.372076727337827,790.5],[40.001597526958733,38.349310614056577,977.5209],[40.023692253521233,38.355536199994077,790.5],[40.006968620708733,38.376532293744077,842.1777],[39.985240105083733,38.395880438275327,931.1584],[39.970469597271233,38.398504949994077,790.5],[39.943369987896233,38.396551824994077,804.1373],[39.914805534771233,38.390692449994077,810.926]]]}}