{"type":"Feature","properties":{"featurecla":"River","scalerank":4,"rivernum":120,"dissolve":"120River","name":"Dicle1","name_alt":null,"note":null,"min_zoom":4.0,"strokeweig":0.2,"name_en":"Dicle","min_label":5.0},
"geometry":{"type": "LineString","coordinates": [[39.633056640625,38.448114324994116,1216.5283],[39.646679687500011,38.43183014530662,1153.3656],[39.64306640625,38.41559479374412,1341.2341],[39.6455078125,38.407098699994116,1397.0071],[39.651464843750006,38.40228912968162,1172.9276],[39.66748046875,38.39655182499412,1104.728],[39.671875,38.39398834843162,1046.8961],[39.674560546875,38.39118073124412,1003.4827],[39.6796875,38.38397858280662,1031.2837],[39.684326171875,38.37970612186912,937.1537],[39.689355468750023,38.37702057499412,952.7819],[39.72021484375,38.37030670780662,1039.6654],[39.729736328125,38.36981842655662,979.5422],[39.739355468750006,38.37091705936912,1021.6815],[39.793701171875,38.38666412968162,848.7066],[39.814843750000023,38.38703034061912,794.1382],[39.8564453125,38.37872955936912,801.4285],[39.9150390625,38.37860748905662,867.0206],[39.956445312500023,38.384881903119116,790.5],[39.969824218750006,38.38349030155662,790.5],[39.984472656250006,38.376825262494116,790.5],[40.002343750000023,38.36334869999412,790.5],[40.018457031250023,38.34772369999412,801.1051],[40.026953125,38.338641668744117,712.3274],[40.030371093750006,38.333270574994117,748.4795],[40.031835937500006,38.32758209843162,710.9648],[40.03125,38.322772528119117,806.8498],[40.029052734375,38.318719793744116,826.597],[40.023193359375,38.31110260624412,843.8795],[40.020605468750006,38.29950592655662,863.2977],[40.0263671875,38.29157135624412,939.8405],[40.077050781250023,38.26593659061912,917.6608],[40.108007812500006,38.25971100468162,724.3666],[40.117773437500006,38.256610418744117,759.7621],[40.1259765625,38.251092840619116,818.7711],[40.156494140625,38.22101471561912,825.2744],[40.172558593750011,38.20880768436912,769.2623],[40.191162109375,38.200213934369117,679.7675],[40.180908203125,38.19025299686912,741.0265],[40.18212890625,38.16998932499412,691.0067],[40.170654296875,38.166034246869117,690.3224],[40.168554687500006,38.14887116093162,745.4391],[40.141015625000023,38.12274811405662,631.4793],[40.1396484375,38.11395905155662,617.1281],[40.158300781250006,38.10761139530662,612.5509],[40.205322265625,38.10980866093162,608.7737],[40.225195312500006,38.10394928593162,605.8335],[40.245361328125,38.09271881718162,602.2751],[40.266845703125,38.083514715619117,601.4141],[40.256591796875,38.070819403119117,599.1613],[40.254003906250006,38.05487702030662,595.7367],[40.253173828125,38.02142975468162,588.75],[40.241113281250023,37.997577215619117,587.5311],[40.238867187500006,37.99103424686912,589.4177],[40.241113281250023,37.98407623905662,587.2662],[40.250683593750011,37.97553131718162,591.2506],[40.253173828125,37.96686432499412,588.397],[40.252197265625,37.95673248905662,583.0499],[40.246972656250023,37.93952057499412,592.0375],[40.245703125,37.928973699994117,582.8799],[40.248242187500011,37.92169830936912,581.1797],[40.258691406250023,37.90692780155662,580.6992],[40.259375,37.898553778119116,598.9039],[40.253320312500023,37.891717840619116,583.4962],[40.244140625,37.89032623905662,577.9664],[40.235742187500023,37.88690827030662,632.6787],[40.23203125,37.87433502811912,607.6787],[40.234082031250011,37.866815496869116,587.0697],[40.2392578125,37.86005280155662,576.5788],[40.24609375,37.85455963749412,572.35],[40.253173828125,37.85077545780662,574.3377],[40.246972656250023,37.84247467655662,574.7216],[40.2568359375,37.83893463749412,572.8375],[40.341894531250006,37.82965729374412,566.1005],[40.4150390625,37.80841705936912,567.9772],[40.436914062500023,37.80914948124412,566.1834],[40.518457031250023,37.83551666874412,550.5436],[40.677148437500023,37.843768621869117,539.668],[40.69921875,37.83734772343162,538.306],[40.738037109375,37.813592840619116,531.344],[40.759179687500023,37.80670807499412,532.8134],[40.78076171875,37.808856512494117,552.0045],[40.821533203125,37.82636139530662,529.0487],[40.84326171875,37.830829168744117,529.2505],[40.8720703125,37.826678778119117,525.9186],[40.968652343750023,37.80048248905662,512.0832]]}}