{"type": "Feature","id": "2309","bbox": [39.11485,37.3757,41.42634,38.73919],"geometry": {"type": "Polygon","coordinates": [[[41.42055,38.5346,1938.8032],[41.39006,38.54158,1864.177],[41.37807,38.56886,1487.5575],[41.38965,38.60912,1930.1765],[41.37838,38.64875,1855.4724],[41.3112,38.68774,1976.0847],[41.25963,38.73919,1712.6782],[41.21054,38.71244,1781.0101],[41.08889,38.67526,2135.9775],[40.96528,38.61555,1610.9041],[40.90027,38.6008,1795.6299],[40.72974,38.60596,1777.5306],[40.67972,38.61687,1965.3234],[40.64489,38.6193,1599.9579],[40.54753,38.60852,1408.8649],[40.4911,38.58633,1115.4155],[40.48531,38.55837,1101.0317],[40.48407,38.52832,933.1636],[40.45854,38.49527,853.8058],[40.41762,38.48096,903.2699],[40.30124,38.47799,906.9792],[39.96617,38.46944,962.8785],[39.94994,38.47401,1013.4142],[39.91522,38.49535,1124.1251],[39.893,38.50401,1159.1753],[39.84742,38.49744,953.4099],[39.83202,38.46509,981.1207],[39.80959,38.4328,940.5128],[39.78427,38.40267,943.0798],[39.75378,38.38678,944.7014],[39.71998,38.37771,979.3972],[39.64299,38.38099,1393.2278],[39.56744,38.37634,1307.0078],[39.53881,38.36298,1487.5242],[39.46191,38.35456,1409.4529],[39.42026,38.34019,1847.5431],[39.33499,38.34528,1726.0251],[39.25211,38.36221,1812.5503],[39.11485,38.34353,717.4103],[39.13242,38.32965,854.8646],[39.14503,38.30784,683.0],[39.14855,38.28418,683.0],[39.11485,38.19271,551.4889],[39.14131,38.17857,989.3622],[39.22193,38.20503,561.9614],[39.25262,38.17966,561.2616],[39.25634,38.1531,754.9763],[39.24859,38.13039,537.0],[39.22472,38.09029,543.3912],[39.23464,38.07607,536.5],[39.22492,38.06372,561.0139],[39.18896,38.04305,571.4249],[39.26751,38.0091,967.5283],[39.34864,37.99895,862.1754],[39.40786,37.99696,822.6478],[39.46264,37.9767,909.8917],[39.5233,37.92611,1083.0619],[39.58883,37.88299,1157.6376],[39.62025,37.871,1093.2278],[39.6527,37.86211,1060.9841],[39.69125,37.83392,1078.3601],[39.73848,37.81723,1133.8063],[39.74934,37.82916,1155.7614],[39.75915,37.84244,1189.5906],[39.78747,37.83283,1284.6316],[39.8128,37.81356,1431.5004],[39.83047,37.80632,1509.1833],[39.84856,37.80188,1519.1833],[39.86323,37.77769,1567.1202],[39.85672,37.66935,1818.1371],[39.87222,37.59362,1529.9401],[39.88152,37.56499,1449.1003],[39.88432,37.55011,1370.3278],[39.92018,37.46947,1006.984],[39.95366,37.41743,817.0115],[39.99997,37.3757,724.2073],[40.09784,37.4758,831.4977],[40.14259,37.50869,977.1893],[40.25184,37.56934,885.1399],[40.30093,37.58422,871.6794],[40.41224,37.65243,753.4722],[40.49203,37.65698,762.0369],[40.53916,37.70731,720.335],[40.55156,37.72987,684.657],[40.66205,37.74839,639.1636],[41.01179,37.74142,665.0203],[41.07525,37.76493,613.4767],[41.05375,37.7956,613.6727],[41.04548,37.8334,700.2323],[41.03546,37.86208,526.2202],[41.04507,37.88588,528.8563],[41.09334,37.91262,539.5157],[41.13302,37.94911,563.4498],[41.18036,38.07034,577.6765],[41.19865,38.09196,588.7361],[41.21457,38.11509,587.8722],[41.22191,38.17049,715.4483],[41.2092,38.28009,794.4924],[41.22077,38.33758,1153.8882],[41.2403,38.39257,781.3431],[41.24919,38.42815,1011.4475],[41.27162,38.453,1139.6097],[41.32433,38.473,1255.8395],[41.35678,38.48127,1205.7185],[41.38841,38.48401,1279.2932],[41.42634,38.50091,1917.1833],[41.42055,38.5346,1938.8032]]]}
,"properties": {"ISO3166-1-Alpha-3": "TUR","country": "Turkey","fill": "#FF0","name": "Diyarbakir","area_km2": 15087.39,"hist_schema_id": "Elevation0-9000","hist_area_km2": {"500": 5.78,"525": 126.62,"550": 240.93,"575": 291.94,"600": 347.09,"625": 382.4,"650": 546.62,"675": 666.55,"700": 722.91,"725": 768.14,"750": 952.55,"775": 1033.21,"800": 879.33,"825": 738.48,"850": 702.96,"875": 654.51,"900": 608.36,"925": 549.89,"950": 465.09,"975": 382.27,"1000": 351.59,"1025": 309.81,"1050": 285.12,"1075": 235.45,"1100": 206.64,"1125": 186.17,"1150": 162.9,"1175": 138.57,"1200": 130.42,"1225": 124.5,"1250": 117.65,"1275": 109.48,"1300": 103.61,"1325": 97.38,"1350": 91.21,"1375": 80.99,"1400": 80.24,"1425": 75.73,"1450": 70.64,"1475": 67.43,"1500": 65.62,"1525": 61.0,"1550": 58.05,"1575": 56.98,"1600": 54.76,"1625": 55.34,"1650": 53.05,"1675": 51.66,"1700": 50.36,"1725": 49.76,"1750": 46.21,"1775": 42.38,"1800": 41.14,"1825": 35.33,"1850": 32.45,"1875": 28.59,"1900": 25.37,"1925": 21.71,"1950": 19.88,"1975": 17.06,"2000": 17.15,"2025": 13.91,"2050": 12.0,"2075": 10.25,"2100": 8.87,"2125": 7.64,"2150": 7.01,"2175": 6.37,"2200": 5.92,"2225": 5.25,"2250": 4.48,"2275": 4.14,"2300": 3.7,"2325": 3.08,"2350": 2.63,"2375": 2.35,"2400": 2.12,"2425": 1.66,"2450": 1.77,"2475": 1.34,"2500": 1.18,"2525": 0.99,"2550": 0.94,"2575": 0.81,"2600": 0.7,"2625": 0.53,"2650": 0.71,"2675": 0.73,"2700": 0.48,"2725": 0.36,"2750": 0.31}}}