{"type": "Feature","bbox": [41.9335,37.9606,42.5403,38.2175],"geometry": {"type": "MultiPolygon","coordinates": [[[[42.2982,38.1878,2172.9407],[42.264,38.2031,1825.5537],[42.2402,38.2078,2184.415],[42.2191,38.215,1844.217],[42.2001,38.2175,1830.6211],[42.1688,38.2164,2058.4114],[42.1406,38.2079,1840.6892],[42.1109,38.2052,1876.8524],[42.0952,38.2008,1803.9934],[42.0632,38.1777,1990.2507],[42.0427,38.1584,1381.6367],[42.0259,38.1295,1177.4282],[42.031,38.1266,1241.2504],[42.0331,38.1215,1035.8512],[42.0278,38.1094,1349.3472],[42.0233,38.0929,1007.2346],[42.0187,38.0858,903.9988],[41.9335,38.0177,732.8577],[41.9707,38.0182,769.0681],[41.9818,38.0152,856.822],[41.9946,38.0079,1188.4841],[42.0405,38.008,1067.2454],[42.0684,38.0053,984.6366],[42.0895,37.9982,993.9797],[42.1137,37.994,935.2438],[42.137,37.9879,889.2449],[42.1515,37.9699,840.093],[42.1663,37.9606,957.7833],[42.1909,37.9704,1132.1687],[42.215,37.9749,956.3262],[42.2434,37.9834,1371.1814],[42.3577,37.985,1275.9303],[42.3688,37.9868,1121.8706],[42.3899,37.994,1215.2244],[42.4168,37.9995,1347.9243],[42.474,38.0213,1921.8228],[42.4832,38.0261,2177.5215],[42.5165,38.0506,1999.9198],[42.5323,38.0668,1866.1189],[42.5403,38.0901,1566.6559],[42.512,38.1024,1951.8296],[42.4981,38.11,1571.5953],[42.4678,38.1149,1711.9683],[42.4497,38.1224,1468.416],[42.4077,38.1263,1359.5801],[42.3929,38.1332,1120.5345],[42.3717,38.1384,1175.9066],[42.3291,38.1618,2126.5798],[42.3135,38.1734,2315.6619],[42.2982,38.1878,2172.9407]]]]}
,"properties": {"GID_2": "TUR.69.7_1","GID_0": "TUR","country": "Turkey","GID_1": "TUR.69_1","province": "Siirt","NL_NAME_1": "NA","county": "Şirvan","VARNAME_2": "NA","NL_NAME_2": "NA","TYPE_2": "District","ENGTYPE_2": "District","CC_2": "NA","HASC_2": "TR.SI.SV","name": "Şirvan.county","area_km2": 884.8967,"hist_schema_id": "Elevation0-9000","hist_area_km2": {"600": 0.1169,"625": 1.286,"650": 1.7537,"675": 1.9539,"700": 2.9725,"725": 3.7406,"750": 4.392,"775": 4.9766,"800": 6.296,"825": 6.7971,"850": 6.6635,"875": 8.0831,"900": 7.7158,"925": 8.718,"950": 8.6512,"975": 10.7055,"1000": 11.7401,"1025": 12.9757,"1050": 12.8917,"1075": 11.8717,"1100": 10.518,"1125": 11.3693,"1150": 11.4525,"1175": 13.3046,"1200": 13.6207,"1225": 15.4568,"1250": 15.3734,"1275": 16.6418,"1300": 18.1937,"1325": 18.0427,"1350": 19.0783,"1375": 18.8109,"1400": 18.1748,"1425": 17.9407,"1450": 18.241,"1475": 19.0264,"1500": 19.6936,"1525": 17.4552,"1550": 17.2363,"1575": 16.9853,"1600": 17.6012,"1625": 17.5504,"1650": 18.1508,"1675": 18.1843,"1700": 18.7165,"1725": 18.3995,"1750": 17.5327,"1775": 20.7859,"1800": 19.3521,"1825": 17.2826,"1850": 17.5659,"1875": 16.3482,"1900": 16.4818,"1925": 16.2322,"1950": 14.8316,"1975": 13.4476,"2000": 13.2638,"2025": 11.9465,"2050": 12.3645,"2075": 11.296,"2100": 11.4294,"2125": 9.8945,"2150": 8.9935,"2175": 8.3763,"2200": 7.659,"2225": 6.3908,"2250": 6.3575,"2275": 5.874,"2300": 5.1229,"2325": 4.3051,"2350": 3.7042,"2375": 3.3873,"2400": 2.7366,"2425": 2.6696,"2450": 2.1858,"2475": 1.7853,"2500": 1.5517,"2525": 1.3849,"2550": 0.9344,"2575": 0.8343,"2600": 0.4004,"2625": 0.3336,"2650": 0.2168,"2675": 0.0834,"2700": 0.0334}}}