{"type": "Feature","bbox": [31.2426,38.1774,31.7541,38.5224],"geometry": {"type": "MultiPolygon","coordinates": [[[[31.2504,38.4266,2123.7393],[31.2442,38.4117,2180.2969],[31.2426,38.3931,2098.3408],[31.2447,38.3801,2016.7422],[31.2474,38.3753,1998.0134],[31.2556,38.3668,1890.8162],[31.3207,38.3168,1928.9547],[31.3315,38.3103,2037.9156],[31.3499,38.3034,1717.4285],[31.3635,38.2949,1728.584],[31.471,38.2118,2026.6156],[31.4843,38.2042,1729.7366],[31.5051,38.1956,2100.6763],[31.5285,38.1774,1851.5007],[31.5513,38.1955,1594.0712],[31.5795,38.2087,1216.6581],[31.5854,38.2147,1180.3427],[31.5945,38.2286,1121.6071],[31.611,38.2422,1087.3586],[31.6194,38.2466,1077.479],[31.6851,38.2715,1167.8208],[31.7041,38.2936,1095.3765],[31.7167,38.3122,1084.9387],[31.7358,38.3276,1104.861],[31.7541,38.3386,1077.858],[31.7376,38.354,1137.9218],[31.7225,38.3624,1136.5684],[31.7076,38.3648,1139.4292],[31.6534,38.3664,1028.5042],[31.6141,38.381,1001.5939],[31.5261,38.4482,966.408],[31.5154,38.4546,964.1281],[31.4941,38.4629,958.0442],[31.4685,38.4812,952.7346],[31.4562,38.4939,951.9462],[31.442,38.5224,951.9022],[31.4192,38.5118,951.6243],[31.3803,38.4848,951.5471],[31.329,38.465,974.283],[31.29,38.4382,1363.6504],[31.2608,38.4277,1843.0492],[31.2504,38.4266,2123.7393]]]]}
,"properties": {"GID_2": "TUR.53.3_1","GID_0": "TUR","country": "Turkey","GID_1": "TUR.53_1","province": "Konya","NL_NAME_1": "NA","county": "Akşehir","VARNAME_2": "NA","NL_NAME_2": "NA","TYPE_2": "District","ENGTYPE_2": "District","CC_2": "NA","HASC_2": "TR.KO.AS","name": "Akşehir.county","area_km2": 820.1688,"hist_schema_id": "Elevation0-9000","hist_area_km2": {"950": 104.1808,"975": 115.0284,"1000": 73.3627,"1025": 56.9087,"1050": 55.0283,"1075": 55.805,"1100": 41.1516,"1125": 29.6684,"1150": 20.2959,"1175": 9.6685,"1200": 7.9704,"1225": 6.7046,"1250": 6.0551,"1275": 5.2731,"1300": 5.0555,"1325": 5.0389,"1350": 4.9552,"1375": 4.9892,"1400": 5.4719,"1425": 5.6554,"1450": 6.2041,"1475": 6.6534,"1500": 7.3032,"1525": 8.4523,"1550": 8.8678,"1575": 8.9188,"1600": 9.2511,"1625": 10.1164,"1650": 10.3658,"1675": 10.1001,"1700": 10.8475,"1725": 10.881,"1750": 10.1818,"1775": 9.3501,"1800": 9.3836,"1825": 8.5186,"1850": 8.8019,"1875": 8.5679,"1900": 7.686,"1925": 6.9201,"1950": 5.4568,"1975": 4.5408,"2000": 3.2596,"2025": 2.6773,"2050": 2.1786,"2075": 1.5465,"2100": 1.2804,"2125": 1.0307,"2150": 0.615,"2175": 0.5817,"2200": 0.4487,"2225": 0.1994,"2250": 0.2326,"2275": 0.2991,"2300": 0.1163,"2325": 0.0665}}}