{"type": "Feature","bbox": [29.7407,37.9844,29.9721,38.1035],"geometry": {"type": "MultiPolygon","coordinates": [[[[29.9721,37.9946,973.4334],[29.9629,38.0158,950.0477],[29.9543,38.0296,910.6611],[29.9487,38.0481,900.8874],[29.9394,38.0645,895.8374],[29.9332,38.0859,901.8439],[29.9245,38.1035,937.0573],[29.8892,38.0948,980.8947],[29.8477,38.0671,973.7044],[29.8293,38.0599,963.139],[29.8025,38.0438,1021.3425],[29.757,38.0264,1042.516],[29.7407,38.017,1154.2581],[29.7541,38.009,1156.0555],[29.7837,37.9966,1013.087],[29.8199,37.9844,947.8353],[29.8299,37.985,941.751],[29.8472,37.9908,918.8691],[29.8619,37.9931,908.5046],[29.9292,37.9924,888.4154],[29.9721,37.9946,973.4334]]]]}
,"properties": {"GID_2": "TUR.3.9_1","GID_0": "TUR","country": "Turkey","GID_1": "TUR.3_1","province": "Afyon","NL_NAME_1": "NA","county": "Evciler","VARNAME_2": "NA","NL_NAME_2": "NA","TYPE_2": "District","ENGTYPE_2": "District","CC_2": "NA","HASC_2": "TR.AF.EV","name": "Evciler.county","area_km2": 145.8091,"hist_schema_id": "Elevation0-9000","hist_area_km2": {"875": 11.2763,"900": 50.2166,"925": 29.0384,"950": 21.3562,"975": 13.2426,"1000": 5.6291,"1025": 3.9086,"1050": 3.9084,"1075": 3.1235,"1100": 2.4387,"1125": 1.3197,"1150": 0.3341,"1175": 0.0167}}}