{"type":"Feature","properties":{"GID_2":"TUR.59.5_1","GID_0":"TUR","country":"Turkey","GID_1":"TUR.59_1","province":"Mugla","NL_NAME_1":"NA","county":"Kavaklıdere","VARNAME_2":"NA","NL_NAME_2":"NA","TYPE_2":"District","ENGTYPE_2":"District","CC_2":"NA","HASC_2":"TR.MG.KA","name":"Kavaklıdere.county"},
"geometry":{"type": "MultiPolygon","coordinates": [[[[28.2531,37.5757,1127.3263],[28.2364,37.5721,1063.5681],[28.2205,37.5622,863.9329],[28.2121,37.5539,784.8387],[28.2033,37.5396,723.9042],[28.187,37.5216,563.5905],[28.2401,37.4804,542.6547],[28.2616,37.4544,756.7819],[28.2693,37.4498,800.8158],[28.2873,37.4428,917.0482],[28.3047,37.4301,859.1826],[28.3103,37.4235,1054.2092],[28.3302,37.3904,1246.2405],[28.3412,37.381,1142.3857],[28.3894,37.3627,1747.9479],[28.4177,37.3428,1441.2466],[28.4541,37.3612,1348.0433],[28.4602,37.3671,1065.5193],[28.4886,37.4111,622.9262],[28.4917,37.4192,706.8383],[28.4931,37.4553,1102.1804],[28.4951,37.467,1265.6248],[28.4992,37.4745,1248.4723],[28.5165,37.4952,693.3292],[28.4894,37.493899999999996,1012.8715],[28.4711,37.4949,894.7206],[28.4611,37.4972,809.1911],[28.4341,37.5076,770.7111],[28.4196,37.5162,919.1311],[28.3659,37.5572,881.1219],[28.3417,37.5679,1025.2332],[28.3121,37.5851,992.9828],[28.3016,37.5869,964.0122],[28.2875,37.5861,1021.8455],[28.2666,37.5786,1246.1002],[28.2531,37.5757,1127.3263]]]]}}