{"type": "Feature","bbox": [34.2046,38.5688,34.7578,38.9101],"geometry": {"type": "MultiPolygon","coordinates": [[[[34.3016,38.5688,1129.6968],[34.3359,38.5748,1156.9419],[34.3662,38.5859,1523.4144],[34.3993,38.5993,1189.2478],[34.4229,38.6132,1308.9512],[34.4414,38.6205,1234.2224],[34.4514,38.6271,1146.2828],[34.4568,38.6366,1114.028],[34.4566,38.6443,1106.446],[34.4544,38.649,1084.8507],[34.4342,38.6618,1095.5879],[34.431,38.6659,1078.7639],[34.4296,38.6711,1060.5811],[34.4305,38.6765,1064.6428],[34.4336,38.6809,1073.1035],[34.4434,38.6875,1020.9971],[34.4706,38.6971,996.7568],[34.5012,38.703,1006.7473],[34.5243,38.7117,1019.1041],[34.605,38.7123,1023.3167],[34.6213,38.7147,1009.5526],[34.6465,38.7222,987.7501],[34.7043,38.7244,999.4575],[34.7211,38.7304,994.4714],[34.7555,38.753,929.6825],[34.7578,38.7682,952.0833],[34.7571,38.7835,982.6466],[34.7547,38.7922,1023.145],[34.7449,38.8119,1085.1697],[34.7422,38.8649,1058.4908],[34.7398,38.8737,1094.2665],[34.7311,38.8903,1101.057],[34.7284,38.9097,1170.0887],[34.6885,38.9101,1105.1699],[34.67,38.9071,1126.4229],[34.6598,38.9008,1108.7798],[34.6487,38.8858,1076.5999],[34.642,38.8804,1132.7469],[34.6331,38.8765,1156.9818],[34.6216,38.8748,1174.4542],[34.5056,38.8752,1234.6124],[34.4895,38.878,1146.1865],[34.473,38.8867,1081.7043],[34.4595,38.8837,1062.0123],[34.4419,38.8775,1052.2311],[34.428,38.876,1036.8561],[34.4141,38.8776,1039.5692],[34.3966,38.8838,1035.953],[34.3853,38.8859,1026.5785],[34.3654,38.8867,1018.9296],[34.3395,38.8855,932.2395],[34.3218,38.8742,870.3135],[34.3145,38.8675,882.2491],[34.309,38.857,912.1404],[34.3072,38.8261,930.0942],[34.303,38.8159,958.206],[34.294,38.8084,977.8143],[34.2762,38.8013,1011.3994],[34.2626,38.7937,1044.8663],[34.2593,38.7831,1088.3035],[34.2498,38.7667,1221.7535],[34.2443,38.7481,1263.3954],[34.2065,38.6908,1108.0159],[34.2047,38.6858,1110.6388],[34.2046,38.6804,1117.04],[34.2076,38.6731,1120.8488],[34.2234,38.6509,1150.4664],[34.2308,38.6458,1157.8667],[34.2543,38.6358,1116.4945],[34.273,38.6205,1114.7051],[34.2896,38.5949,1117.666],[34.3016,38.5688,1129.6968]]]]}
,"properties": {"GID_2": "TUR.61.4_1","GID_0": "TUR","country": "Turkey","GID_1": "TUR.61_1","province": "Nevsehir","NL_NAME_1": "NA","county": "Gülşehir","VARNAME_2": "NA","NL_NAME_2": "NA","TYPE_2": "District","ENGTYPE_2": "District","CC_2": "NA","HASC_2": "TR.NV.GU","name": "Gülşehir.county","area_km2": 1017.4722,"hist_schema_id": "Elevation0-9000","hist_area_km2": {"875": 24.9861,"900": 59.5363,"925": 79.5226,"950": 95.0593,"975": 98.0659,"1000": 97.1279,"1025": 84.2049,"1050": 61.9251,"1075": 53.8405,"1100": 74.1643,"1125": 77.0177,"1150": 46.5093,"1175": 35.7008,"1200": 25.5532,"1225": 19.4119,"1250": 17.5889,"1275": 15.4867,"1300": 13.0875,"1325": 9.2692,"1350": 7.4181,"1375": 5.9152,"1400": 4.5772,"1425": 3.2389,"1450": 2.7928,"1475": 2.1485,"1500": 1.4549,"1525": 0.8269,"1550": 0.5294,"1575": 0.2479,"1600": 0.1156,"1625": 0.0495,"1650": 0.0826,"1675": 0.0165}}}