{"type":"Feature","properties":{"GID_2":"TUR.3.1_1","GID_0":"TUR","country":"Turkey","GID_1":"TUR.3_1","province":"Afyon","NL_NAME_1":"NA","county":"Başmakçı","VARNAME_2":"NA","NL_NAME_2":"NA","TYPE_2":"District","ENGTYPE_2":"District","CC_2":"NA","HASC_2":"TR.AF.BM","name":"Başmakçı.county"},
"geometry":{"type": "MultiPolygon","coordinates": [[[[29.8154,37.8191,836.0],[29.8162,37.8049,836.0],[29.8196,37.7943,836.5],[29.833,37.7733,841.9982],[29.8453,37.7608,1121.4055],[29.8587,37.7684,1277.6865],[29.869,37.7713,1513.9165],[29.9268,37.7738,1376.5347],[29.9517,37.7817,1478.0106],[29.967,37.784,1744.545],[29.9905,37.7824,1751.0374],[30.0,37.7788,1639.5574],[30.0105,37.7723,1452.4971],[30.0767,37.7732,1834.1466],[30.0905,37.7767,1667.2717],[30.1173,37.7873,1085.1027],[30.1416,37.8019,1071.2223],[30.1671,37.8139,1062.2542],[30.1732,37.8199,1139.6846],[30.183,37.8335,1310.3364],[30.1996,37.8497,1291.0592],[30.2032,37.8569,1507.4542],[30.2034,37.8622,1624.7614],[30.1826,37.9012,1437.8214],[30.1141,37.927,1311.4232],[30.1002,37.9358,1185.101],[30.069,37.9599,1047.2256],[30.0548,37.9682,998.3447],[29.9878,37.9927,964.3289],[29.9721,37.9946,973.4334],[29.9292,37.9924,888.4154],[29.9091,37.9692,867.7299],[29.9019,37.9483,890.6846],[29.8928,37.9316,874.0239],[29.8906,37.9165,857.0623],[29.8908,37.8667,837.7354],[29.889,37.8577,837.5],[29.8861,37.8522,837.0],[29.877,37.8431,836.0],[29.8656,37.8357,836.0],[29.8558,37.8321,836.0],[29.8321,37.8275,836.0],[29.8154,37.8191,836.0]]]]}}