{"type":"Feature","properties":{"GID_2":"TUR.21.8_1","GID_0":"TUR","country":"Turkey","GID_1":"TUR.21_1","province":"Bursa","NL_NAME_1":"NA","county":"Keles","VARNAME_2":"NA","NL_NAME_2":"NA","TYPE_2":"District","ENGTYPE_2":"District","CC_2":"NA","HASC_2":"TR.BU.KL","name":"Keles.county"},
"geometry":{"type": "MultiPolygon","coordinates": [[[[29.2988,39.7331,1027.0254],[29.3061,39.7413,969.2754],[29.3136,39.7532,915.4833],[29.3347,39.7739,922.1114],[29.3458,39.7993,630.2443],[29.366,39.8229,788.9113],[29.3729,39.844,952.3317],[29.382,39.8604,1055.2174],[29.3878,39.8789,1407.4939],[29.4068,39.9065,1686.6765],[29.3676,39.9181,1491.613],[29.3569,39.9247,1272.9304],[29.3456,39.9346,1348.6066],[29.3347,39.951,1692.8097],[29.314,39.9719,1658.9419],[29.2969,39.9972,1590.7067],[29.283,40.0207,1801.8364],[29.2813,40.0287,1903.6833],[29.282,40.0374,2338.0918],[29.2561,40.043,2170.2739],[29.2284,40.0424,1534.6759],[29.2142,40.0377,1428.7819],[29.1829,40.0155,974.4367],[29.1695,40.0098,983.0327],[29.1501,40.0079,824.5002],[29.0819,40.0076,793.533],[29.0393,39.9967,1013.6284],[29.0402,39.986,878.0116],[29.0427,39.9788,907.77],[29.0645,39.9627,1291.6373],[29.0823,39.9348,734.5958],[29.0842,39.923,640.1102],[29.0853,39.8897,545.4265],[29.0921,39.8685,483.6604],[29.0846,39.848,759.5927],[29.0843,39.8312,914.8812],[29.0884,39.8205,881.3148],[29.0947,39.8136,955.4956],[29.129,39.7864,601.0579],[29.145,39.7775,688.3085],[29.1752,39.7661,662.2011],[29.1992,39.7619,777.5747],[29.2203,39.7546,946.0704],[29.2476,39.7495,958.5636],[29.2651,39.7426,913.8218],[29.2988,39.7331,1027.0254]]]]}}