{"type": "Feature","bbox": [29.4526,40.3599,29.9415,40.6134],"geometry": {"type": "MultiPolygon","coordinates": [[[[29.9415,40.5315,961.5704],[29.938,40.542,1167.7925],[29.9288,40.5585,1044.8069],[29.9249,40.5775,1024.8878],[29.9013,40.58,900.1328],[29.8801,40.5871,816.1118],[29.8563,40.5916,970.0906],[29.8053,40.6108,746.087],[29.7863,40.6134,811.2362],[29.7513,40.6117,774.405],[29.7073,40.5971,625.0875],[29.6725,40.5877,638.1434],[29.6249,40.5692,649.663],[29.5978,40.5638,498.5492],[29.5763,40.5568,520.916],[29.5529,40.555,344.2551],[29.4526,40.5552,500.6991],[29.4724,40.5308,429.7369],[29.4752,40.5215,408.3878],[29.4786,40.4895,83.0],[29.4893,40.4666,83.0],[29.491,40.4475,83.0],[29.4906,40.368899999999996,503.8693],[29.5036,40.3617,758.9498],[29.5132,40.3599,607.4171],[29.5524,40.3682,398.8828],[29.6469,40.3699,373.2939],[29.6761,40.3783,341.2493],[29.7108,40.3823,291.5599],[29.7361,40.3899,323.0875],[29.7746,40.3946,510.9028],[29.8053,40.4101,245.4984],[29.8092,40.4258,407.0354],[29.8236,40.4494,662.6367],[29.8426,40.4771,978.6065],[29.8569,40.4898,1090.377],[29.8916,40.5151,1056.6938],[29.9247,40.5282,1137.2974],[29.9415,40.5315,961.5704]]]]}
,"properties": {"GID_2": "TUR.21.6_1","GID_0": "TUR","country": "Turkey","GID_1": "TUR.21_1","province": "Bursa","NL_NAME_1": "NA","county": "İznik","VARNAME_2": "NA","NL_NAME_2": "NA","TYPE_2": "District","ENGTYPE_2": "District","CC_2": "NA","HASC_2": "TR.BU.IZ","name": "İznik.county","area_km2": 735.1592,"hist_schema_id": "Elevation0-9000","hist_area_km2": {"75": 190.5872,"100": 43.4185,"125": 19.6832,"150": 15.6004,"175": 13.7289,"200": 12.342,"225": 11.6961,"250": 12.1803,"275": 13.2428,"300": 14.1771,"325": 16.4978,"350": 16.1256,"375": 16.6224,"400": 15.2176,"425": 15.2806,"450": 15.4411,"475": 16.2288,"500": 16.0676,"525": 15.0355,"550": 15.9537,"575": 15.3087,"600": 14.4061,"625": 13.4867,"650": 12.4232,"675": 10.2479,"700": 9.6513,"725": 10.3612,"750": 9.1689,"775": 9.3626,"800": 9.7808,"825": 12.0681,"850": 14.3076,"875": 13.3562,"900": 13.8711,"925": 12.4845,"950": 12.0803,"975": 8.28,"1000": 6.5565,"1025": 5.236,"1050": 4.0759,"1075": 3.6091,"1100": 3.6251,"1125": 2.6262,"1150": 1.6919,"1175": 1.1279,"1200": 0.5801,"1225": 0.145,"1250": 0.1128}}}