{"type": "Feature","bbox": [32.3915,41.2923,32.9256,41.711],"geometry": {"type": "MultiPolygon","coordinates": [[[[32.4919,41.2923,1211.5889],[32.5273,41.3075,1452.6243],[32.6033,41.3363,1517.2656],[32.6318,41.3558,1598.5997],[32.6526,41.3731,1471.2559],[32.6583,41.3805,1483.2787],[32.6651,41.4016,1332.9158],[32.6743,41.4179,880.6027],[32.6795,41.4366,532.8766],[32.6979,41.464,420.5912],[32.7081,41.4705,584.0116],[32.7556,41.4892,862.946],[32.764,41.497,891.9042],[32.7755,41.5138,1068.3962],[32.7907,41.5258,1029.0955],[32.8001,41.5286,1073.6293],[32.8091,41.527,1082.6434],[32.8232,41.5131,853.3044],[32.8581,41.5285,735.0881],[32.9256,41.554,1178.1385],[32.8551,41.5801,1130.8875],[32.831,41.5918,1001.3395],[32.8144,41.6127,1015.6434],[32.8005,41.6364,737.3858],[32.7939,41.6576,503.6062],[32.7744,41.6843,892.7413],[32.7633,41.711,1098.2822],[32.7267,41.6869,1232.5214],[32.7055,41.6784,1117.3267],[32.6787,41.6624,1090.9806],[32.6546,41.6522,1199.9906],[32.5943,41.6073,544.7721],[32.5616,41.5922,388.5551],[32.5073,41.5505,554.5476],[32.5008,41.544,223.9825],[32.4859,41.5206,713.5571],[32.4826,41.5108,702.2247],[32.4801,41.4902,632.3284],[32.4751,41.4806,519.0939],[32.4474,41.4525,418.1682],[32.4317,41.4446,275.4372],[32.4109,41.4304,414.4869],[32.399,41.4206,167.6991],[32.3927,41.4114,290.1567],[32.3915,41.4065,287.8515],[32.3925,41.3942,373.2904],[32.4084,41.3688,732.6505],[32.4197,41.3596,603.4187],[32.446,41.3481,1018.3835],[32.4709,41.3292,1081.7488],[32.4798,41.3185,1247.2997],[32.4919,41.2923,1211.5889]]]]}
,"properties": {"GID_2": "TUR.13.4_1","GID_0": "TUR","country": "Turkey","GID_1": "TUR.13_1","province": "Bartın","NL_NAME_1": "NA","county": "Ulus","VARNAME_2": "NA","NL_NAME_2": "NA","TYPE_2": "District","ENGTYPE_2": "District","CC_2": "NA","HASC_2": "TR.BR.UL","name": "Ulus.county","area_km2": 840.6323,"hist_schema_id": "Elevation0-9000","hist_area_km2": {"75": 0.3175,"100": 4.3649,"125": 6.2063,"150": 8.3959,"175": 11.5869,"200": 14.2853,"225": 17.0143,"250": 20.3637,"275": 24.06,"300": 26.3925,"325": 27.283,"350": 28.0616,"375": 29.5711,"400": 28.7946,"425": 28.1141,"450": 27.753,"475": 27.4047,"500": 25.0414,"525": 24.6783,"550": 22.9001,"575": 20.9475,"600": 20.8534,"625": 18.1043,"650": 17.5007,"675": 16.0395,"700": 13.7351,"725": 12.1315,"750": 11.8926,"775": 10.7491,"800": 10.8919,"825": 11.3842,"850": 10.5576,"875": 9.9862,"900": 9.3828,"925": 8.8587,"950": 9.0803,"975": 11.8577,"1000": 13.6471,"1025": 14.3955,"1050": 16.1875,"1075": 16.9198,"1100": 15.887,"1125": 15.3019,"1150": 11.6536,"1175": 7.7208,"1200": 6.7886,"1225": 6.5835,"1250": 7.2035,"1275": 6.7134,"1300": 7.1427,"1325": 7.8605,"1350": 7.209,"1375": 6.4933,"1400": 6.5892,"1425": 6.0803,"1450": 6.5577,"1475": 6.3192,"1500": 5.619,"1525": 4.2501,"1550": 3.1677,"1575": 2.7378,"1600": 1.91,"1625": 1.528,"1650": 1.0186,"1675": 0.3342,"1700": 0.1751,"1725": 0.0955}}}