{"type":"Feature","properties":{"GID_2":"TUR.47.13_1","GID_0":"TUR","country":"Turkey","GID_1":"TUR.47_1","province":"Kayseri","NL_NAME_1":"NA","county":"Talas","VARNAME_2":"NA","NL_NAME_2":"NA","TYPE_2":"District","ENGTYPE_2":"District","CC_2":"NA","HASC_2":"TR.KY.TA","name":"Talas.county"},
"geometry":{"type": "MultiPolygon","coordinates": [[[[35.7378,38.7518,1557.9775],[35.7029,38.7669,1384.8218],[35.6725,38.7699,1334.7441],[35.6338,38.768,1237.9967],[35.5909,38.7509,1151.3323],[35.5663,38.7326,1125.1887],[35.5686,38.7143,1171.6034],[35.5656,38.7005,1160.4553],[35.5443,38.6774,1263.3541],[35.5363,38.6657,1377.0442],[35.5301,38.6599,1325.8718],[35.522,38.6554,1336.9264],[35.4937,38.6494,1392.4617],[35.4901,38.6309,1599.5663],[35.4819,38.617,1686.1597],[35.4729,38.5963,2179.4844],[35.5069,38.5946,1968.9216],[35.5404,38.5953,1880.5768],[35.5524,38.5974,1947.8843],[35.5818,38.6081,1691.1194],[35.6272,38.6068,1747.6055],[35.6424,38.609,1687.847],[35.6602,38.6152,1730.7708],[35.6715,38.6172,1647.3538],[35.7362,38.6184,1565.0319],[35.7508,38.6213,1547.8215],[35.7857,38.6358,1544.3157],[35.7974,38.6435,1552.8568],[35.7919,38.6725,1763.0769],[35.7827,38.6889,1750.8091],[35.7741,38.7125,1872.6498],[35.7541,38.733,1736.1017],[35.7443,38.7464,1635.3662],[35.7378,38.7518,1557.9775]]]]}}