{"type":"Feature","properties":{"GID_2":"TUR.9.5_1","GID_0":"TUR","country":"Turkey","GID_1":"TUR.9_1","province":"Ardahan","NL_NAME_1":"NA","county":"Merkez","VARNAME_2":"Ardahan","NL_NAME_2":"NA","TYPE_2":"District","ENGTYPE_2":"District","CC_2":"NA","HASC_2":"TR.AR.AR","name":"Merkez.county"},
"geometry":{"type": "MultiPolygon","coordinates": [[[[42.9056,41.1866,1773.3776],[42.7347,41.1854,2129.1626],[42.7015,41.1867,2331.9453],[42.6725,41.1952,2250.3364],[42.6488,41.1999,2145.0596],[42.5832,41.2264,2370.8315],[42.5699,41.1981,2149.5662],[42.5574,41.1856,2102.8481],[42.5442,41.1773,2244.8738],[42.4983,41.1605,2400.2607],[42.4896,41.156,2492.9141],[42.4248,41.1064,2409.6912],[42.405,41.0869,2556.2581],[42.3984,41.0853,2629.7722],[42.3885,41.0589,1995.24],[42.3647,41.0335,2079.686],[42.3439,41.0005,2370.2466],[42.3308,40.9829,2390.5051],[42.3308,40.9349,2104.7158],[42.3625,40.9511,2174.6548],[42.3897,40.9613,2213.6272],[42.4038,40.9642,2223.9197],[42.4619,40.9646,2098.5884],[42.4805,40.9669,2015.9092],[42.5105,40.9785,2533.833],[42.5431,40.9969,2699.3389],[42.5623,40.9996,2392.4321],[42.6795,40.9988,2080.0156],[42.6939,40.996,2081.6345],[42.7086,40.9906,2149.6396],[42.7357,40.9853,2101.9146],[42.7691,40.9724,2240.5654],[42.8132,40.9432,2148.4763],[42.8434,40.932,2305.189],[42.8736,40.9257,2030.8199],[42.9002,40.9113,2113.8267],[42.9152,40.9275,2102.0967],[42.9333,40.9391,2085.167],[42.9935,40.9618,2413.1968],[43.0422,40.9705,2775.1694],[43.0345,40.9982,2783.7866],[43.0181,41.024,2561.3684],[43.0064,41.035,2387.2385],[42.954,41.0769,2173.9119],[42.92,41.128,1945.282],[42.9068,41.149,1893.2006],[42.9037,41.1568,1987.5602],[42.9029,41.171,1822.7603],[42.9056,41.1866,1773.3776]]]]}}