{"type": "Feature","bbox": [31.3463,37.4331,32.0082,37.9798],"geometry": {"type": "MultiPolygon","coordinates": [[[[31.3658,37.5499,1479.1917],[31.3625,37.5348,1485.6399],[31.3599,37.4872,1426.7896],[31.3463,37.457,1472.905],[31.454,37.4563,1298.1862],[31.4652,37.4544,1417.8502],[31.4863,37.4472,1498.7234],[31.5099,37.4423,1267.5208],[31.5313,37.4348,1346.3633],[31.5509,37.4331,1332.4521],[31.5666,37.4346,1418.0883],[31.5738,37.4369,1516.4976],[31.5882,37.446,1561.5967],[31.5992,37.4576,1452.6257],[31.6097,37.4764,1464.623],[31.6584,37.5126,1753.1282],[31.6779,37.5247,1658.4968],[31.7049,37.5351,1306.2209],[31.7149,37.5374,1328.3678],[31.7967,37.538,1148.2327],[31.8072,37.5395,1180.0234],[31.8162,37.5432,1162.2621],[31.8247,37.5508,1156.1976],[31.836,37.5672,1134.0846],[31.8615,37.5879,1117.162],[31.8733,37.5943,1125.2064],[31.9192,37.6112,1158.9225],[31.9371,37.6234,1206.8663],[31.9449,37.632,1247.7352],[31.9743,37.6788,1456.5688],[31.98,37.6973,1530.9966],[32.0044,37.7369,1793.2903],[32.007,37.7461,1987.1168],[32.0082,37.8377,1617.7013],[32.0072,37.8538,1549.795],[32.0047,37.863,1444.8057],[31.9847,37.8999,1356.075],[31.9483,37.8988,1400.9694],[31.9375,37.9002,1414.4919],[31.9276,37.904,1258.1752],[31.9115,37.9159,1262.345],[31.896,37.9376,1327.9108],[31.8649,37.9671,1388.1512],[31.8445,37.9717,1366.4457],[31.8269,37.9782,1296.2625],[31.8165,37.9798,1331.3162],[31.7988,37.9785,1396.5358],[31.7792,37.9722,1384.0691],[31.7829,37.9514,1353.5845],[31.7817,37.9286,1300.0613],[31.7703,37.907,1316.6843],[31.7647,37.8884,1331.0046],[31.7484,37.8627,1229.8291],[31.7419,37.8561,1231.3739],[31.7001,37.8243,1157.1899],[31.6759,37.8139,1161.8694],[31.6492,37.7976,1127.5262],[31.6203,37.7875,1125.5927],[31.6116,37.7881,1135.2319],[31.5883,37.7961,1122.0],[31.5556,37.8095,1122.0],[31.5289,37.8258,1122.0],[31.5051,37.8359,1122.0],[31.4568,37.8713,1122.0],[31.4322,37.8812,1122.0],[31.44,37.8655,1122.0],[31.4523,37.8528,1122.0],[31.4524,37.7963,1122.0],[31.4507,37.778,1122.0],[31.4396,37.7559,1122.0],[31.4336,37.7375,1127.2579],[31.4255,37.7236,1137.0273],[31.4195,37.6938,1146.5881],[31.4104,37.677,1231.6665],[31.4045,37.6585,1420.3566],[31.3952,37.6422,1382.7083],[31.3917,37.6316,1626.172],[31.3892,37.612,1633.7317],[31.3792,37.5927,1564.3063],[31.3743,37.5656,1322.933],[31.3658,37.5499,1479.1917]]]]}
,"properties": {"GID_2": "TUR.53.5_1","GID_0": "TUR","country": "Turkey","GID_1": "TUR.53_1","province": "Konya","NL_NAME_1": "NA","county": "Beyşehir","VARNAME_2": "NA","NL_NAME_2": "NA","TYPE_2": "District","ENGTYPE_2": "District","CC_2": "NA","HASC_2": "TR.KO.BE","name": "Beyşehir.county","area_km2": 2015.725,"hist_schema_id": "Elevation0-9000","hist_area_km2": {"1100": 7.206,"1125": 590.097,"1150": 125.615,"1175": 152.425,"1200": 149.64,"1225": 137.723,"1250": 106.82,"1275": 108.068,"1300": 93.912,"1325": 72.644,"1350": 57.044,"1375": 49.592,"1400": 44.324,"1425": 38.805,"1450": 35.193,"1475": 29.965,"1500": 31.382,"1525": 28.606,"1550": 23.522,"1575": 23.122,"1600": 19.111,"1625": 15.386,"1650": 11.713,"1675": 9.518,"1700": 7.622,"1725": 6.363,"1750": 5.169,"1775": 4.968,"1800": 4.044,"1825": 3.908,"1850": 3.203,"1875": 3.303,"1900": 2.599,"1925": 2.23,"1950": 1.995,"1975": 1.761,"2000": 1.341,"2025": 1.173,"2050": 0.872,"2075": 0.771,"2100": 0.838,"2125": 0.738,"2150": 0.469,"2175": 0.302,"2200": 0.218,"2225": 0.134,"2250": 0.101,"2275": 0.101,"2300": 0.05,"2325": 0.017}}}