{"type": "Feature","bbox": [39.7345,38.4049,39.984,38.5712],"geometry": {"type": "MultiPolygon","coordinates": [[[[39.9834,38.4867,937.804],[39.984,38.5265,1113.2543],[39.9817,38.5411,1396.5493],[39.9768,38.549,1491.6005],[39.9696,38.5558,1605.6982],[39.946,38.5712,1505.9199],[39.9218,38.5649,1517.3219],[39.8135,38.5233,1321.1731],[39.7828,38.5215,1534.9209],[39.7345,38.5235,1710.7174],[39.7399,38.5119,1673.5488],[39.7421,38.5028,1494.048],[39.7431,38.4681,1751.155],[39.7453,38.4559,1560.311],[39.7502,38.4478,1602.8235],[39.768,38.4299,1201.0331],[39.7862,38.4049,1053.7979],[39.805,38.4191,955.8754],[39.8181,38.4329,905.2128],[39.8295,38.4531,960.0165],[39.8372,38.4767,1167.0909],[39.848,38.4913,1045.2899],[39.8553,38.4964,921.9968],[39.8732,38.4991,1002.3897],[39.9216,38.4982,1175.9177],[39.937,38.4958,1032.4424],[39.9582,38.4888,961.2566],[39.9834,38.4867,937.804]]]]}
,"properties": {"GID_2": "TUR.29.2_1","GID_0": "TUR","country": "Turkey","GID_1": "TUR.29_1","province": "Elazığ","NL_NAME_1": "NA","county": "Alacakaya","VARNAME_2": "NA","NL_NAME_2": "NA","TYPE_2": "District","ENGTYPE_2": "District","CC_2": "NA","HASC_2": "TR.EG.AL","name": "Alacakaya.county","area_km2": 169.8446,"hist_schema_id": "Elevation0-9000","hist_area_km2": {"875": 0.0498,"900": 0.5813,"925": 2.2421,"950": 4.6823,"975": 7.4044,"1000": 6.9885,"1025": 6.4734,"1050": 6.0913,"1075": 6.2566,"1100": 7.1353,"1125": 6.3383,"1150": 5.6584,"1175": 5.7908,"1200": 5.1437,"1225": 5.7077,"1250": 6.3217,"1275": 5.7242,"1300": 5.6741,"1325": 5.1266,"1350": 5.0767,"1375": 5.3585,"1400": 4.7943,"1425": 5.6735,"1450": 4.811,"1475": 4.7777,"1500": 4.6451,"1525": 4.0645,"1550": 3.8487,"1575": 3.8654,"1600": 3.6663,"1625": 3.6661,"1650": 3.5169,"1675": 3.4174,"1700": 2.3723,"1725": 2.0737,"1750": 1.3437,"1775": 0.7963,"1800": 0.4975,"1825": 0.4311,"1850": 0.3648,"1875": 0.315,"1900": 0.2819,"1925": 0.2653,"1950": 0.199,"1975": 0.1326,"2000": 0.0995,"2025": 0.0829,"2050": 0.0166}}}