{"type": "Feature","bbox": [31.1464,38.4266,31.6793,38.8073],"geometry": {"type": "MultiPolygon","coordinates": [[[[31.2275,38.6381,965.5577],[31.2321,38.6224,965.6694],[31.2414,38.6059,966.7082],[31.2466,38.5785,982.9954],[31.2554,38.5626,979.2656],[31.256,38.5547,979.1594],[31.2539,38.5495,981.3548],[31.2407,38.5365,991.4223],[31.2156,38.5198,1179.5024],[31.1824,38.5069,1358.5541],[31.1464,38.497,1775.3505],[31.1857,38.4678,1909.5547],[31.1938,38.4595,2157.2275],[31.2026,38.4455,2226.2998],[31.2093,38.4399,2256.8535],[31.2196,38.4352,1831.2823],[31.2504,38.4266,2123.7393],[31.2608,38.4277,1843.0492],[31.29,38.4382,1363.6504],[31.329,38.465,974.283],[31.3858,38.4879,951.5093],[31.4264,38.5157,951.7238],[31.5006,38.543,953.498],[31.5246,38.5578,954.9154],[31.5456,38.5664,955.7802],[31.5724,38.5826,958.7372],[31.6208,38.6012,972.0108],[31.6448,38.616,995.5599],[31.6659,38.6245,1056.0948],[31.6793,38.6326,1207.7],[31.6564,38.6493,1011.1501],[31.6323,38.6593,1037.6442],[31.6157,38.6704,1123.4648],[31.6066,38.6799,1067.5328],[31.5909,38.706,1096.7064],[31.5891,38.7172,1113.5973],[31.5904,38.7312,1024.5737],[31.6019,38.7528,1018.9308],[31.608,38.7712,1071.8135],[31.6162,38.785,1056.7168],[31.6185,38.7931,1057.3579],[31.6196,38.8073,1120.2915],[31.6031,38.8034,1070.5618],[31.5761,38.7877,1058.6174],[31.5276,38.7688,1081.5101],[31.4862,38.7412,1361.1858],[31.4725,38.7381,1269.5178],[31.436,38.7371,1313.7341],[31.4223,38.734,1414.6689],[31.4109,38.7274,1327.9014],[31.3798,38.7033,1297.8057],[31.3659,38.6945,1162.2072],[31.26,38.6541,965.7051],[31.2275,38.6381,965.5577]]]]}
,"properties": {"GID_2": "TUR.3.18_1","GID_0": "TUR","country": "Turkey","GID_1": "TUR.3_1","province": "Afyon","NL_NAME_1": "NA","county": "Sultandağı","VARNAME_2": "NA","NL_NAME_2": "NA","TYPE_2": "District","ENGTYPE_2": "District","CC_2": "NA","HASC_2": "TR.AF.SD","name": "Sultandağı.county","area_km2": 829.19,"hist_schema_id": "Elevation0-9000","hist_area_km2": {"950": 256.4972,"975": 117.1075,"1000": 42.3301,"1025": 27.8937,"1050": 39.3145,"1075": 24.3825,"1100": 18.4943,"1125": 17.8152,"1150": 18.0466,"1175": 20.0852,"1200": 20.7465,"1225": 20.1991,"1250": 18.8573,"1275": 17.2994,"1300": 19.6818,"1325": 19.4154,"1350": 15.7601,"1375": 15.0483,"1400": 13.4432,"1425": 12.2365,"1450": 11.4431,"1475": 7.7356,"1500": 8.1006,"1525": 6.4616,"1550": 4.9397,"1575": 3.8479,"1600": 2.5892,"1625": 2.9546,"1650": 2.5729,"1675": 2.3737,"1700": 2.3903,"1725": 2.075,"1750": 1.9588,"1775": 1.743,"1800": 1.4443,"1825": 1.0957,"1850": 1.0128,"1875": 0.9133,"1900": 0.9631,"1925": 0.7141,"1950": 0.5148,"1975": 0.5646,"2000": 0.5148,"2025": 0.4151,"2050": 0.3653,"2075": 0.3819,"2100": 0.5646,"2125": 0.5812,"2150": 0.8136,"2175": 0.548,"2200": 0.4982,"2225": 0.5314,"2250": 0.4483,"2275": 0.3321,"2300": 0.1162,"2325": 0.0166}}}