{"type": "Feature","bbox": [36.2261,36.196,36.706,36.3261],"geometry": {"type": "MultiPolygon","coordinates": [[[[36.6691,36.3189,190.5596],[36.6572,36.3118,188.7028],[36.6238,36.2828,178.1774],[36.6089,36.2625,191.9247],[36.6015,36.2576,238.0385],[36.5952,36.2559,197.6093],[36.5819,36.257,172.1449],[36.5554,36.2671,149.6175],[36.5334,36.2775,97.6426],[36.525,36.2843,98.5924],[36.5074,36.3111,92.8217],[36.5013,36.3172,91.093],[36.4899,36.3226,88.7714],[36.4757,36.3243,87.4474],[36.4365,36.3261,82.4854],[36.4163,36.3235,81.4997],[36.3996,36.3185,79.2203],[36.3729,36.3036,80.7321],[36.346,36.2978,78.2603],[36.3213,36.2902,81.0124],[36.2843,36.2892,80.3083],[36.2844,36.3008,80.0485],[36.2592,36.2988,79.6446],[36.2499,36.2955,80.4745],[36.2393,36.2892,103.7087],[36.2304,36.2824,111.0456],[36.2273,36.2786,109.9653],[36.2261,36.2741,96.5938],[36.2287,36.2694,86.6809],[36.2377,36.2675,86.0722],[36.2455,36.2707,83.9028],[36.2543,36.2775,83.0482],[36.2693,36.2775,83.7752],[36.2884,36.2631,85.9944],[36.301,36.257,90.6657],[36.3122,36.2551,93.0709],[36.3418,36.2542,86.0107],[36.3543,36.2503,88.2871],[36.3581,36.2457,88.105],[36.3601,36.2374,87.2616],[36.3592,36.196,95.3179],[36.3742,36.196,90.5995],[36.3848,36.2026,90.2292],[36.3993,36.2087,90.124],[36.3976,36.2127,88.1078],[36.3975,36.2232,87.6106],[36.4034,36.2264,86.8373],[36.4128,36.2231,86.6795],[36.4267,36.2145,86.7178],[36.4353,36.2113,89.0687],[36.4575,36.2084,121.6406],[36.4711,36.2018,159.0377],[36.4773,36.2029,126.3426],[36.4817,36.2055,119.6891],[36.4892,36.2187,105.1939],[36.4924,36.2328,92.6396],[36.4954,36.2345,92.5804],[36.5095,36.23,101.5648],[36.5228,36.2381,125.2354],[36.5426,36.2381,271.0181],[36.5574,36.2281,434.131],[36.5782,36.2324,202.8499],[36.5839,36.2321,192.1818],[36.6093,36.2175,243.3973],[36.6184,36.2166,241.47],[36.6274,36.2177,264.836],[36.6406,36.2292,318.8383],[36.6749,36.2293,415.2628],[36.6842,36.2373,421.3891],[36.7007,36.2443,513.6249],[36.7048,36.2503,463.4977],[36.706,36.2552,478.2561],[36.6958,36.266,349.9292],[36.6928,36.2716,366.1776],[36.6923,36.2764,337.0468],[36.6991,36.2871,340.0065],[36.7003,36.2922,254.1515],[36.6948,36.2969,252.1601],[36.6711,36.3024,198.6375],[36.6689,36.3094,186.8761],[36.6691,36.3189,190.5596]]]]}
,"properties": {"GID_2": "TUR.37.10_1","GID_0": "TUR","country": "Turkey","GID_1": "TUR.37_1","province": "Hatay","NL_NAME_1": "NA","county": "Reyhanlı","VARNAME_2": "NA","NL_NAME_2": "NA","TYPE_2": "District","ENGTYPE_2": "District","CC_2": "NA","HASC_2": "TR.HT.RE","name": "Reyhanlı.county","area_km2": 299.7298,"hist_schema_id": "Elevation0-9000","hist_area_km2": {"75": 125.5488,"100": 85.5677,"125": 3.5401,"150": 6.5314,"175": 9.4035,"200": 15.5221,"225": 11.454,"250": 10.2404,"275": 6.9414,"300": 5.095,"325": 4.7018,"350": 3.7787,"375": 3.2659,"400": 2.5136,"425": 2.069,"450": 1.8638,"475": 1.0601,"500": 0.4959,"525": 0.1197,"550": 0.0171}}}