{"type": "Feature","bbox": [33.4074,39.5098,33.6721,39.7959],"geometry": {"type": "MultiPolygon","coordinates": [[[[33.4358,39.5098,809.1755],[33.4621,39.536,824.0599],[33.4744,39.5543,968.7521],[33.4876,39.566,1240.4261],[33.6192,39.6675,1124.0491],[33.6324,39.6754,1151.7676],[33.6523,39.6832,1197.3555],[33.66,39.6896,1220.7606],[33.6694,39.7083,1365.4821],[33.6721,39.7177,1433.7017],[33.6614,39.7363,1467.8081],[33.6537,39.7449,1376.9529],[33.6414,39.7542,1233.2557],[33.6298,39.7598,1121.77],[33.6027,39.7697,1062.61],[33.5753,39.7746,994.1347],[33.5181,39.7959,765.1062],[33.5034,39.7871,759.3456],[33.4773,39.7668,693.5098],[33.4718,39.7596,698.5148],[33.4685,39.7453,704.5386],[33.4688,39.6972,720.0],[33.4666,39.6827,750.0784],[33.4414,39.6432,809.7543],[33.4313,39.6233,768.3135],[33.4327,39.6078,720.0],[33.4127,39.5759,738.834],[33.4081,39.5618,724.8239],[33.4074,39.5465,725.644],[33.4099,39.5316,741.818],[33.4168,39.5223,771.3029],[33.4358,39.5098,809.1755]]]]}
,"properties": {"GID_2": "TUR.49.7_1","GID_0": "TUR","country": "Turkey","GID_1": "TUR.49_1","province": "Kinkkale","NL_NAME_1": "NA","county": "Merkez","VARNAME_2": "Kirikkale","NL_NAME_2": "NA","TYPE_2": "District","ENGTYPE_2": "District","CC_2": "NA","HASC_2": "TR.KK.KK","name": "Merkez.county","area_km2": 335.9141,"hist_schema_id": "Elevation0-9000","hist_area_km2": {"675": 2.4452,"700": 5.1022,"725": 18.7462,"750": 13.5206,"775": 16.606,"800": 19.0395,"825": 15.5059,"850": 16.5797,"875": 16.8246,"900": 17.6073,"925": 19.1725,"950": 20.2336,"975": 20.3803,"1000": 18.8302,"1025": 20.1038,"1050": 14.0013,"1075": 9.3666,"1100": 7.7348,"1125": 7.6364,"1150": 8.0936,"1175": 6.7879,"1200": 6.575,"1225": 6.1019,"1250": 4.7801,"1275": 3.9481,"1300": 3.556,"1325": 3.3601,"1350": 3.3763,"1375": 2.7071,"1400": 2.071,"1425": 1.8101,"1450": 1.4676,"1475": 0.9458,"1500": 0.4565,"1525": 0.212,"1550": 0.1957,"1575": 0.0326}}}