{"type": "Feature","bbox": [31.9203,40.7502,32.0771,40.8771],"geometry": {"type": "MultiPolygon","coordinates": [[[[32.0525,40.7753,1009.1794],[32.0575,40.7865,1004.1629],[32.0585,40.7976,1061.309],[32.056,40.8084,1061.2145],[32.0484,40.8216,1127.7825],[32.0482,40.832,952.6678],[32.0618,40.8553,1103.8347],[32.0771,40.8738,1080.542],[32.0592,40.8771,1086.9078],[32.049,40.8771,1252.5278],[31.9982,40.8587,1325.7654],[31.9558,40.8537,1161.3442],[31.9462,40.8493,1105.1385],[31.9354,40.8413,1247.6995],[31.9285,40.8343,1317.6306],[31.9219,40.8233,1337.6478],[31.924,40.8056,1271.8926],[31.9244,40.7822,1176.2423],[31.9231,40.763,1171.9099],[31.9203,40.7502,1160.0996],[31.9792,40.7512,1245.9921],[31.9945,40.7528,1183.0642],[32.0284,40.7648,1076.1924],[32.0525,40.7753,1009.1794]]]]}
,"properties": {"GID_2": "TUR.19.9_1","GID_0": "TUR","country": "Turkey","GID_1": "TUR.19_1","province": "Bolu","NL_NAME_1": "NA","county": "Yeniçağa","VARNAME_2": "NA","NL_NAME_2": "NA","TYPE_2": "District","ENGTYPE_2": "District","CC_2": "NA","HASC_2": "TR.BL.YC","name": "Yeniçağa.county","area_km2": 127.32268,"hist_schema_id": "Elevation0-9000","hist_area_km2": {"900": 0.0802,"925": 0.12831,"950": 0.17644,"975": 0.41702,"1000": 20.25951,"1025": 5.5863,"1050": 6.21185,"1075": 8.15387,"1100": 10.83398,"1125": 10.70533,"1150": 7.1099,"1175": 7.9762,"1200": 7.57435,"1225": 7.91094,"1250": 5.91995,"1275": 5.02097,"1300": 5.37379,"1325": 4.95657,"1350": 3.7693,"1375": 3.20781,"1400": 3.12747,"1425": 2.19716,"1450": 0.57734,"1475": 0.04811}}}