{"type": "Feature","bbox": [43.4348,37.2292,43.999,37.4191],"geometry": {"type": "MultiPolygon","coordinates": [[[[43.999,37.2981,1812.6053],[43.9801,37.3078,1545.3776],[43.9696,37.3225,1415.09],[43.9405,37.3095,1733.8389],[43.9214,37.3076,2037.8201],[43.894,37.3077,1861.2614],[43.8714,37.3104,1539.2382],[43.8537,37.3169,1820.3187],[43.83,37.3216,1970.5654],[43.809,37.3289,2583.2869],[43.7785,37.3318,3015.0366],[43.7399,37.3299,1790.327],[43.6886,37.3105,1827.969],[43.6507,37.302,1092.447],[43.642,37.3015,1132.0594],[43.6161,37.3099,1482.4537],[43.6084,37.3147,1395.9667],[43.6024,37.3208,1613.024],[43.5734,37.3676,2535.6997],[43.5713,37.3763,2048.7209],[43.5697,37.4022,2645.6587],[43.5675,37.4071,2553.603],[43.5627,37.411,2408.1777],[43.5494,37.4138,2173.6768],[43.5189,37.4133,1892.6611],[43.5001,37.4113,1090.3895],[43.48,37.4067,1229.9663],[43.435,37.4191,2050.6875],[43.4348,37.3492,2121.2134],[43.4366,37.3352,1743.7438],[43.4413,37.3277,2042.8468],[43.4729,37.3003,1486.7388],[43.4903,37.2774,1641.3704],[43.501,37.2684,1321.7456],[43.5209,37.2608,1496.7194],[43.5559,37.2528,1027.3213],[43.5768,37.2581,880.8622],[43.5869,37.2533,1029.8844],[43.5925,37.2443,1219.627],[43.627,37.2364,1601.5316],[43.6666,37.2309,1816.7351],[43.697,37.2306,1859.8997],[43.7051,37.2349,1867.51],[43.7094,37.2354,1869.251],[43.7167,37.2304,1879.157],[43.7308,37.2341,1735.4191],[43.7366,37.2341,1702.9038],[43.7473,37.2301,1566.5109],[43.7546,37.23,1604.318],[43.7654,37.2329,1416.9473],[43.8012,37.2296,1284.7036],[43.8464,37.2292,1549.7035],[43.8962,37.2346,1732.6554],[43.9316,37.2454,1240.6128],[43.9513,37.2554,1693.6703],[43.967,37.2753,1709.3822],[43.9706,37.2867,1698.2212],[43.9786,37.2924,1823.6521],[43.999,37.2981,1812.6053]]]]}
,"properties": {"GID_2": "TUR.36.1_1","GID_0": "TUR","country": "Turkey","GID_1": "TUR.36_1","province": "Hakkari","NL_NAME_1": "NA","county": "Çukurca","VARNAME_2": "NA","NL_NAME_2": "NA","TYPE_2": "District","ENGTYPE_2": "District","CC_2": "NA","HASC_2": "TR.HK.CU","name": "Çukurca.county","area_km2": 501.1244,"hist_schema_id": "Elevation0-9000","hist_area_km2": {"775": 0.4556,"800": 1.0798,"825": 1.299,"850": 1.7712,"875": 2.26,"900": 3.002,"925": 3.3224,"950": 3.2379,"975": 4.4182,"1000": 4.5701,"1025": 4.5534,"1050": 4.9412,"1075": 5.3625,"1100": 5.9696,"1125": 5.3289,"1150": 5.4978,"1175": 6.2226,"1200": 6.0038,"1225": 6.6103,"1250": 6.9479,"1275": 6.7118,"1300": 7.7242,"1325": 7.9941,"1350": 8.7532,"1375": 9.6473,"1400": 10.1364,"1425": 10.2046,"1450": 11.1491,"1475": 12.1612,"1500": 12.3302,"1525": 12.6843,"1550": 13.1562,"1575": 13.0719,"1600": 14.0002,"1625": 14.2866,"1650": 14.7424,"1675": 15.0797,"1700": 14.4217,"1725": 14.9277,"1750": 14.2362,"1775": 13.6964,"1800": 13.325,"1825": 12.2287,"1850": 12.0597,"1875": 11.1996,"1900": 11.2499,"1925": 9.7149,"1950": 9.5965,"1975": 8.652,"2000": 7.927,"2025": 6.9317,"2050": 6.3409,"2075": 6.0707,"2100": 4.9746,"2125": 4.6878,"2150": 4.1483,"2175": 3.9962,"2200": 2.9675,"2225": 3.0347,"2250": 2.748,"2275": 2.2927,"2300": 2.0564,"2325": 1.8371,"2350": 1.8879,"2375": 1.5337,"2400": 1.7192,"2425": 1.6012,"2450": 1.5168,"2475": 1.281,"2500": 1.1294,"2525": 1.2642,"2550": 0.9271,"2575": 1.0957,"2600": 0.8259,"2625": 0.7249,"2650": 0.6911,"2675": 0.5732,"2700": 0.4552,"2725": 0.3878,"2750": 0.4215,"2775": 0.3203,"2800": 0.1517,"2825": 0.2023,"2850": 0.0843,"2875": 0.0337,"2900": 0.0169,"2925": 0.1012,"2950": 0.0506,"2975": 0.0337,"3000": 0.0506,"3050": 0.0337}}}