{"type": "Feature","bbox": [30.355,37.481,30.5667,37.609],"geometry": {"type": "MultiPolygon","coordinates": [[[[30.4606,37.609,1709.2308],[30.4354,37.6075,1377.3091],[30.4225,37.6023,1363.5236],[30.3738,37.5658,1293.4893],[30.3599,37.5525,1404.7598],[30.355,37.539,1207.47],[30.3556,37.5133,1295.1765],[30.3582,37.5052,1468.8248],[30.3702,37.4872,1670.76],[30.3823,37.483,1519.7742],[30.3967,37.481,1193.463],[30.4151,37.481,1179.4509],[30.4292,37.4831,1130.5491],[30.4924,37.5079,839.6296],[30.5187,37.5236,840.9232],[30.5399,37.5324,855.6052],[30.5667,37.5503,1306.7467],[30.5129,37.5909,1094.8622],[30.5013,37.5957,1099.9742],[30.4771,37.6001,1508.5596],[30.4606,37.609,1709.2308]]]]}
,"properties": {"GID_2": "TUR.20.5_1","GID_0": "TUR","country": "Turkey","GID_1": "TUR.20_1","province": "Burdur","NL_NAME_1": "NA","county": "Çeltikçi","VARNAME_2": "NA","NL_NAME_2": "NA","TYPE_2": "District","ENGTYPE_2": "District","CC_2": "NA","HASC_2": "TR.BD.CE","name": "Çeltikçi.county","area_km2": 170.832,"hist_schema_id": "Elevation0-9000","hist_area_km2": {"825": 0.0841,"850": 18.5151,"875": 8.8105,"900": 8.575,"925": 6.9772,"950": 6.9939,"975": 6.6238,"1000": 6.1531,"1025": 7.0945,"1050": 6.758,"1075": 6.3713,"1100": 6.2031,"1125": 6.354,"1150": 5.6144,"1175": 5.9505,"1200": 5.2109,"1225": 7.3619,"1250": 6.2695,"1275": 6.1182,"1300": 6.9086,"1325": 5.6644,"1350": 4.908,"1375": 4.2019,"1400": 3.5633,"1425": 2.908,"1450": 2.5883,"1475": 1.9665,"1500": 1.8825,"1525": 1.0924,"1550": 0.7899,"1575": 0.5378,"1600": 0.6048,"1625": 0.5042,"1650": 0.3026,"1675": 0.084,"1700": 0.1176,"1725": 0.084,"1750": 0.0672,"1775": 0.0168}}}