{"type":"Feature","properties":{"GID_2":"TUR.25.8_1","GID_0":"TUR","country":"Turkey","GID_1":"TUR.25_1","province":"Denizli","NL_NAME_1":"NA","county":"Buldan","VARNAME_2":"NA","NL_NAME_2":"NA","TYPE_2":"District","ENGTYPE_2":"District","CC_2":"NA","HASC_2":"TR.DN.BU","name":"Buldan.county"},
"geometry":{"type": "MultiPolygon","coordinates": [[[[28.8697,37.9827,659.3022],[28.9765,37.9831,148.0086],[28.9922,37.9865,144.8579],[29.0231,38.0003,206.1346],[29.0204,38.0169,319.5683],[29.02,38.0408,564.263],[29.0073,38.0461,445.6999],[28.9955,38.0603,314.9561],[28.9422,38.1447,885.4476],[28.9179,38.1699,785.6486],[28.9033,38.1933,740.5619],[28.8978,38.2119,874.8108],[28.8872,38.2308,990.2771],[28.8808,38.2518,1070.076],[28.8114,38.2256,551.4575],[28.8016,38.2189,354.5216],[28.7981,38.2145,329.7838],[28.7952,38.2061,291.8274],[28.7949,38.1581,657.0049],[28.7933,38.1494,586.6439],[28.7894,38.1419,558.8442],[28.7799,38.1293,543.2747],[28.7736,38.1239,594.9493],[28.7333,38.1072,701.4543],[28.7197,38.0993,780.8826],[28.7047,38.0876,856.4786],[28.7079,38.0814,1065.5415],[28.7168,38.0754,1242.849],[28.7431,38.0651,1214.2234],[28.7665,38.061,1252.7479],[28.7937,38.0507,1080.9022],[28.805,38.0444,993.4532],[28.8589,38.0024,1051.5625],[28.8664,37.9933,857.4938],[28.8697,37.9827,659.3022]]]]}}