{"type": "Feature","id": 139231.0,"bbox": [33.034434441021233,38.550177313275327,33.131602409771233,38.645880438275327],"geometry": {"type": "Polygon","coordinates": [[[33.074229362896233,38.564703680462827,919.5],[33.074229362896233,38.564703680462827,919.5],[33.108409050396233,38.550177313275327,921.1597],[33.131602409771233,38.558722235150327,920.0],[33.126231316021233,38.581671453900327,935.101],[33.107188347271233,38.602789617962827,935.9182],[33.087901237896233,38.626593328900327,934.7089],[33.070933464458733,38.645880438275327,942.9573],[33.061045769146233,38.639898992962827,921.6523],[33.042979362896233,38.626593328900327,921.0],[33.034434441021233,38.612311102337827,920.5164],[33.048594597271233,38.605475164837827,920.4915],[33.064707878521233,38.601874090619077,920.4789],[33.066416862896233,38.587897039837827,920.6568],[33.074229362896233,38.564703680462827,919.5]]]}
,"properties": {"name": null,"lge_id": null,"pfafstette": 31.0,"lke_type": null,"altitude": 922,"objectid": 87244,"scalerank": 11,"featurecla": "Lake","note": "_untitled_87244","funkyname": 0,"min_zoom": 6.7,"min_label": 7.7,"area_km2": 41.46074,"hist_schema_id": "Elevation0-9000","hist_area_km2": {"925": 40.84775,"950": 0.61299}}}