{"type": "Feature","id": "3011","bbox": [31.25435,36.67339,34.51224,39.2221],"geometry": {"type": "Polygon","coordinates": [[[33.46662,38.64358,902.5],[33.44491,38.68374,902.5],[33.41339,38.71968,902.5],[33.38724,38.75797,904.3361],[33.36616,38.79869,902.5],[33.36378,38.8568,904.8267],[33.37536,38.91458,902.5],[33.3796,38.96871,904.0],[33.37443,39.02255,904.0],[33.32058,39.11989,904.0],[33.22271,39.17523,1005.5996],[33.16607,39.18893,1133.0264],[33.14809,39.19678,1077.8748],[33.10478,39.2221,1056.4001],[33.06241,39.22208,993.8182],[33.04339,39.20208,1016.5799],[33.03212,39.17549,1120.0193],[33.02365,39.12361,1008.3085],[33.00908,39.10508,1022.6142],[32.96577,39.11051,1091.2078],[32.908,39.14495,1180.4299],[32.86004,39.1572,1404.3784],[32.75793,39.09208,1021.823],[32.72175,39.05441,1108.9041],[32.67607,39.03382,1077.3644],[32.60145,39.05839,1011.7791],[32.53799,39.0356,1102.5342],[32.47867,38.99715,1114.7405],[32.43598,39.0,1032.0629],[32.39971,39.02687,1060.1013],[32.36756,39.04129,1037.2479],[32.2823,39.06353,1077.2434],[32.23207,39.05896,977.5549],[32.12696,39.03423,973.0565],[32.09058,39.04348,951.7546],[31.94816,39.13642,807.3347],[31.90475,39.15658,883.9532],[31.86145,39.17143,864.1882],[31.85804,39.14218,931.9626],[31.85049,39.11356,859.7278],[31.8354,39.09787,816.3682],[31.75706,39.08635,851.1461],[31.69784,39.09263,893.9176],[31.68523,39.02599,926.676],[31.67903,39.01286,937.0182],[31.67469,39.00049,959.511],[31.70476,38.97638,957.3409],[31.72357,38.96747,930.7524],[31.71489,38.92765,1015.0717],[31.63831,38.8291,1188.3918],[31.60802,38.78208,1052.9446],[31.59221,38.72882,1026.7069],[31.59345,38.70865,1093.7408],[31.59831,38.68901,1078.0925],[31.5948,38.66637,1227.7964],[31.50715,38.57708,953.5352],[31.43077,38.51411,951.8911],[31.25435,38.42298,2002.8281],[31.28329,38.35006,1866.5098],[31.36142,38.30004,1608.0115],[31.42189,38.23808,1835.2062],[31.49144,38.1926,1994.1061],[31.52534,38.1809,1856.5946],[31.54829,38.1548,1665.1497],[31.62074,38.10465,1404.2531],[31.61361,38.07199,1843.4912],[31.54963,38.03969,1686.5751],[31.47945,38.01874,1315.7983],[31.4471,38.00277,1571.8965],[31.42519,37.93758,1122.0],[31.44824,37.85921,1122.0],[31.45072,37.78074,1122.0],[31.40928,37.72912,1168.8416],[31.40514,37.6815,1195.7408],[31.37269,37.6492,1437.1061],[31.32918,37.63887,1895.1046],[31.32928,37.60388,1908.9712],[31.35378,37.57378,1419.0569],[31.36773,37.53755,1408.1217],[31.35853,37.47761,1450.0505],[31.33187,37.42224,2069.2974],[31.35285,37.39984,1965.3685],[31.37641,37.37994,1691.2777],[31.41548,37.35485,1468.6979],[31.45899,37.34129,1765.4088],[31.55873,37.34072,1496.001],[31.81535,37.2985,1593.5472],[31.89865,37.25517,1824.4385],[31.96304,37.2076,1773.3641],[32.03311,37.16864,1875.3539],[32.08324,37.12662,2004.9697],[32.12789,37.07624,1909.1222],[32.15548,37.05464,2027.0054],[32.18587,37.03717,1871.8293],[32.25305,36.98694,1813.2999],[32.2916,36.97395,1892.2106],[32.32354,36.95821,1837.3762],[32.32715,36.92764,1843.875],[32.30163,36.9116,2131.104],[32.29026,36.88139,2123.2078],[32.30535,36.85418,2178.5854],[32.34865,36.84124,2290.9187],[32.39485,36.83786,1518.7456],[32.42637,36.83212,1446.2463],[32.44746,36.80827,1516.2295],[32.46317,36.74158,1440.5519],[32.45624,36.67339,1461.4653],[32.56838,36.74241,2059.4397],[32.71163,36.85548,1646.4695],[32.74181,36.89317,2095.5659],[32.74553,36.92333,1542.149],[32.73044,36.94971,1715.6179],[32.67018,36.95348,1801.6792],[32.60982,36.97609,1969.5262],[32.6029,37.01105,1455.9149],[32.62874,37.07787,1469.1624],[32.72289,37.17587,1323.1008],[32.84361,37.3078,1048.0337],[32.96143,37.4126,1031.3447],[33.01321,37.45857,1007.2614],[33.10736,37.48872,1047.752],[33.25816,37.50381,1042.9968],[33.41267,37.51133,1007.8151],[33.51447,37.54148,999.7939],[33.56346,37.59424,1022.298],[33.59364,37.62442,1002.5286],[33.63891,37.64703,1066.7396],[33.73689,37.64326,1024.2816],[33.77833,37.63197,1012.2231],[33.78588,37.58295,1006.1207],[33.78216,37.56789,1003.8486],[33.80469,37.50381,997.3389],[33.91775,37.40578,1377.313],[33.99847,37.33599,1902.5835],[34.05728,37.28517,1882.8123],[34.12508,37.19473,2625.324],[34.14895,37.15502,2307.7002],[34.18316,37.18794,2741.4956],[34.21045,37.2013,2818.8066],[34.29789,37.22543,2888.4534],[34.3539,37.24801,2992.4043],[34.39855,37.28225,2790.4641],[34.42883,37.29473,2846.6333],[34.48185,37.30891,2929.9238],[34.50015,37.31994,2790.7397],[34.51224,37.35198,2756.6616],[34.48909,37.39493,2758.9375],[34.45199,37.42722,2171.1006],[34.42718,37.44324,2129.374],[34.38915,37.48647,1578.0682],[34.38873,37.51593,1648.7036],[34.39411,37.56107,1669.3896],[34.41054,37.58685,1337.4609],[34.43287,37.60856,1330.5919],[34.45684,37.66031,1205.9303],[34.44547,37.71713,1076.2048],[34.41281,37.75315,1050.7539],[34.37333,37.78353,1049.9773],[34.33871,37.83214,1058.6848],[34.30047,37.87529,1135.269],[34.25417,37.89495,1136.759],[34.20632,37.90993,1213.2958],[34.17314,37.9506,1180.9016],[34.15981,38.00225,1252.0151],[34.08488,38.01181,1219.9778],[34.00943,37.99815,1106.8367],[33.93212,37.9736,1083.3296],[33.85378,37.95781,1071.1549],[33.77461,37.96084,1101.9489],[33.61886,37.9521,1065.3737],[33.49969,37.93179,1071.5151],[33.45608,37.93324,1033.4974],[33.41546,37.96373,1062.9153],[33.34849,38.0292,1043.4727],[33.33309,38.0677,1027.463],[33.32513,38.10884,1021.7765],[33.31428,38.11984,1019.3451],[33.30115,38.12705,1017.1113],[33.26467,38.20446,987.7686],[33.27211,38.28604,960.822],[33.28813,38.32012,955.6416],[33.29402,38.35712,953.0369],[33.31769,38.40983,945.8063],[33.35303,38.45264,931.4362],[33.3675,38.53152,909.1665],[33.38952,38.56486,905.2349],[33.4474,38.61612,902.5],[33.46662,38.64358,902.5]]]}
,"properties": {"ISO3166-1-Alpha-3": "TUR","country": "Turkey","fill": "#000","name": "Konya","area_km2": 40236.49,"hist_schema_id": "Elevation0-9000","hist_area_km2": {"800": 3.21,"825": 48.06,"850": 114.78,"875": 125.78,"900": 1343.33,"925": 1148.21,"950": 1781.5,"975": 2120.29,"1000": 5589.33,"1025": 3905.08,"1050": 3062.64,"1075": 2288.71,"1100": 1975.69,"1125": 1993.56,"1150": 1137.61,"1175": 1014.21,"1200": 801.06,"1225": 723.52,"1250": 643.6,"1275": 602.35,"1300": 563.32,"1325": 538.24,"1350": 531.21,"1375": 536.35,"1400": 560.71,"1425": 562.04,"1450": 513.06,"1475": 474.19,"1500": 432.68,"1525": 398.88,"1550": 355.07,"1575": 339.44,"1600": 319.45,"1625": 294.33,"1650": 274.78,"1675": 260.43,"1700": 234.52,"1725": 216.29,"1750": 203.09,"1775": 194.64,"1800": 185.49,"1825": 168.19,"1850": 160.6,"1875": 145.27,"1900": 134.77,"1925": 124.92,"1950": 106.02,"1975": 88.1,"2000": 74.05,"2025": 57.92,"2050": 45.05,"2075": 38.13,"2100": 30.44,"2125": 25.12,"2150": 23.5,"2175": 21.46,"2200": 22.8,"2225": 18.71,"2250": 18.31,"2275": 17.09,"2300": 17.1,"2325": 15.71,"2350": 14.43,"2375": 14.42,"2400": 14.57,"2425": 13.89,"2450": 13.31,"2475": 12.33,"2500": 12.72,"2525": 13.65,"2550": 14.41,"2575": 17.22,"2600": 17.73,"2625": 15.1,"2650": 16.56,"2675": 19.4,"2700": 25.53,"2725": 24.33,"2750": 27.25,"2775": 27.44,"2800": 21.67,"2825": 18.57,"2850": 20.88,"2875": 18.62,"2900": 15.67,"2925": 12.77,"2950": 10.69,"2975": 9.29,"3000": 6.98,"3025": 5.68,"3050": 4.64,"3075": 3.32,"3100": 3.37,"3125": 2.36,"3150": 1.4,"3175": 0.72,"3200": 0.49}}}