{"type": "Feature","bbox": [32.9138,40.9597,33.6669,41.4165],"geometry": {"type": "MultiPolygon","coordinates": [[[[33.4492,40.9623,1469.1626],[33.4489,40.9663,1395.6372],[33.4535,40.9704,1400.2734],[33.4669,40.9749,1415.0135],[33.478,40.981,1499.3445],[33.4967,40.9864,1601.2997],[33.5056,40.9912,1660.5328],[33.5163,40.9937,1623.3837],[33.5466,40.9945,1509.665],[33.5498,41.0008,1666.832],[33.5535,41.0043,1790.8922],[33.5775,41.016,2080.033],[33.608,41.0269,1966.6741],[33.632,41.0312,2047.826],[33.6532,41.0384,2172.3467],[33.6669,41.041,2164.6929],[33.6644,41.0489,2191.2625],[33.6598,41.056399999999996,1907.8293],[33.6421,41.0747,1737.2257],[33.6325,41.0892,1499.7808],[33.6205,41.1002,1535.0558],[33.6058,41.1089,1285.7543],[33.5597,41.1254,1281.1422],[33.5408,41.1337,1373.3008],[33.536,41.1369,1540.4066],[33.5331,41.1414,1611.2196],[33.5324,41.1518,1490.1946],[33.5362,41.1596,1422.4791],[33.5485,41.1702,1093.2792],[33.5696,41.1819,946.437],[33.5736,41.1879,965.1804],[33.5726,41.1948,1023.508],[33.565,41.2078,879.8206],[33.5587,41.2261,883.7024],[33.5501,41.2399,975.1296],[33.5474,41.2508,1000.4347],[33.5493,41.2703,994.991],[33.5588,41.2866,1074.8926],[33.5613,41.2946,1073.2446],[33.5624,41.3321,1159.4679],[33.4856,41.332,1161.1583],[33.4622,41.3339,1148.7725],[33.4407,41.341,1228.6633],[33.4136,41.3465,1172.7416],[33.366,41.3647,1323.0433],[33.3506,41.3671,1214.3086],[33.2937,41.3668,1119.3613],[33.2786,41.3644,1490.4834],[33.2612,41.3588,1421.9661],[33.2479,41.3587,1501.3013],[33.2272,41.3652,1240.7913],[33.2035,41.3699,1235.8126],[33.1856,41.3762,1187.4218],[33.1471,41.3809,920.8124],[33.1256,41.3879,832.1203],[33.0983,41.3931,990.9169],[33.0652,41.4057,1149.6111],[33.0448,41.4165,1016.0037],[33.0264,41.3921,924.2853],[33.0192,41.3799,968.3649],[33.0109,41.3708,1027.4288],[32.9872,41.3528,1063.3844],[32.9553,41.3375,985.4128],[32.9477,41.3292,1030.7322],[32.9138,41.2755,968.8947],[32.9158,41.2592,891.2758],[32.9173,41.2146,508.1896],[32.9201,41.2056,407.3394],[32.9276,41.1952,442.3586],[32.9452,41.191,623.0178],[32.9753,41.1793,850.9933],[32.9915,41.1696,720.7753],[33.0259,41.1423,508.428],[33.0319,41.1359,488.1956],[33.0426,41.1196,493.2218],[33.0771,41.0889,1150.7039],[33.137,41.088,1045.7725],[33.1584,41.0846,810.1271],[33.2152,41.0624,712.8531],[33.2445,41.045,695.1744],[33.2963,41.0247,857.359],[33.3229,41.0049,699.2245],[33.3316,40.996,732.5692],[33.3428,40.98,1036.9658],[33.3556,40.972,1353.5742],[33.3792,40.9628,1491.8297],[33.3929,40.96,1772.1453],[33.4226,40.9597,1709.795],[33.4492,40.9623,1469.1626]]]]}
,"properties": {"GID_2": "TUR.46.3_1","GID_0": "TUR","country": "Turkey","GID_1": "TUR.46_1","province": "Kastamonu","NL_NAME_1": "NA","county": "Araç","VARNAME_2": "NA","NL_NAME_2": "NA","TYPE_2": "District","ENGTYPE_2": "District","CC_2": "NA","HASC_2": "TR.KS.AR","name": "Araç.county","area_km2": 1893.289,"hist_schema_id": "Elevation0-9000","hist_area_km2": {"400": 1.818,"425": 3.971,"450": 6.219,"475": 10.671,"500": 12.153,"525": 13.748,"550": 16.331,"575": 19.457,"600": 23.348,"625": 24.753,"650": 26.112,"675": 28.856,"700": 29.89,"725": 31.326,"750": 33.176,"775": 34.945,"800": 35.377,"825": 39.872,"850": 43.013,"875": 48.177,"900": 51.618,"925": 56.424,"950": 65.949,"975": 67.377,"1000": 70.187,"1025": 68.815,"1050": 62.441,"1075": 60.594,"1100": 55.272,"1125": 52.266,"1150": 45.646,"1175": 40.518,"1200": 35.499,"1225": 33.717,"1250": 33.357,"1275": 30.682,"1300": 29.827,"1325": 26.72,"1350": 28.577,"1375": 26.826,"1400": 26.301,"1425": 27.356,"1450": 28.078,"1475": 28.303,"1500": 31.755,"1525": 33.802,"1550": 33.788,"1575": 34.508,"1600": 31.618,"1625": 29.912,"1650": 28.078,"1675": 24.598,"1700": 19.486,"1725": 14.997,"1750": 10.972,"1775": 8.494,"1800": 7.149,"1825": 6.029,"1850": 6.237,"1875": 5.662,"1900": 4.75,"1925": 4.094,"1950": 3.215,"1975": 2.703,"2000": 2.463,"2025": 1.679,"2050": 1.583,"2075": 1.839,"2100": 1.711,"2125": 1.392,"2150": 1.248,"2175": 1.136,"2200": 0.944,"2225": 0.896,"2250": 0.576,"2275": 0.256,"2300": 0.144,"2325": 0.016}}}