{"type": "Feature","bbox": [38.247765324539557,37.417621070159953,39.0001600334881,37.899495146274489],"geometry": {"type": "Polygon","coordinates": [[[38.613659934564225,37.5492018349878,537.0],[38.629849961556459,37.570690416268434,537.0],[38.648689265692894,37.598066280091672,537.0],[38.657814553633983,37.610135209304076,537.0],[38.67753695015179,37.613667578829649,546.9141],[38.711683188899087,37.615139399465306,540.7024],[38.749950525426186,37.620437953753679,573.7207],[38.778209481630824,37.62632523629631,541.0291],[38.802641704182776,37.632506882966084,537.0],[38.835904850548644,37.641043442652887,537.0],[38.880942561999774,37.638688529635829,569.4329],[38.882708746762574,37.654584192500948,540.9459],[38.841203404837017,37.676072773781556,565.0687],[38.847090687379648,37.6866698823583,537.0],[38.888890393432348,37.685492425849759,555.4393],[38.912145159475756,37.691968436646675,537.0],[38.93157319186642,37.682254420451329,541.4363],[38.951295588384255,37.68814170299396,537.0],[38.945997034095882,37.699033175697821,578.4617],[38.927157729959447,37.695206442045105,593.332],[38.912733887730013,37.697855719189306,569.4954],[38.935694289646278,37.710513376655967,573.8694],[38.92833518646799,37.727880860156745,537.0],[38.947174490604425,37.747897620801695,537.0],[38.972784169664862,37.74995816969161,558.3731],[38.979554544588893,37.77762839764199,537.0],[38.97926018046175,37.79587897352414,592.4381],[38.970723620774947,37.8085366309908,617.7156],[38.992212202055555,37.826198478618721,603.427],[38.99427275094547,37.8529856141877,665.1889],[39.0001600334881,37.8809502062652,570.967],[38.982792549987352,37.899495146274489,574.4045],[38.97337289791912,37.866231999908621,537.0],[38.9610096045796,37.85946162498459,720.2585],[38.951295588384255,37.840622320848155,649.9946],[38.92656900170519,37.843271597992356,640.9],[38.899781866136209,37.824432293855921,652.899],[38.882708746762574,37.810597179880745,543.5986],[38.88476929565249,37.773507299862132,541.4761],[38.929807007103648,37.794995881142768,561.8154],[38.93245628424782,37.779394582404763,560.3578],[38.918032442018387,37.7676200173195,537.0],[38.90243114328041,37.769680566209416,562.7703],[38.892717127085064,37.7676200173195,546.9954],[38.872994730567228,37.757906001124155,571.401],[38.878882013109859,37.748191984928809,585.5087],[38.8765271000928,37.723465398249772,569.1279],[38.84885687214242,37.712868289673025,622.6652],[38.814121905140894,37.715223202690083,595.2761],[38.789100954334714,37.697266990935049,595.8318],[38.813238812759494,37.670774219493182,537.0],[38.808234622598263,37.659588382662179,578.4209],[38.774382747978109,37.658999654407921,553.4829],[38.726401395255664,37.699033175697821,593.562],[38.692255156508395,37.746720164293151,537.0],[38.685190417457221,37.770563658590817,584.5111],[38.667234205702187,37.79676206590554,546.9768],[38.6581089177611,37.785870593201679,537.0],[38.666645477447929,37.747603256674552,537.0],[38.679891863168848,37.728469588411,537.0],[38.713743737789,37.693734621409448,537.0],[38.738175960340925,37.659294018535064,537.0],[38.704618449847914,37.64810818170406,618.4535],[38.661052559032441,37.650757458848233,539.1262],[38.629849961556459,37.651934915356776,558.2731],[38.623668314886714,37.638688529635829,537.0],[38.621019037742514,37.619849225499422,567.9858],[38.593643173919276,37.608957752795533,587.4323],[38.577453146927041,37.60630847565136,558.0412],[38.558025114536349,37.601598649617245,537.0],[38.541835087544115,37.5910015410405,537.0],[38.530354886585968,37.58275934548081,605.5287],[38.5056282999069,37.58040443246378,585.8552],[38.492676278313127,37.567746774997119,537.0],[38.485905903389096,37.544786373080825,551.0341],[38.449993479879026,37.531539987359906,537.0],[38.41849651827593,37.524180884181618,568.5988],[38.406427589063526,37.517410509257587,644.4964],[38.395830480486808,37.507990857189384,543.4285],[38.387293920799976,37.495333199722722,547.2173],[38.374636263333315,37.508579585443641,537.0],[38.374930627460458,37.528596346088591,537.0],[38.3725757144434,37.542137095936653,603.8613],[38.367571524282141,37.554794753403314,537.0],[38.3734588068248,37.575400242302521,537.0],[38.384644643655804,37.598360644218786,537.0],[38.405544496682126,37.6021873778715,537.0],[38.415847241131758,37.608663388668418,571.8708],[38.421145795420131,37.62720832867771,537.0],[38.440573827810795,37.62632523629631,537.0],[38.458824403692972,37.622204138516452,538.7931],[38.449110387497626,37.635744888364513,574.4785],[38.43939637130228,37.653995464246691,537.0],[38.425855621454218,37.660177110916436,559.7087],[38.401423398902296,37.660177110916436,562.7322],[38.389943197944149,37.650757458848233,569.6759],[38.364922247137969,37.657527833772264,553.5651],[38.339901296331789,37.679605143307128,537.0],[38.342256209348818,37.654584192500948,537.0],[38.349026584272849,37.6057197473971,537.0],[38.340784388713161,37.572162236904092,567.6446],[38.323122541085269,37.566863682615718,543.275],[38.314585981398466,37.582170617226552,537.0],[38.308698698855807,37.60042119310873,549.678],[38.277496101379853,37.614845035338163,571.8861],[38.2574793407349,37.612490122321105,537.0],[38.247765324539557,37.596005731201757,617.5017],[38.255124427717845,37.584231166116467,537.0],[38.273669367727138,37.573634057539749,537.0],[38.280734106778311,37.5621538565816,537.0],[38.286032661066685,37.5509680197506,546.975],[38.303694508694576,37.534189264504107,537.0],[38.316057802034123,37.51770487338473,545.4647],[38.316940894415495,37.49768811273978,537.0],[38.336074562679073,37.483264270510318,537.0],[38.372870078570514,37.472961526060715,537.0],[38.430859811615477,37.463541873992483,537.0],[38.490027001168926,37.444702569856076,537.0],[38.540068902781314,37.417621070159953,537.0],[38.558025114536349,37.423802716829726,548.068],[38.533004163730141,37.452650401288622,562.0033],[38.519757778009222,37.473550254314972,537.0],[38.545073092942545,37.483264270510318,537.0],[38.561557484061922,37.481792449874661,537.0],[38.576570054545641,37.476199531459145,537.0],[38.601296641224707,37.492095194324264,537.0],[38.604534646623136,37.5203541505289,569.4346],[38.603357190114622,37.54095963942811,537.0],[38.613659934564225,37.5492018349878,537.0]]]}
,"properties": {"featurecla": "Reservoir","scalerank": 7,"name": "Ataturk Barajt","name_abb": "Ataturk Barajt","name_alt": null,"note": null,"delta": "New or modified in version 1.2","dam_name": "Ataturk","year": 1992,"admin": null,"min_zoom": 5.7,"min_label": 6.7,"area_km2": 652.7202,"hist_schema_id": "Elevation0-9000","hist_area_km2": {"525": 532.9707,"550": 54.8147,"575": 37.1819,"600": 16.0853,"625": 6.0031,"650": 2.5148,"675": 1.5414,"700": 1.1392,"725": 0.4523,"750": 0.0167}}}