{"type":"Feature","properties":{"featurecla":"Lake Centerline","scalerank":3,"rivernum":65,"dissolve":"65Lake Centerline","name":"Firat5","name_alt":null,"note":null,"min_zoom":3.0,"strokeweig":0.25,"name_en":"Firat","min_label":4.0},
"geometry":{"type": "LineString","coordinates": [[38.982666015625,37.89935944218162,574.4045],[38.989160156250023,37.878045965619116,537.0],[38.982666015625,37.865497137494117,537.0],[38.970800781250006,37.85077545780662,552.2085],[38.976171875,37.84589264530662,537.0],[38.979101562500006,37.838495184369116,537.0],[38.977929687500023,37.83026764530662,537.0],[38.970800781250006,37.82282135624412,537.0],[38.96533203125,37.82318756718162,537.0],[38.945410156250006,37.828876043744117,537.0],[38.936718750000011,37.82965729374412,537.0],[38.92138671875,37.82514069218162,537.0],[38.908398437500011,37.81683991093162,537.0],[38.897851562500023,37.804706121869117,537.0],[38.888916015625,37.788690496869116,545.8921],[38.903417968750006,37.79181549686912,537.0],[38.930566406250023,37.80756256718162,537.0],[38.943603515625,37.80914948124412,537.0],[38.953857421875,37.801385809369116,537.0],[38.952539062500023,37.775262762494116,537.0],[38.964746093750023,37.761346746869116,537.0],[38.94482421875,37.756952215619116,538.3541],[38.922265625000023,37.756122137494117,537.0],[38.90185546875,37.75275299686912,537.0],[38.888916015625,37.74091217655662,537.0],[38.89794921875,37.73566315311912,537.0],[38.923095703125,37.71356842655662,537.0],[38.916406250000023,37.70905182499412,537.0],[38.908203125,37.70624420780662,537.0],[38.899658203125,37.70624420780662,537.0],[38.882421875,37.71491119999412,537.0],[38.875,37.710467840619117,539.7509],[38.869238281250006,37.703143621869117,537.0],[38.86474609375,37.69928619999412,537.0],[38.861083984375,37.69818756718162,537.0],[38.856054687500006,37.695672918744116,537.0],[38.849365234375,37.69330475468162,537.0],[38.841210937500023,37.69245026249412,537.0],[38.8359375,37.69476959843162,537.0],[38.82275390625,37.70453522343162,537.0],[38.820703125000023,37.70673248905662,537.0],[38.800390625,37.697040106244117,537.0],[38.818457031250006,37.680926824994117,537.0],[38.868359375000011,37.651483465619116,551.7285],[38.645605468750006,37.62421295780662,537.0],[38.597363281250011,37.583514715619117,537.0],[38.587890625,37.57953522343162,537.0],[38.575292968750006,37.561542059369117,537.0],[38.515380859375,37.511102606244116,537.0],[38.494873046875,37.50067780155662,537.0],[38.372314453125,37.48395416874412,537.0],[38.3408203125,37.49445221561912,542.2963],[38.326904296875,37.49030182499412,537.0]]}}