{"type":"Feature","properties":{"featurecla":"River","scalerank":3,"rivernum":65,"dissolve":"65River","name":"Firat6","name_alt":null,"note":null,"min_zoom":3.0,"strokeweig":0.25,"name_en":"Firat","min_label":4.0},
"geometry":{"type": "LineString","coordinates": [[39.073339843750006,38.34796784061912,725.3285],[39.11484375,38.34357330936912,717.4103],[39.132421875,38.329706121869116,854.8646],[39.14501953125,38.30792877811912,683.0],[39.148535156250006,38.28424713749412,683.0],[39.11484375,38.192743231244116,551.4889],[39.141357421875,38.17865631718162,989.3622],[39.221923828125,38.205096746869117,561.9614],[39.252539062500006,38.179706121869117,561.2616],[39.25634765625,38.15314362186912,754.9763],[39.24853515625,38.13043854374412,585.689],[39.224707031250006,38.090350653119117,543.3912],[39.234619140625,38.07611725468162,536.5],[39.224853515625,38.06378815311912,537.0],[39.14990234375,38.020770574994117,675.6102],[39.089599609375,38.00702545780662,537.0],[39.072265625,37.99957916874412,550.6876],[39.060302734375,37.987909246869116,537.0],[39.0556640625,37.97321198124412,537.0],[39.050390625,37.93976471561912,577.0873],[39.040429687500023,37.92523834843162,585.2948],[39.027246093750023,37.91803619999412,537.0],[38.978271484375,37.906024481244117,636.9289],[38.982666015625,37.89935944218162,574.4045]]}}