{"type":"Feature","properties":{"GID_2":"TUR.12.6_1","GID_0":"TUR","country":"Turkey","GID_1":"TUR.12_1","province":"Balikesir","NL_NAME_1":"NA","county":"Dursunbey","VARNAME_2":"NA","NL_NAME_2":"NA","TYPE_2":"District","ENGTYPE_2":"District","CC_2":"NA","HASC_2":"TR.BK.DU","name":"Dursunbey.county"},
"geometry":{"type": "MultiPolygon","coordinates": [[[[28.6086,39.3114,1091.7334],[28.6153,39.3054,1029.8005],[28.6281,39.2885,1275.0526],[28.6614,39.2337,1071.7856],[28.6906,39.2482,1118.7039],[28.7209,39.2544,1312.4506],[28.7781,39.2759,1541.5957],[28.7933,39.2838,1539.7002],[28.8073,39.2939,1416.5367],[28.8358,39.3178,1258.6838],[28.8495,39.3368,1283.8896],[28.8833,39.3666,1337.1611],[28.8985,39.39,1106.3436],[28.9015,39.3977,1029.1305],[28.9054,39.4226,1002.7366],[28.9164,39.4443,925.6757],[28.9181,39.4814,665.0995],[28.92,39.4925,607.0374],[28.9241,39.4999,518.0294],[28.9406,39.5198,638.8903],[28.9343,39.5342,478.7573],[28.9349,39.5509,482.0393],[28.9509,39.5768,533.7694],[28.9633,39.5893,591.7124],[28.9434,39.609,578.4611],[28.9256,39.6149,442.6987],[28.9095,39.623,390.0459],[28.8584,39.6238,415.1082],[28.8446,39.6215,330.9246],[28.8274,39.6153,314.9482],[28.8172,39.6147,327.9713],[28.8078,39.6169,388.0771],[28.7817,39.6275,361.202],[28.7726,39.6348,370.3571],[28.7592,39.6533,315.2126],[28.73,39.6789,287.4113],[28.7165,39.6979,427.658],[28.6828,39.7277,948.6951],[28.674,39.7447,1066.9792],[28.6702,39.756,854.1909],[28.6432,39.7527,975.3855],[28.6187,39.753,1052.8394],[28.6046,39.7552,978.9311],[28.579,39.7628,832.2776],[28.5212,39.7663,918.4092],[28.4942,39.7323,895.0786],[28.4456,39.7111,1002.823],[28.3909,39.6695,1125.8318],[28.3822,39.6608,938.7298],[28.3736,39.6464,675.6862],[28.3587,39.6277,500.6946],[28.3407,39.618,493.9855],[28.3097,39.5964,767.514],[28.2829,39.585,676.8823],[28.2677,39.5743,661.6865],[28.2597,39.5658,328.7159],[28.2454,39.5423,488.8204],[28.2429,39.5234,648.3263],[28.2734,39.5102,601.0751],[28.3069,39.4981,600.7476],[28.3657,39.4962,306.8829],[28.3762,39.4943,606.8961],[28.3855,39.4899,446.824],[28.4813,39.4157,859.3608],[28.4926,39.4046,866.1501],[28.5019,39.3907,909.2203],[28.5085,39.3851,1082.6172],[28.5316,39.3748,1190.8096],[28.5558,39.3604,1083.9912],[28.5742,39.3535,1182.5594],[28.5874,39.3451,1114.0852],[28.5996,39.3325,1258.7402],[28.6086,39.3114,1091.7334]]]]}}