{"type":"Feature","properties":{"GID_2":"TUR.24.9_1","GID_0":"TUR","country":"Turkey","GID_1":"TUR.24_1","province":"Çorum","NL_NAME_1":"NA","county":"Merkez","VARNAME_2":"Çorum","NL_NAME_2":"NA","TYPE_2":"District","ENGTYPE_2":"District","CC_2":"NA","HASC_2":"TR.CM.CM","name":"Merkez.county"},
"geometry":{"type": "MultiPolygon","coordinates": [[[[35.2218,40.669,1076.5343],[35.1882,40.6671,1049.8781],[35.1611,40.6682,1073.4431],[35.1235,40.6807,1270.5062],[35.1015,40.6907,1317.9622],[35.0946,40.6955,1314.6777],[35.0821,40.7126,1408.5568],[35.0778,40.7271,1487.0111],[35.042,40.7256,1187.9246],[34.9931,40.726,1380.8723],[34.9777,40.7279,1089.2874],[34.9571,40.7345,1179.8142],[34.9469,40.7349,1053.2048],[34.9337,40.7302,923.6031],[34.8941,40.7,1123.3284],[34.8847,40.6947,1132.4744],[34.8699,40.6912,1181.7323],[34.8581,40.6905,1167.5294],[34.7899,40.6906,1314.5199],[34.7633,40.686,1040.6592],[34.7397,40.6725,897.8591],[34.7099,40.6511,886.8123],[34.6953,40.6427,1110.9684],[34.6405,40.6237,712.592],[34.6135,40.6185,541.1462],[34.5813,40.6045,538.5508],[34.5858,40.5875,548.4619],[34.6017,40.5697,596.9432],[34.6049,40.5628,599.2297],[34.5985,40.545,599.0451],[34.5969,40.5281,622.7569],[34.5985,40.5112,674.2185],[34.605,40.4934,806.7731],[34.6,40.4844,875.6193],[34.5713,40.4597,767.5828],[34.5546,40.434,967.8936],[34.5488,40.4038,1173.9106],[34.5396,40.3875,1238.7117],[34.5372,40.3794,1245.2605],[34.5364,40.3594,1298.7833],[34.5386,40.3417,1226.329],[34.5541,40.3283,1213.1456],[34.5674,40.3205,1238.6323],[34.5975,40.3091,1205.0247],[34.646,40.3006,1095.8535],[34.6668,40.2915,1128.4191],[34.6778,40.2803,1156.8921],[34.6875,40.2738,1126.3379],[34.7133,40.2652,1196.4282],[34.7248,40.2667,1228.9836],[34.7699,40.2824,1269.5933],[34.7934,40.2837,1148.3389],[34.8574,40.2831,1184.5403],[34.8766,40.285,1174.2881],[34.89,40.2907,1217.2983],[34.9209,40.3129,1167.8018],[34.9344,40.3163,1163.9202],[34.9472,40.3139,1037.0719],[35.0177,40.2852,1157.5801],[35.0553,40.2723,1250.636],[35.0748,40.2712,1254.861],[35.0943,40.2721,1304.853],[35.1055,40.2741,1361.208],[35.1298,40.2819,1261.0404],[35.1675,40.2832,1199.6444],[35.1667,40.3065,1512.2517],[35.1636,40.317,1338.429],[35.1551,40.3269,1127.3489],[35.1291,40.3489,677.4396],[35.1232,40.3598,711.1033],[35.1204,40.4046,1218.1233],[35.1095,40.4268,1284.5266],[35.1073,40.4388,1296.5741],[35.107,40.5265,1220.2206],[35.109,40.5354,1235.2852],[35.112,40.5404,1200.7175],[35.1211,40.5478,1238.6838],[35.166,40.5647,1044.9534],[35.176,40.5712,1056.0149],[35.1936,40.5959,1220.509],[35.2173,40.6339,949.1747],[35.229,40.645,944.5315],[35.257,40.6661,998.6452],[35.2218,40.669,1076.5343]]]]}}