{"type":"Feature","properties":{"GID_1":"TUR.13_1","GID_0":"TUR","country":"Turkey","province":"Bartın","VARNAME_1":"NA","NL_NAME_1":"NA","TYPE_1":"Il","ENGTYPE_1":"Province","CC_1":"NA","HASC_1":"TR.BR","ISO_1":"NA","name":"Bartın.province"},
"geometry":{"type": "MultiPolygon","coordinates": [[[[32.7508,41.7475,996.02],[32.7267,41.7738,412.6813],[32.7032,41.8115,521.2499],[32.6842,41.8344,39.3153],[32.681,41.8343,0.0],[32.6807,41.8315,12.1114],[32.6768,41.8301,19.5886],[32.6735,41.8304,2.4189],[32.6743,41.8312,0.0],[32.6729,41.8324,0.0],[32.6665,41.8318,21.2828],[32.6668,41.8296,22.3302],[32.6654,41.829,0.0],[32.6446,41.8321,0.0],[32.6282,41.831,27.4255],[32.624,41.8321,0.0],[32.6218,41.831,0.0],[32.6215,41.8285,36.9759],[32.6193,41.8288,31.5551],[32.6179,41.8312,16.8442],[32.6149,41.8315,13.1235],[32.6096,41.8299,37.0867],[32.5996,41.8304,24.2026],[32.5893,41.8274,0.0],[32.5801,41.8274,0.0],[32.5776,41.826,6.6094],[32.5774,41.8149,66.5849],[32.5729,41.811,16.7843],[32.5499,41.811,0.0],[32.5465,41.8096,23.303],[32.5454,41.806,0.9271],[32.5426,41.8063,0.0],[32.5412,41.809,3.4827],[32.5382,41.8104,2.805],[32.5279,41.8071,8.3367],[32.5118,41.806,0.0],[32.509,41.8046,0.0],[32.5093,41.8029,62.4963],[32.504,41.8015,3.204],[32.5043,41.7988,2.4149],[32.5013,41.8018,0.0],[32.4987,41.8015,0.0],[32.501,41.7951,1.8416],[32.4907,41.7879,13.1346],[32.4868,41.7868,28.2797],[32.4851,41.781,2.913],[32.479,41.781,2.6662],[32.4787,41.7793,22.6592],[32.4715,41.7779,0.0],[32.4688,41.7746,20.924],[32.464,41.7729,50.2699],[32.454,41.776,0.0],[32.4349,41.764,0.0],[32.4315,41.7635,15.7991],[32.429,41.7615,0.0],[32.4282,41.7582,63.0535],[32.4238,41.7568,5.018],[32.4207,41.7474,15.7042],[32.4154,41.7396,8.0995],[32.4076,41.7385,66.2007],[32.4032,41.739,4.6929],[32.396,41.7429,10.3548],[32.3918,41.7421,4.5239],[32.3904,41.7435,4.5239],[32.3929,41.7438,0.0],[32.3937,41.7454,0.0],[32.3901,41.744,0.0],[32.3879,41.7476,0.0],[32.3924,41.7499,0.1529],[32.3854,41.7507,0.0],[32.3849,41.7535,4.2438],[32.3821,41.7538,0.0],[32.3804,41.7504,0.0],[32.384,41.7496,11.1434],[32.3843,41.7479,5.0072],[32.3782,41.7479,5.3429],[32.374,41.7435,73.2167],[32.3707,41.746,0.0],[32.3649,41.7446,0.0],[32.3632,41.7401,6.1065],[32.3651,41.7368,1.9292],[32.3635,41.7343,8.4018],[32.3529,41.734,2.4311],[32.3518,41.7363,0.0],[32.3471,41.736,0.0],[32.3454,41.7354,0.0],[32.3468,41.7332,10.1736],[32.339,41.7315,0.0],[32.3424,41.7265,0.0],[32.3404,41.7229,3.3015],[32.336,41.7218,3.9009],[32.3338,41.724,0.0],[32.3335,41.7218,13.0347],[32.329,41.7207,0.0],[32.3265,41.7246,0.0],[32.3204,41.7254,12.6073],[32.3088,41.7238,0.0],[32.3037,41.7257,0.0],[32.3037,41.724,1.8858],[32.301,41.7229,23.0762],[32.2954,41.7232,23.9497],[32.2832,41.7196,11.9799],[32.2707,41.7126,11.344],[32.2693,41.7096,18.4198],[32.2651,41.709,0.0],[32.2637,41.7054,110.0918],[32.2582,41.7038,0.0],[32.2504,41.6954,62.7057],[32.2324,41.6888,0.0],[32.2321,41.6857,3.4141],[32.236,41.6851,4.5191],[32.2368,41.6829,1.4672],[32.2293,41.6865,0.0],[32.2246,41.6857,0.0],[32.2271,41.684,4.8271],[32.2238,41.6835,0.0],[32.226,41.6813,60.5165],[32.2235,41.6799,3.3734],[32.2285,41.6774,78.1369],[32.2296,41.6751,23.7606],[32.2287,41.6707,3.6768],[32.2135,41.6587,37.875],[32.2082,41.6585,5.3513],[32.2018,41.654,22.3927],[32.1946,41.654,0.0],[32.1929,41.6529,32.499],[32.1943,41.6499,7.6061],[32.191,41.6465,71.121],[32.1735,41.6407,0.0],[32.174,41.6393,4.0306],[32.1782,41.6399,2.0058],[32.1818,41.6368,0.0],[32.1799,41.6321,0.0],[32.1765,41.6301,12.2157],[32.1757,41.6276,11.3472],[32.1712,41.6268,1.7377],[32.1696,41.6232,4.0994],[32.161,41.6207,0.0],[32.1604,41.6174,14.3175],[32.154,41.6138,0.0],[32.1551,41.6113,0.0],[32.1493,41.6068,6.8919],[32.1451,41.6076,0.0],[32.1429,41.604,0.0],[32.1218,41.5954,13.8506],[32.1096,41.5951,13.2476],[32.1046,41.5924,15.5993],[32.0843,41.5879,0.7845],[32.0774,41.5846,22.622],[32.0657,41.5838,0.3303],[32.0646,41.5821,0.0],[32.0624,41.5824,1.1517],[32.0626,41.5804,3.6711],[32.0607,41.5796,3.6711],[32.054,41.5796,2.9394],[32.0521,41.5815,0.621],[32.054,41.574,0.4896],[32.0621,41.5701,1.2923],[32.0576,41.5707,0.0995],[32.0529,41.5729,0.2355],[32.0499,41.5793,0.1625],[32.044,41.5771,0.9406],[32.0435,41.574,1.2748],[32.041,41.5771,0.0],[32.0288,41.5746,3.5205],[32.0288,41.5693,1.9156],[32.0254,41.5654,5.3123],[32.021,41.5668,0.0],[32.0238,41.5646,5.3123],[32.021,41.5629,1.7712],[32.0324,41.534,252.065],[32.0412,41.5235,405.8379],[32.2111,41.3912,183.2602],[32.2217,41.381,233.4709],[32.2301,41.367,379.3469],[32.2463,41.349,458.1541],[32.2743,41.3306,697.6617],[32.3051,41.3062,622.7269],[32.3133,41.2972,659.8307],[32.3351,41.2618,366.9315],[32.354,41.2385,240.6819],[32.3743,41.2425,495.3385],[32.3956,41.2497,702.2394],[32.4285,41.2543,571.7532],[32.4273,41.2587,644.4011],[32.4311,41.2632,799.7675],[32.4487,41.2716,597.3107],[32.4673,41.2782,1050.8105],[32.4919,41.2923,1211.5889],[32.5273,41.3075,1452.6243],[32.6033,41.3363,1517.2656],[32.6318,41.3558,1598.5997],[32.6526,41.3731,1471.2559],[32.6583,41.3805,1483.2787],[32.6651,41.4016,1332.9158],[32.6743,41.4179,880.6027],[32.6795,41.4366,532.8766],[32.6979,41.464,420.5912],[32.7081,41.4705,584.0116],[32.7556,41.4892,862.946],[32.764,41.497,891.9042],[32.7755,41.5138,1068.3962],[32.7907,41.5258,1029.0955],[32.8001,41.5286,1073.6293],[32.8091,41.527,1082.6434],[32.8232,41.5131,853.3044],[32.8581,41.5285,735.0881],[32.9256,41.554,1178.1385],[32.8551,41.5801,1130.8875],[32.836,41.5889,950.625],[32.8273,41.5956,1152.8798],[32.8144,41.6127,1015.6434],[32.8005,41.6364,737.3858],[32.7939,41.6576,503.6062],[32.7744,41.6843,892.7413],[32.7633,41.711,1098.2822],[32.7649,41.7198,1018.3341],[32.7635,41.7277,1002.9457],[32.7508,41.7475,996.02]]],
[[[32.3896,41.7524,7.467],[32.3896,41.7551,5.1209],[32.3876,41.7549,0.0],[32.3871,41.7529,0.0],[32.3887,41.7513,0.0],[32.3896,41.7524,7.467]]]]}}