{"type":"Feature","properties":{"ISO3166-1-Alpha-3":"TUR","country":"Turkey","fill":"#F0F","id":"5521","name":"Bartın"},
"geometry":{"type": "Polygon","coordinates": [[[32.81798,41.57635,1143.3516],[32.80847,41.64785,653.0562],[32.87297,41.68232,862.5772],[32.8366,41.75506,1380.3184],[32.80831,41.79951,638.832],[32.79851,41.85969,0.0],[32.77027,41.85798,0.0],[32.75538,41.85912,0.0],[32.74041,41.85318,0.0],[32.67921,41.83633,0.0],[32.6631,41.83495,0.0],[32.63966,41.8439,0.0],[32.61256,41.83954,0.0],[32.58937,41.82697,69.8034],[32.57781,41.81135,180.841],[32.56284,41.81688,0.0],[32.54835,41.81574,0.0],[32.53484,41.81074,0.0],[32.5232,41.80451,93.4712],[32.45427,41.77725,0.0],[32.43946,41.76752,0.0],[32.41725,41.74893,0.0],[32.39967,41.7425,0.0],[32.39625,41.74429,0.0],[32.38722,41.75385,0.0],[32.38258,41.75609,0.0],[32.37721,41.75406,0.0],[32.37436,41.74942,0.0],[32.37233,41.7425,86.5417],[32.36183,41.73786,0.0],[32.35369,41.73574,0.0],[32.35182,41.72944,101.5419],[32.29705,41.72736,0.0],[32.26336,41.72016,0.0],[32.24822,41.69807,0.0],[32.24342,41.69294,14.2299],[32.1784,41.63691,0.0],[32.16188,41.61201,44.674],[32.13413,41.59943,0.3308],[32.19005,41.55706,59.0798],[32.25067,41.53685,110.1349],[32.27087,41.48432,256.4307],[32.30724,41.41562,337.3072],[32.28704,41.33076,701.6765],[32.39614,41.32672,577.5038],[32.5012,41.34693,1225.4519],[32.62243,41.42371,711.7387],[32.66688,41.49644,545.7424],[32.72346,41.50856,841.7184],[32.81798,41.57635,1143.3516]]]}}