{"type": "Feature","bbox": [37.9749,39.6242,38.5544,40.023],"geometry": {"type": "MultiPolygon","coordinates": [[[[38.4394,39.7569,1340.9232],[38.4411,39.7762,1952.4613],[38.4438,39.7811,1948.3287],[38.4505,39.7869,2132.5693],[38.4634,39.7913,1978.3369],[38.5135,39.794,1955.324],[38.539,39.8043,1907.0461],[38.5436,39.8078,1867.0813],[38.5534,39.8218,2074.5073],[38.5544,39.8265,2215.7427],[38.5526,39.8317,2209.0298],[38.5388,39.8437,2219.7249],[38.5292,39.8475,2049.9048],[38.5222,39.8482,2027.0734],[38.5154,39.8475,1999.1854],[38.491,39.84,1955.7649],[38.4447,39.8363,1943.8625],[38.4233,39.8289,1883.0309],[38.4129,39.8269,1974.9861],[38.3913,39.8263,2082.9382],[38.3808,39.8284,2158.1016],[38.375,39.8311,2250.2336],[38.3683,39.837,2327.8125],[38.3656,39.842,2219.5413],[38.3644,39.8502,2043.5597],[38.3659,39.8584,2052.2102],[38.3755,39.8745,2406.4194],[38.3829,39.8955,2440.0027],[38.403,39.9213,2256.7205],[38.3658,39.9336,2536.6606],[38.3029,39.958,2466.9771],[38.2731,39.97,2376.7712],[38.2597,39.9782,2325.6707],[38.2277,39.9528,1864.0741],[38.2138,39.9458,1983.106],[38.2001,39.9456,1844.0],[38.18,39.9525,1809.4136],[38.159,39.9562,1973.345],[38.1504,39.9599,1884.4954],[38.1418,39.9676,1775.8062],[38.121,40.0033,1837.8158],[38.1101,40.0186,1913.9563],[38.1045,40.0223,1915.0244],[38.097,40.023,2008.7384],[38.0887,40.0203,1984.2214],[38.081,40.0153,1932.7728],[38.0212,39.9663,1892.9513],[37.9938,39.9477,2047.9752],[37.9856,39.941,1955.1689],[37.9772,39.931,1896.0991],[37.9749,39.9201,1819.3792],[37.9762,39.9119,1722.9152],[37.9855,39.8958,1586.9867],[37.9886,39.8843,1617.8822],[37.9889,39.8224,1595.2803],[37.9897,39.8134,1681.8678],[37.9934,39.8023,1765.3021],[38.0304,39.7443,1910.0461],[38.0348,39.7171,1860.7465],[38.0386,39.7096,2137.4985],[38.0509,39.7013,1947.5352],[38.0808,39.698,1846.4584],[38.0896,39.6953,1824.9357],[38.1035,39.6795,1784.9475],[38.1079,39.6694,1760.0835],[38.1109,39.6442,1825.8436],[38.1181,39.6242,1876.2212],[38.1636,39.6309,1620.4446],[38.1891,39.6386,1909.2019],[38.2237,39.6427,2456.9446],[38.2491,39.6505,1820.2882],[38.2691,39.6525,1791.9369],[38.298,39.6523,1513.5747],[38.314,39.6506,1280.2107],[38.3664,39.6342,1796.9421],[38.3637,39.6666,1536.4904],[38.3647,39.678,1450.2556],[38.3675,39.6861,1412.8135],[38.3892,39.709,1394.6979],[38.4138,39.7462,1262.7422],[38.4234,39.753,1401.2418],[38.4394,39.7569,1340.9232]]]]}
,"properties": {"GID_2": "TUR.72.9_1","GID_0": "TUR","country": "Turkey","GID_1": "TUR.72_1","province": "Sivas","NL_NAME_1": "NA","county": "İmranlı","VARNAME_2": "NA","NL_NAME_2": "NA","TYPE_2": "District","ENGTYPE_2": "District","CC_2": "NA","HASC_2": "TR.SV.IM","name": "İmranlı.county","area_km2": 1214.7832,"hist_schema_id": "Elevation0-9000","hist_area_km2": {"1225": 0.7019,"1250": 2.2033,"1275": 4.21,"1300": 6.3959,"1325": 7.4559,"1350": 10.131,"1375": 11.2552,"1400": 14.1235,"1425": 15.6707,"1450": 16.2236,"1475": 17.7716,"1500": 19.5631,"1525": 21.1589,"1550": 27.0348,"1575": 37.8113,"1600": 50.6881,"1625": 59.3788,"1650": 64.1925,"1675": 54.6849,"1700": 49.0657,"1725": 51.3421,"1750": 51.2114,"1775": 54.5476,"1800": 53.9761,"1825": 53.1118,"1850": 50.8787,"1875": 46.8382,"1900": 41.9736,"1925": 37.7232,"1950": 34.9714,"1975": 29.5337,"2000": 25.8212,"2025": 23.087,"2050": 19.4726,"2075": 18.3986,"2100": 16.7691,"2125": 14.3446,"2150": 12.3247,"2175": 9.8501,"2200": 9.1811,"2225": 8.3019,"2250": 6.8202,"2275": 5.8924,"2300": 5.1108,"2325": 4.1821,"2350": 3.2383,"2375": 3.124,"2400": 2.8311,"2425": 2.6686,"2450": 2.5385,"2475": 2.5055,"2500": 1.9687,"2525": 2.2614,"2550": 2.4074,"2575": 2.0658,"2600": 1.7724,"2625": 1.7399,"2650": 1.561,"2675": 1.6423,"2700": 1.3009,"2725": 1.0082,"2750": 0.813,"2775": 0.7968,"2800": 0.6179,"2825": 0.6342,"2850": 0.5691,"2875": 0.374,"2900": 0.439,"2925": 0.2602,"2950": 0.1951,"2975": 0.0325,"3000": 0.0325}}}