{"type":"Feature","properties":{"GID_2":"TUR.42.1_1","GID_0":"TUR","country":"Turkey","GID_1":"TUR.42_1","province":"K.Maras","NL_NAME_1":"NA","county":"Afşin","VARNAME_2":"NA","NL_NAME_2":"NA","TYPE_2":"District","ENGTYPE_2":"District","CC_2":"NA","HASC_2":"TR.KM.AF","name":"Afşin.county"},
"geometry":{"type": "MultiPolygon","coordinates": [[[[37.0599,38.5782,1979.3922],[37.0391,38.5945,1972.8098],[37.0242,38.6033,1837.9321],[36.994,38.6147,1782.3688],[36.9668,38.62,1822.3821],[36.9457,38.6272,1990.2588],[36.9314,38.6287,1951.8469],[36.9099,38.6271,1946.4717],[36.8814,38.6185,1664.5963],[36.835,38.6154,1930.7216],[36.8136,38.6082,1954.2552],[36.7865,38.6029,1857.7651],[36.7653,38.5956,1896.6219],[36.7227,38.5896,1841.6346],[36.7097,38.5825,1851.686],[36.6991,38.5722,1863.0332],[36.6952,38.5616,1818.3595],[36.6927,38.5277,1766.4858],[36.6787,38.5041,1832.3702],[36.6686,38.4927,1805.4791],[36.6413,38.4696,1586.829],[36.6298,38.4531,1841.8992],[36.6195,38.4427,2058.3936],[36.6631,38.4093,2489.564],[36.6763,38.3951,2399.2007],[36.6791,38.3864,2236.25],[36.6799,38.3773,1804.7185],[36.6791,38.3155,2704.4072],[36.6809,38.3067,2232.5317],[36.6838,38.3012,2093.7742],[36.6904,38.2943,2142.3914],[36.7013,38.2864,2235.4624],[36.7225,38.2772,1675.1285],[36.7325,38.2708,1900.1627],[36.7464,38.2527,2026.9032],[36.7625,38.2369,1658.2949],[36.7809,38.2086,1748.1121],[36.7884,38.185,1394.05],[36.8014,38.1641,1259.8854],[36.8099,38.1563,1163.6726],[36.8451,38.142,1311.109],[36.8676,38.1395,1225.4019],[36.922,38.1404,1214.8687],[36.9328,38.1424,1188.0884],[36.9505,38.1487,1148.5952],[36.9653,38.151,1151.1445],[37.0243,38.1513,1120.8296],[37.0251,38.266,1271.2629],[37.0281,38.2783,1240.0347],[37.037,38.2952,1153.4653],[37.0416,38.3303,1184.7882],[37.0526,38.3533,1212.2229],[37.055,38.3692,1263.8027],[37.0535,38.3886,1281.7119],[37.0424,38.4114,1344.4949],[37.0402,38.4237,1409.8657],[37.0403,38.5189,1830.9985],[37.0425,38.5315,1836.6191],[37.0526,38.5512,1910.0391],[37.0599,38.5782,1979.3922]]]]}}