{"type": "Feature","bbox": [28.5505,36.8767,30.0417,38.4541],"geometry": {"type": "MultiPolygon","coordinates": [[[[29.3878,37.0761,1530.646],[29.3929,37.0967,1254.615],[29.3926,37.1387,1610.947],[29.394,37.1469,1525.1362],[29.3979,37.1571,1441.0298],[29.405,37.1685,1461.9255],[29.4117,37.1897,1401.9744],[29.4452,37.241,1113.9808],[29.477,37.2685,946.8508],[29.492,37.2892,885.9231],[29.5166,37.3072,924.2787],[29.5233,37.3152,920.1968],[29.5274,37.3215,892.4244],[29.5379,37.3465,885.8375],[29.5542,37.364,943.7639],[29.5627,37.3873,1099.2677],[29.5792,37.4102,1382.5529],[29.5774,37.4233,1478.719],[29.5795,37.4354,1442.2446],[29.5425,37.4502,1253.2507],[29.5344,37.4569,1170.2463],[29.531,37.4626,1000.5934],[29.5286,37.4783,977.4426],[29.5295,37.5611,1467.9766],[29.5268,37.5914,1606.7354],[29.5489,37.5983,1406.822],[29.5524,37.6008,1422.4545],[29.5535,37.6051,1462.0505],[29.5733,37.6116,1535.6128],[29.5897,37.6213,1546.3872],[29.6006,37.6231,1465.9854],[29.6092,37.6263,1424.6284],[29.6454,37.6512,1209.6648],[29.672,37.6627,1447.4407],[29.7055,37.6861,1226.564],[29.7321,37.6976,1270.4332],[29.7656,37.721,857.8235],[29.7868,37.7295,865.4208],[29.8108,37.7442,923.853],[29.8319,37.7527,1038.1774],[29.8453,37.7608,1121.4055],[29.833,37.7733,841.9982],[29.8196,37.7943,836.5],[29.8162,37.8049,836.0],[29.8154,37.8191,836.0],[29.7987,37.8227,836.0],[29.7205,37.8526,1587.5055],[29.6969,37.8543,1400.2592],[29.6638,37.8526,1248.8739],[29.6651,37.873,1570.2351],[29.666,37.9887,1469.9664],[29.6975,37.9969,1289.1653],[29.7274,38.0088,1250.1952],[29.757,38.0264,1042.516],[29.8025,38.0438,1021.3425],[29.8293,38.0599,963.139],[29.8477,38.0671,973.7044],[29.8892,38.0948,980.8947],[29.9245,38.1035,937.0573],[29.928,38.1137,944.7999],[29.9386,38.1235,916.7188],[29.9493,38.13,894.8081],[29.9649,38.1355,864.7943],[29.9761,38.1414,843.6735],[30.0161,38.172,823.9528],[30.0238,38.1807,820.7828],[30.0394,38.2122,1040.248],[30.0417,38.2337,1284.6409],[30.0385,38.2487,1798.9731],[30.0184,38.2744,1892.5687],[30.009,38.2954,1437.6495],[29.9939,38.3186,1649.3003],[29.9696,38.3438,1711.1433],[29.9345,38.4003,1309.2985],[29.9222,38.4129,1258.6927],[29.9057,38.4222,1181.012],[29.8915,38.4243,952.5971],[29.8684,38.4237,1077.3063],[29.8482,38.4271,1247.6293],[29.8266,38.434,1314.1543],[29.7882,38.4388,1415.5334],[29.7554,38.4541,1810.4521],[29.7101,38.4391,1012.7809],[29.6858,38.4327,952.4734],[29.6694,38.412,909.7734],[29.6639,38.382,888.4925],[29.6548,38.3652,921.6454],[29.6481,38.3441,935.1802],[29.6334,38.3207,946.3026],[29.6108,38.2981,954.0032],[29.5941,38.2723,994.241],[29.5914,38.2608,1014.9121],[29.5896,38.2217,1154.224],[29.5865,38.2136,1174.01],[29.5795,38.2023,1142.2673],[29.5759,38.1918,986.7047],[29.5565,38.1924,1152.2197],[29.5441,38.1953,1180.8203],[29.5053,38.2217,1096.2753],[29.4843,38.2304,990.5989],[29.4603,38.245,924.1054],[29.4393,38.2537,902.1014],[29.4259,38.2617,1039.7634],[29.4122,38.2593,986.6835],[29.382,38.2479,972.9402],[29.3493,38.2295,749.1295],[29.3254,38.225,660.6096],[29.2981,38.2163,514.3403],[29.262,38.2127,486.7273],[29.2326,38.2015,459.925],[29.2213,38.1955,440.5],[29.1656,38.2136,522.027],[29.1116,38.2159,706.8452],[29.0967,38.218,708.4315],[29.0789,38.2243,707.3048],[29.0518,38.2297,739.6102],[29.034,38.236,745.1946],[29.0068,38.2414,781.1433],[28.959,38.2595,834.9961],[28.921,38.2655,881.666],[28.9014,38.2603,966.5699],[28.8114,38.2256,551.4575],[28.8016,38.2189,354.5216],[28.7981,38.2145,329.7838],[28.7952,38.2061,291.8274],[28.7949,38.1581,657.0049],[28.7933,38.1494,586.6439],[28.7894,38.1419,558.8442],[28.7799,38.1293,543.2747],[28.7736,38.1239,594.9493],[28.7333,38.1072,701.4543],[28.7197,38.0993,780.8826],[28.7047,38.0876,856.4786],[28.7079,38.0814,1065.5415],[28.7117,38.078,1192.179],[28.7275,38.0708,1259.7471],[28.7431,38.0651,1214.2234],[28.7635,38.062,1248.7675],[28.7995,38.0478,1058.6606],[28.8518,38.0086,1050.4775],[28.8664,37.9933,857.4938],[28.8697,37.9827,659.3022],[28.859,37.9795,663.4611],[28.843,37.9682,492.3515],[28.8073,37.9173,228.286],[28.7931,37.9065,461.7833],[28.7676,37.8654,868.1385],[28.7653,37.8573,915.5406],[28.7642,37.8431,806.6518],[28.7756,37.8372,871.934],[28.7831,37.8211,1057.2643],[28.7942,37.8082,1183.1356],[28.8,37.7956,1091.8767],[28.811,37.7873,1167.9498],[28.8327,37.7772,1457.2231],[28.849,37.7632,1747.4607],[28.8575,37.7438,1691.7642],[28.8662,37.733,1679.7075],[28.8796,37.697,1258.8654],[28.8761,37.6875,1163.9692],[28.8636,37.6762,973.5736],[28.8315,37.6617,881.1316],[28.7862,37.6287,934.9308],[28.757,37.6152,1060.7141],[28.7404,37.6001,1340.6882],[28.7083,37.5985,970.8828],[28.6754,37.5991,862.7552],[28.66,37.6016,813.1147],[28.6355,37.6094,812.5443],[28.6215,37.6106,827.8525],[28.6067,37.6098,803.6815],[28.5964,37.607,795.4136],[28.5873,37.6019,792.6064],[28.5505,37.571,468.2645],[28.5573,37.5669,423.461],[28.5603,37.5627,410.9872],[28.5566,37.5492,284.5],[28.5588,37.5391,418.7787],[28.5801,37.5163,725.9787],[28.5961,37.4931,390.8983],[28.6042,37.4777,490.8669],[28.6089,37.4764,333.738],[28.6116,37.4729,488.5741],[28.6136,37.4527,417.5602],[28.6125,37.4028,426.6055],[28.6159,37.3905,635.5096],[28.624,37.3825,624.9024],[28.6334,37.3787,414.9951],[28.6831,37.3756,577.864],[28.7048,37.369,459.7211],[28.7282,37.3645,536.3612],[28.7344,37.3622,472.4743],[28.744,37.3553,500.5992],[28.7602,37.33,660.0979],[28.762,37.3243,668.0307],[28.7631,37.2879,798.6389],[28.7641,37.2791,961.1251],[28.767,37.2711,823.4352],[28.7783,37.2526,725.9338],[28.7862,37.2443,670.9906],[28.7979,37.2391,703.1802],[28.8299,37.2366,649.8422],[28.8577,37.2278,680.4996],[28.8816,37.2235,710.0818],[28.9283,37.2068,767.0852],[28.9388,37.1949,861.1015],[28.9509,37.1857,930.1089],[28.9594,37.1818,1122.5414],[28.973,37.1794,1251.0789],[29.0109,37.1512,1550.6332],[29.0228,37.1463,1441.179],[29.033,37.1444,1257.0342],[29.0434,37.134,971.033],[29.0634,37.1044,857.3254],[29.0609,37.0866,832.2907],[29.0566,37.0746,533.1283],[29.0719,37.055,561.0334],[29.0758,37.0476,691.7261],[29.0777,37.0365,637.971],[29.0789,36.9993,902.2738],[29.0818,36.9915,1335.8497],[29.0951,36.9705,955.563],[29.1012,36.9637,1284.2073],[29.1718,36.908,1236.0336],[29.1909,36.8872,1261.3722],[29.2079,36.8858,1507.6646],[29.2286,36.8785,1976.515],[29.2425,36.8767,1819.335],[29.2563,36.8787,1957.4719],[29.2668,36.8849,2180.7236],[29.2801,36.9032,2055.0925],[29.296,36.9191,1578.3943],[29.3079,36.9359,1387.1566],[29.3296,36.9589,1315.8506],[29.3333,36.9761,1570.6027],[29.333,37.0271,1565.6411],[29.3376,37.041,1253.8546],[29.3462,37.05,1246.0082],[29.362,37.0622,1243.7614],[29.3763,37.0711,1310.2395],[29.3878,37.0761,1530.646]]]]}
,"properties": {"GID_1": "TUR.25_1","GID_0": "TUR","country": "Turkey","province": "Denizli","VARNAME_1": "NA","NL_NAME_1": "NA","TYPE_1": "Il","ENGTYPE_1": "Province","CC_1": "NA","HASC_1": "TR.DN","ISO_1": "TR-20","name": "Denizli.province","area_km2": 10888.782,"hist_schema_id": "Elevation0-9000","hist_area_km2": {"125": 8.394,"150": 154.132,"175": 78.913,"200": 60.181,"225": 54.584,"250": 55.109,"275": 60.268,"300": 56.415,"325": 69.802,"350": 70.488,"375": 66.56,"400": 67.741,"425": 66.683,"450": 84.204,"475": 90.151,"500": 91.995,"525": 91.665,"550": 90.772,"575": 96.868,"600": 97.887,"625": 99.573,"650": 109.178,"675": 132.807,"700": 146.772,"725": 154.5,"750": 177.26,"775": 200.386,"800": 298.451,"825": 897.988,"850": 614.202,"875": 505.505,"900": 517.873,"925": 389.077,"950": 310.766,"975": 280.124,"1000": 276.571,"1025": 274.025,"1050": 266.994,"1075": 244.07,"1100": 227.058,"1125": 235.02,"1150": 226.04,"1175": 218.829,"1200": 205.073,"1225": 193.647,"1250": 183.102,"1275": 156.569,"1300": 146.4,"1325": 136.703,"1350": 133.394,"1375": 129.17,"1400": 119.709,"1425": 110.956,"1450": 100.389,"1475": 92.995,"1500": 88.547,"1525": 81.082,"1550": 71.96,"1575": 62.825,"1600": 58.075,"1625": 52.144,"1650": 45.907,"1675": 41.877,"1700": 37.648,"1725": 33.566,"1750": 32.504,"1775": 28.068,"1800": 24.514,"1825": 19.625,"1850": 18.526,"1875": 17.114,"1900": 15.705,"1925": 13.976,"1950": 14.345,"1975": 13.367,"2000": 13.87,"2025": 13.574,"2050": 11.822,"2075": 10.343,"2100": 8.425,"2125": 7.269,"2150": 5.38,"2175": 3.849,"2200": 3.274,"2225": 2.839,"2250": 3.194,"2275": 2.471,"2300": 2.17,"2325": 1.682,"2350": 1.21,"2375": 0.79,"2400": 0.452,"2425": 0.301,"2450": 0.235,"2475": 0.201}}}