{"type": "Feature","id": 139900.0,"bbox": [29.843028191021233,38.208258367962827,29.944712761333733,38.273932196087827],"geometry": {"type": "Polygon","coordinates": [[[29.882212761333733,38.261481024212827,819.4068],[29.882212761333733,38.261481024212827,819.4068],[29.861338737896233,38.250128485150327,820.1778],[29.843028191021233,38.236212469525327,818.5127],[29.847422722271233,38.215338446087827,818.0],[29.880381706646233,38.210028387494077,818.0],[29.917002800396233,38.208258367962827,818.0],[29.944712761333733,38.224859930462827,818.0],[29.939707878521233,38.259405828900327,940.3616],[29.911631706646233,38.273932196087827,823.4532],[29.882212761333733,38.261481024212827,819.4068]]]}
,"properties": {"name": null,"lge_id": null,"pfafstette": 939.0,"lke_type": "N","altitude": 815,"objectid": 87121,"scalerank": 11,"featurecla": "Lake","note": "_untitled_87121","funkyname": 0,"min_zoom": 6.7,"min_label": 7.7,"area_km2": 45.68024,"hist_schema_id": "Elevation0-9000","hist_area_km2": {"825": 45.38058,"850": 0.26637,"875": 0.01665,"900": 0.01665}}}