{"type":"Feature","properties":{"ISO3166-1-Alpha-3":"TUR","country":"Turkey","fill":"#00F","id":"2274","name":"Denizli"},
"geometry":{"type": "Polygon","coordinates": [[[29.68845,37.84606,1069.2249],[29.66406,37.85368,1248.8739],[29.66478,37.95577,1393.9792],[29.67987,37.98435,1333.7928],[29.71243,37.99448,1253.1343],[29.74385,38.00745,1168.2411],[30.01319,38.16661,826.6641],[30.04089,38.19152,821.0872],[30.02549,38.25818,2048.7307],[29.99851,38.2833,1871.356],[29.89154,38.42484,952.5971],[29.75325,38.45016,1767.7322],[29.62861,38.42882,867.4814],[29.61993,38.36825,882.7743],[29.62768,38.30957,957.1743],[29.59585,38.28712,971.8375],[29.55916,38.27828,925.8708],[29.4833,38.27679,953.0316],[29.41229,38.28268,1033.4385],[29.36186,38.25167,789.0464],[29.36144,38.23942,881.0995],[29.34832,38.21984,727.6263],[29.33612,38.218,734.0812],[29.31194,38.23131,462.0368],[29.29871,38.22687,440.5],[29.28496,38.22077,493.3837],[29.2522,38.21216,442.5146],[29.21913,38.21328,440.5],[29.1876,38.24123,627.879],[29.15153,38.24637,542.4702],[29.1011,38.21919,706.7802],[29.04487,38.21932,758.14],[28.99051,38.24521,824.6434],[28.93098,38.25513,916.0116],[28.83806,38.2388,1060.5255],[28.79362,38.17049,770.1381],[28.79838,38.14362,582.6066],[28.78442,38.11995,582.8871],[28.74298,38.10429,683.8903],[28.69802,38.10382,884.0301],[28.70898,38.08104,1079.3701],[28.72221,38.05912,1162.7755],[28.77771,38.02884,1356.8241],[28.79052,37.99939,906.8943],[28.78835,37.96523,198.0323],[28.80427,37.90508,471.6907],[28.79486,37.88386,606.8622],[28.77337,37.87107,901.4753],[28.77057,37.84524,706.4408],[28.79238,37.8219,843.4472],[28.80789,37.7963,1044.0378],[28.82918,37.77051,1772.7773],[28.89294,37.76028,1274.4708],[28.90307,37.7377,1261.1761],[28.89956,37.70966,1852.5131],[28.86897,37.69245,1244.1152],[28.83021,37.69106,895.0903],[28.78329,37.63853,945.1851],[28.73027,37.59835,1207.2593],[28.65306,37.60626,807.5389],[28.5832,37.58975,773.4481],[28.56284,37.55298,404.6675],[28.57544,37.51464,589.959],[28.58526,37.51153,650.2258],[28.5956,37.50606,513.2704],[28.60345,37.49234,322.5155],[28.60893,37.47748,389.7029],[28.62082,37.46045,484.9903],[28.61679,37.43968,297.2353],[28.61741,37.41115,370.1105],[28.62733,37.3825,567.311],[28.65317,37.37472,389.5552],[28.688,37.37467,539.5645],[28.73533,37.35986,445.051],[28.76499,37.31852,620.0142],[28.77791,37.27209,1053.3492],[28.8115,37.23354,572.1127],[28.88612,37.22494,678.9939],[28.89822,37.21458,736.6012],[28.91651,37.18781,997.3331],[28.92829,37.17659,1186.5183],[29.00188,37.1497,1503.292],[29.06182,37.1029,826.8043],[29.07536,37.06549,761.1608],[29.08394,37.02642,801.4801],[29.08683,36.9934,1379.6245],[29.09025,36.97787,1129.2097],[29.11505,36.95805,1361.7797],[29.16993,36.9549,1158.865],[29.27039,36.9116,1702.9287],[29.30439,36.92581,1625.4355],[29.32506,36.94736,1244.4661],[29.33571,36.97304,1524.1267],[29.34263,37.03802,1291.3081],[29.39038,37.06864,1431.1755],[29.39886,37.12244,1472.2762],[29.41467,37.17468,1492.0076],[29.44196,37.22248,1342.657],[29.54024,37.33968,879.6464],[29.58448,37.40999,1360.8998],[29.58768,37.41924,1552.1882],[29.58417,37.43301,1528.752],[29.57745,37.44097,1552.733],[29.56991,37.44562,1560.5555],[29.56567,37.4449,1425.5139],[29.5575,37.44495,1387.2438],[29.54582,37.4827,986.7824],[29.54748,37.52265,1351.3179],[29.53756,37.54996,1229.4158],[29.53807,37.57626,1554.9086],[29.66602,37.63029,1316.2112],[29.67595,37.65269,1420.6538],[29.68887,37.67439,1426.462],[29.71801,37.68814,1102.7119],[29.73351,37.69295,1122.437],[29.77372,37.71243,1057.759],[29.84555,37.75935,1150.9949],[29.8008,37.82115,836.0],[29.78891,37.82798,836.548],[29.77454,37.83128,836.0],[29.74757,37.84226,1264.906],[29.73372,37.84637,1555.6559],[29.68845,37.84606,1069.2249]]]}}