{"type": "Feature","bbox": [35.03,39.5495,35.5802,40.062],"geometry": {"type": "MultiPolygon","coordinates": [[[[35.0762,40.0388,1314.5066],[35.0887,40.0262,1253.319],[35.1027,40.0056,1133.4795],[35.1058,39.9928,1112.8988],[35.1034,39.9855,1187.632],[35.0995,39.9816,1192.4374],[35.0781,39.972,1221.3398],[35.0591,39.9656,1114.978],[35.0472,39.9586,1206.6774],[35.0373,39.95,1107.8126],[35.0319,39.9395,1129.668],[35.0328,39.9258,1139.0575],[35.0422,39.9096,1213.3892],[35.0448,39.9013,1261.1089],[35.0464,39.8743,1261.251],[35.0443,39.8475,1186.0704],[35.0331,39.8254,1125.8966],[35.0309,39.8134,1160.4534],[35.03,39.6913,1153.1251],[35.0309,39.6759,1113.4877],[35.0345,39.6647,1081.8646],[35.0479,39.6438,1004.7732],[35.0542,39.6366,1007.5057],[35.1377,39.571,1007.5134],[35.1542,39.5536,1064.21],[35.1728,39.5503,1020.5819],[35.1906,39.5515,1048.4869],[35.2004,39.5552,1029.6333],[35.2267,39.5704,1038.6547],[35.2499,39.5732,1093.8923],[35.2693,39.5707,1077.3301],[35.3193,39.5505,1053.5696],[35.3292,39.5495,1055.3054],[35.3387,39.5514,1058.1063],[35.3452,39.5578,1063.1792],[35.3464,39.569,1090.4153],[35.3438,39.5807,1144.6685],[35.3348,39.5945,1187.447],[35.3318,39.602,1206.0315],[35.3324,39.6121,1245.0793],[35.3352,39.6165,1286.4128],[35.3557,39.6267,1319.7688],[35.3674,39.6299,1246.2241],[35.3865,39.653,1232.8892],[35.4235,39.7117,1177.0334],[35.4442,39.7314,1192.457],[35.4579,39.7409,1226.7605],[35.4707,39.7461,1317.0853],[35.5041,39.7494,1203.1343],[35.5095,39.753,1252.0411],[35.5199,39.7649,1145.0249],[35.5498,39.7901,998.1243],[35.5686,39.8182,1040.6316],[35.5741,39.8367,1078.7788],[35.5793,39.8476,1153.6985],[35.5802,39.852,1108.2812],[35.5777,39.8586,1002.2721],[35.5633,39.877,1001.1672],[35.5433,39.8672,1056.9344],[35.5333,39.8645,1050.2797],[35.5039,39.8633,1191.936],[35.4824,39.8659,1140.2266],[35.4493,39.8789,1279.0265],[35.4138,39.9034,1302.5535],[35.3864,39.9155,1451.0281],[35.3697,39.9266,1370.7559],[35.3548,39.9391,1443.7148],[35.3483,39.9491,1321.6699],[35.3447,39.9856,1365.5925],[35.3339,40.0073,1377.7168],[35.3296,40.0351,1195.2485],[35.3222,40.0551,1368.1805],[35.29,40.0616,1484.0736],[35.2531,40.0615,1507.2134],[35.2396,40.0585,1466.45],[35.1954,40.0408,1295.9915],[35.1778,40.0392,1301.9843],[35.1642,40.0417,1349.3879],[35.1374,40.0524,1343.9824],[35.1213,40.062,1288.7142],[35.108,40.0539,1325.7952],[35.0896,40.0468,1243.6553],[35.0762,40.0388,1314.5066]]]]}
,"properties": {"GID_2": "TUR.80.12_1","GID_0": "TUR","country": "Turkey","GID_1": "TUR.80_1","province": "Yozgat","NL_NAME_1": "NA","county": "Sorgun","VARNAME_2": "NA","NL_NAME_2": "NA","TYPE_2": "District","ENGTYPE_2": "District","CC_2": "NA","HASC_2": "TR.YZ.SO","name": "Sorgun.county","area_km2": 1698.179,"hist_schema_id": "Elevation0-9000","hist_area_km2": {"900": 0.57,"925": 2.393,"950": 3.695,"975": 5.829,"1000": 29.806,"1025": 55.213,"1050": 78.352,"1075": 118.024,"1100": 151.739,"1125": 188.866,"1150": 170.528,"1175": 134.783,"1200": 120.212,"1225": 108.695,"1250": 90.434,"1275": 80.141,"1300": 69.854,"1325": 66.244,"1350": 62.103,"1375": 52.215,"1400": 43.097,"1425": 31.554,"1450": 17.654,"1475": 9.657,"1500": 4.114,"1525": 1.61,"1550": 0.553,"1575": 0.13,"1600": 0.098,"1625": 0.016}}}