{"type":"Feature","properties":{"GID_2":"TUR.23.5_1","GID_0":"TUR","country":"Turkey","GID_1":"TUR.23_1","province":"Çankiri","NL_NAME_1":"NA","county":"Ilgaz","VARNAME_2":"NA","NL_NAME_2":"NA","TYPE_2":"District","ENGTYPE_2":"District","CC_2":"NA","HASC_2":"TR.CI.IL","name":"Ilgaz.county"},
"geometry":{"type": "MultiPolygon","coordinates": [[[[33.673,40.8092,1547.0184],[33.7465,40.8079,1712.9873],[33.7586,40.8086,1669.9355],[33.7738,40.812,1615.5587],[33.8118,40.8272,1531.2938],[33.8454,40.8337,1650.9926],[33.8785,40.8461,1735.4968],[33.8991,40.86,1384.9895],[33.9257,40.8829,1277.7738],[33.8929,40.8916,1013.3163],[33.8297,40.9161,783.5107],[33.7998,40.9371,1127.5814],[33.793,40.9437,1275.4448],[33.7882,40.9513,1473.3523],[33.7861,40.9625,1788.7452],[33.7859,40.9768,1796.9789],[33.7875,40.9881,1470.8794],[33.7912,40.9959,1488.7318],[33.8023,41.0068,1635.7056],[33.8259,41.0248,2032.549],[33.8577,41.0451,2024.8672],[33.8606,41.0528,2079.7998],[33.8619,41.0668,1719.3505],[33.8581,41.0778,1992.9401],[33.8541,41.0826,2185.146],[33.8411,41.0927,1972.5455],[33.8314,41.0967,1759.5023],[33.821,41.0973,1745.1671],[33.7871,41.0875,1766.656],[33.7707,41.0778,1810.8422],[33.7508,41.0714,1764.0504],[33.6836,41.0445,1997.1715],[33.6532,41.0384,2172.3467],[33.632,41.0312,2047.826],[33.608,41.0269,1966.6741],[33.5775,41.016,2080.033],[33.5535,41.0043,1790.8922],[33.5498,41.0008,1666.832],[33.5421,40.9816,1281.2214],[33.529,40.9604,1241.9265],[33.4895,40.901,1156.6794],[33.489,40.893,1116.4249],[33.4911,40.8881,1096.9811],[33.5131,40.8655,890.033],[33.5245,40.8392,1395.4841],[33.5593,40.8433,1326.4546],[33.6075,40.8424,1404.1075],[33.6171,40.8392,1365.8555],[33.6284,40.8286,1331.97],[33.6381,40.8224,1464.9886],[33.673,40.8092,1547.0184]]]]}}