{"type": "Feature","bbox": [31.6851,37.9605,32.1446,38.5392],"geometry": {"type": "MultiPolygon","coordinates": [[[[31.6851,38.2715,1167.8208],[31.7043,38.2499,1116.7546],[31.7203,38.2241,1238.5236],[31.7229,38.2125,1254.083],[31.7234,38.1799,1238.4846],[31.7278,38.1699,1182.5663],[31.7516,38.1586,1152.3661],[31.7846,38.152,1236.974],[31.7941,38.1448,1155.2959],[31.7982,38.1345,1168.2979],[31.7959,38.121,1234.5536],[31.786,38.1049,1379.1318],[31.7811,38.089,1408.718],[31.7718,38.0726,1448.5071],[31.7647,38.0516,1513.5216],[31.7586,38.0441,1456.3718],[31.7349,38.0242,1529.2772],[31.7264,38.0144,1499.8835],[31.7193,37.9934,1551.6873],[31.7111,37.9796,1705.0403],[31.7078,37.969,1678.6431],[31.7124,37.9625,1501.0258],[31.7201,37.9605,1468.6222],[31.7263,37.9613,1505.4849],[31.743,37.9666,1642.8091],[31.7792,37.9722,1384.0691],[31.8058,37.9796,1381.0326],[31.8235,37.979,1305.7753],[31.8445,37.9717,1366.4457],[31.8649,37.9671,1388.1512],[31.8889,37.9786,1384.8812],[31.923,37.9905,1350.9482],[31.9883,37.993899999999996,1506.7744],[32.0131,38.0016,1598.7253],[32.0521,38.0062,1790.2223],[32.0943,38.0187,1557.9503],[32.1093,38.0371,1551.5469],[32.117,38.0606,1614.601],[32.1391,38.0998,1783.8209],[32.1314,38.1092,1586.281],[32.1169,38.1327,1406.8044],[32.11,38.1537,1334.9114],[32.1008,38.1703,1245.3065],[32.0986,38.1821,1229.1417],[32.0984,38.2064,1157.1968],[32.0994,38.2153,1128.4293],[32.1033,38.2263,1127.3025],[32.1256,38.2608,1073.3733],[32.1316,38.2792,1062.5234],[32.1409,38.2956,1037.7985],[32.1443,38.3164,1032.9841],[32.1446,38.3568,1014.8318],[32.143,38.3811,1005.1891],[32.1384,38.3915,1016.4336],[32.1052,38.4424,1029.0675],[32.1006,38.4533,1055.4442],[32.0991,38.4698,1315.8138],[32.0995,38.5275,993.8276],[32.0845,38.5392,1001.8414],[32.0643,38.5337,1047.7317],[32.0359,38.513,1292.2767],[32.0291,38.5058,1272.7542],[32.0205,38.4911,1381.3813],[32.0094,38.4765,1530.3494],[32.0053,38.4728,1455.5322],[31.9993,38.4703,1387.5365],[31.9849,38.4687,1454.7388],[31.9618,38.4697,1515.8467],[31.9506,38.4718,1488.2477],[31.9329,38.4784,1479.7413],[31.9189,38.4806,1468.2958],[31.8812,38.4794,1183.5917],[31.8624,38.4567,1023.5754],[31.8553,38.4358,1020.5897],[31.8473,38.4219,1022.8889],[31.8451,38.4132,1024.0144],[31.843,38.3831,1010.4205],[31.8375,38.3722,1093.7426],[31.8278,38.3635,1073.8864],[31.8159,38.3566,1052.2212],[31.7853,38.3503,1052.3501],[31.7541,38.3386,1077.858],[31.7437,38.3329,1120.9108],[31.7167,38.3122,1084.9387],[31.7041,38.2936,1095.3765],[31.6851,38.2715,1167.8208]]]]}
,"properties": {"GID_2": "TUR.53.19_1","GID_0": "TUR","country": "Turkey","GID_1": "TUR.53_1","province": "Konya","NL_NAME_1": "NA","county": "Ilgın","VARNAME_2": "NA","NL_NAME_2": "NA","TYPE_2": "District","ENGTYPE_2": "District","CC_2": "NA","HASC_2": "TR.KO.IL","name": "Ilgın.county","area_km2": 1709.343,"hist_schema_id": "Elevation0-9000","hist_area_km2": {"975": 0.964,"1000": 32.058,"1025": 242.137,"1050": 121.415,"1075": 92.813,"1100": 101.257,"1125": 95.286,"1150": 97.417,"1175": 92.3,"1200": 75.661,"1225": 64.138,"1250": 56.094,"1275": 38.369,"1300": 33.119,"1325": 35.238,"1350": 38.577,"1375": 46.215,"1400": 53.072,"1425": 51.473,"1450": 44.647,"1475": 36.884,"1500": 31.86,"1525": 28.002,"1550": 23.65,"1575": 24.855,"1600": 25.072,"1625": 21.197,"1650": 20.947,"1675": 20.73,"1700": 16.908,"1725": 11.618,"1750": 9.348,"1775": 8.23,"1800": 6.293,"1825": 4.941,"1850": 2.988,"1875": 2.237,"1900": 1.035,"1925": 0.267,"1950": 0.033}}}