{"type": "Feature","bbox": [33.5813,37.7281,34.2237,38.014],"geometry": {"type": "MultiPolygon","coordinates": [[[[33.5813,37.9458,1069.7672],[33.5877,37.9328,1077.8535],[33.6027,37.9103,1025.7692],[33.6253,37.8874,1001.4123],[33.6622,37.8286,986.0887],[33.6747,37.8161,984.8721],[33.6878,37.8077,987.4503],[33.7207,37.7947,1007.9474],[33.7511,37.7838,1236.4688],[33.775,37.7797,1639.5242],[33.7845,37.7761,1774.2759],[33.8321,37.741,1139.1178],[33.8563,37.7281,1080.5564],[33.8746,37.7592,1200.8204],[33.91,37.7914,1134.8379],[33.914,37.8021,1133.0154],[33.9155,37.829,1253.7926],[33.9177,37.8336,1284.0151],[33.9223,37.8373,1242.0284],[33.9388,37.84,1126.4357],[34.0119,37.8387,1091.2566],[34.0337,37.8416,1126.4797],[34.0461,37.8498,1104.697],[34.0554,37.8637,1105.8994],[34.0668,37.8751,1143.2671],[34.1054,37.9039,1135.7646],[34.1719,37.9297,1155.9446],[34.1995,37.9345,1179.5554],[34.2237,37.942,1252.0801],[34.1997,37.9723,1195.0344],[34.1811,37.9833,1246.3125],[34.1479,38.0072,1284.4011],[34.1392,38.0112,1292.3376],[34.1257,38.0138,1273.0651],[34.0937,38.014,1239.98],[34.0669,38.0112,1198.1097],[34.0154,37.9924,1142.5286],[33.9807,37.9884,1111.2192],[33.9514,37.9802,1114.3525],[33.8944,37.9777,1074.8571],[33.8615,37.9688,1080.8131],[33.8153,37.9654,1069.6373],[33.7862,37.957,1082.1345],[33.6879,37.9551,1060.5929],[33.6765,37.9531,1040.1118],[33.6548,37.9461,1050.8112],[33.6387,37.9444,1044.0713],[33.5813,37.9458,1069.7672]]]]}
,"properties": {"GID_2": "TUR.53.13_1","GID_0": "TUR","country": "Turkey","GID_1": "TUR.53_1","province": "Konya","NL_NAME_1": "NA","county": "Emirgazi","VARNAME_2": "NA","NL_NAME_2": "NA","TYPE_2": "District","ENGTYPE_2": "District","CC_2": "NA","HASC_2": "TR.KO.EM","name": "Emirgazi.county","area_km2": 845.4507,"hist_schema_id": "Elevation0-9000","hist_area_km2": {"975": 10.6343,"1000": 56.1948,"1025": 45.9867,"1050": 76.63,"1075": 138.1183,"1100": 118.107,"1125": 67.5148,"1150": 57.8426,"1175": 49.9255,"1200": 40.3908,"1225": 36.1745,"1250": 24.2709,"1275": 17.818,"1300": 10.4975,"1325": 8.4224,"1350": 7.7203,"1375": 7.1176,"1400": 6.398,"1425": 5.6948,"1450": 5.4106,"1475": 5.3101,"1500": 4.5564,"1525": 4.1711,"1550": 4.1042,"1575": 3.6018,"1600": 2.9484,"1625": 3.0154,"1650": 2.8143,"1675": 2.8145,"1700": 2.7476,"1725": 3.3844,"1750": 4.1387,"1775": 2.9154,"1800": 2.1615,"1825": 1.9604,"1850": 1.3907,"1875": 1.3571,"1900": 0.8377,"1925": 0.3183,"1950": 0.0335}}}