{"type": "Feature","bbox": [38.4047,36.8511,39.4551,37.4152],"geometry": {"type": "MultiPolygon","coordinates": [[[[38.8989,36.9216,387.7585],[38.9185,36.9261,382.1034],[38.9345,36.9274,377.3478],[39.0622,36.9272,371.6862],[39.0808,36.9239,371.4614],[39.1515,36.8961,396.6971],[39.1631,36.8934,413.0003],[39.1923,36.8921,519.5049],[39.3254,36.8935,514.6067],[39.3158,36.9144,528.077],[39.3075,36.9282,555.0693],[39.3049,36.9373,548.8544],[39.3037,36.986,588.0897],[39.3069,37.0079,620.5778],[39.319,37.025,612.0167],[39.3233,37.0287,611.0372],[39.3402,37.0326,617.5198],[39.3708,37.0313,612.4993],[39.4289,37.0147,573.3871],[39.4353,37.0252,562.6161],[39.4495,37.042,546.3152],[39.4539,37.0536,552.6545],[39.4551,37.0695,571.3574],[39.4549,37.1832,613.538],[39.4415,37.1909,666.7456],[39.431,37.1938,669.4688],[39.3626,37.195,681.8337],[39.3514,37.1973,685.9033],[39.3408,37.2034,712.0599],[39.3352,37.2099,692.757],[39.3229,37.2308,671.3887],[39.3164,37.2637,706.2456],[39.3085,37.2776,708.2897],[39.3021,37.2989,744.8091],[39.2878,37.3221,761.7974],[39.2815,37.3279,744.3018],[39.2732,37.3321,724.3835],[39.2351,37.3361,699.826],[39.2289,37.3382,695.741],[39.2214,37.3433,692.5035],[39.2157,37.3533,692.0543],[39.2144,37.3831,753.1061],[39.2119,37.3918,756.1744],[39.201,37.4037,732.6921],[39.1822,37.4152,683.1901],[39.1423,37.3826,705.2935],[39.1235,37.3721,672.6372],[39.1089,37.3699,694.2615],[39.0585,37.3684,668.4231],[39.0299,37.3598,713.6414],[39.0028,37.3577,701.366],[38.9872,37.3585,669.277],[38.9761,37.3608,670.7451],[38.9435,37.3792,699.2047],[38.9097,37.3915,719.7045],[38.8749,37.3953,769.598],[38.8459,37.4037,756.1497],[38.7772,37.4055,723.2693],[38.7431,37.4125,697.1584],[38.6774,37.311,685.2421],[38.6741,37.2944,684.2008],[38.6745,37.2523,848.461],[38.6724,37.2341,854.801],[38.6584,37.2104,751.8049],[38.6481,37.2003,701.7671],[38.6158,37.1871,909.6339],[38.5854,37.1812,776.3817],[38.5675,37.1748,701.5529],[38.5437,37.1701,715.4988],[38.5159,37.1613,713.4908],[38.4984,37.1622,686.5475],[38.4896,37.1661,688.9423],[38.4817,37.1738,705.4602],[38.474,37.1863,733.2721],[38.4673,37.1902,759.6998],[38.4582,37.1896,742.4198],[38.4503,37.1826,703.116],[38.448,37.1746,705.858],[38.4486,37.1325,642.1719],[38.4455,37.115,598.5446],[38.4375,37.1012,597.1356],[38.4326,37.0856,570.4557],[38.4286,37.0782,563.9257],[38.42,37.0703,554.3257],[38.4047,37.0611,565.0568],[38.4056,37.0482,534.2423],[38.4081,37.0433,532.5236],[38.4197,37.0344,523.7375],[38.4681,37.016,498.6517],[38.5134,36.983,493.1782],[38.5365,36.9695,498.8279],[38.5504,36.9501,495.875],[38.5545,36.9226,474.7128],[38.5579,36.9147,473.2696],[38.5641,36.9078,474.5767],[38.5824,36.8937,505.4068],[38.6181,36.8761,568.5048],[38.6496,36.8536,501.8043],[38.6585,36.8511,497.2321],[38.667,36.8525,481.9734],[38.7347,36.8786,470.2759],[38.762,36.8838,454.9652],[38.7832,36.8908,456.0337],[38.8222,36.8952,455.7152],[38.8699,36.9135,398.2864],[38.8989,36.9216,387.7585]]]]}
,"properties": {"GID_2": "TUR.68.8_1","GID_0": "TUR","country": "Turkey","GID_1": "TUR.68_1","province": "Sanliurfa","NL_NAME_1": "NA","county": "Merkez","VARNAME_2": "SanhufraMerkezi","NL_NAME_2": "NA","TYPE_2": "District","ENGTYPE_2": "District","CC_2": "NA","HASC_2": "TR.SU.SU","name": "Merkez.county","area_km2": 3781.794,"hist_schema_id": "Elevation0-9000","hist_area_km2": {"375": 185.135,"400": 216.691,"425": 184.254,"450": 154.14,"475": 187.275,"500": 220.814,"525": 215.556,"550": 232.782,"575": 240.494,"600": 264.493,"625": 286.713,"650": 312.069,"675": 332.079,"700": 297.136,"725": 198.67,"750": 112.108,"775": 50.277,"800": 31.357,"825": 19.981,"850": 14.852,"875": 11.09,"900": 10.349,"925": 3.207,"950": 0.27}}}