{"type":"Feature","properties":{"GID_2":"TUR.66.3_1","GID_0":"TUR","country":"Turkey","GID_1":"TUR.66_1","province":"Sakarya","NL_NAME_1":"NA","county":"Geyve","VARNAME_2":"NA","NL_NAME_2":"NA","TYPE_2":"District","ENGTYPE_2":"District","CC_2":"NA","HASC_2":"TR.SK.GE","name":"Geyve.county"},
"geometry":{"type": "MultiPolygon","coordinates": [[[[30.4328,40.3905,458.5913],[30.4366,40.4096,496.7993],[30.4363,40.4371,756.6287],[30.4331,40.4486,608.8307],[30.4237,40.4647,601.0465],[30.4224,40.4757,675.0084],[30.4261,40.4865,991.0489],[30.4377,40.4977,974.7463],[30.4465,40.503,1033.2134],[30.4569,40.5066,1129.6461],[30.5033,40.5093,1394.8842],[30.5323,40.5174,1248.0087],[30.5671,40.5212,1222.3459],[30.6362,40.5424,973.0126],[30.6098,40.5523,980.4795],[30.5949,40.5603,1146.7732],[30.4774,40.6506,266.5215],[30.4674,40.6565,144.1128],[30.451,40.6625,126.1896],[30.4352,40.6724,201.6645],[30.3671,40.671,47.2505],[30.3484,40.6687,66.8662],[30.3182,40.6574,286.8661],[30.3093,40.6527,405.7618],[30.2834,40.6323,699.4592],[30.276,40.6243,653.0125],[30.284,40.612,765.7916],[30.2868,40.6009,737.3036],[30.2869,40.5924,570.9343],[30.2837,40.5788,347.1913],[30.2755,40.5651,571.0255],[30.2736,40.5571,519.6577],[30.2748,40.5464,167.7053],[30.2821,40.5336,191.3801],[30.2834,40.5269,69.1215],[30.2796,40.5206,69.1265],[30.2563,40.5095,67.9464],[30.2255,40.4989,70.4266],[30.1866,40.4943,71.2429],[30.1654,40.4874,72.6862],[30.155,40.4856,73.1813],[29.963,40.4843,833.7802],[29.9816,40.4656,343.2924],[30.0163,40.4384,312.7998],[30.0297,40.4301,405.7595],[30.0452,40.4245,93.6886],[30.0562,40.4185,294.3389],[30.1059,40.38,323.4874],[30.1195,40.3717,474.3654],[30.1277,40.3693,399.2696],[30.1583,40.3678,323.1239],[30.1872,40.3694,337.4947],[30.2169,40.3779,387.347],[30.2415,40.38,476.6577],[30.2521,40.3867,598.788],[30.2643,40.3921,703.598],[30.2881,40.4003,518.6257],[30.3037,40.4029,603.4004],[30.3787,40.4025,573.7571],[30.3935,40.3996,549.1119],[30.4116,40.3935,442.8042],[30.4328,40.3905,458.5913]]]]}}