{"type": "Feature","bbox": [33.5757,39.9583,34.016,40.2848],"geometry": {"type": "MultiPolygon","coordinates": [[[[33.6194,39.9583,1094.5847],[33.6362,39.9618,1169.1221],[33.7263,39.9966,1026.691],[33.768,40.0247,1013.7883],[33.8196,40.0446,1067.9155],[33.8674,40.0795,1253.4988],[33.8764,40.0837,1227.3997],[33.89,40.0862,1188.2794],[33.9022,40.0988,1219.3184],[33.9246,40.134,1158.059],[33.9455,40.1548,1197.5385],[33.9567,40.1713,1156.5331],[33.9972,40.2039,895.5975],[34.0059,40.2127,810.0643],[34.0095,40.2195,739.2003],[34.016,40.2405,838.0038],[33.9755,40.2508,1000.1252],[33.9689,40.255,923.3196],[33.9655,40.2608,795.5469],[33.9179,40.2616,762.2877],[33.8816,40.271,725.4644],[33.8355,40.2746,703.8435],[33.8062,40.2829,705.5824],[33.7691,40.2848,669.9984],[33.7449,40.2826,686.9949],[33.7291,40.2784,643.9974],[33.7015,40.2527,780.7562],[33.6861,40.2318,900.7503],[33.6611,40.2109,935.11],[33.6527,40.2019,974.8031],[33.6093,40.1343,865.285],[33.6013,40.1108,931.4781],[33.592,40.0944,1117.8691],[33.5869,40.0669,1102.2258],[33.5765,40.0481,1061.3837],[33.5757,40.0344,1083.4277],[33.5785,40.0266,1095.4958],[33.6149,39.9713,1180.5293],[33.6194,39.9583,1094.5847]]]]}
,"properties": {"GID_2": "TUR.49.8_1","GID_0": "TUR","country": "Turkey","GID_1": "TUR.49_1","province": "Kinkkale","NL_NAME_1": "NA","county": "Sulakyurt","VARNAME_2": "NA","NL_NAME_2": "NA","TYPE_2": "District","ENGTYPE_2": "District","CC_2": "NA","HASC_2": "TR.KK.SU","name": "Sulakyurt.county","area_km2": 766.3784,"hist_schema_id": "Elevation0-9000","hist_area_km2": {"650": 2.3458,"675": 4.9669,"700": 10.2741,"725": 12.7346,"750": 14.4031,"775": 18.0627,"800": 21.0115,"825": 24.4137,"850": 26.6994,"875": 29.4234,"900": 34.1573,"925": 37.402,"950": 39.5299,"975": 41.4644,"1000": 43.9744,"1025": 44.978,"1050": 46.5098,"1075": 55.1306,"1100": 55.3347,"1125": 49.5316,"1150": 42.6355,"1175": 36.1441,"1200": 29.4548,"1225": 18.8759,"1250": 11.4481,"1275": 7.7038,"1300": 4.1842,"1325": 2.7733,"1350": 0.7784,"1375": 0.0324}}}