{"type": "Feature","bbox": [26.814,38.2729,26.9986,38.3849],"geometry": {"type": "MultiPolygon","coordinates": [[[[26.9336,38.3838,0.0],[26.9221,38.3849,0.9007],[26.9035,38.3796,1.1104],[26.8846,38.379,0.0],[26.881,38.3768,2.0275],[26.8674,38.3746,1.3234],[26.866,38.376,0.0],[26.8624,38.3737,2.2077],[26.8546,38.374,0.0],[26.8376,38.3713,0.0],[26.829,38.3682,0.8696],[26.825,38.3488,87.6537],[26.814,38.3279,58.7899],[26.814,38.3204,114.9035],[26.8161,38.3158,121.3281],[26.824,38.311,263.6486],[26.8565,38.3074,70.0719],[26.8868,38.2965,361.2256],[26.8987,38.288,351.6845],[26.9102,38.2729,367.8906],[26.9567,38.3003,591.0029],[26.9793,38.3228,744.121],[26.991,38.3299,910.1973],[26.9986,38.3322,983.2554],[26.9924,38.336,953.6965],[26.9636,38.3373,652.9498],[26.9543,38.3429,773.9903],[26.9443,38.3535,303.3219],[26.9336,38.3838,0.0]]]]}
,"properties": {"GID_2": "TUR.41.13_1","GID_0": "TUR","country": "Turkey","GID_1": "TUR.41_1","province": "Izmir","NL_NAME_1": "NA","county": "Güzelbahçe","VARNAME_2": "NA","NL_NAME_2": "NA","TYPE_2": "District","ENGTYPE_2": "District","CC_2": "NA","HASC_2": "TR.IZ.GU","name": "Güzelbahçe.county","area_km2": 109.03482,"hist_schema_id": "Elevation0-9000","hist_area_km2": {"0": 7.43021,"25": 9.17724,"50": 8.72996,"75": 6.51894,"100": 4.34056,"125": 3.49249,"150": 3.64222,"175": 3.94169,"200": 4.15804,"225": 4.19147,"250": 3.57598,"275": 3.87548,"300": 3.72602,"325": 3.72601,"350": 3.69297,"375": 4.39169,"400": 3.65985,"425": 3.99264,"450": 3.02769,"475": 2.72825,"500": 2.04599,"525": 2.06251,"550": 1.67997,"575": 1.81299,"600": 1.43046,"625": 1.53021,"650": 1.18093,"675": 0.98128,"700": 0.89812,"725": 0.78171,"750": 0.46571,"775": 0.43246,"800": 0.28277,"825": 0.23285,"850": 0.13305,"875": 0.11642,"900": 0.13305,"925": 0.18295,"950": 0.16631,"975": 0.23284,"1000": 0.18294,"1025": 0.04989}}}