{"type":"Feature","properties":{"GID_2":"TUR.77.4_1","GID_0":"TUR","country":"Turkey","GID_1":"TUR.77_1","province":"Usak","NL_NAME_1":"NA","county":"Merkez","VARNAME_2":"Uşak","NL_NAME_2":"NA","TYPE_2":"District","ENGTYPE_2":"District","CC_2":"NA","HASC_2":"TR.US.US","name":"Merkez.county"},
"geometry":{"type": "MultiPolygon","coordinates": [[[[29.0365,38.7277,814.8104],[29.0228,38.7253,735.7618],[29.0089,38.7181,729.0221],[28.9896,38.7027,711.3503],[28.978,38.6894,809.6726],[29.0292,38.6526,530.0842],[29.0612,38.638,577.1992],[29.1068,38.6044,799.1971],[29.1279,38.596,765.1801],[29.1545,38.5797,862.1512],[29.1945,38.5661,1011.2811],[29.249,38.5644,1014.5267],[29.2602,38.5623,1018.6276],[29.2697,38.5578,989.1516],[29.2872,38.5429,955.9208],[29.3126,38.5022,859.3466],[29.3311,38.4881,825.794],[29.3411,38.4845,824.2676],[29.3799,38.4802,848.954],[29.4245,38.4631,865.4536],[29.4344,38.4606,843.5747],[29.4601,38.4595,873.2886],[29.4875,38.462,890.536],[29.4866,38.4798,900.8452],[29.4883,38.491,889.8027],[29.5059,38.5192,907.826],[29.5249,38.5378,931.2468],[29.5344,38.5519,978.0921],[29.5423,38.5603,966.3185],[29.557,38.5711,937.98],[29.5725,38.5792,912.2813],[29.5853,38.5931,934.6743],[29.6069,38.6109,929.8279],[29.5955,38.6236,924.9598],[29.5921,38.6353,950.5479],[29.5929,38.72,1082.9565],[29.5922,38.7291,1036.1267],[29.5893,38.7377,1115.2838],[29.5834,38.744,1108.6656],[29.5754,38.7484,1132.8889],[29.5457,38.7545,1149.5972],[29.4881,38.7757,1343.2386],[29.4761,38.7824,1391.6608],[29.4658,38.7908,1350.2389],[29.4601,38.7982,1254.5033],[29.4571,38.8092,1314.424],[29.456,38.826,1287.665],[29.4254,38.8171,1149.7114],[29.3506,38.7883,993.1093],[29.3117,38.784,897.3912],[29.2778,38.7722,776.4668],[29.2607,38.761,716.7009],[29.2518,38.752,712.2075],[29.2429,38.7387,724.2552],[29.2338,38.7333,683.6039],[29.2282,38.7328,677.8889],[29.2116,38.737,676.1514],[29.1925,38.7389,699.9536],[29.091,38.7394,839.0168],[29.0714,38.7377,845.835],[29.05,38.7304,842.3571],[29.0365,38.7277,814.8104]]]]}}