{"type": "Feature","bbox": [34.6418,39.992,35.1826,40.3163],"geometry": {"type": "MultiPolygon","coordinates": [[[[34.6874,39.9925,1289.3542],[34.7775,39.992,1422.2939],[34.8009,39.993899999999996,1358.7351],[34.8175,40.0015,1237.4657],[34.8638,40.0354,1074.6807],[34.8941,40.0473,1056.823],[34.9045,40.0497,1030.9901],[34.9431,40.051,981.8469],[34.9777,40.0494,1014.2938],[35.0438,40.0307,1238.8883],[35.057,40.0298,1317.0792],[35.0687,40.034,1331.1151],[35.0896,40.0468,1243.6553],[35.108,40.0539,1325.7952],[35.1351,40.0698,1340.9504],[35.1721,40.0852,1398.3308],[35.1787,40.0908,1341.1628],[35.1811,40.0961,1244.9554],[35.1826,40.1112,1000.0759],[35.181,40.1333,929.8347],[35.1782,40.1423,888.59],[35.1701,40.1562,1010.3301],[35.1672,40.1677,925.0724],[35.1675,40.2832,1199.6444],[35.1298,40.2819,1261.0404],[35.1055,40.2741,1361.208],[35.0943,40.2721,1304.853],[35.0748,40.2712,1254.861],[35.0553,40.2723,1250.636],[35.0177,40.2852,1157.5801],[34.9472,40.3139,1037.0719],[34.9344,40.3163,1163.9202],[34.9209,40.3129,1167.8018],[34.89,40.2907,1217.2983],[34.8766,40.285,1174.2881],[34.8574,40.2831,1184.5403],[34.7934,40.2837,1148.3389],[34.7699,40.2824,1269.5933],[34.7248,40.2667,1228.9836],[34.7163,40.265,1218.9576],[34.7077,40.2665,1169.1975],[34.6875,40.2738,1126.3379],[34.6778,40.2803,1156.8921],[34.6668,40.2915,1128.4191],[34.646,40.3006,1095.8535],[34.6418,40.2836,1109.6639],[34.6427,40.2666,1017.9645],[34.6483,40.2564,1068.5884],[34.6678,40.2359,1069.6981],[34.6708,40.2273,1109.7958],[34.672,40.2152,1147.0013],[34.671,40.2001,1187.8638],[34.6681,40.1913,1160.2854],[34.6491,40.1673,1086.6367],[34.6862,40.1674,1129.3597],[34.6952,40.1637,1089.6403],[34.6977,40.1593,1069.2732],[34.6965,40.1522,1032.8245],[34.6881,40.1369,1092.6277],[34.6859,40.1213,1127.4556],[34.6875,40.0926,1277.4712],[34.6975,40.073,1369.8209],[34.6995,40.0623,1270.6844],[34.6974,40.0516,1236.627],[34.6895,40.038,1335.0731],[34.6869,40.0293,1385.907],[34.6858,40.0107,1314.0443],[34.6874,39.9925,1289.3542]]]]}
,"properties": {"GID_2": "TUR.24.1_1","GID_0": "TUR","country": "Turkey","GID_1": "TUR.24_1","province": "Çorum","NL_NAME_1": "NA","county": "Alaca","VARNAME_2": "NA","NL_NAME_2": "NA","TYPE_2": "District","ENGTYPE_2": "District","CC_2": "NA","HASC_2": "TR.CM.AL","name": "Alaca.county","area_km2": 1189.5642,"hist_schema_id": "Elevation0-9000","hist_area_km2": {"725": 0.0323,"750": 0.3882,"775": 0.744,"800": 1.0999,"825": 1.2617,"850": 1.828,"875": 3.479,"900": 26.8504,"925": 75.415,"950": 86.4814,"975": 89.6405,"1000": 74.6581,"1025": 75.5985,"1050": 87.5042,"1075": 91.8723,"1100": 94.1099,"1125": 87.0425,"1150": 71.3783,"1175": 62.5286,"1200": 54.4379,"1225": 50.1676,"1250": 42.2148,"1275": 32.1149,"1300": 23.0712,"1325": 15.5199,"1350": 12.4248,"1375": 9.0052,"1400": 7.3191,"1425": 5.437,"1450": 3.4403,"1475": 1.8982,"1500": 0.5842,"1525": 0.0162}}}