{"type":"Feature","properties":{"GID_2":"TUR.55.13_1","GID_0":"TUR","country":"Turkey","GID_1":"TUR.55_1","province":"Malatya","NL_NAME_1":"NA","county":"Yazıhan","VARNAME_2":"NA","NL_NAME_2":"NA","TYPE_2":"District","ENGTYPE_2":"District","CC_2":"NA","HASC_2":"TR.ML.YA","name":"Yazıhan.county"},
"geometry":{"type": "MultiPolygon","coordinates": [[[[38.3473,38.5862,688.5],[38.3328,38.5939,733.6707],[38.3232,38.6012,759.0425],[38.2957,38.6435,813.8175],[38.2804,38.6561,846.9843],[38.2709,38.6606,897.195],[38.2497,38.6618,909.6287],[38.2186,38.6522,960.4197],[38.1894,38.6507,857.8776],[38.1677,38.6532,809.6198],[38.1459,38.6617,845.2103],[38.1229,38.6603,1139.7814],[38.0925,38.6494,1098.2483],[38.0834,38.6445,1305.7412],[38.0659,38.6295,1504.8408],[38.0452,38.5965,1186.2219],[38.0398,38.59,1421.7817],[38.0298,38.5836,1440.0679],[38.0084,38.5746,1466.3911],[37.9928,38.5622,1458.1267],[37.9879,38.5545,1314.9171],[37.9858,38.5434,1404.4004],[37.9862,38.5174,949.0163],[37.9892,38.4992,1276.2129],[38.1831,38.4991,712.6144],[38.2268,38.4894,734.5345],[38.2517,38.4862,725.6769],[38.2729,38.4791,740.6149],[38.3004,38.474,721.7535],[38.3247,38.4661,723.7766],[38.3478,38.4738,708.3774],[38.3596,38.4758,709.5132],[38.389,38.4765,698.0897],[38.4299,38.475,691.2405],[38.4129,38.4926,688.5],[38.3904,38.5032,688.5],[38.3793,38.5123,688.5],[38.3646,38.5354,688.5],[38.3581,38.5566,688.5],[38.3492,38.5731,701.007],[38.3473,38.5862,688.5]]]]}}