{"type": "Feature","bbox": [35.13318106413513,40.917914129681549,41.999990735898479,41.869064390405214],"geometry": {"type": "MultiPolygon","coordinates": [[[[41.889421165225343,41.746332808664079,754.9537],[41.880869987896205,41.751166082806577,714.361],[41.841807487896205,41.7559878601503,451.0729],[41.805430534771205,41.745550848431606,328.7819],[41.771739128521261,41.723456121869134,305.9968],[41.743907097271261,41.6971499695253,74.0571],[41.718028191021261,41.667181707806606,174.9135],[41.671397331646261,41.606024481244106,350.1559],[41.626109245708761,41.536139227337856,417.4829],[41.540171745708761,41.3814761414003,664.4964],[41.503020120826278,41.331496170797209,1619.9434],[41.989771071626336,41.363511080077188,2969.9263],[41.999990735898479,41.386410327810239,2618.2966],[41.946543816021261,41.427374578900327,905.9249],[41.883677605083761,41.571478582806577,647.6226],[41.883677605083761,41.731878973431577,1205.2423],[41.889421165225343,41.746332808664079,754.9537]]],
[[[39.544828316357751,41.057636240404491,0.0],[39.591929558208761,41.0262515320253,0.0],[39.629771355083761,41.009711004681606,0.0],[39.669566276958761,41.003790594525356,0.0],[39.689707878521205,41.008673407025384,0.0],[39.709971550396261,41.016180731244106,0.0],[39.729869011333705,41.018377996869106,0.0],[39.756968620708705,41.003485418744077,0.0],[39.768199089458705,41.002630926556577,0.0],[39.790049675396205,41.003790594525356,0.0],[39.799082878521205,41.001532293744049,0.0],[39.858653191021261,40.965399481244049,0.0],[39.876353386333705,40.959051824994106,0.0],[39.895518425396205,40.956000067181606,0.0],[39.911753776958705,40.964911199994049,0.0],[39.974864128521205,40.981512762494049,0.0],[39.999156120708761,40.983343817181577,0.0],[40.056651237896261,40.9425112976503,0.0],[40.085581901958705,40.927679754681606,0.0],[40.125743034771205,40.921820379681549,0.0],[40.142588737896261,40.924017645306549,0.0],[40.172373894146205,40.933417059369106,0.0],[40.195445183208705,40.937506414837856,0.0],[40.231333855083705,40.948004461712856,0.0],[40.254405144146205,40.959906317181577,0.0],[40.300913933208705,40.969671942181634,0.0],[40.32722825042336,40.982829100788962,49.4852],[39.544828316357751,41.057636240404491,0.0]]],
[[[39.264493541954863,41.052607991,0.0],[39.273081901958705,41.051581121869106,0.0],[39.279888412058909,41.053356733199621,0.0],[39.264493541954863,41.052607991,0.0]]],
[[[38.653515570321048,40.973516705152207,0.0],[38.655284050396205,40.972296453900327,0.0],[38.670664909771261,40.955694891400327,0.0],[38.677744987896261,40.949774481244077,0.0],[38.687632683208761,40.9538638367128,0.0],[38.706919792583761,40.954107977337856,0.0],[38.717539909771205,40.956000067181606,0.0],[38.724375847271261,40.960394598431606,0.0],[38.732659761388135,40.967140071355374,0.0],[38.653515570321048,40.973516705152207,0.0]]],
[[[38.052500229569631,40.973461473122768,0.0],[38.102061394146205,40.960882879681606,27.7216],[38.161021355083761,40.953253485150356,0.0],[38.201304558208705,40.942572332806606,0.0],[38.224009636333705,40.942328192181549,0.0],[38.268077019146205,40.951605535931577,0.0],[38.287242058208705,40.948431707806549,0.0],[38.330821159771205,40.919073797650327,0.0],[38.351084831646261,40.919073797650327,0.0],[38.389170769146205,40.928045965619077,0.0],[38.426646355083761,40.919867254681606,0.0],[38.452159050396205,40.917914129681549,0.0],[38.463633659771261,40.924933172650356,0.0],[38.539317253521205,40.928045965619077,0.0],[38.554576042583705,40.936163641400356,0.0],[38.591441276958761,40.963690496869049,0.0],[38.604502800396261,40.969671942181634,0.0],[38.629281554577318,40.975469235612621,0.0],[38.618662956646205,40.976324774212856,0.0],[38.052500229569631,40.973461473122768,0.0]]],
[[[37.894241884566242,40.985221672701641,1.344],[37.895640495708761,40.983343817181577,5.3227],[37.898343449114151,40.984244801650021,1.0593],[37.894241884566242,40.985221672701641,1.344]]],
[[[37.422067986723533,41.087212467314117,0.0],[37.436289909771205,41.078924871869077,0.0],[37.477427605083761,41.0689761414003,0.0],[37.481211784771205,41.063421942181634,0.0],[37.504649284771205,41.044134832806606,0.0],[37.524668816021205,41.038397528119106,0.0],[37.564585808208761,41.041693426556549,0.0],[37.580454948833705,41.037909246869077,0.0],[37.586314323833705,41.043402410931549,0.0],[37.600352409771261,41.047552801556606,0.0],[37.607676628521205,41.051581121869106,0.0],[37.615000847271205,41.059698797650384,28.3205],[37.617552187391283,41.06484872492976,38.9652],[37.615244987896261,41.065375067181577,13.9925],[37.422067986723533,41.087212467314117,0.0]]],
[[[37.033104434727505,41.213464271291713,0.0],[37.033702019146261,41.200018621869077,0.0],[37.039439323833705,41.182684637494077,6.0643],[37.056162956646205,41.175726629681606,0.0],[37.077403191021205,41.172064520306549,0.0],[37.115489128521205,41.154303289837884,0.7033],[37.135386589458705,41.147772528119077,3.3585],[37.186622257098435,41.1482618850211,0.0],[37.166636589458761,41.1556460632753,0.0],[37.100352409771261,41.187933660931606,0.0],[37.033104434727505,41.213464271291713,0.0]]],
[[[36.340843008389669,41.299905587307023,0.0],[36.343638542583705,41.289862371869077,0.4359],[36.352061394146205,41.284796453900327,0.0],[36.363169792583761,41.282294012494049,0.0],[36.374400261333761,41.278143621869077,0.0],[36.380015495708705,41.273382879681606,0.0],[36.390025261333705,41.261542059369077,0.0],[36.394908073833761,41.257635809369077,0.0],[36.404917839458761,41.254828192181549,0.0],[36.423716667583761,41.252875067181577,0.0],[36.432383659771261,41.247381903119134,0.0],[36.450938347271205,41.241644598431606,9.7386],[36.475840691021205,41.246161199994049,1.6557],[36.517710808208705,41.263861395306606,0.0],[36.519431444066612,41.265005182046252,0.0],[36.417735222271205,41.273749090619077,0.0],[36.340843008389669,41.299905587307023,0.0]]],
[[[35.13318106413513,41.869064390405214,0.0],[35.155650261333705,41.846869207806549,0.0],[35.209239128521205,41.812567449994077,0.0],[35.209239128521205,41.805731512494106,0.0],[35.195689323833761,41.805731512494106,36.2696],[35.201914909771205,41.7926089539003,0.0],[35.211680534771261,41.776556707806606,0.0],[35.224619987896205,41.763006903119106,0.0],[35.253428581646205,41.751837469525327,0.0],[35.282481316021205,41.725409246869077,0.0],[35.298106316021261,41.7163150085878,0.0],[35.357554558208705,41.6980044617128,0.0],[35.400767448833705,41.692694403119077,0.0],[35.417246941021205,41.684576727337827,0.0],[35.448985222271261,41.661749578900384,0.0],[35.485606316021261,41.646246649212827,0.0],[35.530039909771261,41.635504461712856,0.0],[35.576548698833705,41.630926824994106,1.6728],[35.596783307343657,41.63227388816685,2.0593],[35.547495964458761,41.651434637494106,0.0],[35.498057487896205,41.6818911804628,0.0],[35.414073112896261,41.740179754681577,0.0],[35.371592644146205,41.762762762494049,0.0],[35.249644401958761,41.811468817181606,0.0],[35.13318106413513,41.869064390405214,0.0]]]]}
,"properties": {"featurecla": "Range/mtn","name": "PONTIC MOUNTAINS","namealt": null,"region": "Asia","subregion": null,"min_label": 5.3,"max_label": 9.0,"scalerank": 4,"area_km2": 1813.699,"hist_schema_id": "Elevation0-9000","hist_area_km2": {"0": 798.043,"25": 7.425,"50": 9.106,"75": 10.482,"100": 15.965,"125": 13.897,"150": 13.914,"175": 15.532,"200": 15.549,"225": 17.469,"250": 17.802,"275": 18.248,"300": 19.026,"325": 19.647,"350": 19.6,"375": 20.251,"400": 20.253,"425": 19.857,"450": 20.986,"475": 21.494,"500": 21.084,"525": 21.527,"550": 21.798,"575": 21.704,"600": 20.64,"625": 21.037,"650": 20.66,"675": 20.576,"700": 19.197,"725": 20.148,"750": 19.434,"775": 19.197,"800": 18.862,"825": 19.292,"850": 17.292,"875": 18.149,"900": 17.738,"925": 16.182,"950": 17.086,"975": 15.802,"1000": 15.8,"1025": 14.973,"1050": 14.276,"1075": 14.579,"1100": 14.373,"1125": 13.417,"1150": 12.831,"1175": 12.991,"1200": 11.991,"1225": 11.055,"1250": 10.024,"1275": 8.865,"1300": 7.612,"1325": 7.661,"1350": 6.612,"1375": 6.947,"1400": 6.168,"1425": 6.169,"1450": 5.39,"1475": 5.549,"1500": 5.709,"1525": 5.343,"1550": 5.439,"1575": 4.819,"1600": 4.309,"1625": 4.198,"1650": 4.198,"1675": 4.071,"1700": 3.912,"1725": 4.215,"1750": 3.562,"1775": 3.42,"1800": 3.26,"1825": 3.372,"1850": 2.974,"1875": 3.197,"1900": 2.752,"1925": 2.465,"1950": 2.306,"1975": 2.259,"2000": 2.227,"2025": 2.163,"2050": 2.338,"2075": 1.941,"2100": 1.686,"2125": 1.75,"2150": 1.384,"2175": 1.543,"2200": 1.05,"2225": 1.066,"2250": 1.098,"2275": 1.082,"2300": 0.764,"2325": 0.796,"2350": 0.652,"2375": 0.557,"2400": 0.652,"2425": 0.366,"2450": 0.398,"2475": 0.382,"2500": 0.334,"2525": 0.255,"2550": 0.43,"2575": 0.398,"2600": 0.334,"2625": 0.302,"2650": 0.414,"2675": 0.366,"2700": 0.366,"2725": 0.445,"2750": 0.382,"2775": 0.286,"2800": 0.223,"2825": 0.127,"2850": 0.08,"2875": 0.048}}}