{"type": "Feature","bbox": [32.2697,41.0186,32.7839,41.2519],"geometry": {"type": "MultiPolygon","coordinates": [[[[32.7826,41.0268,850.3321],[32.7809,41.0524,1179.0199],[32.7809,41.107,679.5613],[32.7817,41.1273,364.0358],[32.7839,41.1403,426.191],[32.7675,41.1568,596.1006],[32.7501,41.1679,825.4628],[32.7164,41.1798,1070.9752],[32.6772,41.1837,559.1741],[32.6445,41.1962,406.7042],[32.6375,41.2016,279.766],[32.6331,41.2087,307.2412],[32.6302,41.2331,474.2803],[32.6268,41.2407,583.3495],[32.6147,41.2494,709.0375],[32.6008,41.2519,761.5621],[32.5601,41.2518,1017.5746],[32.539,41.2479,682.1898],[32.5245,41.2391,802.0142],[32.4738,41.1998,1093.3507],[32.4648,41.195,879.6802],[32.4352,41.184,583.97],[32.4249,41.1836,805.2219],[32.4184,41.1851,1043.3663],[32.3905,41.1998,180.5179],[32.3672,41.1849,645.2908],[32.3556,41.1687,405.4369],[32.3354,41.1482,436.5349],[32.3237,41.1312,703.3981],[32.298,41.1054,776.386],[32.2769,41.0919,776.9128],[32.2712,41.0823,695.3461],[32.2697,41.074,744.497],[32.2712,41.0483,893.4252],[32.2803,41.0311,1339.9082],[32.3221,41.0291,1328.5886],[32.3466,41.0211,1573.1055],[32.357,41.0192,1552.656],[32.3715,41.0186,1432.6387],[32.3893,41.0208,1551.0952],[32.4192,41.0325,1149.9319],[32.4483,41.05,1290.1467],[32.4622,41.0534,1363.6262],[32.473,41.054,1395.134],[32.4944,41.0512,1299.465],[32.5267,41.0323,1203.6218],[32.5527,41.0237,1039.0643],[32.5613,41.0242,1061.2151],[32.5789,41.0286,905.1361],[32.6073,41.0315,680.4237],[32.6318,41.0394,547.836],[32.6457,41.041,614.8796],[32.6596,41.0394,897.1926],[32.6772,41.033,1102.2312],[32.7009,41.0282,1019.5251],[32.7219,41.0207,1380.1621],[32.7323,41.0188,1226.9961],[32.7578,41.0191,1292.074],[32.7826,41.0268,850.3321]]]]}
,"properties": {"GID_2": "TUR.43.3_1","GID_0": "TUR","country": "Turkey","GID_1": "TUR.43_1","province": "Karabük","NL_NAME_1": "NA","county": "Merkez","VARNAME_2": "Karabük","NL_NAME_2": "NA","TYPE_2": "District","ENGTYPE_2": "District","CC_2": "NA","HASC_2": "TR.KB.KB","name": "Merkez.county","area_km2": 755.9477,"hist_schema_id": "Elevation0-9000","hist_area_km2": {"150": 0.1595,"175": 0.5266,"200": 0.9735,"225": 2.2506,"250": 5.5374,"275": 8.2668,"300": 10.1839,"325": 11.9883,"350": 13.4254,"375": 14.0485,"400": 13.4422,"425": 14.5768,"450": 15.0083,"475": 14.5939,"500": 14.8016,"525": 14.6738,"550": 13.9086,"575": 15.6489,"600": 17.1665,"625": 16.8951,"650": 17.1673,"675": 17.2963,"700": 17.9519,"725": 17.617,"750": 16.3234,"775": 16.9144,"800": 15.637,"825": 15.8607,"850": 16.5806,"875": 17.3957,"900": 16.9325,"925": 16.2942,"950": 15.9909,"975": 15.8318,"1000": 15.6556,"1025": 15.4003,"1050": 14.6504,"1075": 14.0437,"1100": 14.1074,"1125": 13.8374,"1150": 13.9171,"1175": 13.8537,"1200": 13.151,"1225": 12.7519,"1250": 11.985,"1275": 12.1607,"1300": 12.5442,"1325": 13.0553,"1350": 12.7522,"1375": 12.7049,"1400": 11.3777,"1425": 9.668,"1450": 10.2434,"1475": 9.6682,"1500": 9.237,"1525": 8.0063,"1550": 5.9767,"1575": 5.0334,"1600": 3.5313,"1625": 3.4674,"1650": 2.5885,"1675": 2.269,"1700": 1.4699,"1725": 1.3263,"1750": 0.6232,"1775": 0.6392,"1800": 0.4795,"1825": 0.4315,"1850": 0.3196,"1875": 0.3676,"1900": 0.2237,"1925": 0.1918,"1950": 0.1758,"1975": 0.1918}}}