{"type": "Feature","bbox": [35.5818,38.3236,36.2971,38.6435],"geometry": {"type": "MultiPolygon","coordinates": [[[[36.2613,38.4483,2567.2378],[36.2589,38.4759,1878.7223],[36.2613,38.4973,1821.5342],[36.2705,38.514,1856.9255],[36.2776,38.535,1687.4326],[36.2861,38.5487,1640.5251],[36.2971,38.5737,1625.7542],[36.2734,38.5805,1567.053],[36.2458,38.5856,1545.0912],[36.2282,38.592,1527.0867],[36.2179,38.5934,1506.0652],[36.2038,38.5925,1515.0281],[36.1831,38.5853,1544.7571],[36.1693,38.5836,1471.2999],[36.1555,38.5852,1437.9309],[36.1345,38.5924,1409.236],[36.1114,38.5945,1428.5018],[36.0545,38.5939,1481.1067],[36.0393,38.5922,1451.339],[36.0227,38.588,1501.4792],[36.017,38.5885,1515.9388],[36.0119,38.5906,1607.4404],[36.0059,38.5958,1656.1072],[35.9911,38.6184,1454.2728],[35.9835,38.6343,1431.1917],[35.9728,38.6384,1431.8425],[35.9464,38.6414,1443.1804],[35.9114,38.6404,1441.8284],[35.879,38.6311,1453.1597],[35.8556,38.6297,1475.624],[35.8402,38.6319,1525.3639],[35.8192,38.6393,1507.7747],[35.7974,38.6435,1552.8568],[35.7779,38.6317,1548.1169],[35.7439,38.6195,1561.6853],[35.6715,38.6172,1647.3538],[35.6602,38.6152,1730.7708],[35.6424,38.609,1687.847],[35.6272,38.6068,1747.6055],[35.5818,38.6081,1691.1194],[35.5846,38.5778,2063.0847],[35.5866,38.5725,2103.2327],[35.5923,38.5651,2078.0244],[35.6328,38.5337,1927.0018],[35.6694,38.5161,1707.4478],[35.6862,38.5009,1622.5034],[35.7015,38.4747,1595.7812],[35.7042,38.4407,1509.9475],[35.7063,38.4326,1484.014],[35.7209,38.4094,1455.4307],[35.7294,38.4018,1441.0717],[35.7531,38.391,1525.1388],[35.788,38.3671,1491.9705],[35.7982,38.3633,1577.4097],[35.8247,38.3612,1717.2257],[35.8675,38.3621,1342.3704],[35.8786,38.3635,1352.426],[35.8998,38.3709,1339.5074],[35.9102,38.3728,1380.2039],[35.9322,38.3737,1408.1884],[35.9505,38.3724,1440.0234],[35.9751,38.3645,1500.4215],[36.0053,38.3582,1546.2893],[36.0354,38.3462,1742.3409],[36.065,38.3293,2050.2148],[36.0979,38.3236,2209.8948],[36.1114,38.3491,1909.9998],[36.1413,38.3957,2174.8445],[36.1538,38.4081,2102.1577],[36.1699,38.4179,2246.9624],[36.2003,38.4289,2525.011],[36.2309,38.4349,2629.1162],[36.2613,38.4483,2567.2378]]]]}
,"properties": {"GID_2": "TUR.47.14_1","GID_0": "TUR","country": "Turkey","GID_1": "TUR.47_1","province": "Kayseri","NL_NAME_1": "NA","county": "Tomarza","VARNAME_2": "NA","NL_NAME_2": "NA","TYPE_2": "District","ENGTYPE_2": "District","CC_2": "NA","HASC_2": "TR.KY.TO","name": "Tomarza.county","area_km2": 1375.657,"hist_schema_id": "Elevation0-9000","hist_area_km2": {"1350": 26.322,"1375": 54.113,"1400": 76.113,"1425": 71.554,"1450": 120.521,"1475": 127.594,"1500": 117.372,"1525": 116.041,"1550": 120.995,"1575": 95.181,"1600": 60.528,"1625": 48.787,"1650": 36.934,"1675": 30.48,"1700": 26.962,"1725": 22.485,"1750": 19.945,"1775": 18.353,"1800": 17.125,"1825": 16.047,"1850": 14.702,"1875": 14.254,"1900": 14.038,"1925": 13.041,"1950": 13.407,"1975": 9.741,"2000": 8.763,"2025": 7.518,"2050": 5.644,"2075": 3.902,"2100": 3.803,"2125": 3.538,"2150": 3.156,"2175": 2.824,"2200": 2.574,"2225": 2.408,"2250": 2.591,"2275": 2.043,"2300": 2.375,"2325": 2.125,"2350": 2.458,"2375": 2.84,"2400": 2.408,"2425": 2.574,"2450": 2.192,"2475": 1.561,"2500": 1.611,"2525": 1.295,"2550": 1.295,"2575": 0.664,"2600": 0.382,"2625": 0.382,"2650": 0.083,"2700": 0.017}}}