{"type":"Feature","properties":{"GID_1":"TUR.58_1","GID_0":"TUR","country":"Turkey","province":"Mersin","VARNAME_1":"İçel","NL_NAME_1":"NA","TYPE_1":"Il","ENGTYPE_1":"Province","CC_1":"NA","HASC_1":"TR.IC","ISO_1":"TR-33","name":"Mersin.province"},
"geometry":{"type": "MultiPolygon","coordinates": [[[[33.5313,36.1285,0.5331],[33.529,36.1288,0.0],[33.5315,36.124,0.2716],[33.5299,36.1235,1.9672],[33.5288,36.1193,0.0],[33.5293,36.1204,0.0],[33.5335,36.1199,0.0],[33.5349,36.1215,0.0],[33.5313,36.1285,0.5331]]],
[[[33.6963,36.1607,2.4546],[33.6918,36.161,1.8568],[33.6943,36.159,6.5319],[33.6982,36.1593,7.8866],[33.6963,36.1607,2.4546]]],
[[[33.7801,36.2001,2.9362],[33.7746,36.2004,1.4751],[33.7718,36.1963,9.8602],[33.7663,36.1935,0.8465],[33.7576,36.186,0.0],[33.7568,36.1824,2.9683],[33.7621,36.1796,0.0],[33.7668,36.1821,84.2721],[33.7738,36.1821,7.2012],[33.7735,36.1838,27.6898],[33.7771,36.1843,3.1323],[33.7796,36.1913,0.0],[33.7843,36.1968,2.792],[33.7801,36.2001,2.9362]]],
[[[33.4454,36.154,1.947],[33.4479,36.1529,0.0],[33.4549,36.1549,0.0],[33.4596,36.1574,5.0619],[33.4601,36.1596,0.4523],[33.4637,36.1596,1.34],[33.4676,36.1574,3.0423],[33.474,36.1593,17.3668],[33.4882,36.1526,0.8299],[33.4935,36.1524,2.8127],[33.4985,36.1488,0.9496],[33.4996,36.1501,0.0],[33.5043,36.1501,0.0],[33.511,36.1468,0.0],[33.5151,36.1468,0.0],[33.5163,36.1437,0.0],[33.519,36.1426,0.0],[33.5304,36.1449,0.3816],[33.5318,36.1429,0.0],[33.5276,36.1418,0.0],[33.5282,36.1404,0.0],[33.5371,36.1413,0.7298],[33.539,36.1396,0.484],[33.5401,36.1426,13.498],[33.5426,36.1429,3.9376],[33.544,36.1415,3.9099],[33.5426,36.139,8.053],[33.5462,36.139,7.5944],[33.5476,36.1368,2.2941],[33.5454,36.1354,22.6166],[33.5376,36.136,0.0],[33.5357,36.1343,0.0],[33.5371,36.1338,5.5048],[33.536,36.1288,0.0],[33.539,36.1257,3.3527],[33.5449,36.1254,0.0],[33.5507,36.1276,57.5619],[33.5546,36.1257,21.7688],[33.5599,36.1268,0.0],[33.561,36.1254,0.0],[33.5632,36.1276,0.0],[33.5635,36.131,0.0],[33.5665,36.1312,8.8397],[33.5646,36.1363,10.0618],[33.5682,36.1363,0.0],[33.5696,36.1382,0.0],[33.5687,36.141,142.326],[33.5701,36.139,3.0675],[33.5718,36.1421,18.4124],[33.5765,36.1451,8.0893],[33.574,36.1549,1.9139],[33.5776,36.1585,0.0],[33.5815,36.1565,0.0],[33.5826,36.1574,13.3651],[33.5929,36.1765,35.3242],[33.6096,36.1851,3.1102],[33.6138,36.1835,0.0],[33.6232,36.1871,3.4532],[33.6399,36.1899,0.0],[33.6479,36.1937,0.0],[33.6529,36.1926,1.85],[33.6613,36.1868,0.1916],[33.6579,36.1785,7.4964],[33.6582,36.1699,9.8785],[33.6613,36.1638,0.0],[33.6593,36.1601,0.0],[33.664,36.1587,0.0],[33.6743,36.1599,7.6411],[33.6763,36.1563,0.8666],[33.6835,36.1576,2.0097],[33.6838,36.1563,1.7476],[33.6813,36.1565,0.0],[33.6765,36.1535,13.8377],[33.6721,36.1463,0.0],[33.6768,36.1401,9.491],[33.6776,36.1351,0.0],[33.679,36.1368,2.3442],[33.6843,36.1374,23.8269],[33.6829,36.1335,0.0],[33.6896,36.1346,0.0],[33.6979,36.139,17.3768],[33.6985,36.1426,152.9361],[33.6999,36.1432,0.0],[33.6996,36.151,0.0],[33.6982,36.1532,32.6021],[33.6935,36.1546,5.2723],[33.696,36.1574,2.7153],[33.691,36.1585,12.2701],[33.6885,36.1574,0.0],[33.6874,36.1593,1.9763],[33.6951,36.1674,0.7202],[33.6985,36.1738,91.513],[33.7121,36.1846,5.533],[33.7224,36.1901,0.0],[33.7263,36.1963,0.0],[33.7357,36.1985,0.0],[33.7371,36.2026,4.8938],[33.7412,36.2057,13.9309],[33.7474,36.206,2.8933],[33.7526,36.2124,6.2745],[33.7726,36.2218,4.2143],[33.7782,36.2238,47.8432],[33.7826,36.2232,0.0],[33.7882,36.226,0.0],[33.7904,36.2287,0.0],[33.796,36.2304,0.0],[33.7982,36.234,13.0943],[33.8021,36.2354,0.0],[33.8037,36.2388,17.0043],[33.809,36.2401,0.0],[33.8093,36.2415,3.5362],[33.806,36.2418,10.8717],[33.8093,36.246,2.0346],[33.809,36.2482,0.0],[33.8112,36.2496,2.9353],[33.811,36.2518,11.6841],[33.8088,36.2518,52.1572],[33.8085,36.2535,0.0],[33.8104,36.2535,0.0],[33.8112,36.2557,48.5982],[33.8162,36.2551,0.0],[33.8187,36.2565,0.0],[33.8229,36.2635,0.0],[33.8218,36.2668,17.0682],[33.8157,36.2676,0.7654],[33.8149,36.2738,16.1243],[33.8185,36.274,1.5346],[33.8215,36.2762,9.748],[33.8321,36.276,4.3146],[33.836,36.2735,0.0],[33.8399,36.2743,0.0],[33.8429,36.2782,0.0],[33.8374,36.2765,1.1086],[33.8382,36.2799,8.1997],[33.8332,36.2813,0.0],[33.8324,36.2851,0.0],[33.8393,36.2915,0.0],[33.8479,36.2929,3.0432],[33.8479,36.2968,5.8696],[33.8526,36.299,2.5044],[33.8546,36.3049,12.1559],[33.8604,36.3082,0.0],[33.866,36.3149,0.0],[33.8807,36.3179,1.6179],[33.8943,36.314,5.3958],[33.9021,36.3143,3.4695],[33.9018,36.311,0.948],[33.9035,36.3096,0.1862],[33.9068,36.3093,1.7929],[33.9179,36.3021,0.8162],[33.9215,36.3013,1.5566],[33.9221,36.2993,0.6737],[33.9243,36.299,0.9617],[33.9351,36.2896,0.1795],[33.9376,36.2896,1.3809],[33.9451,36.2768,0.0],[33.9493,36.2654,0.0],[33.9504,36.2546,0.3994],[33.9474,36.2474,0.0],[33.9496,36.239,0.0],[33.9518,36.2346,0.0],[33.9568,36.2321,0.0],[33.9632,36.2321,0.0],[33.9688,36.2482,0.0846],[33.9768,36.2649,0.1307],[33.999,36.2846,0.0],[33.9979,36.2857,0.1861],[33.9765,36.276,0.0],[33.9774,36.281,0.2539],[33.9801,36.2854,0.2539],[33.9863,36.2874,0.0567],[33.9879,36.2951,0.3415],[33.9971,36.304,0.0552],[34.0088,36.3085,0.0],[34.0132,36.3074,0.037],[34.0179,36.3026,-0.348],[34.0143,36.3099,-0.3989],[34.0196,36.3063,-0.5],[34.0185,36.3026,-0.348],[34.0196,36.301,-0.5],[34.0313,36.3015,0.3995],[34.0382,36.2982,0.2267],[34.0407,36.2951,0.0],[34.0435,36.2949,0.0],[34.0465,36.2971,0.0511],[34.0454,36.3043,0.0529],[34.0504,36.2982,0.0926],[34.0563,36.3051,0.1312],[34.0671,36.3118,0.0],[34.0768,36.324,0.0],[34.0799,36.3363,0.0],[34.079,36.3596,0.2657],[34.0774,36.3599,0.2657],[34.0768,36.364,1.1264],[34.0782,36.374,0.0],[34.0774,36.399,0.0745],[34.079,36.4096,6.8427],[34.0821,36.4151,2.0952],[34.0857,36.4182,7.0816],[34.0896,36.4149,0.0],[34.0913,36.4154,0.0],[34.0929,36.4182,5.1523],[34.0907,36.4193,11.1947],[34.0985,36.4204,0.0],[34.0993,36.4257,12.6021],[34.1037,36.4218,0.0],[34.106,36.4224,1.5937],[34.1079,36.4263,7.4755],[34.1104,36.4254,0.0],[34.1104,36.4276,4.1483],[34.1157,36.4318,1.0358],[34.114,36.4335,14.9136],[34.1115,36.4329,21.7533],[34.1121,36.4374,24.4921],[34.1193,36.4376,1.9846],[34.1201,36.4404,6.516],[34.1201,36.4421,2.123],[34.114,36.4435,12.5992],[34.1174,36.446,4.471],[34.1204,36.4454,0.0],[34.1212,36.4507,8.9275],[34.1271,36.4463,0.0],[34.1276,36.4488,11.9333],[34.1293,36.449,0.0],[34.129,36.4543,2.7279],[34.1351,36.4532,0.0],[34.1324,36.4543,5.3214],[34.1335,36.4579,0.0],[34.1321,36.4588,3.7313],[34.1335,36.4596,0.0],[34.139,36.4568,0.0],[34.1435,36.4568,0.0],[34.1437,36.4599,2.8457],[34.1479,36.4632,1.0894],[34.1518,36.4626,0.0],[34.1543,36.4643,3.6309],[34.1557,36.4629,0.0],[34.1582,36.4654,0.0],[34.1629,36.4649,0.0],[34.1649,36.4668,0.0],[34.1685,36.4668,0.0],[34.1701,36.4754,0.0],[34.1735,36.4774,0.8741],[34.1743,36.4799,0.0],[34.1774,36.4787,0.0],[34.1787,36.4799,0.0],[34.179,36.4829,2.8151],[34.1776,36.4837,5.0262],[34.1804,36.486,0.8034],[34.1835,36.4957,0.8805],[34.1893,36.4979,1.2906],[34.1921,36.501,5.3312],[34.1957,36.5015,0.0],[34.196,36.5049,5.013],[34.1979,36.5054,0.0],[34.1968,36.5065,3.7577],[34.2029,36.5093,0.0],[34.2057,36.5168,0.6912],[34.2099,36.5174,0.0],[34.2126,36.5207,7.9109],[34.2168,36.5193,4.5918],[34.2207,36.524,6.9198],[34.2221,36.5235,0.0],[34.2265,36.5271,1.3806],[34.2285,36.5329,1.68],[34.2337,36.5337,0.0],[34.2371,36.5399,0.4875],[34.236,36.5421,0.2104],[34.2471,36.5576,1.2772],[34.2565,36.5651,0.0],[34.2601,36.5715,2.7681],[34.2815,36.5876,4.3791],[34.3074,36.6004,0.4659],[34.3196,36.6029,0.1563],[34.3326,36.6182,0.0],[34.3454,36.6279,2.4078],[34.3665,36.6401,1.9958],[34.3763,36.6421,1.8476],[34.396,36.6532,2.409],[34.4299,36.6637,0.0],[34.4401,36.6787,0.0],[34.4399,36.6804,0.163],[34.4501,36.6907,2.7938],[34.4582,36.6968,0.0],[34.4607,36.6968,0.0],[34.4726,36.7085,0.0],[34.4904,36.7176,2.6198],[34.5032,36.7215,0.0],[34.5065,36.7243,0.0],[34.5071,36.7268,0.8796],[34.5129,36.7304,1.0021],[34.5285,36.736,3.4404],[34.5363,36.7371,0.0],[34.5451,36.7429,0.0],[34.546,36.7482,3.9146],[34.5493,36.7501,0.0],[34.5471,36.754,3.3843],[34.5485,36.7568,1.4917],[34.5607,36.7685,3.4312],[34.5887,36.7779,2.1908],[34.6076,36.7801,0.3516],[34.6182,36.7835,0.6199],[34.6215,36.7865,1.5145],[34.6301,36.7882,0.572],[34.6312,36.7893,0.0],[34.6276,36.7915,0.2603],[34.6312,36.7957,0.98],[34.6368,36.7985,0.4123],[34.6379,36.7951,0.0],[34.6393,36.7954,0.0],[34.6437,36.8026,1.9588],[34.6446,36.8004,0.0],[34.6476,36.8013,2.3109],[34.6496,36.7993,0.0],[34.654,36.8076,1.3811],[34.656,36.8057,1.9736],[34.6551,36.8037,0.0],[34.6607,36.8054,0.2082],[34.661,36.8015,0.0],[34.6629,36.8057,2.4024],[34.6726,36.806,0.0],[34.6779,36.8082,0.6212],[34.6974,36.8068,0.2329],[34.714,36.8076,0.2084],[34.7274,36.8118,1.4266],[34.7407,36.8104,0.0],[34.7465,36.8112,0.5136],[34.7693,36.8088,1.0741],[34.7946,36.8035,0.1479],[34.8157,36.7971,0.354],[34.8276,36.791,0.2497],[34.834,36.7901,0.178],[34.8518,36.7813,0.4865],[34.8793,36.7632,0.9577],[34.8879,36.7551,0.446],[34.8907,36.7496,0.2766],[34.8965,36.7438,-0.1943],[34.8999,36.7379,0.0],[34.8993,36.7357,0.0],[34.901,36.734,0.0346],[34.9035,36.7343,-0.4453],[34.9018,36.7254,0.0],[34.9054,36.7249,0.0],[34.9113,36.7285,0.1197],[34.9076,36.7238,0.0],[34.9152,36.7249,0.0],[34.9273,36.7389,0.0454],[34.9379,36.7472,0.051],[34.9498,36.754,0.4912],[34.9837,36.7657,1.1949],[35.0228,36.7675,2.1125],[35.0348,36.771,3.0542],[35.0425,36.7812,2.1564],[35.0474,36.7947,2.1363],[35.0658,36.815,2.3295],[35.0688,36.824,2.5148],[35.0698,36.8335,3.2488],[35.0678,36.8652,5.0688],[35.0578,36.8849,5.8165],[35.0548,36.8969,7.6296],[35.0546,36.9704,30.9384],[35.0414,36.9812,35.9273],[35.0271,37.001,45.5747],[35.007,37.0344,140.0624],[35.0008,37.0415,178.7362],[34.9815,37.055,112.9678],[34.9408,37.0716,114.1998],[34.9346,37.077,271.0678],[34.9252,37.0897,243.8912],[34.9208,37.0997,215.7592],[34.917,37.1246,224.1276],[34.9072,37.1438,395.4279],[34.9038,37.1659,568.4874],[34.9001,37.1763,661.3771],[34.8781,37.211,763.9355],[34.8713,37.2321,1060.2891],[34.862,37.2485,1156.1407],[34.8584,37.2617,1398.7499],[34.8422,37.2906,1761.0007],[34.7882,37.374,2122.876],[34.7833,37.396,2016.5337],[34.7187,37.3965,2285.6406],[34.6961,37.394,2799.1187],[34.6629,37.3811,2241.1174],[34.6337,37.3635,2380.416],[34.5998,37.3514,2305.1411],[34.5798,37.3497,1788.2357],[34.5099,37.3493,2857.5439],[34.5141,37.3331,2747.0303],[34.5035,37.3244,2875.3928],[34.4909,37.3101,2895.9165],[34.4801,37.3042,2946.0342],[34.4106,37.2779,2830.7983],[34.3809,37.2604,2845.7854],[34.3328,37.2419,2971.1858],[34.324,37.2345,2937.875],[34.3192,37.222,2924.2114],[34.3009,37.2213,2984.9365],[34.2874,37.2183,2978.7539],[34.2578,37.2011,2810.0049],[34.1976,37.1783,2812.1074],[34.19,37.1699,2492.6482],[34.1758,37.1595,2370.2839],[34.1374,37.1432,2311.1016],[34.1136,37.1386,2249.7371],[34.0853,37.1301,2301.1104],[34.0082,37.1291,2123.6912],[33.9969,37.1281,2143.4844],[33.9837,37.1246,2121.5483],[33.9264,37.1023,1998.2983],[33.9098,37.0908,1988.7776],[33.8961,37.076,2047.7805],[33.8893,37.0713,1982.2991],[33.8674,37.0611,1938.8213],[33.8369,37.0503,1912.1096],[33.8096,37.0451,1909.7739],[33.7884,37.0377,1905.2703],[33.7406,37.0267,2123.6077],[33.7308,37.0282,2055.8379],[33.6899,37.0443,1772.7649],[33.6795,37.0469,1797.3408],[33.6522,37.0481,1763.8778],[33.6211,37.046,1723.4829],[33.5696,37.0165,1643.9495],[33.5296,37.003,1605.5768],[33.4995,37.0014,1564.5098],[33.407,37.0015,1465.4944],[33.3857,36.9981,1538.184],[33.3287,36.976,1614.9125],[33.2992,36.9588,1605.4485],[33.2777,36.9498,1587.5344],[33.2448,36.9271,1660.7487],[33.2176,36.9148,1584.8291],[33.1847,36.8922,945.8555],[33.1574,36.8799,860.8856],[33.1158,36.8524,280.4538],[33.0856,36.8411,646.9574],[33.0583,36.8361,1405.9592],[33.0105,36.818,2022.5499],[32.9618,36.8092,1856.6277],[32.971,36.7792,1928.8882],[33.033,36.6836,1828.3723],[33.0798,36.6456,1614.2183],[33.0966,36.6343,1586.8622],[33.1063,36.6307,1436.1018],[33.1302,36.6266,1636.5758],[33.1604,36.6153,1613.0811],[33.1902,36.598,1469.5076],[33.2132,36.5876,1112.6111],[33.221,36.5792,1130.7906],[33.2304,36.5615,797.2352],[33.2295,36.5548,582.4852],[33.2196,36.5334,500.4865],[33.2132,36.5226,428.4204],[33.1994,36.5227,395.1366],[33.1895,36.5207,365.68],[33.0547,36.4688,1390.5188],[33.0159,36.4642,1171.2109],[32.9913,36.4563,1386.6985],[32.9594,36.4508,1489.6995],[32.9419,36.4536,1376.4968],[32.926,36.4528,1400.8363],[32.9006,36.4452,1504.6226],[32.866,36.4409,1551.7745],[32.8407,36.4331,1684.113],[32.8165,36.4311,1659.2828],[32.7797,36.4326,1798.4722],[32.7542,36.4403,1769.4802],[32.7424,36.4424,1802.6146],[32.6791,36.4436,1898.4128],[32.6581,36.4461,1884.9352],[32.653,36.434,1914.2451],[32.6478,36.412,1895.7083],[32.6388,36.3956,1927.6221],[32.6358,36.3836,2002.1377],[32.636,36.3165,2235.3682],[32.6378,36.3074,2213.688],[32.6451,36.2935,2170.5032],[32.6468,36.286,2097.2915],[32.6451,36.2786,1507.8604],[32.6372,36.2618,1190.1639],[32.6327,36.2259,437.7834],[32.6225,36.2067,383.1357],[32.6165,36.1882,553.8877],[32.6085,36.1743,295.7672],[32.6035,36.1474,460.3036],[32.6004,36.1391,169.1719],[32.584,36.1141,212.6809],[32.566,36.0999,0.4964],[32.5738,36.0949,7.5276],[32.5771,36.0907,0.0],[32.5804,36.091,40.3966],[32.5932,36.0788,3.3427],[32.6051,36.0754,0.0],[32.6085,36.0762,11.6976],[32.6118,36.0738,2.738],[32.6204,36.0721,154.2704],[32.6293,36.0651,0.0],[32.6424,36.061,10.0312],[32.6479,36.056,10.0519],[32.6529,36.0557,91.019],[32.6574,36.0535,0.0],[32.6668,36.044,15.232],[32.671,36.0446,13.7815],[32.6732,36.0424,0.0],[32.6776,36.0426,18.6422],[32.6793,36.0412,0.0],[32.6793,36.0385,0.0],[32.6829,36.0424,2.3162],[32.6871,36.0426,9.5835],[32.7026,36.0357,4.8731],[32.7079,36.036,4.2597],[32.7082,36.0343,0.0],[32.7113,36.036,12.7686],[32.7201,36.0349,0.0],[32.7271,36.036,35.0166],[32.7307,36.0354,0.0],[32.731,36.0332,0.0],[32.7357,36.031,0.0],[32.741,36.0329,0.0],[32.746,36.0324,57.9637],[32.7479,36.0301,0.0],[32.7532,36.031,33.0031],[32.7549,36.0282,0.0],[32.7571,36.0296,1.9822],[32.7654,36.0279,0.0],[32.771,36.0293,30.2501],[32.779,36.0262,4.1694],[32.791,36.0251,0.0],[32.8032,36.0154,0.0],[32.8054,36.0168,0.0],[32.8051,36.0232,7.5382],[32.8182,36.0376,1.0355],[32.8385,36.0426,0.0],[32.8399,36.0451,1.258],[32.8457,36.0485,0.0],[32.8488,36.0535,0.0],[32.8524,36.0549,0.0],[32.8557,36.0601,0.3208],[32.8688,36.0707,3.7096],[32.8754,36.074,2.9343],[32.8799,36.0735,0.0],[32.8899,36.081,1.0916],[32.8949,36.0799,0.0],[32.9068,36.0865,0.9207],[32.9096,36.0854,0.0],[32.914,36.0874,9.7018],[32.9215,36.0849,0.0],[32.9257,36.0885,0.0],[32.931,36.0882,0.0],[32.931,36.0896,13.276],[32.9362,36.0929,2.9644],[32.9362,36.0957,11.1005],[32.9401,36.0946,0.0],[32.9418,36.096,0.0],[32.9426,36.0982,0.0],[32.941,36.0976,0.0],[32.9399,36.1001,0.0],[32.9501,36.1037,0.0],[32.959,36.1035,0.0],[32.9707,36.0999,0.0],[32.976,36.0976,0.8674],[32.9749,36.0949,0.0],[32.9771,36.0979,1.9055],[32.9924,36.096,11.5523],[32.9985,36.0971,0.0],[32.9996,36.099,2.7987],[33.0024,36.0982,0.0],[33.0043,36.0943,0.0],[33.0137,36.0938,3.9177],[33.0157,36.0957,11.5633],[33.0229,36.0901,0.0],[33.0265,36.0921,0.0],[33.0279,36.0954,0.0],[33.0313,36.0962,4.0118],[33.0415,36.0938,11.5258],[33.0518,36.0949,0.5831],[33.0543,36.0935,0.0],[33.0529,36.0901,0.0],[33.0657,36.0907,7.7554],[33.0699,36.0874,14.4931],[33.0687,36.0829,1.6262],[33.0701,36.0818,0.0],[33.0762,36.0824,17.296],[33.0812,36.081,0.0],[33.0818,36.0751,20.2754],[33.079,36.0735,4.4076],[33.0782,36.0704,3.5778],[33.0815,36.0696,0.0],[33.089,36.0765,0.0],[33.0899,36.0799,0.0],[33.0868,36.0829,0.0],[33.0887,36.0874,10.0497],[33.0918,36.0857,2.3375],[33.0951,36.0893,0.0],[33.0943,36.0949,0.0],[33.0996,36.0943,0.0],[33.099,36.0965,1.9616],[33.1035,36.101,47.7396],[33.1096,36.1032,6.7888],[33.1132,36.1146,0.2504],[33.1213,36.126,0.4435],[33.1263,36.1312,1.8894],[33.1346,36.1357,5.3434],[33.1465,36.1379,2.1605],[33.1615,36.1382,2.1717],[33.174,36.1335,0.0],[33.1801,36.1335,0.7627],[33.1951,36.1274,29.2133],[33.2093,36.1296,38.2713],[33.2185,36.1271,10.2072],[33.2199,36.1287,0.0],[33.2254,36.1299,23.12],[33.2318,36.1265,0.0],[33.2349,36.1307,120.8664],[33.2418,36.1282,0.0],[33.2465,36.131,6.7157],[33.2521,36.131,0.0],[33.2535,36.1324,33.1488],[33.2651,36.1324,62.7824],[33.2665,36.1315,0.0],[33.2663,36.1293,0.0],[33.2704,36.1282,0.0],[33.2782,36.1304,0.0],[33.2893,36.129,0.0],[33.2904,36.1326,5.0706],[33.2921,36.1321,3.4018],[33.2951,36.1346,14.3511],[33.2974,36.1343,24.6325],[33.2951,36.1312,0.0],[33.296,36.1301,0.0],[33.304,36.131,1.4411],[33.3076,36.134,30.8908],[33.326,36.1426,0.0],[33.3268,36.1468,0.0],[33.331,36.149,5.2392],[33.3357,36.1507,6.6424],[33.3424,36.1496,0.0],[33.3443,36.1524,1.7636],[33.3482,36.151,0.0],[33.3507,36.1543,2.1615],[33.3524,36.1543,1.2786],[33.3601,36.1474,1.7436],[33.3596,36.1457,10.3426],[33.3571,36.1451,25.1839],[33.3576,36.141,8.9325],[33.3632,36.1396,0.0],[33.3649,36.1376,0.0],[33.3665,36.1407,12.6084],[33.3718,36.1413,1.5443],[33.3751,36.1385,0.0],[33.379,36.1399,0.0],[33.3857,36.139,1.9616],[33.391,36.1329,0.0],[33.3899,36.1312,0.0],[33.3926,36.1249,0.0],[33.3946,36.1249,0.0],[33.3976,36.129,8.5111],[33.401,36.1254,0.0],[33.4035,36.1257,0.0],[33.4057,36.1324,21.9987],[33.4049,36.1362,4.5035],[33.4087,36.1357,23.5374],[33.4154,36.1407,44.9924],[33.4207,36.141,0.0],[33.4215,36.1443,0.0],[33.4293,36.1496,10.2285],[33.4321,36.1454,0.0],[33.4379,36.149,60.5907],[33.4421,36.1485,0.0],[33.4437,36.1524,0.0],[33.4421,36.1546,2.0008],[33.4454,36.154,1.947]]],
[[[33.8288,36.2685,2.1687],[33.8262,36.2685,0.0],[33.8262,36.2646,0.0],[33.8288,36.2665,0.0],[33.8288,36.2685,2.1687]]]]}}