{"type": "Feature","id": "2285","bbox": [32.57181,36.02717,35.08171,37.40139],"geometry": {"type": "Polygon","coordinates": [[[34.7916,37.38772,1710.116],[34.72153,37.40139,2038.3293],[34.65187,37.37826,2761.0029],[34.62086,37.36253,2382.7383],[34.58748,37.35328,2061.0635],[34.51224,37.35198,2756.6616],[34.50015,37.31994,2790.7397],[34.48185,37.30891,2929.9238],[34.42883,37.29473,2846.6333],[34.39855,37.28225,2790.4641],[34.3539,37.24801,2992.4043],[34.29789,37.22543,2888.4534],[34.21045,37.2013,2818.8066],[34.18316,37.18794,2741.4956],[34.14895,37.15502,2307.7002],[34.07857,37.13303,2281.2588],[34.00271,37.12882,2137.4106],[33.96685,37.11618,2012.735],[33.87063,37.05774,2015.7338],[33.79745,37.04714,1885.3064],[33.76117,37.03144,1994.9524],[33.73658,37.0287,2063.4619],[33.70206,37.03725,1820.2791],[33.61937,37.0318,1710.298],[33.54,37.00658,1589.3011],[33.41319,36.9972,1472.5674],[33.37195,36.988,1575.5267],[33.33588,36.97046,1598.217],[33.30363,36.94694,1638.7863],[33.27004,36.92795,1572.1965],[33.23273,36.91801,1682.4873],[33.20069,36.88705,1239.78],[33.18881,36.84264,649.4138],[33.16731,36.81339,255.1611],[33.13124,36.82114,283.7893],[33.12369,36.83336,288.4682],[33.12121,36.84044,271.3266],[33.10788,36.84638,365.7789],[33.07863,36.83687,855.1923],[33.03357,36.81408,1985.5807],[33.01724,36.80967,1990.4937],[32.97952,36.8038,1840.8682],[32.982,36.77155,1801.8737],[33.00277,36.7514,1796.6879],[33.01931,36.7283,1681.0042],[33.0284,36.699,1826.947],[33.04349,36.6727,1858.6079],[33.0684,36.66319,1744.7482],[33.0869,36.64389,1543.782],[33.1084,36.6296,1472.2163],[33.16121,36.61854,1600.7891],[33.20679,36.59087,1240.0455],[33.23097,36.56066,797.2352],[33.20483,36.53439,636.7586],[33.16638,36.54604,335.293],[33.13176,36.56126,599.0886],[33.11636,36.55852,1007.7749],[33.1022,36.55353,988.3873],[33.08814,36.52162,1478.8068],[33.07615,36.48553,1512.2],[33.05238,36.46661,1377.3129],[33.01941,36.46248,1245.1515],[32.95823,36.46444,1461.2476],[32.89942,36.45328,1592.5269],[32.84247,36.43282,1684.113],[32.78242,36.43163,1781.2318],[32.71731,36.44499,1821.2035],[32.65168,36.43803,1868.9575],[32.64259,36.37938,2089.7598],[32.64724,36.26926,1203.8282],[32.63132,36.22133,499.2188],[32.61478,36.1964,407.4961],[32.60197,36.16934,375.5159],[32.59783,36.14412,223.071],[32.59029,36.11994,142.8328],[32.5751,36.1011,44.4272],[32.57181,36.09397,0.0],[32.63233,36.06196,0.0],[32.67066,36.0467,137.5196],[32.76059,36.02949,67.5786],[32.80372,36.02717,15.3653],[32.8567,36.06098,3.0546],[32.86524,36.07184,5.2256],[32.87672,36.07514,0.0],[32.94093,36.1035,2.9146],[32.96046,36.10269,0.7699],[33.02687,36.08926,0.0],[33.05836,36.09064,10.6449],[33.07114,36.08926,58.4288],[33.08041,36.08588,127.2143],[33.08375,36.08275,51.0513],[33.08774,36.08283,0.0],[33.09864,36.08926,0.0],[33.11215,36.10342,0.0],[33.12143,36.11909,0.0],[33.13404,36.13178,0.0],[33.15691,36.13703,0.0],[33.16725,36.13496,0.0],[33.18865,36.1258,0.0],[33.20094,36.12336,0.0],[33.21241,36.12409,0.0],[33.24195,36.1308,106.4244],[33.28647,36.12995,0.0],[33.30836,36.13223,0.0],[33.32683,36.15009,32.2803],[33.34783,36.14789,0.0],[33.38649,36.13703,0.0],[33.40113,36.13984,48.2506],[33.4367,36.15469,134.8414],[33.45826,36.15815,5.0619],[33.47828,36.15595,0.0],[33.52101,36.14663,122.7481],[33.5442,36.14448,8.5969],[33.5442,36.13703,1.7122],[33.53053,36.1308,0.0],[33.55226,36.12751,57.5619],[33.57407,36.14476,31.7156],[33.59653,36.16877,0.0],[33.61988,36.18545,9.1604],[33.63413,36.19033,6.6381],[33.64723,36.19257,0.0],[33.65659,36.18867,0.0],[33.66033,36.17487,36.8694],[33.68531,36.14322,98.0973],[33.68824,36.13703,64.9544],[33.69386,36.14411,167.3214],[33.70037,36.17113,0.0],[33.70525,36.18171,56.7745],[33.73561,36.20873,77.6763],[33.74285,36.21336,127.6468],[33.77703,36.22504,47.8432],[33.78688,36.22639,46.5279],[33.79908,36.23066,0.0],[33.81373,36.25165,0.0],[33.82472,36.25991,0.0],[33.82179,36.26398,53.6127],[33.8187,36.26577,23.1151],[33.81105,36.2674,66.0837],[33.82789,36.27171,0.0],[33.83766,36.28042,0.0],[33.85548,36.30492,0.0],[33.8711,36.31489,0.0],[33.88315,36.31249,0.0],[33.89527,36.30557,0.0],[33.91041,36.3015,0.0],[33.93092,36.29047,0.0],[33.94597,36.2652,0.0],[33.95094,36.2377,0.0],[33.94142,36.21963,0.0],[33.94142,36.21336,0.0],[33.95899,36.21357,0.0],[33.96437,36.22053,0.0],[33.96518,36.23237,0.0],[33.96876,36.24689,0.0],[33.97706,36.25943,0.0],[33.99586,36.27953,0.0],[33.9983,36.28604,0.1861],[33.9948,36.28327,0.2229],[33.98927,36.28168,0.2553],[33.99977,36.30292,0.0],[34.02719,36.31078,0.179],[34.05779,36.3159,0.046],[34.07789,36.32884,0.0],[34.07993,36.35554,0.0],[34.07488,36.38727,2.4369],[34.07732,36.41389,5.4451],[34.11199,36.42959,19.2548],[34.14747,36.45917,0.0],[34.16822,36.46695,0.0],[34.17774,36.47337,0.0],[34.18165,36.48338,0.0],[34.19044,36.49852,0.0],[34.27622,36.58698,4.373],[34.30747,36.60859,15.4555],[34.41521,36.66291,6.6668],[34.50318,36.72671,11.0037],[34.53386,36.74038,6.9455],[34.53907,36.74457,7.4942],[34.54884,36.76337,12.5453],[34.5547,36.76765,8.3156],[34.58513,36.78132,11.3886],[34.59653,36.78506,10.4324],[34.62672,36.78876,2.0121],[34.69288,36.81387,6.5456],[34.73585,36.82168,5.7875],[34.76498,36.80858,0.0],[34.77076,36.81607,2.9847],[34.85255,36.78132,0.4865],[34.89357,36.746,0.335],[34.90789,36.74038,0.0166],[34.9026,36.72451,0.0],[34.9004,36.71988,0.0],[34.91391,36.72468,0.0],[34.92986,36.72736,0.6652],[34.93328,36.72748,0.6988],[34.93332,36.72749,0.6988],[34.93402,36.72933,0.8042],[34.98684,36.7591,2.3076],[35.029,36.76827,2.8519],[35.06673,36.79569,2.9944],[35.07107,36.82282,2.5194],[35.06724,36.85067,4.8486],[35.05247,36.907,8.9534],[35.05216,36.96353,26.2741],[35.08171,37.02596,68.0357],[35.04316,37.05769,228.4555],[34.98208,37.05552,115.4479],[34.93495,37.08365,273.9933],[34.91294,37.14096,292.5301],[34.90984,37.24323,1069.4265],[34.86188,37.272709999999996,1545.7852],[34.82437,37.32842,1892.658],[34.7916,37.38772,1710.116]]]}
,"properties": {"ISO3166-1-Alpha-3": "TUR","country": "Turkey","fill": "#00F","name": "Mersin","area_km2": 15287.16,"hist_schema_id": "Elevation0-9000","hist_area_km2": {"0": 655.05,"25": 328.17,"50": 201.78,"75": 191.51,"100": 196.25,"125": 197.82,"150": 204.93,"175": 197.81,"200": 196.65,"225": 187.34,"250": 182.78,"275": 177.5,"300": 172.72,"325": 187.08,"350": 184.44,"375": 179.81,"400": 175.86,"425": 180.17,"450": 175.03,"475": 170.16,"500": 167.96,"525": 169.42,"550": 165.84,"575": 161.81,"600": 157.67,"625": 156.92,"650": 153.8,"675": 154.44,"700": 154.94,"725": 158.12,"750": 158.44,"775": 153.23,"800": 155.3,"825": 156.05,"850": 161.11,"875": 157.96,"900": 162.68,"925": 159.9,"950": 170.05,"975": 172.99,"1000": 172.27,"1025": 167.89,"1050": 161.25,"1075": 156.96,"1100": 142.56,"1125": 135.83,"1150": 132.14,"1175": 139.85,"1200": 141.1,"1225": 140.39,"1250": 145.33,"1275": 159.14,"1300": 193.52,"1325": 203.2,"1350": 210.98,"1375": 244.69,"1400": 237.57,"1425": 216.46,"1450": 190.54,"1475": 170.31,"1500": 156.08,"1525": 160.82,"1550": 167.81,"1575": 182.63,"1600": 173.28,"1625": 170.56,"1650": 168.51,"1675": 182.52,"1700": 169.49,"1725": 157.9,"1750": 179.98,"1775": 200.45,"1800": 160.25,"1825": 150.76,"1850": 136.68,"1875": 120.24,"1900": 118.32,"1925": 97.67,"1950": 81.28,"1975": 75.51,"2000": 73.52,"2025": 73.7,"2050": 86.0,"2075": 82.89,"2100": 72.76,"2125": 71.49,"2150": 70.94,"2175": 75.7,"2200": 62.45,"2225": 56.1,"2250": 70.23,"2275": 78.72,"2300": 76.93,"2325": 58.58,"2350": 39.08,"2375": 27.1,"2400": 17.31,"2425": 11.33,"2450": 9.12,"2475": 7.68,"2500": 6.75,"2525": 5.94,"2550": 5.13,"2575": 7.34,"2600": 5.16,"2625": 4.54,"2650": 4.32,"2675": 4.25,"2700": 4.84,"2725": 5.85,"2750": 6.38,"2775": 6.92,"2800": 7.36,"2825": 7.58,"2850": 6.72,"2875": 8.56,"2900": 8.61,"2925": 9.96,"2950": 7.97,"2975": 6.28,"3000": 5.65,"3025": 2.67,"3050": 1.37,"3075": 0.68,"3100": 0.44}}}