{"type":"Feature","properties":{"GID_2":"TUR.3.6_1","GID_0":"TUR","country":"Turkey","GID_1":"TUR.3_1","province":"Afyon","NL_NAME_1":"NA","county":"Dazkırı","VARNAME_2":"NA","NL_NAME_2":"NA","TYPE_2":"District","ENGTYPE_2":"District","CC_2":"NA","HASC_2":"TR.AF.DA","name":"Dazkırı.county"},
"geometry":{"type": "MultiPolygon","coordinates": [[[[29.9292,37.9924,888.4154],[29.8619,37.9931,908.5046],[29.8472,37.9908,918.8691],[29.8299,37.985,941.751],[29.8199,37.9844,947.8353],[29.7837,37.9966,1013.087],[29.7541,38.009,1156.0555],[29.7407,38.017,1154.2581],[29.7274,38.0088,1250.1952],[29.6975,37.9969,1289.1653],[29.666,37.9887,1469.9664],[29.6651,37.873,1570.2351],[29.6638,37.8526,1248.8739],[29.6969,37.8543,1400.2592],[29.7205,37.8526,1587.5055],[29.7987,37.8227,836.0],[29.8154,37.8191,836.0],[29.8321,37.8275,836.0],[29.8558,37.8321,836.0],[29.8656,37.8357,836.0],[29.882,37.8474,836.0],[29.889,37.8577,837.5],[29.8912,37.8759,839.3593],[29.8906,37.9165,857.0623],[29.8928,37.9316,874.0239],[29.9019,37.9483,890.6846],[29.9091,37.9692,867.7299],[29.9292,37.9924,888.4154]]]]}}