{"type": "Feature","bbox": [38.1408,40.4665,38.6221,40.7955],"geometry": {"type": "MultiPolygon","coordinates": [[[[38.5835,40.6434,869.2681],[38.5947,40.6638,819.5858],[38.6175,40.6983,805.4941],[38.6207,40.7064,922.1276],[38.6221,40.7275,739.4408],[38.618,40.7442,960.7319],[38.6143,40.7493,907.0201],[38.5676,40.7458,1621.5583],[38.548,40.7462,1226.7469],[38.5329,40.7487,941.3099],[38.5201,40.7551,775.3034],[38.4991,40.7713,852.7722],[38.4883,40.7822,719.4167],[38.479,40.7955,460.6321],[38.4593,40.7832,190.2935],[38.418,40.7514,712.8686],[38.4033,40.7386,1058.2292],[38.3925,40.7263,1034.5305],[38.3598,40.7067,1286.0011],[38.3433,40.7008,1520.9192],[38.306399999999996,40.6999,1348.3925],[38.303,40.6894,1565.6284],[38.2938,40.673,1549.1129],[38.29,40.6482,1405.375],[38.2865,40.6404,1376.1567],[38.278,40.6315,1606.4324],[38.24,40.6009,1760.0126],[38.2245,40.5805,2019.9564],[38.2146,40.574,2108.7366],[38.185,40.5621,2026.5879],[38.1545,40.5512,2320.6721],[38.1408,40.5487,2259.8052],[38.1448,40.5386,2507.2195],[38.1554,40.5283,2896.1348],[38.1876,40.5221,2478.1724],[38.2178,40.5101,2507.3184],[38.2471,40.4927,2511.3662],[38.307,40.4695,2122.9746],[38.3298,40.4669,2134.7866],[38.413,40.4665,2452.1428],[38.431,40.4681,2421.3745],[38.4393,40.4723,2508.3313],[38.4523,40.4887,2442.8618],[38.461,40.5033,2053.3579],[38.4807,40.5241,2167.4194],[38.4882,40.5359,1898.6851],[38.4994,40.5446,1811.5046],[38.5057,40.5464,1773.4363],[38.5159,40.546,1868.0679],[38.5361,40.5389,1774.8638],[38.5656,40.5311,1949.873],[38.5735,40.5492,1963.7695],[38.5757,40.5586,1950.27],[38.5768,40.6246,984.4084],[38.5794,40.6366,842.4999],[38.5835,40.6434,869.2681]]]]}
,"properties": {"GID_2": "TUR.34.5_1","GID_0": "TUR","country": "Turkey","GID_1": "TUR.34_1","province": "Giresun","NL_NAME_1": "NA","county": "Dereli","VARNAME_2": "NA","NL_NAME_2": "NA","TYPE_2": "District","ENGTYPE_2": "District","CC_2": "NA","HASC_2": "TR.GI.DE","name": "Dereli.county","area_km2": 795.489,"hist_schema_id": "Elevation0-9000","hist_area_km2": {"150": 0.1124,"175": 0.2087,"200": 0.2408,"225": 0.4978,"250": 0.8671,"275": 0.9154,"300": 1.0439,"325": 1.3973,"350": 1.4938,"375": 1.8472,"400": 1.9276,"425": 2.3935,"450": 2.49,"475": 2.5543,"500": 2.6508,"525": 2.9721,"550": 3.2617,"575": 3.4065,"600": 3.8885,"625": 3.6476,"650": 4.3708,"675": 4.8373,"700": 5.1586,"725": 5.0143,"750": 4.7892,"775": 5.6573,"800": 5.7059,"825": 5.465,"850": 6.5421,"875": 6.9603,"900": 6.7519,"925": 7.0091,"950": 7.3629,"975": 7.8618,"1000": 7.9265,"1025": 8.4089,"1050": 8.4253,"1075": 8.9566,"1100": 9.0859,"1125": 9.7777,"1150": 9.376,"1175": 10.3413,"1200": 11.034,"1225": 10.3586,"1250": 11.2123,"1275": 11.6945,"1300": 12.0011,"1325": 11.2132,"1350": 13.0961,"1375": 13.2895,"1400": 13.3866,"1425": 14.867,"1450": 15.5428,"1475": 16.492,"1500": 16.7024,"1525": 16.6062,"1550": 18.184,"1575": 17.9437,"1600": 17.3494,"1625": 16.4014,"1650": 15.6303,"1675": 15.3742,"1700": 14.4266,"1725": 15.2807,"1750": 14.2035,"1775": 12.9,"1800": 12.9168,"1825": 12.7723,"1850": 12.7887,"1875": 12.5159,"1900": 11.9693,"1925": 11.615,"1950": 11.4714,"1975": 10.2796,"2000": 9.7807,"2025": 9.7167,"2050": 10.5068,"2075": 10.8459,"2100": 10.4109,"2125": 10.4276,"2150": 9.993,"2175": 10.0899,"2200": 9.3329,"2225": 8.0271,"2250": 6.8341,"2275": 5.6415,"2300": 5.2062,"2325": 4.384,"2350": 4.0137,"2375": 3.8685,"2400": 3.933,"2425": 3.3851,"2450": 3.4177,"2475": 3.8693,"2500": 3.4984,"2525": 2.9665,"2550": 1.8539,"2575": 1.5958,"2600": 1.0799,"2625": 0.8057,"2650": 0.7413,"2675": 0.5157,"2700": 0.4351,"2725": 0.4673,"2750": 0.4351,"2775": 0.4029,"2800": 0.2901,"2825": 0.2417,"2850": 0.3223,"2875": 0.274,"2900": 0.2417,"2925": 0.1934,"2950": 0.145,"2975": 0.0645,"3000": 0.0806,"3025": 0.0322}}}