{"type": "Feature","bbox": [36.0389,38.882,36.3788,39.1534],"geometry": {"type": "MultiPolygon","coordinates": [[[[36.1131,38.882,1954.7983],[36.1288,38.8844,1894.3296],[36.1697,38.8857,1729.7336],[36.1838,38.8876,1714.4238],[36.2173,38.9002,1828.7003],[36.2289,38.9075,1963.7273],[36.2388,38.9162,2043.4147],[36.2571,38.9445,2086.6379],[36.2625,38.9748,2026.3086],[36.2777,39.001,1870.1685],[36.2951,39.0265,1778.0654],[36.3176,39.0492,1681.1735],[36.3538,39.1054,1484.7371],[36.3757,39.128,1722.111],[36.3788,39.1387,1745.0129],[36.374,39.1534,1800.7605],[36.3231,39.1334,1629.3635],[36.3074,39.1303,1581.2881],[36.1143,39.131,1214.2369],[36.1072,39.1077,1285.0491],[36.0837,39.0706,1382.0402],[36.0759,39.0471,1312.0288],[36.0611,39.0282,1211.5585],[36.0389,39.0153,1329.03],[36.063,38.9749,1458.0879],[36.065,38.9603,1508.2085],[36.0648,38.9212,1537.8105],[36.0677,38.9097,1584.6813],[36.0758,38.9,1675.072],[36.0866,38.892,1770.9434],[36.096,38.8871,1793.4766],[36.1131,38.882,1954.7983]]]]}
,"properties": {"GID_2": "TUR.47.1_1","GID_0": "TUR","country": "Turkey","GID_1": "TUR.47_1","province": "Kayseri","NL_NAME_1": "NA","county": "Akkışla","VARNAME_2": "NA","NL_NAME_2": "NA","TYPE_2": "District","ENGTYPE_2": "District","CC_2": "NA","HASC_2": "TR.KY.AK","name": "Akkışla.county","area_km2": 514.246,"hist_schema_id": "Elevation0-9000","hist_area_km2": {"1200": 0.0988,"1225": 4.0346,"1250": 9.1724,"1275": 11.1646,"1300": 14.7376,"1325": 16.7131,"1350": 21.1234,"1375": 24.9103,"1400": 26.9671,"1425": 28.7809,"1450": 30.5119,"1475": 27.1869,"1500": 30.7472,"1525": 29.563,"1550": 23.9972,"1575": 23.3047,"1600": 21.5427,"1625": 19.6337,"1650": 14.7899,"1675": 12.1561,"1700": 10.8553,"1725": 8.9297,"1750": 9.739,"1775": 12.5255,"1800": 12.1824,"1825": 10.801,"1850": 7.9984,"1875": 7.7687,"1900": 6.5153,"1925": 6.4828,"1950": 6.2191,"1975": 5.5263,"2000": 4.3383,"2025": 3.8926,"2050": 3.5462,"2075": 2.2102,"2100": 1.8474,"2125": 1.1216,"2150": 0.5113,"2175": 0.099}}}