{"type": "Feature","bbox": [29.0104,40.2939,29.3254,40.5592],"geometry": {"type": "MultiPolygon","coordinates": [[[[29.0348,40.3646,0.2914],[29.0167,40.3568,118.8194],[29.0314,40.3485,175.3418],[29.0647,40.3437,311.0737],[29.0901,40.3361,321.9928],[29.1099,40.3345,238.5757],[29.154,40.3344,408.7684],[29.168,40.332,358.4536],[29.1753,40.327,366.3017],[29.1864,40.3129,324.9834],[29.195,40.2939,524.6225],[29.2146,40.3032,565.6516],[29.2238,40.3209,874.7302],[29.2338,40.3299,855.5134],[29.2942,40.3479,674.4145],[29.3118,40.3548,784.1459],[29.3254,40.3574,636.5302],[29.3254,40.369,933.439],[29.3147,40.3752,1201.1919],[29.3051,40.3786,1074.2573],[29.2667,40.3832,647.3993],[29.2339,40.3956,342.9357],[29.2266,40.4008,326.5412],[29.2211,40.4073,439.2137],[29.2083,40.4281,99.6949],[29.2055,40.4403,142.3643],[29.2051,40.4531,295.8586],[29.2058,40.5563,557.1746],[29.0923,40.5553,627.0207],[29.07,40.5558,755.1844],[29.045,40.5592,845.6406],[29.0371,40.5333,794.7545],[29.0158,40.5102,725.1229],[29.0104,40.4973,495.357],[29.0324,40.4786,0.0],[29.0549,40.4787,0.0],[29.0601,40.4768,0.0],[29.0668,40.4782,2.0379],[29.0701,40.4765,0.0],[29.0824,40.4776,8.1161],[29.0854,40.4751,0.0],[29.0918,40.4746,2.8231],[29.0999,40.4668,0.0],[29.116,40.4562,1.6662],[29.1213,40.4551,0.0],[29.131,40.4476,40.0505],[29.1324,40.4446,0.0],[29.1507,40.4365,0.4841],[29.1515,40.4338,4.606],[29.1504,40.4321,0.0],[29.1535,40.4301,1.0858],[29.1543,40.4254,0.0],[29.1526,40.4238,0.0],[29.1446,40.4238,0.0],[29.1432,40.4224,4.0366],[29.1354,40.4232,3.7867],[29.1221,40.4179,0.0],[29.1087,40.4174,0.0],[29.1063,40.4151,27.5425],[29.0937,40.4193,0.0],[29.0907,40.4168,1.405],[29.0896,40.4182,0.0],[29.086,40.4176,0.0],[29.0857,40.4162,0.0],[29.0882,40.4162,1.7253],[29.0868,40.4129,2.8676],[29.0846,40.4124,0.7522],[29.0832,40.4093,3.2869],[29.0785,40.4079,1.7929],[29.0765,40.4012,0.0],[29.0674,40.391,0.0],[29.0674,40.3885,0.0],[29.0707,40.3838,0.2217],[29.0704,40.3801,0.3447],[29.0679,40.3732,0.6243],[29.0635,40.3682,5.2332],[29.0532,40.3629,2.8078],[29.0348,40.3646,0.2914]]]]}
,"properties": {"GID_2": "TUR.21.2_1","GID_0": "TUR","country": "Turkey","GID_1": "TUR.21_1","province": "Bursa","NL_NAME_1": "NA","county": "Gemlik","VARNAME_2": "NA","NL_NAME_2": "NA","TYPE_2": "District","ENGTYPE_2": "District","CC_2": "NA","HASC_2": "TR.BU.GE","name": "Gemlik.county","area_km2": 355.6722,"hist_schema_id": "Elevation0-9000","hist_area_km2": {"0": 18.2412,"25": 15.1742,"50": 9.572,"75": 9.1368,"100": 10.4451,"125": 11.5912,"150": 12.5765,"175": 14.3535,"200": 13.8692,"225": 11.9968,"250": 10.9303,"275": 10.4613,"300": 9.4757,"325": 9.4751,"350": 10.621,"375": 12.7019,"400": 12.7987,"425": 11.2812,"450": 9.6018,"475": 8.8105,"500": 8.7451,"525": 9.0185,"550": 8.5814,"575": 9.2749,"600": 8.8069,"625": 8.9682,"650": 8.7097,"675": 8.6605,"700": 8.9816,"725": 8.6916,"750": 7.6911,"775": 6.2084,"800": 4.8865,"825": 3.6776,"850": 2.3881,"875": 1.8398,"900": 1.6137,"925": 1.1143,"950": 0.8238,"975": 0.5331,"1000": 0.3554,"1025": 0.42,"1050": 0.3392,"1075": 0.4523,"1100": 0.6623,"1125": 0.4361,"1150": 0.3069,"1175": 0.2584,"1200": 0.0969,"1225": 0.0162}}}