{"type": "Feature","bbox": [41.5222,38.1773,41.9662,38.6027],"geometry": {"type": "MultiPolygon","coordinates": [[[[41.6749,38.1952,915.0513],[41.7196,38.1927,936.6858],[41.7649,38.1773,1074.6189],[41.7708,38.1908,1319.3254],[41.7811,38.2071,962.349],[41.7869,38.2256,1681.001],[41.7919,38.2333,1976.3203],[41.8044,38.2447,1973.2734],[41.8607,38.2882,1681.0215],[41.873,38.2953,1683.5365],[41.8838,38.2982,2021.9653],[41.9451,38.3,2194.9072],[41.9544,38.3037,1881.9514],[41.9627,38.3118,1920.0692],[41.9655,38.3203,2194.5774],[41.9662,38.3292,2112.8413],[41.9658,38.3938,1624.0281],[41.9643,38.4088,1860.2004],[41.9612,38.4169,1727.3248],[41.948,38.4379,1584.8696],[41.9322,38.456,1468.1343],[41.936,38.4862,1812.8062],[41.9344,38.5135,1790.4039],[41.9304,38.5217,1745.1161],[41.9127,38.5397,1964.0577],[41.9082,38.5472,1754.5697],[41.9074,38.5607,1501.7323],[41.9136,38.5761,1653.6797],[41.9135,38.5805,1605.3345],[41.9102,38.5869,1610.8517],[41.8975,38.6027,1489.3827],[41.8745,38.5926,1560.0221],[41.8477,38.5897,1752.4177],[41.8207,38.5918,1616.7698],[41.7993,38.599,1790.2539],[41.7878,38.601,1789.9392],[41.6327,38.6013,2225.5405],[41.6217,38.5995,2027.4037],[41.6006,38.5925,2002.494],[41.5768,38.5879,2255.4482],[41.5702,38.585,2126.2539],[41.5443,38.5666,1740.1089],[41.5342,38.5572,2012.5627],[41.5222,38.5419,2118.1565],[41.575,38.5438,1870.6411],[41.5927,38.5402,1737.9905],[41.6079,38.531,1710.6578],[41.618899999999996,38.5224,1604.8263],[41.6286,38.513,1955.5597],[41.6335,38.5052,2171.0039],[41.6391,38.4867,2112.8391],[41.6479,38.4701,2263.2529],[41.6526,38.4426,1799.9937],[41.6624,38.4211,1884.1699],[41.6668,38.3878,1790.7042],[41.6776,38.3649,1788.6166],[41.6791,38.3585,1605.9033],[41.6797,38.2235,1267.4033],[41.6782,38.2068,974.0597],[41.6749,38.1952,915.0513]]]]}
,"properties": {"GID_2": "TUR.18.6_1","GID_0": "TUR","country": "Turkey","GID_1": "TUR.18_1","province": "Bitlis","NL_NAME_1": "NA","county": "Mutki","VARNAME_2": "NA","NL_NAME_2": "NA","TYPE_2": "District","ENGTYPE_2": "District","CC_2": "NA","HASC_2": "TR.BT.MU","name": "Mutki.county","area_km2": 1027.8438,"hist_schema_id": "Elevation0-9000","hist_area_km2": {"775": 0.1831,"800": 0.466,"825": 0.749,"850": 1.2652,"875": 1.6646,"900": 2.3468,"925": 2.9622,"950": 3.5115,"975": 3.7946,"1000": 3.9278,"1025": 4.8262,"1050": 5.2255,"1075": 5.9409,"1100": 6.3391,"1125": 6.8546,"1150": 7.0864,"1175": 7.6511,"1200": 13.7619,"1225": 16.883,"1250": 19.457,"1275": 20.7868,"1300": 25.2196,"1325": 26.0842,"1350": 27.2975,"1375": 27.0324,"1400": 26.3178,"1425": 27.7115,"1450": 26.6297,"1475": 29.5009,"1500": 30.8593,"1525": 32.5982,"1550": 34.6858,"1575": 33.1914,"1600": 32.9587,"1625": 33.9538,"1650": 34.4344,"1675": 33.1208,"1700": 32.3691,"1725": 32.186,"1750": 30.6917,"1775": 29.7632,"1800": 26.5276,"1825": 24.8389,"1850": 21.3698,"1875": 21.1888,"1900": 19.447,"1925": 18.2844,"1950": 17.2043,"1975": 16.4736,"2000": 13.9677,"2025": 13.3547,"2050": 12.8411,"2075": 10.1329,"2100": 9.5848,"2125": 8.6708,"2150": 7.7405,"2175": 7.4262,"2200": 5.9818,"2225": 5.568,"2250": 5.2354,"2275": 4.2218,"2300": 4.0229,"2325": 3.7737,"2350": 2.6935,"2375": 2.0115,"2400": 1.7954,"2425": 0.6816,"2450": 0.3658,"2475": 0.0832,"2500": 0.0665}}}