{"type":"Feature","properties":{"GID_2":"TUR.53.15_1","GID_0":"TUR","country":"Turkey","GID_1":"TUR.53_1","province":"Konya","NL_NAME_1":"NA","county":"Güneysınır","VARNAME_2":"NA","NL_NAME_2":"NA","TYPE_2":"District","ENGTYPE_2":"District","CC_2":"NA","HASC_2":"TR.KO.GU","name":"Güneysınır.county"},
"geometry":{"type": "MultiPolygon","coordinates": [[[[32.9,37.2138,1609.7764],[32.88,37.2355,1126.4269],[32.8666,37.2564,1093.7186],[32.8635,37.2642,1103.3192],[32.8625,37.2756,1097.0432],[32.8638,37.2866,1077.569],[32.8752,37.3083,1040.8438],[32.8792,37.3214,1048.0873],[32.861,37.3308,1044.7886],[32.8345,37.3478,1061.4132],[32.8048,37.3598,1051.3324],[32.7887,37.3629,1053.9532],[32.7619,37.3617,1064.5505],[32.7312,37.3503,1082.7811],[32.7173,37.343,1092.5868],[32.6579,37.2975,1138.2452],[32.6399,37.2805,1209.9512],[32.6105,37.2339,1416.6138],[32.6052,37.2035,1338.3636],[32.5967,37.1733,1408.4576],[32.5972,37.1671,1420.3229],[32.6017,37.1602,1296.897],[32.6061,37.1568,1263.9158],[32.6352,37.1451,1254.0909],[32.6521,37.1417,1277.827],[32.6671,37.1301,1328.1156],[32.6792,37.1428,1206.7715],[32.6859,37.1575,1372.166],[32.6816,37.1807,1311.4509],[32.6816,37.1956,1312.0083],[32.6836,37.2037,1334.8655],[32.6868,37.2085,1298.5725],[32.6914,37.2117,1324.3877],[32.7134,37.2212,1526.4014],[32.7373,37.2256,1500.4117],[32.7618,37.2332,1250.7463],[32.776,37.234,1293.1125],[32.7894,37.2314,1525.3331],[32.8306,37.2149,1408.9875],[32.8412,37.2124,1356.4811],[32.869,37.2113,1631.0332],[32.9,37.2138,1609.7764]]]]}}