{"type": "Feature","bbox": [29.0566,36.8771,29.3929,37.1441],"geometry": {"type": "MultiPolygon","coordinates": [[[[29.3926,37.1387,1610.947],[29.3813,37.1421,1721.7756],[29.366,37.1441,1389.2676],[29.3308,37.1438,1444.9465],[29.3164,37.1402,1450.5928],[29.2932,37.1265,1344.0555],[29.2832,37.1229,1321.5256],[29.2183,37.1195,1337.6294],[29.2092,37.1157,1262.0741],[29.2028,37.11,1252.5991],[29.1958,37.0938,1048.7421],[29.191,37.088,1049.0297],[29.1673,37.0759,755.5178],[29.1372,37.0657,741.8997],[29.1238,37.0658,1034.9639],[29.0962,37.0734,740.0417],[29.0566,37.0746,533.1283],[29.0719,37.055,561.0334],[29.0758,37.0476,691.7261],[29.0777,37.0365,637.971],[29.0778,37.0106,614.019],[29.0806,36.9939,1330.452],[29.0951,36.9705,955.563],[29.1012,36.9637,1284.2073],[29.1718,36.908,1236.0336],[29.1909,36.8872,1261.3722],[29.2079,36.8858,1507.6646],[29.2354,36.8772,2020.0338],[29.2495,36.8771,1809.5823],[29.2563,36.8787,1957.4719],[29.262,36.8814,2150.9556],[29.2706,36.889,2133.3699],[29.2801,36.9032,2055.0925],[29.296,36.9191,1578.3943],[29.3079,36.9359,1387.1566],[29.3296,36.9589,1315.8506],[29.3333,36.9761,1570.6027],[29.3326,37.0152,1588.6156],[29.3349,37.0357,1282.7827],[29.3416,37.0457,1247.2725],[29.362,37.0622,1243.7614],[29.3763,37.0711,1310.2395],[29.3878,37.0761,1530.646],[29.3929,37.0967,1254.615],[29.3926,37.1387,1610.947]]]]}
,"properties": {"GID_2": "TUR.25.10_1","GID_0": "TUR","country": "Turkey","GID_1": "TUR.25_1","province": "Denizli","NL_NAME_1": "NA","county": "Çameli","VARNAME_2": "NA","NL_NAME_2": "NA","TYPE_2": "District","ENGTYPE_2": "District","CC_2": "NA","HASC_2": "TR.DN.CM","name": "Çameli.county","area_km2": 511.3047,"hist_schema_id": "Elevation0-9000","hist_area_km2": {"475": 0.0338,"500": 0.0169,"525": 0.0677,"550": 0.22,"575": 0.44,"600": 0.8292,"625": 1.0999,"650": 2.2165,"675": 3.5025,"700": 4.7042,"725": 3.655,"750": 4.2981,"775": 4.9583,"800": 5.7371,"825": 7.2443,"850": 8.1417,"875": 8.6166,"900": 9.0232,"925": 10.6832,"950": 11.1918,"975": 12.6138,"1000": 13.5124,"1025": 13.6661,"1050": 14.2243,"1075": 14.0707,"1100": 12.9524,"1125": 13.7301,"1150": 14.3718,"1175": 14.1693,"1200": 15.1005,"1225": 15.7591,"1250": 28.5688,"1275": 19.2793,"1300": 19.126,"1325": 17.57,"1350": 17.469,"1375": 17.2989,"1400": 16.5195,"1425": 15.4367,"1450": 12.7292,"1475": 11.2917,"1500": 10.6327,"1525": 9.3984,"1550": 7.7907,"1575": 7.5709,"1600": 6.69,"1625": 6.5356,"1650": 5.9763,"1675": 6.1446,"1700": 4.8252,"1725": 4.8585,"1750": 4.6379,"1775": 4.0291,"1800": 3.4708,"1825": 2.1845,"1850": 2.0148,"1875": 1.5411,"1900": 1.2196,"1925": 1.0334,"1950": 0.7116,"1975": 0.5085,"2000": 0.4745,"2025": 0.6272,"2050": 0.4238,"2075": 0.5086,"2100": 0.5765,"2125": 0.5935,"2150": 0.1526,"2175": 0.0339}}}