{"type":"Feature","properties":{"featurecla":"River","scalerank":8,"rivernum":741,"dissolve":"741River","name":"Sakarya1","name_alt":null,"note":null,"min_zoom":7.0,"strokeweig":0.2,"name_en":"Sakarya","min_label":8.0},
"geometry":{"type": "LineString","coordinates": [[29.506933593750006,40.20490143436912,236.9141],[29.508203125000023,40.221063543744116,233.4307],[29.51513671875,40.234149481244117,231.5581],[29.526562500000011,40.243915106244117,231.4588],[29.541113281250006,40.250018621869117,230.7222],[29.550878906250006,40.25092194218162,230.1351],[29.570703125000023,40.24909088749412,229.4866],[29.580322265625,40.24994537968162,229.119],[29.586669921875,40.25238678593162,227.5294],[29.604394531250023,40.262811590619116,225.6413],[29.646679687500011,40.27167389530662,229.6275],[29.734960937500006,40.26752350468162,225.1301],[29.777587890625,40.272235418744117,206.1005],[29.808837890625,40.292010809369117,239.6002],[29.851806640625,40.35455963749412,348.6297],[29.881591796875,40.37641022343162,325.5453],[29.949804687500006,40.397967840619117,233.5676],[29.960205078125,40.39704010624412,264.5838],[29.981347656250023,40.39166901249412,98.0522],[29.991455078125,40.39264557499412,89.4981],[30.013671875,40.410028387494116,158.4997],[30.051855468750006,40.467645574994116,80.9894],[30.074316406250006,40.489520574994117,85.3252],[30.099853515625,40.499139715619116,86.8543],[30.180078125000023,40.501727606244117,72.2261],[30.224853515625,40.51032135624412,96.6579],[30.270605468750006,40.528338934369117,168.8993],[30.30810546875,40.55670807499412,147.6546],[30.327880859375,40.596307684369116,205.3345],[30.33154296875,40.62604401249412,61.2295]]}}