{"type": "Feature","id": "2263","bbox": [29.66168,39.60761,30.73862,40.53355],"geometry": {"type": "Polygon","coordinates": [[[30.16915,40.37097,388.069],[30.08099,40.39144,341.1093],[30.04399,40.42205,137.4193],[30.00461,40.44774,275.9332],[29.96885,40.48869,772.7483],[29.94084,40.53355,1003.2903],[29.88792,40.51091,915.2034],[29.86622,40.49779,989.225],[29.84669,40.48184,1066.2672],[29.82829,40.45484,832.8784],[29.82333,40.42237,253.2537],[29.81289,40.39562,490.3689],[29.79997,40.3719,896.8657],[29.80379,40.34002,446.8358],[29.82746,40.31824,422.1493],[29.83191,40.2909,399.6741],[29.81444,40.26356,272.3],[29.71832,40.18551,458.7289],[29.68959,40.08546,928.4688],[29.69155,40.0351,438.4103],[29.74364,39.97751,1006.3231],[29.76989,39.96159,1087.8579],[29.78416,39.91147,908.9079],[29.73424,39.89705,1257.3706],[29.6777,39.90632,1115.7595],[29.66168,39.82108,1091.6193],[29.66582,39.77884,899.1705],[29.70003,39.72476,1005.1113],[29.71625,39.70926,1087.7567],[29.75604,39.68884,1307.9408],[29.79108,39.67714,1313.5291],[29.90198,39.61657,1212.7822],[29.94549,39.60761,1290.9927],[30.02414,39.62425,1164.3846],[30.09876,39.63153,1147.7871],[30.13607,39.63882,1107.5964],[30.19168,39.68846,1007.705],[30.23498,39.7477,1078.8944],[30.24521,39.84966,861.172],[30.27167,39.86679,904.4227],[30.30164,39.87912,1001.9407],[30.3189,39.89857,1031.6516],[30.33389,39.91966,1076.2504],[30.38515,39.93666,1295.1709],[30.43952,39.93619,1159.0227],[30.49068,39.96526,1007.5275],[30.52416,40.01161,243.0583],[30.53719,40.0637,956.1572],[30.55538,40.11458,1144.7999],[30.63609,40.16458,1132.9502],[30.73862,40.16781,1225.1699],[30.7011,40.20395,1012.8599],[30.64002,40.28723,948.7594],[30.62597,40.33149,883.0658],[30.57357,40.341,707.6144],[30.49853,40.33955,662.2025],[30.48127,40.35056,718.1891],[30.45771,40.37906,595.613],[30.42629,40.39405,369.1314],[30.38743,40.3942,458.6587],[30.35074,40.40208,442.6575],[30.30754,40.39901,503.0452],[30.16915,40.37097,388.069]]]}
,"properties": {"ISO3166-1-Alpha-3": "TUR","country": "Turkey","fill": "#F0F","name": "Bilecik","area_km2": 5282.951,"hist_schema_id": "Elevation0-9000","hist_area_km2": {"75": 0.646,"100": 30.572,"125": 37.005,"150": 53.078,"175": 60.399,"200": 62.335,"225": 66.172,"250": 71.564,"275": 79.642,"300": 79.746,"325": 79.41,"350": 80.968,"375": 84.155,"400": 84.812,"425": 85.003,"450": 84.799,"475": 84.378,"500": 98.732,"525": 101.682,"550": 98.193,"575": 98.752,"600": 96.44,"625": 96.771,"650": 102.163,"675": 107.521,"700": 111.273,"725": 115.367,"750": 131.708,"775": 150.014,"800": 157.551,"825": 187.825,"850": 180.527,"875": 159.25,"900": 152.851,"925": 159.693,"950": 172.354,"975": 155.953,"1000": 139.483,"1025": 128.674,"1050": 123.301,"1075": 125.155,"1100": 124.256,"1125": 123.188,"1150": 106.699,"1175": 89.934,"1200": 74.778,"1225": 66.469,"1250": 57.079,"1275": 51.28,"1300": 44.881,"1325": 36.898,"1350": 30.752,"1375": 26.416,"1400": 22.974,"1425": 21.225,"1450": 18.648,"1475": 17.571,"1500": 15.958,"1525": 14.052,"1550": 10.436,"1575": 7.912,"1600": 6.756,"1625": 5.714,"1650": 5.014,"1675": 4.477,"1700": 4.314,"1725": 4.509,"1750": 3.614,"1775": 3.435,"1800": 3.353,"1825": 2.425,"1850": 1.221,"1875": 0.667,"1900": 0.13}}}