{"type": "Feature","bbox": [29.2543,40.7529,29.7331,41.0357],"geometry": {"type": "MultiPolygon","coordinates": [[[[29.4338,40.9746,245.3661],[29.4319,40.9743,255.5551],[29.4284,40.9637,157.8637],[29.4203,40.9476,165.0128],[29.421,40.9403,158.3337],[29.4253,40.9283,224.6084],[29.42,40.9205,199.8388],[29.4123,40.9164,172.4442],[29.3697,40.9015,138.9802],[29.3485,40.8911,101.7929],[29.3435,40.8853,79.7644],[29.3384,40.871,94.5724],[29.3305,40.863,104.3081],[29.3221,40.8588,103.5447],[29.2871,40.8497,0.0],[29.2879,40.8476,0.0],[29.2901,40.8471,0.3864],[29.2896,40.8449,1.2126],[29.2843,40.8449,0.5043],[29.2793,40.8365,2.0982],[29.2751,40.8371,0.0],[29.2726,40.8404,0.0],[29.2724,40.8446,0.0],[29.2654,40.8426,0.0],[29.264,40.8399,0.58],[29.2674,40.8365,0.0],[29.2651,40.8374,0.0],[29.2651,40.8363,0.0],[29.2707,40.8318,0.0],[29.2774,40.8315,0.0],[29.2787,40.8301,-1.0],[29.2821,40.8318,0.0491],[29.286,40.8368,2.8855],[29.2882,40.8368,1.4327],[29.2926,40.8332,0.0647],[29.2913,40.8285,3.0723],[29.2882,40.8254,2.8478],[29.284,40.8254,3.7225],[29.279,40.8288,-1.0],[29.2793,40.826,2.5956],[29.2763,40.824,0.0],[29.2757,40.8213,0.6375],[29.269,40.8201,0.0],[29.2693,40.8171,0.0],[29.2674,40.8151,2.1082],[29.2635,40.816,0.0],[29.266,40.819,0.0],[29.2643,40.8196,0.0],[29.259,40.8154,6.7416],[29.2543,40.8149,4.4802],[29.2588,40.8085,1.7601],[29.2571,40.8026,1.6484],[29.2635,40.8049,0.0],[29.2654,40.8088,0.0],[29.2646,40.811,1.2181],[29.2715,40.8115,0.0],[29.276,40.8138,8.3619],[29.2849,40.8118,0.0],[29.2865,40.8132,2.6926],[29.294,40.8126,0.6402],[29.2943,40.8154,0.0],[29.2982,40.8165,1.282],[29.3074,40.8112,0.0],[29.3104,40.811,0.5388],[29.3157,40.8143,0.0],[29.3149,40.8168,0.0],[29.3176,40.819,4.8216],[29.3318,40.8162,0.5577],[29.3465,40.8046,0.3289],[29.3476,40.7993,0.553],[29.3451,40.7965,0.6438],[29.349,40.796,10.0527],[29.3496,40.7924,5.2916],[29.3474,40.7901,4.2344],[29.3443,40.7901,4.2703],[29.3379,40.7929,0.6937],[29.3374,40.7901,4.427],[29.3335,40.7904,1.0707],[29.3357,40.7885,0.0],[29.3337,40.7857,1.2614],[29.3412,40.7846,0.0],[29.3446,40.7871,7.6336],[29.3485,40.7849,0.0],[29.3529,40.7743,6.4262],[29.3524,40.7701,4.9969],[29.3493,40.7676,18.561],[29.3521,40.7651,3.4941],[29.3515,40.761,2.1058],[29.3546,40.7551,0.0],[29.359,40.7574,7.7439],[29.3643,40.7576,2.8188],[29.3674,40.7562,0.661],[29.3813,40.756,5.4105],[29.3918,40.7529,0.0],[29.3932,40.7554,0.8467],[29.3965,40.7554,0.0],[29.4093,40.7629,8.754],[29.424,40.7665,0.2617],[29.429,40.7693,2.2751],[29.439,40.7713,4.0877],[29.4454,40.7685,0.0],[29.4513,40.7682,0.0],[29.4632,40.7721,21.4599],[29.4687,40.7715,1.6461],[29.4713,40.7746,18.9719],[29.4849,40.7776,2.7538],[29.4893,40.7801,1.425],[29.4971,40.7788,24.1107],[29.5026,40.7796,1.3426],[29.5179,40.7665,0.2816],[29.5235,40.7682,2.2254],[29.524,40.7665,0.96],[29.5357,40.7665,0.561],[29.5549,40.7721,31.2211],[29.5707,40.766,0.0],[29.6015,40.778,0.0],[29.5902,40.7831,141.5903],[29.577,40.7959,236.1173],[29.5295,40.8263,200.994],[29.5423,40.8324,264.4088],[29.5653,40.8371,342.5607],[29.5864,40.8443,297.638],[29.6135,40.8496,313.5489],[29.7011,40.8827,450.1018],[29.716,40.8913,428.989],[29.7237,40.8976,367.5724],[29.7297,40.905,365.6739],[29.7319,40.9105,338.8146],[29.7331,40.9245,280.2813],[29.7293,40.9381,202.8777],[29.7209,40.9459,202.424],[29.696,40.9575,301.4218],[29.6902,40.9637,278.2726],[29.688,40.9689,237.3023],[29.6868,40.9772,223.1057],[29.6877,40.9884,196.1641],[29.696,41.0094,210.1939],[29.6928,41.0256,172.5894],[29.6523,41.0105,188.6814],[29.637,41.0087,235.3679],[29.6174,41.0087,267.6173],[29.5986,41.0118,313.8865],[29.5721,41.0267,271.9315],[29.5621,41.0305,259.8942],[29.5117,41.0335,173.6906],[29.4962,41.0357,118.9065],[29.4904,41.0128,210.0129],[29.4813,41.0007,208.4054],[29.4548,40.981,95.7784],[29.4455,40.9768,199.6533],[29.4338,40.9746,245.3661]]]]}
,"properties": {"GID_2": "TUR.52.2_1","GID_0": "TUR","country": "Turkey","GID_1": "TUR.52_1","province": "Kocaeli","NL_NAME_1": "NA","county": "Gebze","VARNAME_2": "NA","NL_NAME_2": "NA","TYPE_2": "District","ENGTYPE_2": "District","CC_2": "NA","HASC_2": "TR.KC.GE","name": "Gebze.county","area_km2": 661.4868,"hist_schema_id": "Elevation0-9000","hist_area_km2": {"0": 19.0332,"25": 25.3404,"50": 25.1808,"75": 23.7663,"100": 27.0905,"125": 32.9183,"150": 51.9044,"175": 81.0267,"200": 69.3776,"225": 61.8209,"250": 52.1566,"275": 49.2079,"300": 42.2877,"325": 37.9014,"350": 26.1926,"375": 13.4586,"400": 6.5379,"425": 5.305,"450": 4.0873,"475": 2.9813,"500": 2.196,"525": 0.6733,"550": 0.529,"575": 0.2886,"600": 0.1282,"625": 0.0962}}}