{"type": "Feature","bbox": [30.8993,38.6381,31.6271,38.9129],"geometry": {"type": "MultiPolygon","coordinates": [[[[30.9472,38.7918,1518.0925],[30.9394,38.7715,1486.1602],[30.9003,38.7113,1055.6598],[30.8993,38.7003,980.1093],[30.9014,38.6922,977.2473],[30.9158,38.673,973.7704],[30.9295,38.6698,972.9034],[30.9684,38.6659,970.3879],[30.9899,38.6591,968.947],[31.0062,38.6568,969.1431],[31.1704,38.6557,964.5831],[31.1825,38.6537,964.7741],[31.2275,38.6381,965.5577],[31.26,38.6541,965.7051],[31.3659,38.6945,1162.2072],[31.3798,38.7033,1297.8057],[31.4109,38.7274,1327.9014],[31.4223,38.734,1414.6689],[31.436,38.7371,1313.7341],[31.4725,38.7381,1269.5178],[31.4862,38.7412,1361.1858],[31.5276,38.7688,1081.5101],[31.5761,38.7877,1058.6174],[31.6031,38.8034,1070.5618],[31.6196,38.8073,1120.2915],[31.6271,38.8247,1264.9012],[31.6129,38.8348,1196.7485],[31.5995,38.8404,1130.8546],[31.5496,38.8443,1284.6766],[31.5244,38.8519,1361.842],[31.4898,38.856,1530.8101],[31.4607,38.8645,1245.208],[31.4327,38.8658,1255.0356],[31.318,38.8655,1426.9187],[31.2943,38.8673,1386.3762],[31.1793,38.9109,1477.5574],[31.1592,38.9129,1535.1707],[31.1263,38.9125,1361.861],[31.1106,38.9097,1310.106],[31.0776,38.892,1272.897],[31.0475,38.8828,1234.5188],[31.0438,38.876,1222.1326],[31.0375,38.8692,1233.8364],[30.9957,38.8348,1144.2283],[30.9849,38.8178,1331.2295],[30.9718,38.8011,1349.2976],[30.9647,38.7969,1381.476],[30.9472,38.7918,1518.0925]]]]}
,"properties": {"GID_2": "TUR.3.3_1","GID_0": "TUR","country": "Turkey","GID_1": "TUR.3_1","province": "Afyon","NL_NAME_1": "NA","county": "Bolvadin","VARNAME_2": "NA","NL_NAME_2": "NA","TYPE_2": "District","ENGTYPE_2": "District","CC_2": "NA","HASC_2": "TR.AF.BO","name": "Bolvadin.county","area_km2": 1154.0568,"hist_schema_id": "Elevation0-9000","hist_area_km2": {"975": 233.7273,"1000": 30.4212,"1025": 30.268,"1050": 29.0554,"1075": 33.9266,"1100": 37.2787,"1125": 47.8563,"1150": 51.3241,"1175": 63.6921,"1200": 65.638,"1225": 65.8323,"1250": 58.1277,"1275": 48.2154,"1300": 38.9786,"1325": 30.0047,"1350": 23.2786,"1375": 17.4945,"1400": 14.2389,"1425": 14.0568,"1450": 12.9322,"1475": 12.1395,"1500": 11.3136,"1525": 11.0321,"1550": 10.9334,"1575": 11.3134,"1600": 12.4354,"1625": 11.9897,"1650": 11.8081,"1675": 11.527,"1700": 9.2976,"1725": 9.0333,"1750": 8.4222,"1775": 8.2732,"1800": 7.134,"1825": 6.8695,"1850": 6.7872,"1875": 6.3412,"1900": 5.2514,"1925": 4.9541,"1950": 4.5414,"1975": 4.4756,"2000": 3.749,"2025": 4.0631,"2050": 3.2045,"2075": 2.4613,"2100": 1.8501,"2125": 1.1729,"2150": 1.0242,"2175": 0.9581,"2200": 0.8755,"2225": 0.9746,"2250": 1.0076,"2275": 0.479,"2300": 0.0165}}}