{"type":"Feature","properties":{"GID_2":"TUR.22.8_1","GID_0":"TUR","country":"Turkey","GID_1":"TUR.22_1","province":"Çanakkale","NL_NAME_1":"NA","county":"Gelibolu","VARNAME_2":"NA","NL_NAME_2":"NA","TYPE_2":"District","ENGTYPE_2":"District","CC_2":"NA","HASC_2":"TR.CK.GE","name":"Gelibolu.county"},
"geometry":{"type": "MultiPolygon","coordinates": [[[[26.4563,40.2399,0.0],[26.4615,40.2418,0.0],[26.4662,40.2468,0.0],[26.4699,40.2471,0.0],[26.474,40.2529,1.0897],[26.4799,40.2546,5.7226],[26.4818,40.2588,24.6008],[26.4893,40.2629,0.2669],[26.4943,40.2699,0.1851],[26.4932,40.2771,1.722],[26.506,40.2835,0.0],[26.5099,40.2882,0.0],[26.519,40.2929,1.6503],[26.5237,40.2924,1.0071],[26.5293,40.2954,0.0],[26.536,40.2957,0.6929],[26.5446,40.2993,1.3777],[26.5501,40.2999,0.0],[26.554,40.3046,1.2965],[26.561,40.3043,0.0],[26.5637,40.3074,3.4014],[26.5674,40.3071,0.8496],[26.5743,40.3199,0.6547],[26.5868,40.319,0.1489],[26.5912,40.3213,0.0],[26.5943,40.3243,0.0],[26.5938,40.3288,0.4193],[26.6026,40.334,0.4889],[26.6085,40.3413,1.029],[26.6196,40.3482,0.08],[26.6312,40.3624,0.0],[26.6324,40.3651,0.0],[26.6285,40.3726,0.0],[26.6262,40.3838,0.0],[26.6274,40.386,8.9897],[26.6304,40.3862,0.0],[26.6326,40.3901,0.0],[26.6393,40.3901,0.0],[26.6388,40.3968,4.0284],[26.6413,40.4032,1.2009],[26.6524,40.4043,3.5697],[26.6554,40.4068,0.0],[26.6621,40.4074,1.9179],[26.6757,40.4032,0.0],[26.6829,40.4096,6.8738],[26.6824,40.4115,0.0],[26.6796,40.4121,9.5479],[26.6799,40.416,0.3704],[26.6824,40.4176,4.4233],[26.686,40.4165,0.0],[26.6879,40.419,12.3294],[26.7001,40.4199,3.4994],[26.6957,40.4285,2.9588],[26.6932,40.4426,0.0],[26.6935,40.4493,0.1309],[26.6993,40.4543,0.5214],[26.7149,40.4565,0.0],[26.726,40.4632,0.0],[26.7318,40.4721,3.0505],[26.7407,40.4774,4.3183],[26.764,40.4837,0.0],[26.7768,40.4851,0.0],[26.7924,40.4929,0.2074],[26.821,40.4987,0.0],[26.8268,40.5029,0.6095],[26.8343,40.504,0.0],[26.8496,40.5104,0.0],[26.8543,40.5104,0.0],[26.9001,40.5363,0.8383],[26.9054,40.5363,0.0],[26.9101,40.5396,1.5008],[26.9221,40.5412,0.0],[26.9329,40.5449,0.0],[26.9632,40.5501,0.0],[26.9699,40.554,8.7837],[26.9963,40.5557,7.3596],[26.999,40.5593,0.0],[27.0004,40.5685,10.9292],[27.0054,40.5696,0.2391],[27.0071,40.5737,3.3168],[27.0294,40.5907,11.5669],[27.0286,40.6995,77.311],[27.0311,40.7158,95.1001],[27.0399,40.7327,64.5],[27.0426,40.7481,103.1585],[27.0415,40.7602,116.8971],[27.0249,40.7911,88.8521],[27.0154,40.7982,93.7577],[27.009,40.8005,101.0582],[26.9984,40.802,104.5211],[26.9767,40.801,166.1904],[26.9637,40.7973,192.6799],[26.9098,40.776,387.9346],[26.8987,40.7697,420.8563],[26.8715,40.7502,396.9086],[26.8586,40.7448,295.441],[26.8236,40.743,230.5571],[26.7838,40.7462,214.2646],[26.76,40.7051,336.6484],[26.7593,40.6914,217.0451],[26.7641,40.681399999999996,103.9147],[26.7749,40.6684,25.9397],[26.7935,40.6565,0.0],[26.796,40.6571,1.2971],[26.8049,40.6543,0.1825],[26.8049,40.6521,0.0],[26.8104,40.6476,0.0483],[26.8188,40.6471,0.3496],[26.8182,40.6435,0.0],[26.8243,40.6374,0.4893],[26.8251,40.6349,0.5934],[26.8229,40.6338,0.0],[26.8304,40.6237,0.4976],[26.834,40.6132,0.2502],[26.8343,40.6063,0.1601],[26.8374,40.6037,0.1965],[26.8365,40.5982,0.0],[26.8385,40.5965,0.3821],[26.839,40.5868,0.1521],[26.8349,40.5812,1.0503],[26.8165,40.571,0.0],[26.814,40.5676,0.8649],[26.8046,40.5624,0.0],[26.799,40.5568,17.6993],[26.776,40.5488,0.0],[26.7696,40.5451,15.1975],[26.7626,40.5446,1.1328],[26.7576,40.546,0.0],[26.7546,40.5449,1.1185],[26.7488,40.5462,0.5125],[26.7443,40.5499,0.6701],[26.7482,40.5546,0.0],[26.7474,40.559,0.0],[26.7435,40.554,1.2302],[26.736,40.5513,2.5121],[26.7354,40.5465,1.1579],[26.7337,40.5449,0.1901],[26.7276,40.5443,0.0],[26.7188,40.5385,26.3006],[26.7132,40.5276,0.0],[26.711,40.5168,23.9874],[26.7079,40.5124,0.0],[26.7038,40.5104,26.4759],[26.6965,40.5104,1.7569],[26.6968,40.5085,2.6434],[26.6946,40.5071,0.0],[26.6926,40.509,0.0],[26.6849,40.5093,0.0],[26.6821,40.5088,0.0],[26.681,40.5068,14.8434],[26.6787,40.5074,1.9096],[26.679,40.5088,0.0],[26.671,40.5074,0.0],[26.6649,40.5085,3.5945],[26.6604,40.5082,1.4266],[26.6585,40.5062,8.671],[26.6515,40.5082,0.0],[26.6424,40.5071,0.0],[26.6349,40.5104,2.5002],[26.6321,40.5085,2.7536],[26.6254,40.5085,4.2728],[26.6154,40.5032,19.4467],[26.6057,40.5029,2.8372],[26.5982,40.4993,4.3603],[26.589,40.4974,0.0],[26.5857,40.4935,1.4395],[26.5757,40.4901,9.1906],[26.5732,40.4865,34.7493],[26.5693,40.4857,0.0],[26.5624,40.481,10.8238],[26.5582,40.4821,0.0],[26.5504,40.4807,0.0],[26.5462,40.4776,8.1861],[26.5465,40.4762,10.3476],[26.5432,40.4757,0.0],[26.5346,40.4693,18.4182],[26.5313,40.469,0.0],[26.5251,40.4629,0.0],[26.5099,40.4588,0.0],[26.511,40.4562,20.9788],[26.504,40.4554,9.6683],[26.5004,40.451,3.3713],[26.4949,40.4499,7.3362],[26.4926,40.4474,3.8823],[26.484,40.4449,19.7542],[26.4557,40.4415,9.3563],[26.4554,40.4399,71.1389],[26.4504,40.439,0.0],[26.4363,40.4318,0.0],[26.4338,40.429,0.0],[26.4335,40.426,1.6338],[26.4287,40.4254,16.6017],[26.4268,40.4063,266.6548],[26.4245,40.3981,176.1903],[26.4195,40.3906,200.5325],[26.404,40.376,162.3883],[26.4012,40.3714,89.5893],[26.4006,40.3666,100.7533],[26.4026,40.3621,66.3884],[26.4068,40.3589,59.0679],[26.4457,40.3431,113.4876],[26.4522,40.3373,196.6766],[26.4553,40.3322,191.4478],[26.4578,40.3141,281.8882],[26.4563,40.2399,0.0]]]]}}