{"type": "Feature","bbox": [41.0495,37.5544,41.658,37.8047],"geometry": {"type": "MultiPolygon","coordinates": [[[[41.1124,37.8047,784.275],[41.1064,37.7794,650.4347],[41.0996,37.7695,596.3408],[41.0737,37.7492,577.073],[41.0648,37.7442,667.3307],[41.0518,37.7396,636.5194],[41.0495,37.7267,705.4729],[41.0513,37.7185,734.9834],[41.0582,37.7096,781.5462],[41.0729,37.6954,843.6921],[41.0865,37.6768,845.0894],[41.1334,37.6375,1025.5656],[41.1704,37.5787,1341.5753],[41.189,37.5568,1091.7344],[41.2288,37.5544,1060.5747],[41.4461,37.5544,1138.3301],[41.4667,37.557,1170.7814],[41.4883,37.5638,1217.4431],[41.5229,37.568,1224.5649],[41.5485,37.5755,1216.9681],[41.5732,37.5775,1133.6602],[41.5839,37.5881,1007.3328],[41.5909,37.5999,987.7126],[41.5983,37.6081,964.6287],[41.658,37.6539,861.1837],[41.6492,37.6763,1346.6484],[41.6448,37.6835,1207.5382],[41.6353,37.6906,978.5322],[41.6254,37.6934,982.3688],[41.6148,37.6936,995.3134],[41.6045,37.6916,889.6863],[41.5752,37.6749,1222.7053],[41.5604,37.6712,1050.6223],[41.4607,37.6705,747.5378],[41.4322,37.6719,1054.3364],[41.4068,37.6797,1033.064],[41.3914,37.682,1091.6311],[41.2969,37.6834,826.5941],[41.2713,37.6908,781.8245],[41.248,37.6952,673.6769],[41.2346,37.7027,741.3939],[41.2286,37.7129,571.6539],[41.2273,37.7252,529.5131],[41.2282,37.764,890.4667],[41.2146,37.7667,852.9573],[41.1934,37.7737,880.2489],[41.1546,37.7783,863.448],[41.1421,37.7844,863.4688],[41.1124,37.8047,784.275]]]]}
,"properties": {"GID_2": "TUR.14.2_1","GID_0": "TUR","country": "Turkey","GID_1": "TUR.14_1","province": "Batman","NL_NAME_1": "NA","county": "Gercüş","VARNAME_2": "NA","NL_NAME_2": "NA","TYPE_2": "District","ENGTYPE_2": "District","CC_2": "NA","HASC_2": "TR.BM.GE","name": "Gercüş.county","area_km2": 718.8871,"hist_schema_id": "Elevation0-9000","hist_area_km2": {"475": 1.1904,"500": 3.6545,"525": 3.9063,"550": 5.4991,"575": 9.0364,"600": 12.7924,"625": 12.0388,"650": 13.28,"675": 14.187,"700": 14.3898,"725": 15.8511,"750": 16.7252,"775": 20.2512,"800": 24.1832,"825": 28.604,"850": 30.2032,"875": 33.0286,"900": 36.1537,"925": 39.9017,"950": 37.1461,"975": 33.8712,"1000": 33.6366,"1025": 31.7891,"1050": 29.2866,"1075": 33.2863,"1100": 30.5836,"1125": 26.568,"1150": 22.7549,"1175": 20.6381,"1200": 17.3471,"1225": 16.2218,"1250": 13.3671,"1275": 11.3189,"1300": 9.6899,"1325": 7.9431,"1350": 4.886,"1375": 2.048,"1400": 1.0407,"1425": 0.3357,"1450": 0.1846,"1475": 0.0671}}}