{"type": "Feature","bbox": [30.593,40.1403,31.0607,40.5386],"geometry": {"type": "MultiPolygon","coordinates": [[[[31.0607,40.4158,1008.1071],[31.044,40.4307,1207.3246],[31.0212,40.4411,958.392],[31.012,40.4482,786.9196],[30.9959,40.4736,822.0588],[30.9896,40.4948,1440.475],[30.979,40.5065,1472.9919],[30.9612,40.5167,1261.9135],[30.9313,40.5231,1137.6704],[30.921,40.5295,1352.4022],[30.9108,40.5386,1503.2986],[30.8996,40.5376,1451.5432],[30.8293,40.5199,1243.2632],[30.6762,40.5183,1318.1909],[30.6426,40.492,1256.1235],[30.6366,40.4857,1253.2709],[30.6255,40.4694,964.9384],[30.5997,40.4484,600.7831],[30.5944,40.4425,586.7196],[30.593,40.4379,562.1165],[30.5976,40.4293,605.532],[30.6368,40.3993,632.6963],[30.6444,40.3905,565.569],[30.6474,40.3803,548.5591],[30.6477,40.3725,627.8314],[30.6455,40.3596,693.2536],[30.6393,40.3504,650.8608],[30.6238,40.3352,831.1445],[30.6362,40.3085,838.0256],[30.6796,40.2409,873.6063],[30.702,40.2181,962.619],[30.7174,40.1947,949.4723],[30.7268,40.1719,1156.4028],[30.7468,40.1682,1173.0232],[30.7717,40.1603,1409.8341],[30.8217,40.1565,563.0179],[30.874,40.1403,524.0443],[30.888,40.1665,774.6908],[30.8934,40.1739,1055.4534],[30.955,40.2229,767.7031],[30.9751,40.2362,797.4348],[31.0276,40.256,806.7806],[31.0389,40.2635,926.9082],[31.0475,40.2726,991.9026],[31.0497,40.2778,973.0311],[31.0497,40.2832,953.0871],[31.0399,40.3015,1193.5581],[31.0377,40.3125,1348.6707],[31.0373,40.3763,1464.2578],[31.0385,40.3847,1344.7019],[31.0418,40.3925,1153.2946],[31.0607,40.4158,1008.1071]]]]}
,"properties": {"GID_2": "TUR.19.3_1","GID_0": "TUR","country": "Turkey","GID_1": "TUR.19_1","province": "Bolu","NL_NAME_1": "NA","county": "Göynük","VARNAME_2": "NA","NL_NAME_2": "NA","TYPE_2": "District","ENGTYPE_2": "District","CC_2": "NA","HASC_2": "TR.BL.GO","name": "Göynük.county","area_km2": 1200.8533,"hist_schema_id": "Elevation0-9000","hist_area_km2": {"400": 0.1296,"425": 0.243,"450": 0.5022,"475": 0.7776,"500": 1.7328,"525": 4.8733,"550": 10.065,"575": 15.0742,"600": 20.8772,"625": 23.8015,"650": 27.5191,"675": 33.0452,"700": 36.1365,"725": 36.5247,"750": 40.8266,"775": 42.2002,"800": 44.734,"825": 43.3134,"850": 43.8586,"875": 43.2264,"900": 41.9611,"925": 41.8096,"950": 41.8868,"975": 40.3192,"1000": 37.0981,"1025": 37.7249,"1050": 38.497,"1075": 37.6388,"1100": 40.3808,"1125": 38.7797,"1150": 37.3699,"1175": 34.9283,"1200": 31.9381,"1225": 29.1059,"1250": 28.0038,"1275": 25.4526,"1300": 23.5286,"1325": 20.4942,"1350": 18.5261,"1375": 18.2667,"1400": 14.3607,"1425": 10.4868,"1450": 10.0833,"1475": 7.8064,"1500": 5.5152,"1525": 5.4501,"1550": 5.3211,"1575": 4.9982,"1600": 3.2085,"1625": 0.4353,"1650": 0.0161}}}