{"type": "Feature","bbox": [42.9853,37.7188,43.5408,38.2517],"geometry": {"type": "MultiPolygon","coordinates": [[[[43.5408,37.7274,2922.9504],[43.5258,37.739,2840.9619],[43.5256,37.7592,2742.6162],[43.5237,37.7704,2556.6113],[43.5148,37.7868,2500.9229],[43.5089,37.8052,2672.0603],[43.5039,37.813,2844.4385],[43.4856,37.8292,2978.3291],[43.4592,37.8483,2756.2666],[43.4098,37.8701,2209.8804],[43.3962,37.8865,2251.8374],[43.3916,37.8966,2250.4177],[43.3916,37.9163,2435.9263],[43.3941,37.9244,2376.3369],[43.4037,37.9408,2153.9114],[43.4067,37.9646,2120.4854],[43.4047,37.9886,1903.2802],[43.3944,38.0079,1928.4965],[43.3911,38.0196,1930.3226],[43.3902,38.0408,2282.9062],[43.3933,38.0524,2458.3281],[43.3991,38.0587,2325.2627],[43.4044,38.0617,2365.4575],[43.4179,38.0634,1942.6146],[43.4271,38.0608,2406.3777],[43.4626,38.045,2543.7322],[43.4714,38.0439,2471.2996],[43.4796,38.048,2531.6973],[43.4824,38.0554,2351.7607],[43.4819,38.1361,2059.6553],[43.4796,38.1544,2058.5713],[43.4551,38.1942,2200.0171],[43.4471,38.2177,2442.4302],[43.4253,38.2517,2048.9587],[43.2552,38.2517,1933.2622],[43.2315,38.25,2106.0728],[43.1976,38.2377,2293.3301],[43.1682,38.2205,2635.7305],[43.1466,38.2112,2965.6338],[43.1232,38.1971,3073.9365],[43.0799,38.1802,2242.9919],[43.0726,38.1596,2252.9438],[43.0508,38.1371,2513.1714],[43.0486,38.1321,2502.575],[43.0485,38.1267,2376.1094],[43.0506,38.1215,2209.9065],[43.0566,38.1147,2309.2385],[43.108,38.0761,2651.3479],[43.115,38.0695,2936.0454],[43.1197,38.0619,2897.1006],[43.1209,38.0509,2496.9321],[43.1167,38.0402,2283.7373],[43.0844,38.0136,1699.9368],[43.0784,38.0039,1546.6586],[43.0785,37.9985,1847.5691],[43.0807,37.9936,1933.427],[43.1032,37.9716,2248.8418],[43.1053,37.9665,2556.834],[43.1055,37.9588,2788.9668],[43.1014,37.952,2873.9023],[43.0958,37.9495,2789.3684],[43.0623,37.9461,2684.3589],[43.0391,37.9368,2784.0198],[43.0204,37.9152,2155.2722],[43.0119,37.8919,1475.8408],[42.9886,37.8549,2067.9116],[42.9867,37.8492,2160.2007],[42.9853,37.8093,2503.145],[42.9891,37.7993,2344.2178],[42.9932,37.7942,2309.6182],[42.9987,37.7899,2432.3044],[43.0169,37.7814,2268.6594],[43.0394,37.7683,2128.6738],[43.0542,37.7636,2138.5474],[43.1565,37.7616,2745.1152],[43.1678,37.7588,3007.2368],[43.2155,37.741,2783.7246],[43.2764,37.7379,2635.6653],[43.3096,37.7287,2384.5322],[43.3429,37.7273,2618.4514],[43.5107,37.7274,3082.4756],[43.5202,37.7212,3015.2476],[43.5284,37.7188,2989.9397],[43.5366,37.7206,2831.4741],[43.5408,37.7274,2922.9504]]]]}
,"properties": {"GID_2": "TUR.78.4_1","GID_0": "TUR","country": "Turkey","GID_1": "TUR.78_1","province": "Van","NL_NAME_1": "NA","county": "Çatak","VARNAME_2": "NA","NL_NAME_2": "NA","TYPE_2": "District","ENGTYPE_2": "District","CC_2": "NA","HASC_2": "TR.VA.CK","name": "Çatak.county","area_km2": 1910.209,"hist_schema_id": "Elevation0-9000","hist_area_km2": {"1475": 0.117,"1500": 0.251,"1525": 1.037,"1550": 1.338,"1575": 1.588,"1600": 1.989,"1625": 2.925,"1650": 3.443,"1675": 4.195,"1700": 5.098,"1725": 4.797,"1750": 5.766,"1775": 5.514,"1800": 6.584,"1825": 7.085,"1850": 8.187,"1875": 8.754,"1900": 11.31,"1925": 12.511,"1950": 14.78,"1975": 16.883,"2000": 19.638,"2025": 20.472,"2050": 24.495,"2075": 27.332,"2100": 29.451,"2125": 32.857,"2150": 34.83,"2175": 40.688,"2200": 43.14,"2225": 45.066,"2250": 47.673,"2275": 44.565,"2300": 44.25,"2325": 41.785,"2350": 43.277,"2375": 42.877,"2400": 46.076,"2425": 43.49,"2450": 44.245,"2475": 45.17,"2500": 46.741,"2525": 48.802,"2550": 50.327,"2575": 52.167,"2600": 49.379,"2625": 49.431,"2650": 51.936,"2675": 52.754,"2700": 52.051,"2725": 54.494,"2750": 52.903,"2775": 50.216,"2800": 48.526,"2825": 43.412,"2850": 38.309,"2875": 33.46,"2900": 30.533,"2925": 27.039,"2950": 26.356,"2975": 23.058,"3000": 19.465,"3025": 18.525,"3050": 16.388,"3075": 15.016,"3100": 12.925,"3125": 12.205,"3150": 9.814,"3175": 8.192,"3200": 7.438,"3225": 5.935,"3250": 4.931,"3275": 3.744,"3300": 3.025,"3325": 2.172,"3350": 1.17,"3375": 0.852,"3400": 0.418,"3425": 0.201,"3450": 0.167,"3475": 0.134,"3500": 0.067}}}