{"type":"Feature","properties":{"GID_2":"TUR.46.19_1","GID_0":"TUR","country":"Turkey","GID_1":"TUR.46_1","province":"Kastamonu","NL_NAME_1":"NA","county":"Taşköprü","VARNAME_2":"NA","NL_NAME_2":"NA","TYPE_2":"District","ENGTYPE_2":"District","CC_2":"NA","HASC_2":"TR.KS.TA","name":"Taşköprü.county"},
"geometry":{"type": "MultiPolygon","coordinates": [[[[34.4756,41.3039,1396.4865],[34.4783,41.3306,1179.8458],[34.4786,41.3923,1010.5878],[34.4761,41.4087,1070.5183],[34.4661,41.4287,1187.6487],[34.4639,41.4416,1264.7831],[34.4651,41.5409,1199.6431],[34.4339,41.5405,1260.9893],[34.4105,41.5433,1183.0643],[34.4036,41.5481,1130.8693],[34.3827,41.5697,1125.1832],[34.3668,41.5914,562.728],[34.3486,41.6095,524.3423],[34.3092,41.6701,1176.9838],[34.2999,41.677,1348.535],[34.2803,41.6857,1122.267],[34.2722,41.6937,1195.736],[34.2686,41.7072,1083.4321],[34.2691,41.7507,1444.5103],[34.1821,41.751,1678.8585],[34.1578,41.7498,1908.4028],[34.1038,41.7349,1550.5885],[34.0966,41.7302,1558.1062],[34.077,41.7033,1188.7704],[34.0743,41.6924,1158.4163],[34.0725,41.6641,1101.2478],[34.0705,41.6588,1073.3257],[34.0649,41.6516,1040.6128],[34.0377,41.6285,1178.2616],[34.0197,41.6064,1290.3303],[33.9884,41.591,1251.4126],[33.9431,41.558,1136.0654],[33.917,41.5458,1150.5341],[33.9346,41.517,727.5353],[33.9432,41.4935,649.3568],[33.9747,41.4662,661.1861],[33.9815,41.4564,700.8039],[33.9826,41.4454,663.6458],[33.9799,41.4374,663.0721],[33.9565,41.4129,701.699],[33.9554,41.4049,791.2999],[33.9575,41.3995,887.9599],[33.9689,41.3886,949.2871],[33.9775,41.3832,1014.0511],[33.9996,41.3746,835.8198],[34.0084,41.3696,980.8733],[34.0595,41.3306,1003.3845],[34.074,41.322,1158.1619],[34.101,41.3117,946.5835],[34.1111,41.3094,1077.3501],[34.1586,41.3086,1376.054],[34.1685,41.3074,1279.9274],[34.1766,41.3034,1351.2229],[34.1895,41.2869,1213.5073],[34.1925,41.2763,1110.6331],[34.1901,41.2627,1229.6541],[34.1796,41.2439,1413.8141],[34.1761,41.1984,1324.9504],[34.2207,41.1724,1552.8025],[34.2339,41.171,1723.6119],[34.2536,41.1773,1406.6289],[34.2637,41.178,1526.0773],[34.2728,41.1758,1569.9915],[34.291,41.1674,1893.0941],[34.2965,41.1702,1902.6127],[34.3083,41.1792,1829.3008],[34.3177,41.193,1824.4453],[34.3383,41.2139,1639.0951],[34.3497,41.2304,1529.8762],[34.3792,41.2558,1699.6279],[34.3947,41.2771,1441.1931],[34.4168,41.2962,1236.8796],[34.4311,41.3049,1283.7288],[34.4414,41.3076,1217.0977],[34.4595,41.3076,1331.0287],[34.4756,41.3039,1396.4865]]]]}}