{"type": "Feature","bbox": [32.4304,38.347,33.465,39.0516],"geometry": {"type": "MultiPolygon","coordinates": [[[[33.3757,38.556399999999996,902.5],[33.3874,38.5678,902.5],[33.4073,38.5767,905.1873],[33.4144,38.5818,904.9802],[33.4281,38.5999,902.5],[33.4572,38.6254,902.5],[33.465,38.6365,902.5],[33.4486,38.6654,902.5],[33.3884,38.7584,904.3408],[33.3648,38.7837,902.5],[33.3612,38.8002,904.5029],[33.3616,38.8441,904.6699],[33.333,38.8384,904.2805],[33.2884,38.8212,902.5],[33.2777,38.8187,904.4387],[33.168,38.8174,906.8767],[33.1527,38.8151,905.0338],[33.1283,38.8077,905.6647],[33.0809,38.8044,906.575],[33.0684,38.7991,923.5818],[33.0407,38.7784,913.877],[33.0351,38.7763,914.4895],[33.0287,38.7763,914.5097],[33.0192,38.7822,917.8757],[33.0159,38.7896,912.5],[33.0165,38.8463,921.7382],[33.0135,38.8636,921.646],[33.0003,38.8844,943.1188],[32.9947,38.8907,943.1667],[32.9874,38.8957,937.2771],[32.9676,38.9043,949.453],[32.9612,38.91,948.6786],[32.9582,38.9149,953.0364],[32.9557,38.9321,961.7858],[32.9572,38.9802,1003.9746],[32.9559,38.9976,1019.335],[32.9522,39.0054,1023.2275],[32.9405,39.0144,1030.9873],[32.9107,39.0257,1019.5276],[32.9002,39.0272,1042.0847],[32.8859,39.0263,1043.8772],[32.8495,39.0125,990.405],[32.8118,38.9861,987.4741],[32.8021,38.983,965.8469],[32.7952,38.9829,965.6887],[32.7858,38.9852,989.1188],[32.7592,38.996,1054.7686],[32.72,39.0241,1102.005],[32.7027,39.0328,1057.7451],[32.6839,39.0326,1075.4058],[32.6329,39.0501,1023.0485],[32.5787,39.0516,1012.5502],[32.5559,39.0498,1038.5167],[32.5428,39.0443,1081.5674],[32.5298,39.034,1098.6813],[32.5124,39.0112,1093.8743],[32.5018,39.005,1122.4011],[32.4786,38.996,1124.3596],[32.4686,38.9946,1119.8859],[32.4586,38.9964,1141.1807],[32.4325,39.011,998.5615],[32.4304,38.9562,1151.131],[32.4313,38.9442,1143.1935],[32.434,38.9357,1133.8667],[32.4555,38.9126,1129.1761],[32.4634,38.9006,1130.0037],[32.4722,38.8914,1129.2372],[32.4859,38.8818,1135.5493],[32.5071,38.873,1139.7897],[32.5166,38.8659,1148.7216],[32.5302,38.8457,1134.7354],[32.5331,38.8384,1134.0779],[32.5324,38.8304,1090.2156],[32.5235,38.8145,1084.1315],[32.5177,38.796,1112.5544],[32.5028,38.7726,1103.718],[32.4943,38.7637,1114.7274],[32.4714,38.7451,1118.3193],[32.4635,38.7358,1114.4847],[32.4602,38.7221,1118.9301],[32.4629,38.6824,1074.0076],[32.4696,38.6719,1069.7937],[32.4771,38.6649,1080.0896],[32.5025,38.645,1054.2167],[32.5182,38.6358,1076.6642],[32.5291,38.633,1074.6267],[32.575,38.6308,1080.8501],[32.5844,38.6271,1079.2271],[32.5928,38.6191,1082.1995],[32.5961,38.6076,1088.2849],[32.5957,38.5894,1093.7284],[32.5932,38.5776,1103.7928],[32.5836,38.561,1107.0067],[32.5811,38.5523,1108.6707],[32.5796,38.5308,1137.3669],[32.5803,38.4933,1128.5459],[32.5832,38.4815,1116.9786],[32.5913,38.4677,1055.7705],[32.5982,38.4467,1040.9308],[32.6108,38.4259,1039.8544],[32.6421,38.4224,1031.444],[32.7171,38.4229,1022.9626],[32.7734,38.4369,1001.0128],[32.791,38.4433,987.5574],[32.8122,38.4444,964.091],[32.8249,38.4405,959.8314],[32.8518,38.4251,955.9371],[32.8818,38.4185,952.1299],[32.939,38.3966,1044.5574],[32.9714,38.3778,998.5891],[33.0349,38.3537,989.0234],[33.0575,38.3519,978.8347],[33.1315,38.3524,963.2169],[33.1489,38.3548,961.4211],[33.1744,38.3626,958.1277],[33.2112,38.3641,956.7867],[33.2354,38.362,954.7693],[33.2608,38.354,954.5316],[33.3014,38.347,953.7654],[33.3016,38.3778,951.626],[33.3039,38.3859,951.7648],[33.3129,38.4026,946.6771],[33.3181,38.4295,940.984],[33.3273,38.4462,932.6484],[33.3341,38.4674,929.5359],[33.3425,38.4811,924.7853],[33.3492,38.5022,919.3435],[33.3575,38.516,916.5813],[33.3641,38.5373,908.2236],[33.3757,38.556399999999996,902.5]]]]}
,"properties": {"GID_2": "TUR.53.8_1","GID_0": "TUR","country": "Turkey","GID_1": "TUR.53_1","province": "Konya","NL_NAME_1": "NA","county": "Cihanbeyli","VARNAME_2": "NA","NL_NAME_2": "NA","TYPE_2": "District","ENGTYPE_2": "District","CC_2": "NA","HASC_2": "TR.KO.CI","name": "Cihanbeyli.county","area_km2": 4437.045,"hist_schema_id": "Elevation0-9000","hist_area_km2": {"900": 749.896,"925": 565.988,"950": 829.055,"975": 431.378,"1000": 192.475,"1025": 233.322,"1050": 324.526,"1075": 317.521,"1100": 208.61,"1125": 129.282,"1150": 126.165,"1175": 115.407,"1200": 55.588,"1225": 49.868,"1250": 43.457,"1275": 32.098,"1300": 22.958,"1325": 7.536,"1350": 1.847,"1375": 0.066}}}