{"type":"Feature","properties":{"GID_2":"TUR.70.6_1","GID_0":"TUR","country":"Turkey","GID_1":"TUR.70_1","province":"Sinop","NL_NAME_1":"NA","county":"Gerze","VARNAME_2":"NA","NL_NAME_2":"NA","TYPE_2":"District","ENGTYPE_2":"District","CC_2":"NA","HASC_2":"TR.SP.GE","name":"Gerze.county"},
"geometry":{"type": "MultiPolygon","coordinates": [[[[35.0947,41.5988,1146.6034],[35.1115,41.6022,1145.2224],[35.1388,41.6123,967.1097],[35.1479,41.6171,1061.4696],[35.1631,41.6298,957.4969],[35.1786,41.6515,867.6693],[35.1888,41.6599,1051.1105],[35.1979,41.6649,981.5419],[35.2125,41.6682,807.4475],[35.2551,41.6704,577.8705],[35.2802,41.6779,407.8824],[35.3071,41.6811,441.7084],[35.3151,41.6843,303.1503],[35.3182,41.6878,238.2923],[35.3241,41.7015,28.882],[35.3165,41.7043,2.0227],[35.3088,41.7046,39.2887],[35.3049,41.7071,0.0],[35.294,41.7093,10.2566],[35.276,41.716,6.2504],[35.2632,41.7268,14.2933],[35.2626,41.7324,0.0],[35.266,41.7363,5.9631],[35.2649,41.7382,0.0],[35.2443,41.7463,10.5197],[35.2385,41.751,1.3514],[35.229,41.754,1.3017],[35.2096,41.766,0.0],[35.2079,41.771,0.0],[35.2032,41.7746,0.6203],[35.2018,41.7821,0.0],[35.1974,41.7857,4.0559],[35.1968,41.789,0.0],[35.1935,41.7921,0.0],[35.1935,41.7962,0.0],[35.1954,41.7999,2.7289],[35.1999,41.8004,0.0],[35.2026,41.799,0.0],[35.2021,41.8013,2.6321],[35.2057,41.8013,0.5422],[35.2054,41.7999,0.0],[35.2068,41.7996,0.0],[35.2076,41.8024,0.0],[35.1985,41.8096,6.3722],[35.1888,41.8146,2.4015],[35.1799,41.816,6.0966],[35.1738,41.8196,0.7905],[35.1729,41.8224,0.0],[35.1688,41.824,0.0],[35.1601,41.8315,0.7845],[35.1604,41.8349,0.0],[35.1576,41.8407,0.0],[35.1507,41.841,6.0248],[35.1349,41.8529,49.4948],[35.1253,41.8665,14.4248],[35.1149,41.8627,109.26],[35.0885,41.838,169.7731],[35.0667,41.821,197.7205],[35.0521,41.8119,207.6141],[34.9886,41.7877,461.6172],[34.9464,41.7824,627.4607],[34.9163,41.7662,890.843],[34.8984,41.7588,866.6484],[34.8894,41.7514,1008.8391],[34.8865,41.7464,1037.7065],[34.8842,41.735,1162.0914],[34.8847,41.6927,1205.9656],[34.8867,41.6737,1178.7148],[34.9156,41.6591,1086.1434],[34.9494,41.6469,1079.2958],[34.9719,41.6452,1233.3641],[35.0301,41.6457,1084.2992],[35.0486,41.6431,995.72],[35.0609,41.6368,1147.3251],[35.0712,41.6284,1197.1897],[35.0847,41.6093,1016.9568],[35.0947,41.5988,1146.6034]]]]}}