{"type": "Feature","bbox": [29.9755,38.5456,30.4484,38.9248],"geometry": {"type": "MultiPolygon","coordinates": [[[[30.1026,38.6687,1896.4291],[30.2181,38.6689,1378.7955],[30.233,38.6672,1548.4209],[30.2429,38.6636,1413.8115],[30.2568,38.6545,1302.0713],[30.2741,38.6397,1203.9121],[30.2877,38.6206,1177.2528],[30.3079,38.6002,1210.6066],[30.325,38.5746,1453.2412],[30.3413,38.5456,1593.5723],[30.3677,38.56,1480.0691],[30.3966,38.5834,1571.0187],[30.4152,38.6111,1531.9526],[30.4312,38.6399,1554.4365],[30.4434,38.6554,1577.0182],[30.4474,38.6662,1578.7542],[30.4484,38.678,1628.7635],[30.4479,38.726,1484.3969],[30.4438,38.7398,1408.2664],[30.4153,38.7839,1127.9287],[30.393,38.8068,1162.7109],[30.3722,38.8397,1148.0872],[30.3646,38.848,1252.8933],[30.3416,38.8588,1407.179],[30.3152,38.8744,1503.4763],[30.2964,38.8819,1283.5942],[30.267,38.8992,1319.5062],[30.207,38.9223,1317.7843],[30.1782,38.9248,1253.3832],[30.1711,38.9026,1211.5684],[30.1508,38.8773,1198.0667],[30.1154,38.8209,1259.9911],[30.1094,38.8139,1273.0879],[30.0863,38.7954,1153.2788],[30.0748,38.7885,1157.2205],[29.9961,38.7585,1597.7849],[29.9755,38.7422,1570.6678],[30.0082,38.7202,1417.897],[30.0292,38.7117,1487.5594],[30.0561,38.6956,1430.3497],[30.0746,38.6889,1581.4825],[30.0959,38.6786,1725.3246],[30.0996,38.6751,1713.8433],[30.1026,38.6687,1896.4291]]]]}
,"properties": {"GID_2": "TUR.3.16_1","GID_0": "TUR","country": "Turkey","GID_1": "TUR.3_1","province": "Afyon","NL_NAME_1": "NA","county": "Sincanlı","VARNAME_2": "NA","NL_NAME_2": "NA","TYPE_2": "District","ENGTYPE_2": "District","CC_2": "NA","HASC_2": "TR.AF.SI","name": "Sincanlı.county","area_km2": 856.8202,"hist_schema_id": "Elevation0-9000","hist_area_km2": {"1050": 18.1613,"1075": 68.3563,"1100": 43.5124,"1125": 51.8308,"1150": 76.677,"1175": 73.8515,"1200": 61.816,"1225": 41.4235,"1250": 37.8745,"1275": 37.7098,"1300": 35.3163,"1325": 33.8371,"1350": 30.751,"1375": 27.9122,"1400": 24.6075,"1425": 21.5469,"1450": 18.9988,"1475": 19.1481,"1500": 19.0,"1525": 17.5102,"1550": 16.0536,"1575": 13.6697,"1600": 12.907,"1625": 10.6883,"1650": 9.5801,"1675": 8.8181,"1700": 7.5777,"1725": 5.7905,"1750": 3.7385,"1775": 2.7626,"1800": 2.2001,"1825": 0.976,"1850": 0.7279,"1875": 0.6452,"1900": 0.7775,"1925": 0.0662}}}