{"type": "Feature","bbox": [28.7222,37.9065,28.8697,38.0651],"geometry": {"type": "MultiPolygon","coordinates": [[[[28.7931,37.9065,461.7833],[28.8073,37.9173,228.286],[28.843,37.9682,492.3515],[28.859,37.9795,663.4611],[28.8697,37.9827,659.3022],[28.8681,37.9891,786.3846],[28.8631,37.998,1056.1826],[28.8518,38.0086,1050.4775],[28.7995,38.0478,1058.6606],[28.7635,38.062,1248.7675],[28.7431,38.0651,1214.2234],[28.7241,38.0429,1164.4702],[28.7222,38.0378,994.7817],[28.7228,38.0299,787.6963],[28.7749,37.9492,136.7559],[28.7825,37.9255,192.9215],[28.7931,37.9065,461.7833]]]]}
,"properties": {"GID_2": "TUR.11.2_1","GID_0": "TUR","country": "Turkey","GID_1": "TUR.11_1","province": "Aydin","NL_NAME_1": "NA","county": "Buharkent","VARNAME_2": "NA","NL_NAME_2": "NA","TYPE_2": "District","ENGTYPE_2": "District","CC_2": "NA","HASC_2": "TR.AY.BU","name": "Buharkent.county","area_km2": 113.31676,"hist_schema_id": "Elevation0-9000","hist_area_km2": {"125": 5.16708,"150": 6.13638,"175": 4.28002,"200": 3.59454,"225": 2.57445,"250": 1.52119,"275": 1.60474,"300": 1.38736,"325": 1.22016,"350": 1.25358,"375": 1.22012,"400": 1.30369,"425": 1.27024,"450": 1.40392,"475": 1.6713,"500": 1.48739,"525": 1.55421,"550": 1.4038,"575": 1.35358,"600": 1.20315,"625": 1.30336,"650": 1.35348,"675": 1.50384,"700": 1.85473,"725": 1.77115,"750": 2.10525,"775": 2.23885,"800": 2.33898,"825": 2.08831,"850": 2.38896,"875": 2.92342,"900": 2.33872,"925": 2.38881,"950": 3.12371,"975": 2.93997,"1000": 2.82301,"1025": 3.157,"1050": 2.65576,"1075": 3.49076,"1100": 3.741,"1125": 3.67387,"1150": 4.57537,"1175": 3.75716,"1200": 3.10609,"1225": 2.57175,"1250": 1.45294,"1275": 1.16905,"1300": 0.70144,"1325": 0.48432,"1350": 0.36742,"1375": 0.28391,"1400": 0.0334}}}