{"type": "Feature","bbox": [44.1609,39.9439,44.3397,40.05],"geometry": {"type": "MultiPolygon","coordinates": [[[[44.3336,40.0332,828.1569],[44.3193,40.0392,831.4763],[44.3098,40.0389,831.9896],[44.3023,40.0358,829.7386],[44.2974,40.0409,833.3004],[44.2885,40.0428,833.188],[44.2824,40.0484,834.7701],[44.2628,40.05,835.8195],[44.2419,40.0466,835.1997],[44.2376,40.0419,838.1325],[44.2299,40.0429,837.7189],[44.2229,40.0366,839.02739999999994],[44.2019,40.0375,841.2658],[44.1908,40.0342,842.626],[44.169,40.0315,845.3601],[44.1625,40.0332,847.7847],[44.1609,40.0327,848.0774],[44.1613,39.9987,846.0568],[44.166,39.9885,846.0066],[44.1866,39.978,843.5344],[44.223,39.9701,842.1372],[44.2533,39.9588,832.4277],[44.282,39.9439,828.8968],[44.3082,39.9864,830.1654],[44.3128,40.0023,831.124],[44.3166,40.0099,829.9817],[44.3397,40.0303,829.3687],[44.3336,40.0332,828.1569]]]]}
,"properties": {"GID_2": "TUR.38.2_1","GID_0": "TUR","country": "Turkey","GID_1": "TUR.38_1","province": "Iğdır","NL_NAME_1": "NA","county": "Karakoyunlu","VARNAME_2": "NA","NL_NAME_2": "NA","TYPE_2": "District","ENGTYPE_2": "District","CC_2": "NA","HASC_2": "TR.IG.KA","name": "Karakoyunlu.county","area_km2": 107.78971,"hist_schema_id": "Elevation0-9000","hist_area_km2": {"825": 67.47989,"850": 40.22857,"875": 0.08125}}}