{"type": "Feature","bbox": [32.0402,41.1818,32.354,41.349],"geometry": {"type": "MultiPolygon","coordinates": [[[[32.2463,41.349,458.1541],[32.2122,41.3424,410.7319],[32.1377,41.313,168.7297],[32.1241,41.3101,84.2351],[32.1059,41.3098,49.7808],[32.0918,41.3121,42.8969],[32.0631,41.3279,54.3578],[32.06,41.3074,243.4757],[32.0573,41.2994,333.2607],[32.0402,41.2768,134.6348],[32.047,41.2555,235.4024],[32.0519,41.2486,413.5862],[32.0618,41.2418,408.3626],[32.0888,41.2319,998.6511],[32.1216,41.2245,584.554],[32.131,41.2176,607.8168],[32.1404,41.2044,831.7405],[32.1468,41.1988,574.0176],[32.1805,41.1818,783.7463],[32.2086,41.2016,421.7512],[32.2988,41.2366,409.1987],[32.3197,41.2399,691.4412],[32.354,41.2385,240.6819],[32.3351,41.2618,366.9315],[32.3096,41.3018,700.5677],[32.2743,41.3306,697.6617],[32.2463,41.349,458.1541]]]]}
,"properties": {"GID_2": "TUR.81.5_1","GID_0": "TUR","country": "Turkey","GID_1": "TUR.81_1","province": "Zinguldak","NL_NAME_1": "NA","county": "Gökçebey","VARNAME_2": "NA","NL_NAME_2": "NA","TYPE_2": "District","ENGTYPE_2": "District","CC_2": "NA","HASC_2": "TR.ZO.GO","name": "Gökçebey.county","area_km2": 274.3199,"hist_schema_id": "Elevation0-9000","hist_area_km2": {"25": 0.0956,"50": 11.9951,"75": 8.9698,"100": 9.9438,"125": 7.7755,"150": 7.6324,"175": 7.5369,"200": 7.3301,"225": 7.3142,"250": 8.2703,"275": 8.0479,"300": 7.4742,"325": 8.2554,"350": 8.3351,"375": 9.3228,"400": 9.7208,"425": 10.4378,"450": 9.5932,"475": 8.717,"500": 8.9723,"525": 8.9561,"550": 8.0953,"575": 8.9717,"600": 8.175,"625": 8.4462,"650": 7.5856,"675": 7.682,"700": 6.5663,"725": 6.1045,"750": 4.9888,"775": 5.196,"800": 4.3514,"825": 4.0803,"850": 3.1239,"875": 3.0125,"900": 2.7095,"925": 2.2314,"950": 1.9443,"975": 1.6415,"1000": 1.3387,"1025": 0.9084,"1050": 0.9243,"1075": 0.6056,"1100": 0.3825,"1125": 0.3187,"1150": 0.1753,"1175": 0.0638}}}