{"type":"Feature","properties":{"GID_2":"TUR.61.3_1","GID_0":"TUR","country":"Turkey","GID_1":"TUR.61_1","province":"Nevsehir","NL_NAME_1":"NA","county":"Derinkuyu","VARNAME_2":"NA","NL_NAME_2":"NA","TYPE_2":"District","ENGTYPE_2":"District","CC_2":"NA","HASC_2":"TR.NV.DE","name":"Derinkuyu.county"},
"geometry":{"type": "MultiPolygon","coordinates": [[[[34.5221,38.3808,1302.3735],[34.5238,38.3778,1307.9347],[34.5278,38.3761,1306.8118],[34.5457,38.3767,1303.7996],[34.5665,38.3836,1399.5928],[34.6023,38.3877,1362.1821],[34.6532,38.407,1341.8171],[34.6707,38.4087,1381.761],[34.6843,38.4062,1391.5067],[34.7142,38.3941,1380.7224],[34.7552,38.366,1364.9406],[34.7852,38.3539,1422.1274],[34.7988,38.3511,1527.738],[34.8206,38.3512,1527.8821],[34.8311,38.353,1502.0769],[34.8522,38.3604,1521.1854],[34.8762,38.3647,1515.3809],[34.9037,38.3769,1510.6519],[34.9196,38.3982,1502.0901],[34.9218,38.4064,1432.1604],[34.9225,38.4206,1529.9513],[34.9008,38.4216,1526.8923],[34.8878,38.4255,1544.1589],[34.8532,38.4501,1575.4008],[34.8374,38.4654,1532.7594],[34.8353,38.4706,1520.2288],[34.8359,38.4785,1559.9001],[34.8446,38.4943,1533.7164],[34.8505,38.5217,1522.4525],[34.8582,38.5353,1359.6376],[34.86,38.5428,1309.4497],[34.8565,38.5527,1317.9897],[34.8367,38.5772,1310.6169],[34.822,38.5615,1410.8137],[34.8051,38.5363,1447.6672],[34.7915,38.5125,1486.3916],[34.7877,38.4927,1534.2266],[34.7861,38.4876,1453.1941],[34.7825,38.483,1465.5994],[34.7728,38.4792,1453.9761],[34.7614,38.4782,1455.3779],[34.6935,38.479,1446.0144],[34.6605,38.4776,1515.7411],[34.6256,38.4662,1787.0308],[34.6155,38.4613,1829.0919],[34.5841,38.4391,1532.2416],[34.5603,38.4293,1426.0699],[34.5446,38.4191,1431.0688],[34.5344,38.4085,1387.2935],[34.5221,38.3808,1302.3735]]]]}}