{"type":"Feature","properties":{"GID_2":"TUR.33.6_1","GID_0":"TUR","country":"Turkey","GID_1":"TUR.33_1","province":"Gaziantep","NL_NAME_1":"NA","county":"Oğuzeli","VARNAME_2":"NA","NL_NAME_2":"NA","TYPE_2":"District","ENGTYPE_2":"District","CC_2":"NA","HASC_2":"TR.GA.OG","name":"Oğuzeli.county"},
"geometry":{"type": "MultiPolygon","coordinates": [[[[37.7116,36.7449,510.4918],[37.7079,36.7455,515.2728],[37.7089,36.7568,519.8268],[37.7065,36.7704,522.4004],[37.7001,36.7781,526.1923],[37.6809,36.8085,536.1664],[37.6731,36.8168,544.2406],[37.6484,36.8287,552.5375],[37.642,36.8343,554.3375],[37.639,36.839,563.3955],[37.6343,36.8548,577.4386],[37.6254,36.8713,595.8705],[37.6229,36.8806,606.4493],[37.6219,36.8972,627.8815],[37.6223,36.9568,703.6958],[37.6025,36.9682,732.567],[37.5758,36.988,783.9399],[37.5643,36.9947,780.7391],[37.5506,36.998,786.1455],[37.5217,36.9996,777.6208],[37.5097,36.9919,712.7927],[37.4507,36.9472,710.5364],[37.4335,36.9324,725.3366],[37.4001,36.8811,685.5421],[37.3944,36.8509,678.0688],[37.3833,36.8292,650.4227],[37.3817,36.8006,608.8378],[37.4,36.8002,619.7527],[37.4105,36.7983,644.4684],[37.423,36.7921,678.4797],[37.4357,36.7814,744.529],[37.4536,36.753,597.1227],[37.4611,36.7293,567.1162],[37.4764,36.7059,545.9246],[37.4964,36.6854,525.4303],[37.5085,36.6554,572.6447],[37.521,36.6672,540.5765],[37.5343,36.6763,541.9424],[37.5782,36.6985,540.072],[37.6355,36.7207,506.8638],[37.6551,36.7314,514.8367],[37.674,36.7368,513.6761],[37.6945,36.7382,495.8713],[37.7116,36.7449,510.4918]]]]}}