{"type":"Feature","properties":{"featurecla":"River","scalerank":8,"rivernum":741,"dissolve":"741River","name":"Sakarya2","name_alt":null,"note":null,"min_zoom":7.0,"strokeweig":0.25,"name_en":"Sakarya","min_label":8.0},
"geometry":{"type": "LineString","coordinates": [[30.33154296875,40.62604401249412,61.2295],[30.333251953125,40.63214752811912,92.5702],[30.336816406250023,40.63764069218162,52.1184],[30.342480468750011,40.64301178593162,44.269],[30.3515625,40.64874909061912,47.4192],[30.3701171875,40.653680731244116,34.9767],[30.374121093750006,40.65704987186912,37.6721],[30.374609375,40.66120026249412,38.1826],[30.374121093750006,40.66766998905662,38.5294],[30.372949218750023,40.673211981244116,39.8458],[30.371191406250006,40.67475006718162,37.1113],[30.377197265625,40.68268463749412,38.2709],[30.38134765625,40.70136139530662,35.1364],[30.38427734375,40.70783112186912,35.6169],[30.388671875,40.71015045780662,42.3312],[30.400390625,40.712909246869117,37.208],[30.40478515625,40.71527741093162,36.3124],[30.407324218750006,40.71588776249412,36.0311],[30.415625,40.71454498905662,31.5],[30.41845703125,40.71527741093162,32.2731],[30.4189453125,40.71808502811912,33.5724],[30.417724609375,40.72601959843162,35.0772],[30.41845703125,40.728876043744116,35.0784],[30.423242187500023,40.735956121869116,31.7496],[30.424218750000023,40.741717840619117,34.8487],[30.424072265625,40.74774811405662,35.2221],[30.425878906250006,40.75556061405662,36.2696],[30.442138671875,40.797235418744116,29.5814],[30.454003906250023,40.81561920780662,25.8516],[30.4736328125,40.838739324994116,40.8511],[30.48876953125,40.84552643436912,26.0088],[30.499267578125,40.853290106244117,24.9499],[30.510839843750006,40.85858795780662,24.283],[30.525390625,40.86359284061912,24.5426],[30.526269531250023,40.863397528119116,23.8506],[30.548242187500023,40.871625067181618,23.3683],[30.574267578125017,40.872723699994118,23.1105],[30.578320312500011,40.874969793744114,23.5883],[30.592089843750017,40.889813543744118,21.5555],[30.597265625,40.89313385624412,22.1636],[30.597265625,40.900189520306618,107.0552],[30.590234375000023,40.915399481244116,50.9922],[30.589111328125,40.935834051556618,34.7027],[30.585058593750006,40.954022528119118,15.5703],[30.569433593750006,40.968475653119114,81.5099],[30.519726562500011,40.973675848431618,54.7918],[30.501953125,40.97772858280662,14.4157],[30.5146484375,40.98956940311912,11.6961],[30.5078125,41.00263092655662,18.9437],[30.519628906250006,40.998651434369116,12.4263],[30.528564453125,40.996844793744117,11.5115],[30.53662109375,40.998651434369116,10.9782],[30.5458984375,41.00604889530662,7.9605],[30.554589843750023,41.011004949994117,10.982],[30.567285156250023,41.014276434369116,10.5384],[30.578515625000023,41.013446356244117,8.5197],[30.58642578125,41.00079987186912,10.366],[30.593164062500023,41.00885651249412,7.7427],[30.61474609375,41.05841705936912,5.9801],[30.61767578125,41.07086823124412,41.9887],[30.610595703125,41.07623932499412,52.9945],[30.603759765625,41.083270574994117,3.4983],[30.598730468750006,41.090936590619116,5.1337],[30.59716796875,41.09821198124412,4.2618],[30.6005859375,41.106708074994117,62.9206],[30.606640625000011,41.103631903119116,67.4861],[30.613037109375,41.096307684369116,4.2985],[30.61767578125,41.09198639530662,4.3124],[30.633398437500006,41.091083074994117,39.2226],[30.6416015625,41.09552643436912,2.1658],[30.64501953125,41.10846588749412,0.2929],[30.645605468750006,41.132928778119116,0.0]]}}