{"type": "Feature","bbox": [29.9249,40.3352,31.0363,41.1793],"geometry": {"type": "MultiPolygon","coordinates": [[[[30.5429,40.3585,740.2497],[30.5765,40.3465,859.7696],[30.6004,40.3423,893.9026],[30.6238,40.3352,831.1445],[30.6393,40.3504,650.8608],[30.6455,40.3596,693.2536],[30.6469,40.3647,704.2961],[30.6474,40.3803,548.5591],[30.6444,40.3905,565.569],[30.6368,40.3993,632.6963],[30.5976,40.4293,605.532],[30.5933,40.4355,556.2656],[30.5934,40.4403,570.34],[30.5997,40.4484,600.7831],[30.6255,40.4694,964.9384],[30.6366,40.4857,1253.2709],[30.6426,40.492,1256.1235],[30.6762,40.5183,1318.1909],[30.8083,40.519,975.9863],[30.8413,40.5219,1319.308],[30.8592,40.5281,1393.1106],[30.8824,40.5325,933.5897],[30.8996,40.5376,1451.5432],[30.9108,40.5386,1503.2986],[30.9363,40.557,1113.0945],[30.9428,40.5641,774.5778],[30.9478,40.579,400.0962],[30.948,40.657,1393.8937],[30.9497,40.6698,1283.5972],[30.9546,40.6823,1077.0851],[30.9848,40.7109,1125.6462],[30.987,40.7148,1219.2238],[30.987,40.7193,1111.5654],[30.9771,40.7305,805.7759],[30.9346,40.7612,178.3392],[30.9162,40.7665,612.5582],[30.8927,40.7786,671.345],[30.8748,40.8139,384.3589],[30.8736,40.8353,326.2673],[30.8774,40.8466,346.6194],[30.9069,40.8972,395.7855],[30.9322,40.9116,301.8547],[30.9473,40.917,202.8597],[30.958,40.9228,302.3151],[31.0087,40.9615,464.5619],[31.0134,40.9744,318.3627],[31.0348,41.006,596.9515],[31.0363,41.0163,548.3904],[31.0339,41.0212,462.5477],[31.0277,41.0268,259.2605],[31.008,41.0352,40.0273],[30.9986,41.042,8.0189],[30.9759,41.0726,0.7197],[30.9132,41.0724,1.8249],[30.8665,41.0751,5.2819],[30.8143,41.0818,0.3258],[30.8065,41.084,0.0],[30.7771,41.0849,1.9462],[30.7654,41.0871,0.0],[30.7557,41.0863,1.6543],[30.7026,41.109,0.0],[30.6918,41.1118,4.5574],[30.6829,41.1174,0.0],[30.679,41.1168,2.2868],[30.6707,41.1224,0.0],[30.6604,41.1243,0.0],[30.6526,41.129,0.0],[30.6418,41.1279,0.0],[30.5718,41.1357,0.0],[30.491,41.1476,0.0],[30.4107,41.1654,1.3458],[30.3693,41.179,0.0],[30.3727,41.1763,3.1339],[30.3774,41.1627,15.3546],[30.3782,41.1457,49.3362],[30.3754,41.1377,32.7957],[30.3646,41.1281,22.6476],[30.3376,41.1161,61.5366],[30.3206,41.101,48.548],[30.3062,41.0774,71.5846],[30.3002,41.0473,115.4973],[30.2907,41.0311,92.8088],[30.2885,41.0203,49.9882],[30.2897,41.0121,44.0949],[30.2943,41.0045,69.3765],[30.3236,40.9792,83.8792],[30.3374,40.961,126.9247],[30.347,40.9543,244.1085],[30.3629,40.9503,208.1296],[30.364,40.9021,18.9186],[30.3668,40.8932,18.4084],[30.3761,40.8771,26.9284],[30.3769,40.8636,47.8357],[30.3732,40.856,93.8195],[30.3665,40.8503,99.7882],[30.3576,40.8467,54.3956],[30.3408,40.8439,23.0767],[30.3039,40.8323,38.6063],[30.2961,40.8275,29.1423],[30.2903,40.8212,24.3876],[30.2869,40.8096,19.8906],[30.2876,40.7883,86.4813],[30.2909,40.7769,236.623],[30.2988,40.7636,199.7215],[30.2994,40.7557,184.5729],[30.2945,40.7463,151.0298],[30.2789,40.7291,28.5],[30.27,40.6979,30.568],[30.2606,40.6815,85.9553],[30.2549,40.663,562.6417],[30.2454,40.6467,602.4191],[30.2421,40.6361,707.1189],[30.2286,40.6285,651.7456],[30.2183,40.6257,858.5397],[30.1681,40.6241,1236.3726],[30.1532,40.622,1245.6985],[30.1084,40.605,974.2508],[30.0783,40.5986,1140.827],[30.0268,40.5797,1149.1039],[30.0072,40.5779,1144.994],[29.9249,40.5775,1024.8878],[29.9273,40.5639,1009.1173],[29.9311,40.5535,969.1359],[29.938,40.542,1167.7925],[29.9448,40.5209,942.5098],[29.9549,40.5048,755.5604],[29.963,40.4843,833.7802],[29.9747,40.4718,446.9174],[30.0163,40.4384,312.7998],[30.0297,40.4301,405.7595],[30.0452,40.4245,93.6886],[30.0562,40.4185,294.3389],[30.1059,40.38,323.4874],[30.1227,40.3705,448.4095],[30.1379,40.3681,349.2621],[30.1583,40.3678,323.1239],[30.1872,40.3694,337.4947],[30.2169,40.3779,387.347],[30.2415,40.38,476.6577],[30.2579,40.3896,612.5999],[30.2957,40.402,573.9348],[30.3286,40.4036,534.6499],[30.3664,40.4032,555.6499],[30.3866,40.4014,589.5828],[30.4116,40.3935,442.8042],[30.4328,40.3905,458.5913],[30.4514,40.3909,387.4067],[30.4656,40.389,536.5368],[30.5429,40.3585,740.2497]]],
[[[30.3693,41.1793,0.0],[30.3689,41.1793,0.0],[30.3693,41.179,0.0],[30.3693,41.1793,0.0]]]]}
,"properties": {"GID_1": "TUR.66_1","GID_0": "TUR","country": "Turkey","province": "Sakarya","VARNAME_1": "NA","NL_NAME_1": "NA","TYPE_1": "Il","ENGTYPE_1": "Province","CC_1": "NA","HASC_1": "TR.SK","ISO_1": "TR-54","name": "Sakarya.province","area_km2": 4694.725,"hist_schema_id": "Elevation0-9000","hist_area_km2": {"0": 210.282,"25": 711.131,"50": 338.327,"75": 305.396,"100": 205.324,"125": 161.464,"150": 126.594,"175": 112.697,"200": 102.025,"225": 87.756,"250": 83.04,"275": 80.251,"300": 74.878,"325": 72.411,"350": 67.72,"375": 65.107,"400": 62.097,"425": 64.801,"450": 70.793,"475": 73.095,"500": 75.917,"525": 77.267,"550": 75.212,"575": 72.889,"600": 70.672,"625": 67.365,"650": 62.618,"675": 62.6,"700": 61.588,"725": 57.728,"750": 61.335,"775": 61.725,"800": 55.921,"825": 51.187,"850": 46.696,"875": 42.799,"900": 39.79,"925": 37.828,"950": 35.914,"975": 34.061,"1000": 33.849,"1025": 32.03,"1050": 30.451,"1075": 30.129,"1100": 34.993,"1125": 38.216,"1150": 37.656,"1175": 33.067,"1200": 29.763,"1225": 23.58,"1250": 23.178,"1275": 21.101,"1300": 16.638,"1325": 11.964,"1350": 10.175,"1375": 9.547,"1400": 8.805,"1425": 8.482,"1450": 8.818,"1475": 6.871,"1500": 6.291,"1525": 4.424,"1550": 3.266,"1575": 1.834,"1600": 1.367,"1625": 0.756,"1650": 0.579,"1675": 0.354,"1700": 0.193,"1725": 0.048}}}