{"type":"Feature","properties":{"ISO3166-1-Alpha-3":"TUR","country":"Turkey","fill":"#F00","id":"2267","name":"Sakarya"},
"geometry":{"type": "Polygon","coordinates": [[[30.95587,41.0824,0.0],[30.83326,41.0799,0.0],[30.74806,41.09199,0.0],[30.73243,41.09943,0.0],[30.69923,41.12153,0.0],[30.42929,41.17056,0.0],[30.42929,41.17054,0.0],[30.42422,41.15558,6.2296],[30.39208,41.09408,54.5491],[30.40985,41.04328,108.4426],[30.48293,41.03295,151.1623],[30.48799,41.00029,20.5479],[30.46525,40.96939,31.2169],[30.45915,40.93569,15.0128],[30.44107,40.93308,16.5125],[30.38495,40.93171,48.6948],[30.3528,40.94355,93.164],[30.31291,40.95006,170.9816],[30.29493,40.94114,166.8774],[30.30309,40.91926,100.1775],[30.31694,40.91606,131.8888],[30.32893,40.91027,84.9856],[30.26402,40.85717,53.5942],[30.22392,40.70863,28.5],[30.183,40.64633,566.8254],[30.12501,40.61698,1243.792],[30.05887,40.60548,1024.6083],[30.02817,40.59114,967.4438],[29.99572,40.58181,1316.0848],[29.92616,40.57703,1036.2821],[29.93102,40.5545,950.6736],[29.94084,40.53355,1003.2903],[29.96885,40.48869,772.7483],[30.00461,40.44774,275.9332],[30.04399,40.42205,137.4193],[30.08099,40.39144,341.1093],[30.16915,40.37097,388.069],[30.30754,40.39901,503.0452],[30.35074,40.40208,442.6575],[30.38743,40.3942,458.6587],[30.42629,40.39405,369.1314],[30.45771,40.37906,595.613],[30.48127,40.35056,718.1891],[30.49853,40.33955,662.2025],[30.57357,40.341,707.6144],[30.62597,40.33149,883.0658],[30.64478,40.36725,777.9637],[30.62162,40.40299,591.8673],[30.60106,40.42286,549.5439],[30.59496,40.44888,625.4373],[30.60685,40.45882,748.1752],[30.62245,40.46616,850.9829],[30.65005,40.52833,1278.3533],[30.69077,40.57437,407.7367],[30.76074,40.5721,401.7396],[30.82523,40.59579,549.0872],[30.83732,40.62548,1429.026],[30.8305,40.6569,1364.0629],[30.82781,40.68896,606.2697],[30.89117,40.72679,1000.0875],[30.91246,40.75756,360.6396],[30.89293,40.78035,636.796],[30.88311,40.80723,266.9178],[30.89613,40.83518,334.4886],[30.89334,40.86552,460.0274],[30.87649,40.8919,376.5706],[30.86936,40.92226,645.3682],[30.90429,40.98158,84.7412],[30.96166,41.02204,96.3749],[30.96031,41.04395,41.8072],[30.95463,41.07258,0.9169],[30.95587,41.08235,0.0],[30.95587,41.0824,0.0]]]}}