{"type":"Feature","properties":{"GID_2":"TUR.3.2_1","GID_0":"TUR","country":"Turkey","GID_1":"TUR.3_1","province":"Afyon","NL_NAME_1":"NA","county":"Bayat","VARNAME_2":"NA","NL_NAME_2":"NA","TYPE_2":"District","ENGTYPE_2":"District","CC_2":"NA","HASC_2":"TR.AF.BT","name":"Bayat.county"},
"geometry":{"type": "MultiPolygon","coordinates": [[[[31.0475,38.8828,1234.5188],[31.0494,38.9105,1193.4788],[31.0478,38.929,1322.0017],[31.0368,38.9512,1283.421],[31.0307,38.9695,1380.8838],[31.0226,38.9833,1356.5571],[31.0193,38.9984,1357.2444],[31.0189,39.0236,1013.6072],[31.0205,39.0423,1010.9788],[31.0232,39.0511,1010.2849],[31.0311,39.0648,1004.4856],[31.0331,39.0755,1073.7133],[31.0311,39.0862,1277.0647],[31.0233,39.0999,1213.6074],[31.0203,39.1118,1216.5613],[31.0202,39.1752,1095.5983],[30.9922,39.1601,1115.7904],[30.9836,39.1585,1188.8264],[30.9753,39.1593,1178.0504],[30.9615,39.1665,1205.114],[30.8997,39.2153,1097.3599],[30.886,39.2129,1165.2283],[30.8557,39.2016,1227.3969],[30.8288,39.1856,1230.7451],[30.8076,39.1771,1307.5737],[30.7897,39.1649,1481.8149],[30.7803,39.1539,1548.8175],[30.7692,39.1355,1765.2986],[30.7666,39.1285,1606.1089],[30.7762,39.1097,1455.6748],[30.7805,39.0936,1482.8569],[30.7837,39.0859,1493.2461],[30.7989,39.0625,1558.7008],[30.8212,39.0397,1588.3634],[30.8666,38.9701,1234.3923],[30.8821,38.9438,1358.1151],[30.8845,38.9262,1397.2404],[30.8837,38.8929,1334.1938],[30.88,38.8787,1568.2632],[30.8704,38.8629,1415.1901],[30.8693,38.8553,1455.4492],[30.8718,38.8482,1359.892],[30.8792,38.8436,1279.1672],[30.9124,38.8403,1296.2878],[30.9372,38.8298,1316.1279],[30.9432,38.8214,1428.8527],[30.9472,38.7918,1518.0925],[30.9647,38.7969,1381.476],[30.9718,38.8011,1349.2976],[30.9849,38.8178,1331.2295],[30.9957,38.8348,1144.2283],[31.0375,38.8692,1233.8364],[31.0438,38.876,1222.1326],[31.0475,38.8828,1234.5188]]]]}}