{"type":"Feature","properties":{"GID_2":"TUR.78.7_1","GID_0":"TUR","country":"Turkey","GID_1":"TUR.78_1","province":"Van","NL_NAME_1":"NA","county":"Gevaş","VARNAME_2":"NA","NL_NAME_2":"NA","TYPE_2":"District","ENGTYPE_2":"District","CC_2":"NA","HASC_2":"TR.VA.GE","name":"Gevaş.county"},
"geometry":{"type": "MultiPolygon","coordinates": [[[[42.799,38.1684,2128.73],[42.826,38.1801,2733.7778],[42.8684,38.1828,3021.6643],[42.8795,38.185,3047.9612],[42.9057,38.1995,3035.7966],[42.9187,38.2027,3197.6562],[42.9284,38.2015,3224.564],[42.9499,38.1952,3149.0337],[42.9961,38.1915,2483.062],[43.025,38.183,2396.447],[43.0799,38.1802,2242.9919],[43.1232,38.1971,3073.9365],[43.1466,38.2112,2965.6338],[43.1682,38.2205,2635.7305],[43.1976,38.2377,2293.3301],[43.2315,38.25,2106.0728],[43.2552,38.2517,1933.2622],[43.4253,38.2517,2048.9587],[43.4215,38.2766,1808.1511],[43.423,38.3025,1768.1229],[43.4268,38.3114,1758.1821],[43.445,38.3348,1759.0693],[43.4209,38.3422,1786.3812],[43.3817,38.3465,1993.1702],[43.3607,38.3537,2189.8691],[43.3498,38.3556,2211.217],[43.2877,38.3557,2162.9993],[43.2568,38.3498,1792.8223],[43.2335,38.3546,1754.3203],[43.2051,38.3571,1789.3438],[43.1949,38.36,1697.9714],[43.1829,38.3669,1678.8354],[43.1445,38.3958,1647.5],[43.1198,38.4065,1647.5],[43.1083,38.4138,1647.5],[43.0986,38.4225,1647.5],[43.0891,38.4367,1647.5],[43.0807,38.4445,1647.5],[43.0329,38.4631,1647.5],[43.0193,38.471,1647.5],[43.0062,38.4831,1647.5],[42.9935,38.5017,1647.5],[42.9669,38.5231,1647.5],[42.911,38.5481,1647.5],[42.8963,38.5309,1647.5],[42.8713,38.5125,1647.5],[42.7296,38.4582,1647.5],[42.7187,38.4518,1647.5],[42.6962,38.4345,1647.5],[42.6878,38.423,1840.7283],[42.6857,38.409,1884.7183],[42.6879,38.3951,2009.0171],[42.7129,38.3556,1861.6577],[42.7185,38.337,2263.9458],[42.7297,38.3154,2482.8765],[42.7329,38.2932,2193.6768],[42.7392,38.2773,2090.9285],[42.7392,38.2729,2229.9595],[42.7286,38.244,2811.3357],[42.7176,38.2253,2798.6904],[42.7164,38.2143,2738.0708],[42.7185,38.2061,3014.8125],[42.7311,38.1923,3033.2231],[42.7557,38.1753,3102.6658],[42.769,38.171,2838.0483],[42.799,38.1684,2128.73]]]]}}