{"type":"Feature","properties":{"GID_2":"TUR.46.11_1","GID_0":"TUR","country":"Turkey","GID_1":"TUR.46_1","province":"Kastamonu","NL_NAME_1":"NA","county":"Hanönü","VARNAME_2":"NA","NL_NAME_2":"NA","TYPE_2":"District","ENGTYPE_2":"District","CC_2":"NA","HASC_2":"TR.KS.HA","name":"Hanönü.county"},
"geometry":{"type": "MultiPolygon","coordinates": [[[[34.4651,41.5409,1199.6431],[34.4806,41.5444,1282.9045],[34.5109,41.5561,1241.8639],[34.5466,41.5805,1034.3484],[34.5671,41.5925,1006.9346],[34.5804,41.6092,650.1165],[34.5962,41.6349,434.9203],[34.5989,41.6459,556.3934],[34.5993,41.669,1066.308],[34.589,41.673,1311.5464],[34.573,41.6889,1188.2126],[34.5564,41.7003,1274.8923],[34.4931,41.7248,1486.5935],[34.4737,41.7272,1305.3872],[34.4169,41.7281,1450.8575],[34.4056,41.73,1452.1633],[34.381,41.7377,1317.3082],[34.3409,41.7411,1344.894],[34.3158,41.7393,1718.2476],[34.2691,41.7391,1568.8649],[34.2686,41.7072,1083.4321],[34.2722,41.6937,1195.736],[34.2803,41.6857,1122.267],[34.2999,41.677,1348.535],[34.3092,41.6701,1176.9838],[34.3486,41.6095,524.3423],[34.3668,41.5914,562.728],[34.3785,41.5744,986.3138],[34.4036,41.5481,1130.8693],[34.4105,41.5433,1183.0643],[34.4199,41.5412,1196.7109],[34.4651,41.5409,1199.6431]]]]}}