{"type":"Feature","properties":{"GID_2":"TUR.32.3_1","GID_0":"TUR","country":"Turkey","GID_1":"TUR.32_1","province":"Eskisehir","NL_NAME_1":"NA","county":"Çifteler","VARNAME_2":"NA","NL_NAME_2":"NA","TYPE_2":"District","ENGTYPE_2":"District","CC_2":"NA","HASC_2":"TR.ES.CI","name":"Çifteler.county"},
"geometry":{"type": "MultiPolygon","coordinates": [[[[31.0202,39.1752,1095.5983],[31.0487,39.1823,1048.7391],[31.1419,39.2185,903.0917],[31.1613,39.2314,909.3434],[31.2165,39.2748,853.941],[31.2313,39.2828,856.1974],[31.2418,39.2845,844.9246],[31.2524,39.2841,843.9296],[31.28,39.2752,834.1416],[31.3053,39.2732,829.4359],[31.322,39.2816,830.1644],[31.3431,39.2868,838.5013],[31.3489,39.2925,851.2792],[31.3514,39.3026,865.1057],[31.3505,39.3339,842.8848],[31.3477,39.3421,857.9372],[31.3419,39.3495,855.284],[31.3315,39.3578,860.6065],[31.2978,39.3732,842.869],[31.2714,39.393,866.1615],[31.2631,39.4021,877.5897],[31.2261,39.461,918.2936],[31.2145,39.4721,937.3662],[31.1931,39.4886,942.957],[31.1687,39.4791,918.2957],[31.1453,39.465,886.8766],[31.1237,39.4557,866.08],[31.0942,39.4386,887.6628],[31.0304,39.4146,893.7101],[31.0066,39.4129,879.4219],[30.9128,39.4137,905.1605],[30.9013,39.4156,911.097],[30.855,39.4314,924.5547],[30.8542,39.3536,1046.7417],[30.8516,39.3444,1035.3264],[30.834,39.312,1142.483],[30.8752,39.2812,1113.4814],[30.8973,39.261,1061.7798],[30.9105,39.2399,1075.3506],[30.9147,39.2269,1046.8997],[30.8997,39.2153,1097.3599],[30.9615,39.1665,1205.114],[30.9753,39.1593,1178.0504],[30.9892,39.1592,1136.3876],[31.0202,39.1752,1095.5983]]]]}}