{"type":"Feature","properties":{"GID_2":"TUR.41.6_1","GID_0":"TUR","country":"Turkey","GID_1":"TUR.41_1","province":"Izmir","NL_NAME_1":"NA","county":"Bornova","VARNAME_2":"NA","NL_NAME_2":"NA","TYPE_2":"District","ENGTYPE_2":"District","CC_2":"NA","HASC_2":"TR.IZ.BO","name":"Bornova.county"},
"geometry":{"type": "MultiPolygon","coordinates": [[[[27.28,38.5722,512.2292],[27.233,38.5568,1052.4553],[27.2205,38.5554,883.8686],[27.2102,38.55,759.1417],[27.1839,38.545,764.2523],[27.1613,38.545,688.1022],[27.1636,38.5394,657.2373],[27.1612,38.5292,453.1082],[27.1555,38.5186,348.2426],[27.1531,38.5073,252.5865],[27.1527,38.4926,158.1183],[27.1545,38.4862,251.5271],[27.1612,38.4834,229.3046],[27.1863,38.4826,128.7187],[27.1851,38.4817,85.6446],[27.2002,38.4736,74.5128],[27.2052,38.4679,34.64],[27.2059,38.4605,26.8768],[27.2034,38.4531,15.4087],[27.1988,38.4464,9.5894],[27.1935,38.4436,8.0621],[27.1847,38.4439,5.4127],[27.1864,38.4174,120.1286],[27.1909,38.4042,278.9197],[27.1806,38.3935,142.9046],[27.1874,38.3804,119.9012],[27.2488,38.381,244.4376],[27.2703,38.388,577.0208],[27.2907,38.3979,950.8267],[27.2984,38.404,918.8865],[27.3026,38.4147,515.1119],[27.2939,38.4379,123.9394],[27.3105,38.4413,367.4207],[27.3466,38.4557,339.7975],[27.3655,38.4712,217.3585],[27.3776,38.4912,367.314],[27.3776,38.498,417.7215],[27.3724,38.5037,429.5962],[27.3335,38.5189,610.3178],[27.3291,38.522,564.4418],[27.327,38.5264,596.4016],[27.3273,38.5313,654.4006],[27.3361,38.5464,574.1554],[27.3425,38.5648,414.8703],[27.3542,38.5776,309.9903],[27.3495,38.5849,256.6315],[27.3383,38.5883,483.5303],[27.3251,38.5872,610.8389],[27.28,38.5722,512.2292]]]]}}