{"type":"Feature","properties":{"GID_2":"TUR.7.17_1","GID_0":"TUR","country":"Turkey","GID_1":"TUR.7_1","province":"Ankara","NL_NAME_1":"NA","county":"Keçiören","VARNAME_2":"NA","NL_NAME_2":"NA","TYPE_2":"District","ENGTYPE_2":"District","CC_2":"NA","HASC_2":"TR.AN.KE","name":"Keçiören.county"},
"geometry":{"type": "MultiPolygon","coordinates": [[[[32.9667,40.0263,1143.7064],[32.9506,40.0469,921.9006],[32.931,40.0602,1052.9635],[32.9206,40.0628,964.0848],[32.9101,40.063,1006.202],[32.8867,40.0575,1128.5764],[32.8783,40.058,1134.123],[32.8546,40.0652,1221.9948],[32.8281,40.0759,1363.0034],[32.815,40.0838,1398.1182],[32.7978,40.1087,1347.1136],[32.7948,40.1165,1306.1072],[32.7935,40.1365,1317.6055],[32.7948,40.175,1315.3308],[32.7736,40.1639,1344.5342],[32.7575,40.1515,1223.7791],[32.7512,40.1445,1122.8031],[32.7356,40.1183,1156.5663],[32.7339,40.1094,1205.8232],[32.7337,40.0754,1363.8663],[32.7451,40.0626,1236.1689],[32.753,40.0391,1178.3596],[32.766,40.0182,945.759],[32.772,40.0121,925.9337],[32.7798,40.0074,911.7292],[32.8764,39.9712,892.6125],[32.8938,39.99,924.6385],[32.9213,40.0108,988.8299],[32.9324,40.016,962.7322],[32.9667,40.0263,1143.7064]]]]}}