{"type": "Feature","bbox": [41.5222,38.0125,43.1982,39.0955],"geometry": {"type": "MultiPolygon","coordinates": [[[[42.2699,38.2008,2131.3577],[42.2982,38.1878,2172.9407],[42.3135,38.1734,2315.6619],[42.3291,38.1618,2126.5798],[42.3717,38.1384,1175.9066],[42.3929,38.1332,1120.5345],[42.4077,38.1263,1359.5801],[42.4497,38.1224,1468.416],[42.4678,38.1149,1711.9683],[42.4981,38.11,1571.5953],[42.512,38.1024,1951.8296],[42.5403,38.0901,1566.6559],[42.5937,38.0692,2040.233],[42.6242,38.0633,1614.3472],[42.6543,38.0519,1935.3303],[42.6839,38.0342,2709.1016],[42.702,38.0268,2391.8813],[42.7276,38.0125,1353.2258],[42.7391,38.0135,1635.0916],[42.7624,38.022,1974.3051],[42.8012,38.0489,2410.5352],[42.8223,38.0575,1955.7184],[42.8357,38.0655,2169.3257],[42.812,38.0853,1754.9517],[42.8007,38.1016,1928.7061],[42.7817,38.1199,2262.7427],[42.7773,38.1272,1783.4412],[42.7761,38.1382,2042.2241],[42.7783,38.1463,2328.7107],[42.799,38.1684,2128.73],[42.769,38.171,2838.0483],[42.7557,38.1753,3102.6658],[42.7311,38.1923,3033.2231],[42.7185,38.2061,3014.8125],[42.7164,38.2143,2738.0708],[42.7176,38.2253,2798.6904],[42.7286,38.244,2811.3357],[42.7392,38.2729,2229.9595],[42.7392,38.2773,2090.9285],[42.7329,38.2932,2193.6768],[42.7297,38.3154,2482.8765],[42.7185,38.337,2263.9458],[42.7129,38.3556,1861.6577],[42.6879,38.3951,2009.0171],[42.6857,38.409,1884.7183],[42.6878,38.423,1840.7283],[42.6962,38.4345,1647.5],[42.7187,38.4518,1647.5],[42.7296,38.4582,1647.5],[42.8656,38.5098,1647.5],[42.8892,38.5249,1647.5],[42.9028,38.5373,1647.5],[42.9243,38.5668,1647.5],[42.9389,38.5903,1647.5],[42.9462,38.6143,1647.5],[42.9597,38.6148,1647.5],[42.9645,38.6179,1647.5],[42.9645,38.6213,1647.5],[42.9761,38.6372,1647.5],[42.9975,38.6579,1647.5],[43.0089,38.6744,1647.5],[43.0406,38.702,1647.5],[43.0561,38.7233,1647.5],[43.0847,38.7455,1647.5],[43.1122,38.7574,1647.5],[43.1453,38.78,1647.5],[43.1742,38.7937,1647.5],[43.182,38.802,1647.5],[43.1938,38.8203,1647.5],[43.1968,38.8282,1647.5],[43.1982,38.8423,1647.5],[43.1979,38.8802,1647.5],[43.1278,38.9334,1647.5],[43.0192,38.9751,1857.6829],[43.0114,38.9798,1835.4324],[43.0057,38.9862,1988.585],[43.0022,38.9998,2159.8604],[43.0033,39.0314,2173.1016],[43.0062,39.0423,2145.7422],[43.0165,39.0613,2072.8604],[43.0225,39.0955,1851.0492],[42.9895,39.0873,1780.7557],[42.9716,39.081,1777.7045],[42.9333,39.0762,1803.6682],[42.9042,39.0678,1826.0085],[42.8279,39.0651,1859.8368],[42.7498,39.0371,1919.2498],[42.7486,39.025,2013.9445],[42.7501,39.0126,2108.6301],[42.7601,38.9928,2274.6367],[42.766,38.966,2469.2996],[42.7741,38.9511,2768.1509],[42.7732,38.9442,2811.188],[42.7661,38.9393,2723.8101],[42.7382,38.9361,2469.1372],[42.7164,38.9296,2357.4609],[42.7047,38.9278,2289.8135],[42.6844,38.9269,2235.2651],[42.6102,38.9277,2217.0322],[42.5986,38.9298,2134.519],[42.5612,38.9434,2097.2275],[42.5477,38.9405,2132.2534],[42.5289,38.9393,2112.5095],[42.5154,38.9295,2219.5347],[42.4896,38.9267,2201.7363],[42.441,38.9284,2184.0742],[42.4122,38.9371,2258.9175],[42.3968,38.9388,2213.052],[42.3404,38.9393,2064.3276],[42.3169,38.9375,1946.4613],[42.3101,38.9356,1931.7502],[42.14,38.8703,1874.8722],[42.1459,38.8566,2109.4321],[42.1476,38.8406,2170.3545],[42.1442,38.829,2019.0669],[42.1366,38.8239,2043.8989],[42.1188,38.8219,2056.2939],[42.0239,38.8231,1711.3224],[42.0098,38.8199,1626.3589],[42.0021,38.8148,1587.3868],[41.9965,38.805,1550.6792],[41.9967,38.794,1519.4148],[41.9988,38.7886,1663.0343],[42.005,38.7811,1744.8815],[42.0364,38.7545,1886.1853],[42.054,38.7287,1772.7771],[42.0613,38.7134,1724.6344],[42.0562,38.6948,1809.6517],[42.0208,38.6679,1279.0514],[41.9888,38.6534,1278.0852],[41.9405,38.6181,1288.0477],[41.8975,38.6027,1489.3827],[41.8745,38.5926,1560.0221],[41.8633,38.5905,1611.0426],[41.832,38.5903,1706.8318],[41.8207,38.5918,1616.7698],[41.7993,38.599,1790.2539],[41.7675,38.602,1837.9731],[41.652,38.6021,2131.6831],[41.6217,38.5995,2027.4037],[41.6069,38.5943,2005.363],[41.5836,38.5896,2326.3665],[41.5702,38.585,2126.2539],[41.5443,38.5666,1740.1089],[41.5342,38.5572,2012.5627],[41.5222,38.5419,2118.1565],[41.575,38.5438,1870.6411],[41.5927,38.5402,1737.9905],[41.6079,38.531,1710.6578],[41.618899999999996,38.5224,1604.8263],[41.6286,38.513,1955.5597],[41.6335,38.5052,2171.0039],[41.6391,38.4867,2112.8391],[41.6479,38.4701,2263.2529],[41.6526,38.4426,1799.9937],[41.6624,38.4211,1884.1699],[41.6668,38.3878,1790.7042],[41.6776,38.3649,1788.6166],[41.6791,38.3585,1605.9033],[41.6797,38.2235,1267.4033],[41.6782,38.2068,974.0597],[41.6749,38.1952,915.0513],[41.7196,38.1927,936.6858],[41.7649,38.1773,1074.6189],[41.81,38.1692,734.3217],[41.8347,38.1612,849.4788],[41.8848,38.1574,1327.2644],[41.9061,38.1501,1299.3708],[41.9166,38.1483,1273.0179],[41.9383,38.1485,1224.6895],[41.9655,38.1564,1151.8911],[41.979,38.1563,790.4134],[41.9884,38.1524,999.1238],[42.0259,38.1295,1177.4282],[42.0427,38.1584,1381.6367],[42.0485,38.1652,1533.2249],[42.0868,38.1957,1717.2882],[42.1015,38.2034,1933.5471],[42.1406,38.2079,1840.6892],[42.1688,38.2164,2058.4114],[42.1883,38.2177,1911.7319],[42.2191,38.215,1844.217],[42.2402,38.2078,2184.415],[42.2699,38.2008,2131.3577]]]]}
,"properties": {"GID_1": "TUR.18_1","GID_0": "TUR","country": "Turkey","province": "Bitlis","VARNAME_1": "NA","NL_NAME_1": "NA","TYPE_1": "Il","ENGTYPE_1": "Province","CC_1": "NA","HASC_1": "TR.BT","ISO_1": "TR-13","name": "Bitlis.province","area_km2": 8664.164,"hist_schema_id": "Elevation0-9000","hist_area_km2": {"725": 0.367,"750": 1.317,"775": 2.583,"800": 4.466,"825": 6.315,"850": 6.881,"875": 7.947,"900": 8.529,"925": 9.827,"950": 10.276,"975": 10.176,"1000": 10.909,"1025": 12.44,"1050": 13.523,"1075": 14.839,"1100": 14.504,"1125": 16.719,"1150": 16.601,"1175": 21.047,"1200": 29.375,"1225": 35.212,"1250": 39.186,"1275": 83.25,"1300": 77.199,"1325": 65.668,"1350": 67.069,"1375": 66.652,"1400": 66.375,"1425": 67.544,"1450": 70.786,"1475": 75.262,"1500": 82.544,"1525": 86.0,"1550": 90.929,"1575": 92.044,"1600": 94.108,"1625": 99.146,"1650": 1978.056,"1675": 241.098,"1700": 197.099,"1725": 193.014,"1750": 178.991,"1775": 234.899,"1800": 249.142,"1825": 298.739,"1850": 225.064,"1875": 219.03,"1900": 204.277,"1925": 189.201,"1950": 188.942,"1975": 182.598,"2000": 173.203,"2025": 163.297,"2050": 152.482,"2075": 137.934,"2100": 139.721,"2125": 124.703,"2150": 115.322,"2175": 109.456,"2200": 109.466,"2225": 133.166,"2250": 114.397,"2275": 87.274,"2300": 75.001,"2325": 69.727,"2350": 68.159,"2375": 62.12,"2400": 62.678,"2425": 52.401,"2450": 45.025,"2475": 39.676,"2500": 33.128,"2525": 30.127,"2550": 27.878,"2575": 24.397,"2600": 22.318,"2625": 19.71,"2650": 18.396,"2675": 18.031,"2700": 16.948,"2725": 16.556,"2750": 13.661,"2775": 13.031,"2800": 12.2,"2825": 10.456,"2850": 9.011,"2875": 7.532,"2900": 5.97,"2925": 5.638,"2950": 4.327,"2975": 4.506,"3000": 4.24,"3025": 4.023,"3050": 4.205,"3075": 4.002,"3100": 3.109,"3125": 2.793,"3150": 2.346,"3175": 1.898,"3200": 1.634,"3225": 1.435,"3250": 1.402,"3275": 1.419,"3300": 1.353,"3325": 1.452,"3350": 1.336,"3375": 1.254,"3400": 1.287,"3425": 0.891,"3450": 1.056,"3475": 1.237,"3500": 0.874,"3525": 1.287,"3550": 0.825,"3575": 0.858,"3600": 0.726,"3625": 0.94,"3650": 0.825,"3675": 0.561,"3700": 0.627,"3725": 0.775,"3750": 0.66,"3775": 0.709,"3800": 0.561,"3825": 0.858,"3850": 0.907,"3875": 0.66,"3900": 0.462,"3925": 0.379,"3950": 0.247,"3975": 0.429,"4000": 0.495,"4025": 0.33}}}