{"type": "Feature","id": 141179.0,"bbox": [42.216075066021233,38.848944403119077,42.333506706646233,38.910162664837827],"geometry": {"type": "Polygon","coordinates": [[[42.228526237896233,38.857550360150327,1812.5],[42.228526237896233,38.857550360150327,1812.5],[42.257090691021233,38.848944403119077,1812.5],[42.277842644146233,38.849554754681577,1812.5],[42.301036003521233,38.851324774212827,1812.5],[42.331675651958733,38.854864813275327,1812.5],[42.333506706646233,38.884894110150327,1832.2905],[42.314952019146233,38.910162664837827,1842.1892],[42.296031120708733,38.897955633587827,1985.2362],[42.250498894146233,38.879278875775327,1952.895],[42.216075066021233,38.868292547650327,1897.1161],[42.228526237896233,38.857550360150327,1812.5]]]}
,"properties": {"name": null,"lge_id": null,"pfafstette": 421.0,"lke_type": null,"altitude": 1813,"objectid": 88378,"scalerank": 11,"featurecla": "Lake","note": "_untitled_88378","funkyname": 0,"min_zoom": 6.7,"min_label": 7.7,"area_km2": 39.36896,"hist_schema_id": "Elevation0-9000","hist_area_km2": {"1825": 31.99146,"1850": 1.15533,"1875": 1.36993,"1900": 1.56797,"1925": 1.1388,"1950": 0.9077,"1975": 0.54461,"2000": 0.56114,"2025": 0.11553,"2050": 0.0165}}}