{"type": "Feature","id": "2311","bbox": [41.53124,37.9442,43.16122,39.10407],"geometry": {"type": "Polygon","coordinates": [[[42.78688,38.18113,2030.7112],[42.73355,38.19591,3172.2456],[42.71577,38.24596,2759.1011],[42.72528,38.28118,1969.8376],[42.72363,38.3072,2390.8677],[42.71918,38.31999,2688.0381],[42.68425,38.38314,2228.2039],[42.67805,38.40489,1886.7336],[42.68766,38.44716,1647.5],[42.7043,38.46184,1647.5],[42.81158,38.50897,1647.5],[42.87535,38.54421,1647.5],[42.89633,38.57178,1647.5],[42.91359,38.60273,1647.5],[43.00495,38.7103,1647.5],[43.06045,38.75526,1647.5],[43.13197,38.79944,1647.5],[43.16122,38.87228,1661.3081],[43.1205,38.92228,1647.5],[43.00361,38.97726,1869.2568],[42.97322,39.02808,1905.5734],[42.97198,39.10407,1790.306],[42.78739,39.07185,1753.1261],[42.75391,39.05136,1790.4071],[42.71815,39.03493,1895.571],[42.67112,39.02304,1943.4264],[42.62761,39.00243,1940.2612],[42.55568,38.95643,2036.9531],[42.47341,38.93158,2329.605],[42.31001,38.94569,1836.1345],[42.27476,38.93651,1744.54],[42.24314,38.91824,1788.4988],[42.20231,38.90561,1834.5486],[42.15963,38.9021,1700.9911],[42.13958,38.89068,1690.6567],[42.12759,38.84414,2143.2705],[42.1063,38.82998,1998.1803],[42.01804,38.83158,1662.7321],[41.99943,38.79531,1541.8519],[42.03137,38.7559,1852.2006],[42.03767,38.71343,1657.0741],[41.99581,38.68539,1367.2704],[41.9368,38.63377,1275.9077],[41.86662,38.60279,1335.3239],[41.69588,38.61273,2186.73],[41.54179,38.56757,1714.6527],[41.53124,38.55439,2028.2842],[41.6161,38.52876,1638.1361],[41.65072,38.39373,1767.1938],[41.67397,38.33885,2061.3918],[41.67883,38.3028,1062.1034],[41.67914,38.26624,1115.6586],[41.67387,38.24369,1274.3961],[41.67728,38.22136,1198.3123],[41.77991,38.19033,1395.2529],[41.88822,38.18325,1432.3191],[41.97442,38.20123,1104.275],[42.0602,38.22715,1237.6757],[42.12759,38.20245,1849.0577],[42.18609,38.15545,1716.6165],[42.25089,38.11669,2331.0125],[42.32293,38.09341,1546.5725],[42.39279,38.07881,1708.2625],[42.43775,38.06432,2383.5122],[42.49935,38.02778,1595.105],[42.60043,37.98254,962.2162],[42.66854,37.9442,1809.9906],[42.70657,37.94606,1676.902],[42.73706,37.98238,2331.2104],[42.74089,38.02851,1442.2773],[42.73582,38.05907,2201.1929],[42.73572,38.09018,2173.8772],[42.74616,38.10341,1923.5538],[42.75856,38.11462,1987.6733],[42.78688,38.18113,2030.7112]]]}
,"properties": {"ISO3166-1-Alpha-3": "TUR","country": "Turkey","fill": "#FF0","name": "Bitlis","area_km2": 8979.829,"hist_schema_id": "Elevation0-9000","hist_area_km2": {"750": 0.517,"775": 1.366,"800": 2.232,"825": 3.981,"850": 4.147,"875": 4.947,"900": 5.646,"925": 7.179,"950": 8.062,"975": 8.512,"1000": 8.928,"1025": 10.394,"1050": 11.828,"1075": 12.76,"1100": 13.809,"1125": 16.008,"1150": 16.023,"1175": 20.487,"1200": 27.214,"1225": 32.602,"1250": 37.243,"1275": 102.558,"1300": 79.059,"1325": 67.833,"1350": 70.221,"1375": 70.404,"1400": 70.363,"1425": 71.582,"1450": 75.041,"1475": 80.867,"1500": 87.681,"1525": 90.753,"1550": 96.735,"1575": 97.931,"1600": 99.764,"1625": 106.228,"1650": 1804.232,"1675": 242.892,"1700": 207.361,"1725": 203.726,"1750": 191.509,"1775": 256.53,"1800": 280.456,"1825": 321.394,"1850": 243.521,"1875": 233.561,"1900": 217.985,"1925": 204.518,"1950": 204.949,"1975": 202.311,"2000": 194.356,"2025": 180.061,"2050": 170.029,"2075": 155.772,"2100": 156.458,"2125": 137.133,"2150": 128.516,"2175": 125.007,"2200": 122.23,"2225": 145.701,"2250": 124.197,"2275": 95.936,"2300": 83.034,"2325": 76.746,"2350": 75.149,"2375": 67.721,"2400": 67.966,"2425": 57.062,"2450": 48.876,"2475": 42.247,"2500": 35.553,"2525": 32.434,"2550": 29.786,"2575": 26.224,"2600": 23.198,"2625": 20.625,"2650": 19.125,"2675": 18.662,"2700": 17.661,"2725": 17.006,"2750": 14.044,"2775": 13.514,"2800": 12.55,"2825": 10.723,"2850": 9.494,"2875": 7.832,"2900": 6.354,"2925": 5.938,"2950": 4.694,"2975": 4.89,"3000": 4.59,"3025": 4.373,"3050": 4.538,"3075": 4.335,"3100": 3.209,"3125": 3.06,"3150": 2.429,"3175": 1.998,"3200": 1.75,"3225": 1.485,"3250": 1.419,"3275": 1.419,"3300": 1.353,"3325": 1.452,"3350": 1.336,"3375": 1.254,"3400": 1.287,"3425": 0.891,"3450": 1.056,"3475": 1.237,"3500": 0.874,"3525": 1.287,"3550": 0.825,"3575": 0.858,"3600": 0.726,"3625": 0.94,"3650": 0.825,"3675": 0.561,"3700": 0.627,"3725": 0.775,"3750": 0.66,"3775": 0.709,"3800": 0.561,"3825": 0.858,"3850": 0.907,"3875": 0.66,"3900": 0.462,"3925": 0.379,"3950": 0.247,"3975": 0.429,"4000": 0.495,"4025": 0.33}}}