{"type": "Feature","bbox": [36.2202,37.1703,36.651,37.4063],"geometry": {"type": "MultiPolygon","coordinates": [[[[36.2948,37.3504,137.0],[36.2741,37.3245,137.0],[36.2586,37.2985,137.0],[36.2564,37.2845,137.0],[36.2565,37.2435,174.7467],[36.2556,37.2307,124.8794],[36.253,37.2215,154.926],[36.245,37.2077,89.8253],[36.2413,37.1973,73.2751],[36.2287,37.1846,125.9076],[36.2202,37.1703,98.9795],[36.2398,37.1761,72.0],[36.2563,37.1856,221.0174],[36.3338,37.185,328.662],[36.3779,37.1756,322.1468],[36.4186,37.1728,276.716],[36.4285,37.1893,395.9196],[36.4365,37.1971,446.9449],[36.4471,37.2038,637.4474],[36.5256,37.234,1152.8813],[36.5418,37.2436,1549.094],[36.6247,37.3077,1283.5555],[36.651,37.33,1340.8696],[36.6425,37.3496,1451.47],[36.6133,37.3846,1530.0819],[36.6021,37.3949,1386.4186],[36.592,37.4016,1531.1023],[36.5758,37.4063,1583.7399],[36.5651,37.406,1422.5035],[36.5552,37.4033,1480.2988],[36.543,37.3944,973.9429],[36.5336,37.3838,1084.5759],[36.5135,37.3806,689.4235],[36.4889,37.368899999999996,860.3105],[36.4623,37.3715,328.5249],[36.442,37.3701,209.3445],[36.3942,37.3523,139.6923],[36.3786,37.349,137.375],[36.3279,37.3484,281.7969],[36.2948,37.3504,137.0]]]]}
,"properties": {"GID_2": "TUR.64.2_1","GID_0": "TUR","country": "Turkey","GID_1": "TUR.64_1","province": "Osmaniye","NL_NAME_1": "NA","county": "Düziçi","VARNAME_2": "NA","NL_NAME_2": "NA","TYPE_2": "District","ENGTYPE_2": "District","CC_2": "NA","HASC_2": "TR.OS.DU","name": "Düziçi.county","area_km2": 567.9059,"hist_schema_id": "Elevation0-9000","hist_area_km2": {"75": 3.8326,"100": 4.0859,"125": 14.6739,"150": 8.5694,"175": 9.3953,"200": 13.0911,"225": 21.6749,"250": 30.6176,"275": 42.6868,"300": 41.4147,"325": 34.0761,"350": 29.2343,"375": 24.9795,"400": 17.6035,"425": 13.9047,"450": 9.7014,"475": 6.1242,"500": 6.2585,"525": 5.3646,"550": 4.6724,"575": 4.8247,"600": 4.3689,"625": 4.1498,"650": 4.2006,"675": 3.8972,"700": 3.8294,"725": 4.2508,"750": 3.8292,"775": 4.0989,"800": 3.4407,"825": 3.778,"850": 3.7777,"875": 3.7273,"900": 4.2329,"925": 4.1824,"950": 4.3341,"975": 4.4522,"1000": 4.8401,"1025": 4.6713,"1050": 4.8399,"1075": 5.0251,"1100": 5.43,"1125": 5.1096,"1150": 7.2507,"1175": 6.0534,"1200": 5.6654,"1225": 6.2718,"1250": 5.6316,"1275": 6.5924,"1300": 5.935,"1325": 5.6482,"1350": 5.2943,"1375": 5.665,"1400": 5.1085,"1425": 4.4172,"1450": 4.7879,"1475": 4.7201,"1500": 4.2649,"1525": 4.2483,"1550": 4.4168,"1575": 3.8435,"1600": 3.6407,"1625": 3.1349,"1650": 3.0334,"1675": 2.6961,"1700": 2.2579,"1725": 2.4265,"1750": 2.3085,"1775": 1.9883,"1800": 1.7187,"1825": 1.5165,"1850": 1.4155,"1875": 0.9436,"1900": 0.9099,"1925": 0.5729,"1950": 0.6235,"1975": 0.455,"2000": 0.337,"2025": 0.3707,"2050": 0.1854,"2075": 0.0674,"2100": 0.0674,"2125": 0.0506,"2150": 0.0169,"2175": 0.0674,"2200": 0.0169,"2225": 0.0169}}}