{"type":"Feature","properties":{"GID_2":"TUR.7.20_1","GID_0":"TUR","country":"Turkey","GID_1":"TUR.7_1","province":"Ankara","NL_NAME_1":"NA","county":"Nallıhan","VARNAME_2":"NA","NL_NAME_2":"NA","TYPE_2":"District","ENGTYPE_2":"District","CC_2":"NA","HASC_2":"TR.AN.NA","name":"Nallıhan.county"},
"geometry":{"type": "MultiPolygon","coordinates": [[[[31.6862,40.3384,821.1124],[31.6396,40.3293,625.9376],[31.6099,40.3132,922.7393],[31.6028,40.3109,850.546],[31.5669,40.3086,799.5366],[31.5267,40.3103,807.0597],[31.4939,40.3196,901.3046],[31.4326,40.3229,927.7862],[31.4114,40.3299,864.0104],[31.4005,40.3318,891.6643],[31.3311,40.3338,933.9013],[31.3027,40.3421,1072.7615],[31.2743,40.3449,1188.4485],[31.2579,40.3488,1227.2886],[31.2306,40.3596,960.8792],[31.2013,40.3769,1246.9624],[31.1443,40.3991,1088.7371],[31.1141,40.4054,1217.9011],[31.0929,40.4125,1284.7021],[31.0607,40.4158,1008.1071],[31.0418,40.3925,1153.2946],[31.0385,40.3847,1344.7019],[31.0373,40.3763,1464.2578],[31.0377,40.3125,1348.6707],[31.0399,40.3015,1193.5581],[31.0497,40.2832,953.0871],[31.0497,40.2778,973.0311],[31.0475,40.2726,991.9026],[31.0389,40.2635,926.9082],[31.0276,40.256,806.7806],[30.9751,40.2362,797.4348],[30.955,40.2229,767.7031],[30.8934,40.1739,1055.4534],[30.888,40.1665,774.6908],[30.874,40.1403,524.0443],[30.8997,40.1191,381.5466],[30.9136,40.0991,399.9981],[30.9166,40.084,475.1545],[30.9162,40.0466,453.3375],[30.9194,40.0357,294.2852],[30.9285,40.0289,380.6702],[30.9539,40.0196,704.2004],[30.9941,40.0183,800.0132],[31.0234,40.0192,534.2486],[31.0353,40.0211,579.8919],[31.0569,40.028,1145.2148],[31.0915,40.0322,1057.9941],[31.1203,40.0404,841.9785],[31.176,40.044,497.7544],[31.2115,40.0416,719.421],[31.3453,40.0413,698.5638],[31.3617,40.0396,737.9772],[31.3835,40.0327,545.7599],[31.3998,40.0303,538.4813],[31.5036,40.029,651.7044],[31.5456,40.019,627.3583],[31.6007,40.0179,467.0],[31.617,40.0163,469.2996],[31.696,39.9882,470.2706],[31.71,40.007,484.4916],[31.7255,40.0333,467.0],[31.7278,40.0479,764.8086],[31.7282,40.0781,687.3289],[31.7265,40.0929,677.8322],[31.7226,40.1011,650.8132],[31.6896,40.1303,802.5052],[31.6858,40.1354,798.9846],[31.683,40.1439,727.0283],[31.6822,40.18,753.5996],[31.6848,40.2006,811.6614],[31.6942,40.2171,886.3838],[31.7013,40.2382,1209.387],[31.712,40.254,866.2688],[31.7217,40.2741,795.5673],[31.7197,40.2806,814.8997],[31.7108,40.2966,887.2398],[31.701,40.3099,798.5547],[31.6862,40.3384,821.1124]]]]}}