{"type":"Feature","properties":{"GID_2":"TUR.80.6_1","GID_0":"TUR","country":"Turkey","GID_1":"TUR.80_1","province":"Yozgat","NL_NAME_1":"NA","county":"Çekerek","VARNAME_2":"NA","NL_NAME_2":"NA","TYPE_2":"District","ENGTYPE_2":"District","CC_2":"NA","HASC_2":"TR.YZ.CK","name":"Çekerek.county"},
"geometry":{"type": "MultiPolygon","coordinates": [[[[35.5271,40.1781,913.6395],[35.5052,40.1617,932.3573],[35.4921,40.1563,978.9743],[35.4771,40.1547,969.2745],[35.4191,40.1547,924.7671],[35.4081,40.1527,889.5154],[35.3958,40.1467,938.0643],[35.3747,40.1308,945.8663],[35.3648,40.119,1098.2742],[35.3621,40.108,1182.4038],[35.3612,40.0827,1331.0291],[35.357,40.0724,1518.6672],[35.3452,40.0636,1352.6278],[35.3222,40.0551,1368.1805],[35.3296,40.0351,1195.2485],[35.3339,40.0073,1377.7168],[35.3447,39.9856,1365.5925],[35.3483,39.9491,1321.6699],[35.3548,39.9391,1443.7148],[35.3779,39.9208,1492.1902],[35.3864,39.9155,1451.0281],[35.4138,39.9034,1302.5535],[35.4493,39.8789,1279.0265],[35.4824,39.8659,1140.2266],[35.493,39.864,1205.6362],[35.5333,39.8645,1050.2797],[35.5433,39.8672,1056.9344],[35.5633,39.877,1001.1672],[35.5848,39.8837,935.8587],[35.6031,39.8863,884.7339],[35.6258,39.8872,893.6295],[35.6359,39.8889,876.6057],[35.6431,39.8931,893.0201],[35.6466,39.8986,906.2813],[35.6468,39.9188,872.9425],[35.6488,39.93,888.5281],[35.6733,39.9696,1160.3724],[35.6803,40.0023,1130.1538],[35.7034,40.0394,1216.3749],[35.7118,40.0628,1452.2913],[35.7305,40.0846,1318.9883],[35.651,40.0847,1113.222],[35.63,40.0884,875.2645],[35.6131,40.0991,771.1456],[35.5555,40.1446,1017.5934],[35.5466,40.1534,951.2339],[35.5373,40.1677,969.4575],[35.5271,40.1781,913.6395]]]]}}