{"type":"Feature","properties":{"GID_2":"TUR.37.2_1","GID_0":"TUR","country":"Turkey","GID_1":"TUR.37_1","province":"Hatay","NL_NAME_1":"NA","county":"Belen","VARNAME_2":"NA","NL_NAME_2":"NA","TYPE_2":"District","ENGTYPE_2":"District","CC_2":"NA","HASC_2":"TR.HT.BE","name":"Belen.county"},
"geometry":{"type": "MultiPolygon","coordinates": [[[[36.0827,36.3931,884.7007],[36.1055,36.4036,943.524],[36.1693,36.4273,892.5996],[36.1925,36.4292,916.7579],[36.2358,36.428,213.801],[36.2422,36.4597,295.3294],[36.2513,36.4765,687.8105],[36.2539,36.4857,1112.1553],[36.255,36.5117,1558.1985],[36.2522,36.5399,1068.5879],[36.2264,36.5257,804.1331],[36.1961,36.5195,589.7148],[36.1627,36.5069,404.0302],[36.1364,36.4911,879.9962],[36.112,36.4805,857.2755],[36.0722,36.4513,727.1144],[36.0626,36.4401,434.6471],[36.0618,36.4315,686.8682],[36.0827,36.3931,884.7007]]]]}}