{"type":"Feature","properties":{"GID_2":"TUR.27.1_1","GID_0":"TUR","country":"Turkey","GID_1":"TUR.27_1","province":"Düzce","NL_NAME_1":"NA","county":"Akçakoca","VARNAME_2":"NA","NL_NAME_2":"NA","TYPE_2":"District","ENGTYPE_2":"District","CC_2":"NA","HASC_2":"TR.DU.AK","name":"Akçakoca.county"},
"geometry":{"type": "MultiPolygon","coordinates": [[[[31.1313,40.9793,999.8718],[31.1577,40.9869,504.5167],[31.2089,41.0063,400.5977],[31.2285,41.0081,130.3951],[31.257,41.0081,143.4232],[31.3142,41.0062,298.0505],[31.3439,41.0178,574.6259],[31.3678,41.0222,547.2962],[31.3892,41.0289,648.8835],[31.4194,41.0324,675.3471],[31.4289,41.0385,401.1405],[31.439,41.0563,387.9266],[31.42,41.0732,275.4526],[31.3382,41.1368,0.0],[31.3076,41.1207,8.4415],[31.2774,41.111,5.4803],[31.2596,41.1076,0.0],[31.249,41.1035,13.1353],[31.2429,41.1035,6.3386],[31.211,41.0971,0.5874],[31.169,41.0929,20.6577],[31.1468,41.0921,0.0],[31.1357,41.0901,13.7754],[31.1246,41.0901,4.6747],[31.1224,41.0924,0.0],[31.1193,41.0926,0.0],[31.1199,41.0899,10.2447],[31.1082,41.0899,0.0],[31.1032,41.0876,2.8126],[31.0918,41.0874,0.0],[31.0888,41.0838,0.0],[31.0701,41.0782,7.5238],[31.0568,41.0774,0.0],[31.0549,41.0788,0.0],[31.0485,41.0768,18.9456],[31.0285,41.076,13.9955],[31.0201,41.0774,0.0],[31.0174,41.074,4.5878],[31.0129,41.0726,0.7462],[30.9759,41.0726,0.7197],[30.9986,41.042,8.0189],[31.008,41.0352,40.0273],[31.0277,41.0268,259.2605],[31.0353,41.0189,516.4105],[31.0365,41.011,441.5704],[31.0348,41.006,596.9515],[31.0134,40.9744,318.3627],[31.0087,40.9615,464.5619],[31.0236,40.9498,585.2607],[31.049,40.9516,745.2062],[31.0703,40.9585,908.7249],[31.094,40.9631,795.686],[31.1313,40.9793,999.8718]]]]}}