{"type": "Feature","bbox": [26.7152,38.0204,27.0075,38.2759],"geometry": {"type": "MultiPolygon","coordinates": [[[[26.8818,38.024,0.0],[26.8804,38.0229,4.593],[26.8807,38.0204,0.0],[26.8849,38.0218,0.7766],[26.8818,38.024,0.0]]],
[[[26.8571,38.0457,0.0],[26.8549,38.0465,11.6131],[26.8538,38.0449,0.0],[26.8554,38.0443,6.0651],[26.8571,38.0457,0.0]]],
[[[26.9216,38.239,242.4949],[26.9117,38.2508,330.9534],[26.8667,38.2531,226.5621],[26.8382,38.2618,56.0063],[26.8145,38.2666,42.4411],[26.7931,38.2742,197.1568],[26.7775,38.2759,168.2024],[26.7618,38.2752,92.1077],[26.7515,38.272,43.6807],[26.7422,38.2647,67.9243],[26.7326,38.2394,89.6191],[26.7152,38.2142,46.0567],[26.7174,38.2088,2.5158],[26.7215,38.2118,2.7754],[26.7224,38.2074,0.8556],[26.7268,38.2088,6.8246],[26.7329,38.2068,0.0],[26.7354,38.209,0.0],[26.7335,38.2124,2.0765],[26.7365,38.216,3.5998],[26.7396,38.2126,3.718],[26.7438,38.2143,1.7292],[26.7435,38.2126,0.0],[26.7454,38.2121,0.0],[26.7474,38.2137,0.0],[26.7474,38.2163,1.5013],[26.7454,38.219,5.5111],[26.7493,38.2182,0.0],[26.7529,38.2229,0.1406],[26.7574,38.2221,0.5793],[26.7576,38.2182,0.0],[26.761,38.2168,0.0],[26.7624,38.2143,0.0],[26.7663,38.2165,9.8175],[26.7668,38.2132,0.0],[26.7693,38.2137,0.0],[26.7715,38.2101,0.0],[26.7738,38.2096,2.1093],[26.7718,38.2079,0.0],[26.7735,38.2049,0.0],[26.7787,38.2024,5.0249],[26.7821,38.2032,0.1713],[26.7829,38.2007,4.1449],[26.7868,38.2012,3.472],[26.7904,38.199,1.0031],[26.7871,38.196,0.3091],[26.7829,38.1954,0.3413],[26.7829,38.1921,0.873],[26.7813,38.1932,0.0],[26.7826,38.196,0.0],[26.7771,38.1996,0.0],[26.7721,38.1968,0.0],[26.774,38.1918,1.829],[26.7735,38.1907,1.829],[26.7707,38.1913,0.0],[26.7696,38.1835,0.0],[26.7721,38.1815,0.0],[26.7674,38.1754,0.0],[26.7693,38.1732,0.0],[26.7735,38.174,3.2523],[26.7721,38.1707,0.0],[26.774,38.1701,0.0],[26.7749,38.1613,0.0],[26.779,38.1657,6.4022],[26.786,38.164,3.8205],[26.7879,38.1701,3.5139],[26.7954,38.1735,0.3086],[26.8035,38.171,1.0398],[26.8076,38.1662,0.8115],[26.8132,38.1657,0.7803],[26.8146,38.1626,0.0],[26.8199,38.1615,0.907],[26.8243,38.1582,4.7734],[26.8246,38.1546,9.7732],[26.8221,38.1515,0.0],[26.8235,38.1493,0.0],[26.8196,38.1468,6.5707],[26.819,38.1446,0.0],[26.8224,38.1404,0.0],[26.8301,38.1385,3.507],[26.8293,38.1368,0.0],[26.8324,38.1354,19.1433],[26.8324,38.1321,10.0556],[26.8368,38.1318,1.2534],[26.8357,38.1282,3.0679],[26.8338,38.129,0.0],[26.8335,38.1263,0.616],[26.8296,38.1268,0.0],[26.8299,38.1243,6.4393],[26.8354,38.124,11.3705],[26.8393,38.121,2.1092],[26.8421,38.116,0.0],[26.8415,38.1124,0.0],[26.8457,38.1096,0.3303],[26.8513,38.1021,7.1549],[26.8501,38.0965,1.5],[26.8482,38.0954,0.0],[26.8499,38.0943,0.0],[26.8499,38.0832,4.3235],[26.8449,38.0793,0.0],[26.8449,38.0726,2.8574],[26.8465,38.0687,0.0],[26.8499,38.0674,0.0],[26.8554,38.0588,2.619],[26.8549,38.0551,0.0],[26.8587,38.0496,15.6301],[26.8579,38.0454,0.0],[26.8629,38.0404,0.0],[26.8674,38.0401,18.1997],[26.8668,38.036,0.0],[26.8646,38.0337,0.0],[26.866,38.0313,0.0],[26.8643,38.0304,0.0],[26.8643,38.0285,0.0],[26.8668,38.029,3.0285],[26.8685,38.0329,3.0943],[26.8699,38.0301,0.0],[26.8721,38.0299,0.0],[26.8746,38.0335,5.3357],[26.8765,38.0337,0.0],[26.8765,38.0376,10.9066],[26.8821,38.0424,0.0],[26.8821,38.0474,3.0672],[26.8846,38.049,1.7423],[26.884,38.0515,2.1967],[26.8979,38.0615,0.2326],[26.9201,38.0687,0.3128],[26.926,38.0693,0.0],[26.9349,38.0732,0.2617],[26.9482,38.0754,0.0],[26.9661,38.0915,69.8052],[26.9974,38.1154,495.639],[27.0053,38.1246,487.033],[27.0071,38.1294,378.4934],[27.0075,38.1393,213.1457],[27.0041,38.1488,264.6289],[26.9736,38.1952,167.0624],[26.9216,38.239,242.4949]]],
[[[26.804,38.1529,0.0],[26.8024,38.1524,0.0],[26.8021,38.1493,0.0],[26.8029,38.1496,0.0],[26.804,38.1529,0.0]]],
[[[26.8054,38.1615,0.3989],[26.806,38.1629,0.4105],[26.8024,38.1626,0.0],[26.8007,38.1574,0.0],[26.8026,38.1576,3.9109],[26.8054,38.1615,0.3989]]],
[[[26.7701,38.2004,0.0],[26.7685,38.2007,0.0],[26.7693,38.1985,0.0],[26.7718,38.1982,0.3262],[26.7721,38.1996,2.9186],[26.7701,38.2004,0.0]]]]}
,"properties": {"GID_2": "TUR.41.24_1","GID_0": "TUR","country": "Turkey","GID_1": "TUR.41_1","province": "Izmir","NL_NAME_1": "NA","county": "Seferihisar","VARNAME_2": "NA","NL_NAME_2": "NA","TYPE_2": "District","ENGTYPE_2": "District","CC_2": "NA","HASC_2": "TR.IZ.SF","name": "Seferihisar.county","area_km2": 338.3214,"hist_schema_id": "Elevation0-9000","hist_area_km2": {"0": 26.78,"25": 48.2677,"50": 41.6527,"75": 34.4885,"100": 35.3226,"125": 32.3713,"150": 23.536,"175": 20.2173,"200": 17.6314,"225": 14.4323,"250": 11.4155,"275": 7.8501,"300": 5.5838,"325": 5.0836,"350": 3.117,"375": 2.2338,"400": 1.884,"425": 1.3338,"450": 0.7838,"475": 1.1673,"500": 1.2508,"525": 1.2008,"550": 0.5337,"575": 0.1668,"600": 0.0167}}}