{"type": "Feature","bbox": [39.0577,40.8907,39.1787,41.0793],"geometry": {"type": "MultiPolygon","coordinates": [[[[39.0585,41.0385,3.6104],[39.0577,40.9862,754.876],[39.0611,40.9681,424.6288],[39.0839,40.931,558.9586],[39.0888,40.9154,1104.8455],[39.0928,40.908,1287.7166],[39.1014,40.9001,1748.4783],[39.1185,40.8907,1731.9393],[39.1179,40.9509,438.1103],[39.1211,40.9662,413.3962],[39.1291,40.98,654.1057],[39.1357,40.9972,543.1887],[39.1446,41.008,728.6381],[39.1481,41.0369,269.7336],[39.1606,41.0496,59.5281],[39.1705,41.0687,198.7897],[39.1787,41.074,0.0],[39.1743,41.074,0.95],[39.1707,41.0776,0.0],[39.1626,41.0793,0.0],[39.1357,41.0607,3.762],[39.1162,41.051,5.2609],[39.0868,41.0451,10.0943],[39.0735,41.0449,0.3763],[39.0679,41.0415,7.0255],[39.0638,41.0421,0.0],[39.0585,41.0385,3.6104]]]]}
,"properties": {"GID_2": "TUR.34.8_1","GID_0": "TUR","country": "Turkey","GID_1": "TUR.34_1","province": "Giresun","NL_NAME_1": "NA","county": "Eynesil","VARNAME_2": "NA","NL_NAME_2": "NA","TYPE_2": "District","ENGTYPE_2": "District","CC_2": "NA","HASC_2": "TR.GI.EY","name": "Eynesil.county","area_km2": 93.58357,"hist_schema_id": "Elevation0-9000","hist_area_km2": {"0": 2.15835,"25": 2.39833,"50": 2.5744,"75": 2.20679,"100": 2.46278,"125": 3.2146,"150": 3.72645,"175": 4.25439,"200": 3.87112,"225": 3.9196,"250": 3.104,"275": 3.95204,"300": 3.64826,"325": 4.00033,"350": 3.77689,"375": 3.68097,"400": 3.6169,"425": 3.87323,"450": 3.10504,"475": 3.52136,"500": 3.18531,"525": 2.76931,"550": 2.33711,"575": 1.95308,"600": 1.9211,"625": 1.55301,"650": 1.08873,"675": 0.83261,"700": 1.1369,"725": 0.56042,"750": 0.60853,"775": 0.38435,"800": 0.32032,"825": 0.36842,"850": 0.27232,"875": 0.20824,"900": 0.30436,"925": 0.33641,"950": 0.19224,"975": 0.1602,"1000": 0.20827,"1025": 0.22429,"1050": 0.2243,"1075": 0.16021,"1100": 0.20828,"1125": 0.25635,"1150": 0.17624,"1175": 0.25636,"1200": 0.12818,"1225": 0.12818,"1250": 0.17624,"1275": 0.19227,"1300": 0.09614,"1325": 0.12818,"1350": 0.16022,"1375": 0.22432,"1400": 0.17625,"1425": 0.17625,"1450": 0.24035,"1475": 0.22433,"1500": 0.20831,"1525": 0.24036,"1550": 0.16024,"1575": 0.1923,"1600": 0.11218,"1625": 0.1923,"1650": 0.19231,"1675": 0.19231,"1700": 0.16026,"1725": 0.11218,"1750": 0.11218,"1775": 0.09616,"1800": 0.0641,"1825": 0.09616,"1850": 0.03205,"1875": 0.03205,"1900": 0.06411}}}