{"type":"Feature","properties":{"GID_2":"TUR.37.5_1","GID_0":"TUR","country":"Turkey","GID_1":"TUR.37_1","province":"Hatay","NL_NAME_1":"NA","county":"Hassa","VARNAME_2":"NA","NL_NAME_2":"NA","TYPE_2":"District","ENGTYPE_2":"District","CC_2":"NA","HASC_2":"TR.HT.HA","name":"Hassa.county"},
"geometry":{"type": "MultiPolygon","coordinates": [[[[36.6685,36.8368,370.0619],[36.6632,36.8388,369.6421],[36.6409,36.8371,422.7213],[36.6261,36.841,374.6533],[36.6024,36.8556,381.5108],[36.5815,36.8643,393.2933],[36.5454,36.8893,787.4265],[36.5188,36.9009,981.4801],[36.4856,36.9248,1134.2205],[36.4648,36.9358,1677.5305],[36.4392,36.8933,1567.533],[36.4312,36.8699,1564.65],[36.3787,36.7888,2132.8408],[36.3756,36.7744,1596.4982],[36.3754,36.7381,1202.3065],[36.3733,36.7235,1187.5349],[36.364,36.707,1569.5322],[36.357,36.686,1411.6875],[36.3371,36.6506,980.1906],[36.4735,36.6497,174.284],[36.49,36.648,167.4105],[36.5118,36.641,176.1147],[36.5236,36.639,187.663],[36.5529,36.6381,232.9266],[36.5889,36.6393,272.4807],[36.5919,36.6501,276.0569],[36.6064,36.6715,255.8933],[36.6188,36.68,498.9282],[36.6278,36.6953,379.8816],[36.6369,36.7051,445.7396],[36.6387,36.7116,418.0549],[36.6351,36.728,312.0933],[36.6252,36.7425,424.9373],[36.624,36.7471,457.2238],[36.6271,36.7577,410.111],[36.6328,36.7663,381.6332],[36.6703,36.7998,361.0656],[36.6782,36.8112,374.5406],[36.6776,36.8213,380.5074],[36.6685,36.8368,370.0619]]]]}}