{"type": "Feature","bbox": [26.728,40.743,27.2236,41.1386],"geometry": {"type": "MultiPolygon","coordinates": [[[[27.0415,40.7602,116.8971],[27.0719,40.7749,94.1579],[27.1051,40.7873,160.4458],[27.1193,40.7893,175.7655],[27.1558,40.7906,253.249],[27.1717,40.7951,184.5963],[27.1878,40.8027,219.221],[27.1949,40.8107,220.4808],[27.2016,40.8277,227.3432],[27.2164,40.8419,292.0199],[27.2213,40.8487,330.8631],[27.2236,40.8568,336.9297],[27.2215,40.8704,222.8487],[27.1968,40.9069,150.265],[27.1812,40.9331,121.2295],[27.1789,40.9479,163.5589],[27.1796,40.9722,171.0169],[27.1818,40.9837,122.5261],[27.1877,40.9992,119.5443],[27.1854,41.0057,151.1361],[27.172,41.0237,145.9274],[27.1475,41.0221,125.1709],[27.1359,41.0198,126.0272],[27.1244,41.014,132.61],[27.0988,40.9948,97.8029],[27.0899,40.9923,96.1722],[27.0839,40.9936,91.4408],[27.0775,40.9986,75.8241],[27.075,41.0033,74.4446],[27.0737,41.0393,65.3319],[27.0717,41.0446,65.0242],[27.0659,41.051,63.6234],[27.0544,41.056399999999996,87.7519],[27.0227,41.059,119.2498],[27.0127,41.0612,112.4912],[26.9229,41.0959,146.9815],[26.9118,41.1052,173.0592],[26.8967,41.1284,234.5869],[26.892,41.1386,329.394],[26.8761,41.1383,250.4474],[26.8625,41.1357,221.5534],[26.7785,41.1036,153.4384],[26.7677,41.0977,144.4103],[26.7598,41.0894,97.5039],[26.7458,41.0659,128.4571],[26.744,41.0548,156.4238],[26.744,41.0345,120.0062],[26.7573,41.0319,127.4502],[26.7679,41.026,133.417],[26.775,41.0172,158.4132],[26.7811,41.0063,172.7212],[26.783,40.9996,194.6087],[26.7819,40.9951,207.5674],[26.7717,40.977,177.4401],[26.747,40.9403,193.1262],[26.7401,40.9193,181.1127],[26.7308,40.9027,205.1959],[26.7284,40.8849,237.7101],[26.728,40.8263,242.7073],[26.7305,40.8054,167.9469],[26.7353,40.7976,106.2826],[26.7532,40.7797,48.925],[26.7645,40.7633,99.6318],[26.7838,40.7462,214.2646],[26.8236,40.743,230.5571],[26.8586,40.7448,295.441],[26.8715,40.7502,396.9086],[26.8987,40.7697,420.8563],[26.9098,40.776,387.9346],[26.9698,40.7995,177.8052],[26.9876,40.8021,154.8421],[27.009,40.8005,101.0582],[27.0206,40.795,91.1568],[27.028199999999998,40.7864,94.8547],[27.0415,40.7602,116.8971]]]]}
,"properties": {"GID_2": "TUR.73.4_1","GID_0": "TUR","country": "Turkey","GID_1": "TUR.73_1","province": "Tekirdag","NL_NAME_1": "NA","county": "Malkara","VARNAME_2": "NA","NL_NAME_2": "NA","TYPE_2": "District","ENGTYPE_2": "District","CC_2": "NA","HASC_2": "TR.TG.MK","name": "Malkara.county","area_km2": 1245.7215,"hist_schema_id": "Elevation0-9000","hist_area_km2": {"50": 3.2108,"75": 61.7065,"100": 129.7909,"125": 209.6947,"150": 222.5699,"175": 188.2679,"200": 140.4402,"225": 105.9307,"250": 81.9189,"275": 55.2736,"300": 28.6922,"325": 8.1741,"350": 3.0824,"375": 2.2156,"400": 1.3648,"425": 1.124,"450": 0.8029,"475": 0.5621,"500": 0.53,"525": 0.273,"550": 0.0964}}}