{"type": "Feature","bbox": [27.882,39.0427,28.6622,39.386],"geometry": {"type": "MultiPolygon","coordinates": [[[[27.9255,39.386,507.9446],[27.9104,39.3776,490.5954],[27.9036,39.3719,532.1125],[27.899,39.365,606.3914],[27.8966,39.3572,757.9972],[27.909,39.3445,757.9129],[27.9171,39.329,425.0787],[27.9084,39.3116,446.1556],[27.8841,39.2749,517.5271],[27.8823,39.2695,569.331],[27.882,39.2585,442.1818],[27.8877,39.2462,407.5089],[27.8958,39.2361,478.9013],[27.9001,39.2325,519.0182],[27.9064,39.23,602.4039],[27.9289,39.2285,592.5778],[27.9644,39.2311,731.325],[27.985,39.2267,613.0485],[27.9913,39.224,767.1112],[28.0108,39.2106,665.0369],[28.0428,39.1855,614.7319],[28.057,39.1724,712.2212],[28.0732,39.1465,998.3823],[28.0796,39.1253,903.7482],[28.1014,39.0905,704.5903],[28.1079,39.0698,627.19],[28.1126,39.0629,572.3771],[28.1255,39.0548,781.7059],[28.1524,39.045,1039.0032],[28.1662,39.0427,1025.2384],[28.1861,39.0525,938.3586],[28.2098,39.057,857.6875],[28.231,39.0642,921.3618],[28.255,39.0685,1184.8375],[28.2761,39.0758,1366.562],[28.3001,39.0801,1058.1277],[28.3212,39.0873,878.215],[28.3451,39.0917,945.0252],[28.3929,39.1098,1111.5229],[28.4201,39.1151,1123.1876],[28.4414,39.1222,1133.9678],[28.4667,39.124,1195.8531],[28.4831,39.1336,1215.5431],[28.503,39.14,1219.1816],[28.6029,39.18,608.5756],[28.6206,39.1816,753.9365],[28.631,39.1799,700.3798],[28.6622,39.1638,521.9212],[28.6614,39.2337,1071.7856],[28.6281,39.2885,1275.0526],[28.6153,39.3054,1029.8005],[28.6086,39.3114,1091.7334],[28.4277,39.3101,1379.5251],[28.4121,39.3084,1412.7401],[28.3833,39.2997,1194.9427],[28.3639,39.2984,1097.8893],[28.3444,39.2991,1007.6393],[28.3332,39.301,1014.7736],[28.3121,39.3082,824.8591],[28.2852,39.3138,658.4887],[28.2583,39.3244,564.4454],[28.232,39.3399,545.2863],[28.2219,39.3437,481.658],[28.1982,39.3458,415.0151],[28.1575,39.3453,515.6704],[28.1419,39.3435,448.3628],[28.113,39.3348,449.286],[28.0855,39.3346,238.3104],[28.0569,39.3433,296.8716],[28.0331,39.3481,268.0895],[27.9853,39.366,411.1631],[27.9582,39.3715,436.2443],[27.9255,39.386,507.9446]]]]}
,"properties": {"GID_2": "TUR.12.18_1","GID_0": "TUR","country": "Turkey","GID_1": "TUR.12_1","province": "Balikesir","NL_NAME_1": "NA","county": "Sındırgı","VARNAME_2": "NA","NL_NAME_2": "NA","TYPE_2": "District","ENGTYPE_2": "District","CC_2": "NA","HASC_2": "TR.BK.SI","name": "Sındırgı.county","area_km2": 1420.642,"hist_schema_id": "Elevation0-9000","hist_area_km2": {"175": 6.842,"200": 43.154,"225": 36.978,"250": 28.652,"275": 33.418,"300": 28.133,"325": 30.118,"350": 32.53,"375": 36.122,"400": 39.323,"425": 41.113,"450": 44.863,"475": 46.458,"500": 43.265,"525": 43.252,"550": 45.11,"575": 40.924,"600": 38.906,"625": 33.456,"650": 32.67,"675": 31.456,"700": 32.411,"725": 31.575,"750": 31.923,"775": 30.232,"800": 33.569,"825": 38.454,"850": 37.85,"875": 39.02,"900": 40.947,"925": 41.162,"950": 37.085,"975": 34.078,"1000": 30.857,"1025": 28.162,"1050": 25.418,"1075": 23.001,"1100": 18.706,"1125": 21.056,"1150": 18.607,"1175": 16.881,"1200": 14.003,"1225": 9.581,"1250": 6.16,"1275": 4.713,"1300": 3.661,"1325": 2.889,"1350": 2.429,"1375": 2.61,"1400": 2.051,"1425": 1.346,"1450": 0.706,"1475": 0.853,"1500": 0.656,"1525": 0.525,"1550": 0.443,"1575": 0.246,"1600": 0.033}}}