{"type":"Feature","properties":{"GID_2":"TUR.34.15_1","GID_0":"TUR","country":"Turkey","GID_1":"TUR.34_1","province":"Giresun","NL_NAME_1":"NA","county":"Tirebolu","VARNAME_2":"NA","NL_NAME_2":"NA","TYPE_2":"District","ENGTYPE_2":"District","CC_2":"NA","HASC_2":"TR.GI.TI","name":"Tirebolu.county"},
"geometry":{"type": "MultiPolygon","coordinates": [[[[39.1165,40.871,1653.9021],[39.1185,40.8907,1731.9393],[39.1014,40.9001,1748.4783],[39.0928,40.908,1287.7166],[39.0888,40.9154,1104.8455],[39.0839,40.931,558.9586],[39.0611,40.9681,424.6288],[39.0577,40.9862,754.876],[39.0585,41.0385,3.6104],[39.0262,41.0329,2.4358],[39.0079,41.0324,0.3735],[39.0032,41.0349,4.4043],[39.0035,41.0363,0.0],[39.0065,41.0371,0.0],[38.9971,41.0385,3.5806],[38.9874,41.0365,4.4541],[38.9832,41.0365,4.9311],[38.9799,41.0387,20.4443],[38.9696,41.0363,4.863],[38.9571,41.0379,0.0],[38.9487,41.0365,13.7637],[38.9401,41.039,2.7711],[38.9357,41.0415,4.7533],[38.9351,41.0438,0.0],[38.9216,41.0387,13.345],[38.9228,40.9399,479.8498],[38.9252,40.9171,324.7812],[38.9542,40.9207,415.7217],[38.9815,40.9183,577.4171],[38.9992,40.912,363.404],[39.0262,40.9062,495.6404],[39.0558,40.8894,1361.4451],[39.0859,40.8774,1626.7087],[39.1165,40.871,1653.9021]]]]}}