{"type":"Feature","properties":{"GID_2":"TUR.40.32_1","GID_0":"TUR","country":"Turkey","GID_1":"TUR.40_1","province":"Istanbul","NL_NAME_1":"NA","county":"Şişli","VARNAME_2":"NA","NL_NAME_2":"NA","TYPE_2":"District","ENGTYPE_2":"District","CC_2":"NA","HASC_2":"TR.IB.SI","name":"Şişli.county"},
"geometry":{"type": "MultiPolygon","coordinates": [[[[29.0038,41.0919,129.5913],[29.0008,41.0936,107.5767],[28.9973,41.0813,87.0903],[28.9826,41.0799,68.193],[28.9603,41.0686,3.4679],[28.9559,41.0648,26.73],[28.9555,41.0589,84.974],[28.9767,41.0487,71.089],[28.9795,41.0487,91.868],[28.9848,41.044,80.6252],[28.988,41.0498,92.8622],[28.9928,41.071,97.1666],[28.998,41.0755,55.7092],[29.0072,41.0758,117.4179],[29.0103,41.0778,124.5947],[29.011,41.0844,127.1167],[29.0079,41.0891,125.974],[29.0038,41.0919,129.5913]]],
[[[29.0086,41.1073,77.7801],[29.013,41.1114,77.3893],[29.0216,41.1145,107.2835],[29.0216,41.1415,132.3114],[29.0192,41.1457,130.4337],[29.0148,41.146,152.611],[29.011,41.1412,118.9898],[28.9969,41.1412,145.0605],[28.9925,41.146,164.7747],[28.9777,41.1472,135.6021],[28.9757,41.143,125.6557],[28.9713,41.1405,104.917],[28.9622,41.1284,47.7384],[28.9582,41.1099,76.3405],[28.9778,41.1073,77.7641],[28.9874,41.1025,34.9194],[29.0031,41.1035,96.0238],[29.0086,41.1073,77.7801]]]]}}