{"type": "Feature","bbox": [29.1522,40.5551,29.326,40.6668],"geometry": {"type": "MultiPolygon","coordinates": [[[[29.2058,40.5563,557.1746],[29.2383,40.5551,516.9692],[29.2676,40.556,371.9336],[29.2794,40.558,361.3815],[29.3012,40.5649,320.6416],[29.3259,40.5669,424.1498],[29.326,40.5917,202.3262],[29.3244,40.6068,199.9182],[29.3136,40.6291,77.2153],[29.309,40.6563,12.3553],[29.3048,40.6668,1.2324],[29.2999,40.6649,3.0326],[29.291,40.6643,0.0],[29.2821,40.6601,4.0116],[29.2779,40.6621,0.0],[29.2768,40.6604,2.7424],[29.2732,40.6613,0.0],[29.2729,40.6593,2.1807],[29.2668,40.6599,0.1706],[29.2643,40.6579,3.1982],[29.2465,40.6587,4.3532],[29.2449,40.6607,0.0],[29.2393,40.6585,2.0251],[29.2232,40.6563,7.3591],[29.201,40.6557,0.0],[29.1882,40.6571,0.0],[29.1893,40.6488,9.0299],[29.1881,40.6406,27.9248],[29.1839,40.6334,153.1843],[29.1758,40.6252,150.84],[29.1756,40.6063,121.198],[29.1736,40.5942,209.275],[29.1522,40.5554,804.2405],[29.2058,40.5563,557.1746]]]]}
,"properties": {"GID_2": "TUR.79.5_1","GID_0": "TUR","country": "Turkey","GID_1": "TUR.79_1","province": "Yalova","NL_NAME_1": "NA","county": "Merkez","VARNAME_2": "Yalova","NL_NAME_2": "NA","TYPE_2": "District","ENGTYPE_2": "District","CC_2": "NA","HASC_2": "TR.YL.YL","name": "Merkez.county","area_km2": 137.8865,"hist_schema_id": "Elevation0-9000","hist_area_km2": {"0": 8.9758,"25": 15.9129,"50": 15.5603,"75": 14.1299,"100": 9.7212,"125": 8.0156,"150": 6.3583,"175": 5.5704,"200": 4.7819,"225": 4.7819,"250": 4.3796,"275": 3.6392,"300": 4.0581,"325": 4.171,"350": 3.9295,"375": 2.8344,"400": 3.2693,"425": 2.9795,"450": 2.6574,"475": 2.1904,"500": 1.7233,"525": 1.53,"550": 1.3851,"575": 0.9825,"600": 0.7087,"625": 0.7409,"650": 0.6443,"675": 0.5799,"700": 0.5155,"725": 0.4349,"750": 0.2577,"775": 0.1933,"800": 0.2416,"825": 0.0322}}}