{"type": "Feature","bbox": [27.3743,37.7781,27.7201,37.9855],"geometry": {"type": "MultiPolygon","coordinates": [[[[27.7201,37.9855,660.037],[27.6802,37.9836,587.2446],[27.5487,37.9844,491.3741],[27.5318,37.9837,402.174],[27.5199,37.9811,475.0089],[27.5085,37.973,469.8769],[27.4982,37.948,224.073],[27.4894,37.9405,404.3403],[27.4717,37.9333,400.724],[27.4417,37.9161,519.6533],[27.4083,37.9078,602.17],[27.4132,37.8803,219.4016],[27.4133,37.8642,172.6238],[27.411,37.8524,234.3155],[27.4057,37.8456,227.858],[27.3899,37.8358,215.8977],[27.3743,37.8222,352.7808],[27.4262,37.8212,964.1112],[27.4414,37.8236,847.7074],[27.4592,37.8301,680.4398],[27.4704,37.8323,536.2007],[27.4932,37.8338,164.4732],[27.5097,37.8315,19.8478],[27.5151,37.8249,16.1779],[27.5145,37.8199,16.4143],[27.5115,37.8154,15.5953],[27.478,37.7886,12.4298],[27.4785,37.7828,12.6023],[27.4861,37.7781,12.9312],[27.4934,37.7792,13.7412],[27.5027,37.7858,12.4728],[27.5266,37.7817,13.4171],[27.5531,37.7873,15.2231],[27.5603,37.7914,13.7031],[27.5708,37.8024,16.2815],[27.5821,37.8069,15.8165],[27.5952,37.8053,14.6523],[27.6206,37.7913,17.0252],[27.6355,37.7911,17.6578],[27.6394,37.826,20.4717],[27.6504,37.8477,32.2009],[27.6552,37.8636,43.0066],[27.6797,37.9032,367.8714],[27.6866,37.9243,329.0566],[27.7102,37.9613,635.5145],[27.7201,37.9855,660.037]]]]}
,"properties": {"GID_2": "TUR.11.5_1","GID_0": "TUR","country": "Turkey","GID_1": "TUR.11_1","province": "Aydin","NL_NAME_1": "NA","county": "Germencik","VARNAME_2": "NA","NL_NAME_2": "NA","TYPE_2": "District","ENGTYPE_2": "District","CC_2": "NA","HASC_2": "TR.AY.GE","name": "Germencik.county","area_km2": 409.0065,"hist_schema_id": "Elevation0-9000","hist_area_km2": {"0": 1.7929,"25": 73.5755,"50": 44.4061,"75": 28.9027,"100": 16.8676,"125": 15.8945,"150": 14.1699,"175": 14.7378,"200": 16.0757,"225": 15.7242,"250": 15.8245,"275": 14.3517,"300": 13.9495,"325": 13.4972,"350": 13.7142,"375": 13.8635,"400": 13.829,"425": 11.8566,"450": 10.3172,"475": 9.4307,"500": 7.6254,"525": 6.3876,"550": 5.1336,"575": 4.5315,"600": 3.4112,"625": 2.5921,"650": 1.2712,"675": 1.0375,"700": 0.636,"725": 0.77,"750": 0.5859,"775": 0.519,"800": 0.3683,"825": 0.3182,"850": 0.2344,"875": 0.1842,"900": 0.1172,"925": 0.1172,"950": 0.1842,"975": 0.134,"1000": 0.067}}}