{"type": "Feature","bbox": [38.6762,38.2677,38.8694,38.4147],"geometry": {"type": "MultiPolygon","coordinates": [[[[38.6842,38.412,688.5],[38.6767,38.3946,705.2838],[38.6762,38.3518,1069.1255],[38.6796,38.3373,1143.9099],[38.6878,38.3277,1485.3381],[38.6987,38.3199,1485.5249],[38.7273,38.3059,2026.4617],[38.7328,38.2998,2172.7275],[38.7384,38.2858,2160.1633],[38.7436,38.2801,2092.623],[38.7744,38.2688,1614.2955],[38.7849,38.2677,1497.3925],[38.795,38.269,1490.8706],[38.8076,38.2769,1345.6841],[38.8314,38.3142,1888.2223],[38.8539,38.3372,1527.2977],[38.8694,38.3658,1347.3899],[38.8649,38.3748,1186.7361],[38.8494,38.3914,1062.4331],[38.8292,38.4021,957.7871],[38.8217,38.4044,957.2622],[38.7974,38.4064,1061.0836],[38.7388,38.4068,688.5],[38.7269,38.4082,688.5],[38.7024,38.4147,688.5],[38.6927,38.4143,688.5],[38.6842,38.412,688.5]]]]}
,"properties": {"GID_2": "TUR.55.9_1","GID_0": "TUR","country": "Turkey","GID_1": "TUR.55_1","province": "Malatya","NL_NAME_1": "NA","county": "Kale","VARNAME_2": "NA","NL_NAME_2": "NA","TYPE_2": "District","ENGTYPE_2": "District","CC_2": "NA","HASC_2": "TR.ML.KA","name": "Kale.county","area_km2": 190.1859,"hist_schema_id": "Elevation0-9000","hist_area_km2": {"700": 12.1295,"725": 5.0188,"750": 4.0884,"775": 3.3739,"800": 3.0084,"825": 3.025,"850": 2.6761,"875": 2.7591,"900": 2.4765,"925": 1.8117,"950": 1.4794,"975": 1.5791,"1000": 1.8285,"1025": 1.7619,"1050": 1.6123,"1075": 2.4103,"1100": 1.9948,"1125": 2.3939,"1150": 1.8951,"1175": 1.6124,"1200": 2.1112,"1225": 1.7787,"1250": 2.1278,"1275": 2.1278,"1300": 2.1612,"1325": 2.1944,"1350": 2.2444,"1375": 2.4939,"1400": 2.4108,"1425": 2.2611,"1450": 2.6603,"1475": 2.4443,"1500": 2.7605,"1525": 2.9434,"1550": 2.7107,"1575": 3.0102,"1600": 2.6609,"1625": 2.8605,"1650": 2.661,"1675": 2.794,"1700": 2.6444,"1725": 2.9102,"1750": 3.0602,"1775": 3.4094,"1800": 2.8939,"1825": 3.4262,"1850": 3.7089,"1875": 3.0937,"1900": 4.0584,"1925": 3.5928,"1950": 3.5594,"1975": 3.8423,"2000": 3.6761,"2025": 3.5429,"2050": 3.2268,"2075": 3.4265,"2100": 3.9424,"2125": 3.6429,"2150": 2.861,"2175": 2.5782,"2200": 2.5947,"2225": 2.6281,"2250": 2.3953,"2275": 1.7965,"2300": 1.4637,"2325": 1.3805,"2350": 1.2308,"2375": 0.6819,"2400": 0.3992,"2425": 0.1663}}}