{"type":"Feature","properties":{"GID_2":"TUR.39.7_1","GID_0":"TUR","country":"Turkey","GID_1":"TUR.39_1","province":"Isparta","NL_NAME_1":"NA","county":"Merkez","VARNAME_2":"Isparta","NL_NAME_2":"NA","TYPE_2":"District","ENGTYPE_2":"District","CC_2":"NA","HASC_2":"TR.IP.IP","name":"Merkez.county"},
"geometry":{"type": "MultiPolygon","coordinates": [[[[30.7153,37.6372,913.9838],[30.736,37.6446,1042.1729],[30.743,37.6493,1354.2582],[30.7579,37.6817,937.187],[30.7572,37.6895,1117.2615],[30.75,37.7031,1173.2709],[30.7474,37.7118,966.7307],[30.7458,37.7432,2150.6633],[30.7479,37.7649,2181.7029],[30.7578,37.7845,1705.6716],[30.7608,37.7966,1606.9669],[30.7617,37.8837,1000.0933],[30.7605,37.893,1058.1531],[30.7569,37.9018,1242.2595],[30.7448,37.9183,1188.5569],[30.7393,37.9232,1230.9365],[30.7079,37.9231,973.4683],[30.6917,37.9215,946.2117],[30.6439,37.9037,938.9765],[30.6285,37.9005,931.0221],[30.5213,37.9008,928.0667],[30.4926,37.8976,955.4807],[30.4806,37.8915,1078.96],[30.448,37.8688,981.2954],[30.4296,37.8614,949.0262],[30.4026,37.8457,872.4703],[30.3811,37.8401,851.6678],[30.3766,37.8376,851.2551],[30.371,37.8303,850.0162],[30.3815,37.8199,870.4661],[30.4071,37.7801,1310.0514],[30.4232,37.766,1286.2737],[30.4537,37.7434,1311.9766],[30.4771,37.7335,1574.2869],[30.5042,37.717,1571.6931],[30.5408,37.7036,1530.9834],[30.56,37.7019,1728.5709],[30.6437,37.7016,993.6868],[30.6581,37.6988,931.3901],[30.6853,37.6887,1403.674],[30.7026,37.678,1055.2891],[30.7131,37.6661,842.5654],[30.7158,37.6551,846.9705],[30.7153,37.6372,913.9838]]]]}}