{"type":"Feature","properties":{"GID_2":"TUR.57.8_1","GID_0":"TUR","country":"Turkey","GID_1":"TUR.57_1","province":"Mardin","NL_NAME_1":"NA","county":"Ömerli","VARNAME_2":"NA","NL_NAME_2":"NA","TYPE_2":"District","ENGTYPE_2":"District","CC_2":"NA","HASC_2":"TR.MR.OM","name":"Ömerli.county"},
"geometry":{"type": "MultiPolygon","coordinates": [[[[40.9121,37.4383,1119.6708],[40.9257,37.4357,1092.3317],[40.9351,37.4316,1075.3861],[40.9568,37.4162,1113.4232],[40.9657,37.4074,1107.1342],[40.9698,37.3997,1083.8757],[40.9703,37.3916,1094.7369],[40.9684,37.3839,1057.0038],[40.9722,37.3743,1033.1694],[40.9834,37.3556,1039.1091],[40.99,37.3344,1058.5155],[41.0006,37.3227,1018.4574],[41.0179,37.3119,1004.1011],[41.0483,37.3008,988.222],[41.0723,37.2966,978.3415],[41.0934,37.2894,1020.6466],[41.107,37.2868,1044.0197],[41.1106,37.2973,977.4958],[41.1175,37.3087,976.2983],[41.1204,37.3169,1025.7329],[41.1232,37.3527,932.3947],[41.1278,37.3599,908.1362],[41.1383,37.3659,907.6567],[41.152,37.3656,862.5663],[41.1769,37.3509,904.653],[41.1898,37.3475,865.563],[41.1995,37.3486,826.8208],[41.2247,37.3556,895.9351],[41.2724,37.3565,935.1866],[41.2887,37.3468,925.5114],[41.3083,37.3402,913.9009],[41.2962,37.3599,936.6973],[41.2637,37.388,944.2086],[41.251,37.4066,924.757],[41.2236,37.435,994.6444],[41.1995,37.4466,981.9342],[41.156,37.4623,989.1376],[41.1424,37.4693,968.4307],[41.1249,37.4855,977.3061],[41.1111,37.5139,1087.6672],[41.0764,37.4983,1052.702],[41.0424,37.4863,1099.7692],[40.9661,37.4837,1095.4554],[40.9272,37.4732,1095.9922],[40.9137,37.4809,1082.9587],[40.8972,37.4849,1067.728],[40.9023,37.4721,1104.9377],[40.9122,37.4616,1013.5701],[40.9121,37.4383,1119.6708]]]]}}