{"type":"Feature","properties":{"GID_2":"TUR.7.8_1","GID_0":"TUR","country":"Turkey","GID_1":"TUR.7_1","province":"Ankara","NL_NAME_1":"NA","county":"Çubuk","VARNAME_2":"NA","NL_NAME_2":"NA","TYPE_2":"District","ENGTYPE_2":"District","CC_2":"NA","HASC_2":"TR.AN.CU","name":"Çubuk.county"},
"geometry":{"type": "MultiPolygon","coordinates": [[[[33.2163,40.1217,1414.032],[33.2145,40.1422,1322.5056],[33.2176,40.1556,1359.855],[33.226,40.1654,1460.7502],[33.2549,40.1898,1535.2317],[33.2728,40.2182,1380.3866],[33.2738,40.2264,1437.4844],[33.2725,40.2345,1427.9938],[33.2631,40.2507,1298.2959],[33.2604,40.2593,1201.5264],[33.2595,40.2806,1043.3066],[33.2628,40.2953,999.238],[33.2714,40.309,883.4041],[33.2803,40.3284,808.4224],[33.2579,40.3341,828.3085],[33.231,40.3447,949.4324],[33.221,40.3512,884.9772],[33.2041,40.3763,942.6702],[33.1941,40.4047,1140.7688],[33.1825,40.4235,1271.9067],[33.1717,40.4348,1194.4698],[33.1476,40.4525,1234.3806],[33.1232,40.4627,1527.3739],[33.1126,40.4692,1657.7839],[33.1016,40.4791,1802.4351],[33.0964,40.4878,1688.3298],[33.0701,40.5021,1514.0481],[32.9984,40.5566,1538.9238],[32.9874,40.5301,1720.1847],[32.9664,40.4999,1817.4041],[32.9375,40.4779,1728.7865],[32.9128,40.4676,1472.6228],[32.8985,40.4589,1469.3335],[32.8803,40.4447,1495.9231],[32.8713,40.4326,1512.2148],[32.869,40.4186,1877.7864],[32.8701,40.3754,1571.5045],[32.8739,40.3649,1519.1603],[32.897,40.3307,1531.3811],[32.8994,40.3199,1274.9653],[32.8968,40.3091,1345.8739],[32.886,40.2994,1410.0392],[32.8101,40.2715,1127.9543],[32.8008,40.2668,1156.8188],[32.7899,40.2589,1043.9073],[32.7817,40.2492,990.0482],[32.7789,40.2382,1001.8315],[32.7806,40.224,927.4657],[32.7861,40.2115,971.2108],[32.7911,40.2077,991.3386],[32.7941,40.1941,1111.6857],[32.7937,40.1249,1290.1128],[32.7966,40.1111,1299.7615],[32.8111,40.0879,1439.0662],[32.8223,40.0786,1372.8525],[32.8281,40.0759,1363.0034],[32.8546,40.0652,1221.9948],[32.8783,40.058,1134.123],[32.8867,40.0575,1128.5764],[32.9101,40.063,1006.202],[32.9276,40.0614,1003.8996],[32.9401,40.0552,1019.5497],[32.9506,40.0469,921.9006],[32.9667,40.0263,1143.7064],[32.985,40.0281,1156.5288],[32.9991,40.0269,1150.1736],[33.0113,40.0223,1133.0166],[33.0278,40.0124,1164.623],[33.037,40.0393,1170.0791],[33.0515,40.0628,1145.1558],[33.0687,40.0883,1060.655],[33.0887,40.1089,1053.4249],[33.098,40.1229,1071.4402],[33.1048,40.1284,1072.3342],[33.1139,40.1321,1078.2754],[33.1281,40.1328,1097.2104],[33.1667,40.1226,1163.026],[33.2163,40.1217,1414.032]]]]}}