{"type": "Feature","bbox": [37.9908,40.8862,38.1232,40.9807],"geometry": {"type": "MultiPolygon","coordinates": [[[[38.1232,40.9549,0.7854],[38.1199,40.9562,1.4011],[38.1221,40.9574,0.0],[38.1087,40.9588,1.0123],[38.0976,40.9632,10.4365],[38.0782,40.9629,15.9428],[38.076,40.9649,1.1229],[38.0654,40.966,4.9421],[38.0651,40.9701,0.0],[38.0635,40.9668,6.9775],[38.0593,40.9685,2.6182],[38.0451,40.9688,0.0],[38.0435,40.9704,6.9626],[38.0476,40.9707,0.0],[38.0435,40.9715,0.0],[38.0415,40.9707,2.9744],[38.0401,40.9724,0.0],[38.0337,40.9735,0.89],[38.024,40.9735,42.1568],[38.0207,40.9771,0.0],[38.0101,40.9774,0.0],[38.0007,40.9807,0.0],[37.9937,40.9804,2.796],[37.9915,40.9611,212.874],[37.9908,40.9324,251.2657],[37.9921,40.9205,255.6757],[37.9944,40.9152,476.5889],[38.0006,40.9095,609.0422],[38.027,40.8937,801.2842],[38.0376,40.8889,611.0701],[38.0577,40.8862,626.3117],[38.09,40.8865,574.3828],[38.0983,40.9068,470.5129],[38.1089,40.9222,348.7878],[38.1186,40.9415,181.6526],[38.1232,40.9549,0.7854]]]]}
,"properties": {"GID_2": "TUR.63.7_1","GID_0": "TUR","country": "Turkey","GID_1": "TUR.63_1","province": "Ordu","NL_NAME_1": "NA","county": "Gülyalı","VARNAME_2": "NA","NL_NAME_2": "NA","TYPE_2": "District","ENGTYPE_2": "District","CC_2": "NA","HASC_2": "TR.OR.GL","name": "Gülyalı.county","area_km2": 84.0935,"hist_schema_id": "Elevation0-9000","hist_area_km2": {"0": 2.27326,"25": 2.94604,"50": 2.56193,"75": 2.6741,"100": 3.15455,"125": 2.88244,"150": 3.39505,"175": 3.90758,"200": 4.56431,"225": 3.65162,"250": 3.76392,"275": 3.97223,"300": 3.73219,"325": 3.10758,"350": 2.93138,"375": 3.0919,"400": 2.99581,"425": 2.89976,"450": 2.77175,"475": 2.4513,"500": 2.51553,"525": 2.48345,"550": 2.21104,"575": 1.87462,"600": 1.50609,"625": 1.58617,"650": 1.26573,"675": 0.86524,"700": 0.9614,"725": 0.88127,"750": 0.68902,"775": 0.86527,"800": 0.68903,"825": 0.60891,"850": 0.48072,"875": 0.38458,"900": 0.27242,"925": 0.17626,"950": 0.04808}}}