{"type":"Feature","properties":{"GID_2":"TUR.24.11_1","GID_0":"TUR","country":"Turkey","GID_1":"TUR.24_1","province":"Çorum","NL_NAME_1":"NA","county":"Ortaköy","VARNAME_2":"NA","NL_NAME_2":"NA","TYPE_2":"District","ENGTYPE_2":"District","CC_2":"NA","HASC_2":"TR.CM.OR","name":"Ortaköy.county"},
"geometry":{"type": "MultiPolygon","coordinates": [[[[35.3437,40.3583,817.094],[35.3156,40.3493,1076.2021],[35.2915,40.3348,797.0592],[35.2705,40.326,758.6586],[35.2408,40.3086,847.9501],[35.1844,40.2871,1079.7554],[35.1675,40.2832,1199.6444],[35.1678,40.2132,1007.0481],[35.2886,40.2137,790.0515],[35.3043,40.2171,812.2884],[35.3323,40.2289,754.8431],[35.333,40.2728,578.957],[35.3357,40.2819,731.2171],[35.3447,40.2987,667.6303],[35.347,40.3113,535.6328],[35.347,40.3375,674.857],[35.3437,40.3583,817.094]]]]}}