{"type":"Feature","properties":{"GID_2":"TUR.16.2_1","GID_0":"TUR","country":"Turkey","GID_1":"TUR.16_1","province":"Bilecik","NL_NAME_1":"NA","county":"Gölpazarı","VARNAME_2":"NA","NL_NAME_2":"NA","TYPE_2":"District","ENGTYPE_2":"District","CC_2":"NA","HASC_2":"TR.BC.GO","name":"Gölpazarı.county"},
"geometry":{"type": "MultiPolygon","coordinates": [[[[30.1829,40.1641,487.9048],[30.2347,40.1811,573.7318],[30.3068,40.1823,1231.5126],[30.3298,40.1792,916.978],[30.3596,40.163,611.7088],[30.3828,40.1584,489.3715],[30.403,40.183,830.577],[30.4057,40.1939,888.8301],[30.4074,40.2221,707.7064],[30.4109,40.2301,676.5153],[30.4174,40.2372,714.4033],[30.4341,40.2487,830.8618],[30.4677,40.261,1130.9717],[30.5183,40.2641,1070.2775],[30.5287,40.2669,1044.9778],[30.5378,40.2719,1123.5499],[30.5482,40.2802,977.1695],[30.5544,40.2873,852.8376],[30.5822,40.3318,830.4813],[30.5868,40.3448,838.4313],[30.5701,40.3484,826.2606],[30.4656,40.389,536.5368],[30.4514,40.3909,387.4067],[30.4328,40.3905,458.5913],[30.4116,40.3935,442.8042],[30.3935,40.3996,549.1119],[30.3787,40.4025,573.7571],[30.3037,40.4029,603.4004],[30.2881,40.4003,518.6257],[30.2777,40.3961,625.9923],[30.2691,40.381,453.1545],[30.2565,40.3683,256.9619],[30.2532,40.3578,372.2646],[30.2478,40.3506,612.3328],[30.2221,40.3301,474.9098],[30.2103,40.3237,478.4911],[30.1562,40.3028,388.5692],[30.1432,40.2992,271.0804],[30.1142,40.2994,293.743],[30.0762,40.3102,144.5036],[30.0755,40.2564,110.4148],[30.0767,40.2473,108.0],[30.0807,40.2393,190.6448],[30.0871,40.2334,148.8737],[30.0954,40.2291,182.7448],[30.1222,40.2196,345.3007],[30.1497,40.2147,558.3966],[30.1649,40.2066,334.4926],[30.1747,40.1979,269.9098],[30.1794,40.1901,190.4288],[30.1829,40.1641,487.9048]]]]}}