{"type":"Feature","properties":{"GID_2":"TUR.78.1_1","GID_0":"TUR","country":"Turkey","GID_1":"TUR.78_1","province":"Van","NL_NAME_1":"NA","county":"Bahçesaray","VARNAME_2":"NA","NL_NAME_2":"NA","TYPE_2":"District","ENGTYPE_2":"District","CC_2":"NA","HASC_2":"TR.VA.BC","name":"Bahçesaray.county"},
"geometry":{"type": "MultiPolygon","coordinates": [[[[42.8357,38.0655,2169.3257],[42.8609,38.0635,2672.3726],[42.8821,38.0565,2947.3945],[42.8931,38.0547,2638.8372],[42.9473,38.0531,3167.5657],[42.9642,38.0471,2950.1809],[42.975,38.0391,3059.6655],[42.9836,38.0298,2842.219],[42.9976,38.0062,2449.8196],[43.0053,37.9826,1646.7034],[43.0199,37.9592,1740.9889],[43.0391,37.9368,2784.0198],[43.0623,37.9461,2684.3589],[43.0958,37.9495,2789.3684],[43.1014,37.952,2873.9023],[43.1048,37.9563,2880.2559],[43.1058,37.9613,2749.8562],[43.1032,37.9716,2248.8418],[43.0807,37.9936,1933.427],[43.0785,37.9985,1847.5691],[43.0784,38.0039,1546.6586],[43.0844,38.0136,1699.9368],[43.1167,38.0402,2283.7373],[43.1209,38.0509,2496.9321],[43.1197,38.0619,2897.1006],[43.115,38.0695,2936.0454],[43.108,38.0761,2651.3479],[43.0566,38.1147,2309.2385],[43.0506,38.1215,2209.9065],[43.0485,38.1267,2376.1094],[43.0486,38.1321,2502.575],[43.0508,38.1371,2513.1714],[43.0726,38.1596,2252.9438],[43.0799,38.1802,2242.9919],[43.025,38.183,2396.447],[42.9961,38.1915,2483.062],[42.9499,38.1952,3149.0337],[42.9284,38.2015,3224.564],[42.9187,38.2027,3197.6562],[42.9057,38.1995,3035.7966],[42.8888,38.1893,3137.0967],[42.8759,38.184,3009.0493],[42.8374,38.1815,2785.9966],[42.826,38.1801,2733.7778],[42.8163,38.177,2370.394],[42.799,38.1684,2128.73],[42.7833,38.1531,2652.1899],[42.7772,38.1437,2199.1255],[42.7761,38.1326,1844.3408],[42.7785,38.1245,1943.9497],[42.7817,38.1199,2262.7427],[42.8007,38.1016,1928.7061],[42.812,38.0853,1754.9517],[42.8357,38.0655,2169.3257]]]]}}