{"type": "Feature","bbox": [38.6644,39.3374,39.4301,39.8841],"geometry": {"type": "MultiPolygon","coordinates": [[[[38.859,39.3374,2604.3916],[38.8757,39.3409,2765.6121],[38.9661,39.3757,2917.4197],[39.0141,39.4103,2809.2659],[39.0469,39.4255,2631.4727],[39.089,39.4569,3134.4536],[39.1038,39.4638,3001.8057],[39.1252,39.4674,3236.1201],[39.1536,39.4758,2955.9062],[39.2146,39.4787,2808.002],[39.24,39.4864,2431.0942],[39.2746,39.4906,2899.3984],[39.2961,39.4977,2672.3594],[39.3075,39.4995,2731.5061],[39.3349,39.4983,2314.7434],[39.3563,39.4912,2427.4912],[39.3666,39.4895,2416.3406],[39.3929,39.4908,2584.3584],[39.4102,39.5214,2608.4221],[39.4137,39.5303,2592.0742],[39.4163,39.5951,2303.1316],[39.4189,39.6036,2002.5278],[39.4287,39.6199,1591.7839],[39.4301,39.6307,1687.0415],[39.4278,39.6387,1812.4092],[39.4195,39.6468,2029.1307],[39.4106,39.6505,1703.9805],[39.3869,39.6544,1412.6442],[39.3656,39.6612,1211.3452],[39.3335,39.664,1526.9275],[39.3234,39.6668,1451.9929],[39.3089,39.6754,1966.4839],[39.2691,39.7068,2196.9307],[39.2522,39.7179,2323.4285],[39.2188,39.7303,2406.137],[39.1919,39.7354,2595.9922],[39.1815,39.7416,2614.4973],[39.1492,39.7892,2257.1541],[39.1474,39.7968,2096.8928],[39.1501,39.8044,2304.7007],[39.1565,39.8101,2174.0962],[39.1807,39.8194,2263.0291],[39.1943,39.8281,2279.4141],[39.1982,39.8322,2343.8362],[39.2,39.8373,2450.5005],[39.1982,39.8421,2546.1826],[39.1943,39.8457,2604.8115],[39.1889,39.8484,2594.1333],[39.1788,39.8501,2516.0547],[39.153,39.8497,2156.3438],[39.1318,39.8464,2268.7517],[39.1186,39.8415,2269.604],[39.1099,39.8409,2182.29],[39.1026,39.8444,2181.8838],[39.0976,39.8556,2093.1748],[39.0687,39.8652,1888.9628],[39.0426,39.8809,2021.9851],[39.0289,39.8841,1951.8982],[39.0112,39.8826,1891.4529],[38.9811,39.8711,2098.6255],[38.972,39.8661,1999.5966],[38.9564,39.8538,2228.8904],[38.9389,39.8351,2352.4194],[38.9365,39.8306,2274.5957],[38.9352,39.823,2059.7144],[38.9359,39.8121,1854.7334],[38.9437,39.7915,1651.092],[38.9418,39.785,1645.371],[38.9309,39.7666,1813.4049],[38.899,39.7391,1924.0353],[38.8871,39.7225,2253.9436],[38.8765,39.7112,2017.5217],[38.8469,39.6898,1900.5696],[38.8199,39.6795,2218.0825],[38.8038,39.6773,2150.6667],[38.773,39.6857,2255.3137],[38.7143,39.6884,1780.5448],[38.6773,39.7048,1972.6951],[38.6796,39.6833,1913.0426],[38.679,39.6647,1713.6504],[38.6758,39.653,1718.4307],[38.6664,39.6364,1858.4338],[38.6644,39.6182,1730.7346],[38.6663,39.6092,1709.9053],[38.669,39.604,1712.5101],[38.6917,39.5811,1943.7065],[38.7027,39.5609,1633.8346],[38.7026,39.5565,1637.9954],[38.6964,39.5434,1713.8042],[38.6942,39.5325,1667.1875],[38.6935,39.5153,1712.5443],[38.6956,39.5043,1582.8439],[38.7005,39.4972,1350.0155],[38.7077,39.4919,961.897],[38.7528,39.4752,1384.49],[38.7649,39.4667,1518.4373],[38.7809,39.4413,1697.0508],[38.786,39.4226,1950.4941],[38.7908,39.415,1877.0394],[38.8062,39.4025,1999.3024],[38.8303,39.3921,2196.4329],[38.8416,39.383,2382.4578],[38.8561,39.3598,2813.4438],[38.8583,39.3517,2588.5845],[38.859,39.3374,2604.3916]]]]}
,"properties": {"GID_2": "TUR.30.3_1","GID_0": "TUR","country": "Turkey","GID_1": "TUR.30_1","province": "Erzincan","NL_NAME_1": "NA","county": "Kemah","VARNAME_2": "NA","NL_NAME_2": "NA","TYPE_2": "District","ENGTYPE_2": "District","CC_2": "NA","HASC_2": "TR.EN.KH","name": "Kemah.county","area_km2": 2131.065,"hist_schema_id": "Elevation0-9000","hist_area_km2": {"925": 0.785,"950": 3.597,"975": 7.079,"1000": 8.19,"1025": 11.899,"1050": 15.247,"1075": 18.301,"1100": 25.896,"1125": 29.879,"1150": 29.405,"1175": 32.638,"1200": 35.413,"1225": 34.726,"1250": 35.885,"1275": 36.521,"1300": 37.057,"1325": 38.082,"1350": 38.684,"1375": 39.644,"1400": 37.945,"1425": 38.028,"1450": 38.714,"1475": 38.599,"1500": 38.028,"1525": 38.011,"1550": 38.631,"1575": 37.912,"1600": 39.48,"1625": 38.597,"1650": 39.119,"1675": 39.495,"1700": 40.295,"1725": 38.123,"1750": 35.413,"1775": 35.574,"1800": 32.945,"1825": 31.183,"1850": 28.993,"1875": 28.567,"1900": 28.712,"1925": 30.403,"1950": 28.282,"1975": 28.527,"2000": 27.302,"2025": 25.426,"2050": 24.138,"2075": 23.979,"2100": 24.11,"2125": 22.951,"2150": 22.118,"2175": 20.586,"2200": 21.162,"2225": 20.249,"2250": 22.144,"2275": 20.608,"2300": 20.122,"2325": 20.009,"2350": 19.215,"2375": 18.042,"2400": 18.044,"2425": 18.339,"2450": 17.852,"2475": 18.41,"2500": 17.298,"2525": 18.938,"2550": 17.583,"2575": 19.352,"2600": 19.224,"2625": 19.16,"2650": 19.061,"2675": 20.177,"2700": 19.163,"2725": 17.298,"2750": 17.25,"2775": 16.286,"2800": 15.336,"2825": 14.945,"2850": 13.619,"2875": 12.376,"2900": 12.524,"2925": 11.083,"2950": 10.69,"2975": 9.266,"3000": 8.104,"3025": 7.547,"3050": 7.04,"3075": 6.336,"3100": 5.747,"3125": 5.697,"3150": 4.486,"3175": 3.29,"3200": 2.668,"3225": 2.029,"3250": 1.506,"3275": 1.097,"3300": 1.096,"3325": 0.393,"3350": 0.098}}}