{"type": "Feature","bbox": [37.9463,39.9456,38.3052,40.4439],"geometry": {"type": "MultiPolygon","coordinates": [[[[38.1857,40.4439,2100.2109],[38.1721,40.4414,2246.8975],[38.1599,40.4355,1980.8011],[38.1318,40.4129,1852.1077],[38.0827,40.3384,1706.9985],[38.0681,40.315,1900.0671],[38.0663,40.3069,1846.8994],[38.0687,40.2936,1493.103],[38.0764,40.2811,1551.0432],[38.0769,40.2765,1299.5056],[38.0749,40.2721,1171.1058],[38.0501,40.2577,1409.5416],[38.0428,40.2633,1445.3761],[38.0362,40.2657,1490.8621],[38.0312,40.2648,1443.0258],[38.026,40.2608,1466.4828],[38.0254,40.255,1360.2134],[38.0351,40.2461,1207.776],[38.0386,40.2356,918.9411],[38.0475,40.2221,855.5679],[38.0497,40.2125,800.8956],[38.0474,40.2003,915.4323],[38.0373,40.1892,1004.0162],[37.9811,40.1451,1901.7357],[37.9622,40.1173,2375.5117],[37.9463,40.0884,2473.4492],[37.9481,40.0725,2323.678],[37.9712,40.0355,2653.4736],[37.9788,40.012,1864.0797],[37.9955,39.9866,2051.3589],[38.0212,39.9663,1892.9513],[38.081,40.0153,1932.7728],[38.0887,40.0203,1984.2214],[38.097,40.023,2008.7384],[38.1045,40.0223,1915.0244],[38.1101,40.0186,1913.9563],[38.121,40.0033,1837.8158],[38.1418,39.9676,1775.8062],[38.1504,39.9599,1884.4954],[38.159,39.9562,1973.345],[38.18,39.9525,1809.4136],[38.2001,39.9456,1844.0],[38.2138,39.9458,1983.106],[38.2277,39.9528,1864.0741],[38.2597,39.9782,2325.6707],[38.2555,39.9913,2007.9907],[38.2405,40.0143,1784.4729],[38.231,40.0213,1598.4818],[38.2127,40.028,1521.9429],[38.202,40.0341,1548.4387],[38.1935,40.0414,1354.3347],[38.1909,40.048,1289.5887],[38.1961,40.0557,1112.1001],[38.2112,40.0648,1147.8667],[38.218,40.0819,1283.0066],[38.2362,40.1099,1216.6545],[38.3052,40.1644,914.5064],[38.2827,40.1804,1072.2402],[38.2564,40.1926,1232.5997],[38.25,40.1984,1353.507],[38.2471,40.2034,1516.4738],[38.2449,40.2149,1200.6035],[38.2441,40.248,929.9915],[38.2418,40.2565,1018.2601],[38.232,40.2759,1171.7135],[38.2288,40.3208,1081.3265],[38.2181,40.3431,1424.5906],[38.2131,40.3701,2098.4485],[38.2031,40.3897,2052.0232],[38.1982,40.4167,1720.3622],[38.1891,40.4334,1779.2979],[38.1857,40.4439,2100.2109]]]]}
,"properties": {"GID_2": "TUR.72.14_1","GID_0": "TUR","country": "Turkey","GID_1": "TUR.72_1","province": "Sivas","NL_NAME_1": "NA","county": "Suşehri","VARNAME_2": "NA","NL_NAME_2": "NA","TYPE_2": "District","ENGTYPE_2": "District","CC_2": "NA","HASC_2": "TR.SV.SU","name": "Suşehri.county","area_km2": 874.0445,"hist_schema_id": "Elevation0-9000","hist_area_km2": {"725": 1.1008,"750": 7.0566,"775": 4.3052,"800": 4.7586,"825": 5.4059,"850": 44.5339,"875": 22.9196,"900": 20.0984,"925": 19.4171,"950": 20.8581,"975": 20.0634,"1000": 19.1244,"1025": 17.8943,"1050": 19.1101,"1075": 17.7002,"1100": 17.1171,"1125": 16.4054,"1150": 15.1739,"1175": 14.1218,"1200": 14.4471,"1225": 12.4548,"1250": 13.5086,"1275": 13.915,"1300": 12.6677,"1325": 12.1505,"1350": 12.5242,"1375": 12.7035,"1400": 12.7359,"1425": 12.8493,"1450": 13.4022,"1475": 13.1276,"1500": 13.224,"1525": 13.3406,"1550": 12.7568,"1575": 12.3528,"1600": 12.3851,"1625": 12.3531,"1650": 14.1218,"1675": 13.7802,"1700": 14.1016,"1725": 13.5838,"1750": 14.4917,"1775": 14.3263,"1800": 14.7789,"1825": 14.1138,"1850": 14.9066,"1875": 15.0682,"1900": 14.3855,"1925": 13.9496,"1950": 14.5013,"1975": 14.1263,"2000": 13.3643,"2025": 13.2874,"2050": 14.3058,"2075": 11.1317,"2100": 9.3682,"2125": 7.3932,"2150": 6.4893,"2175": 5.3058,"2200": 5.7277,"2225": 4.9822,"2250": 4.9986,"2275": 3.7497,"2300": 3.5061,"2325": 3.0673,"2350": 2.8726,"2375": 2.7263,"2400": 2.3205,"2425": 2.3532,"2450": 1.9961,"2475": 2.2394,"2500": 2.1258,"2525": 1.5741,"2550": 1.4443,"2575": 1.3306,"2600": 1.1521,"2625": 1.2495,"2650": 1.0061,"2675": 1.0224,"2700": 0.6491,"2725": 0.5193,"2750": 0.2758,"2775": 0.1622,"2800": 0.0487}}}