{"type":"Feature","properties":{"GID_2":"TUR.16.5_1","GID_0":"TUR","country":"Turkey","GID_1":"TUR.16_1","province":"Bilecik","NL_NAME_1":"NA","county":"Osmaneli","VARNAME_2":"NA","NL_NAME_2":"NA","TYPE_2":"District","ENGTYPE_2":"District","CC_2":"NA","HASC_2":"TR.BC.OS","name":"Osmaneli.county"},
"geometry":{"type": "MultiPolygon","coordinates": [[[[30.2777,40.3961,625.9923],[30.2579,40.3896,612.5999],[30.2415,40.38,476.6577],[30.2169,40.3779,387.347],[30.1872,40.3694,337.4947],[30.1379,40.3681,349.2621],[30.1195,40.3717,474.3654],[30.1059,40.38,323.4874],[30.0562,40.4185,294.3389],[30.0242,40.4331,346.0051],[29.9816,40.4656,343.2924],[29.963,40.4843,833.7802],[29.9549,40.5048,755.5604],[29.9448,40.5209,942.5098],[29.9415,40.5315,961.5704],[29.9247,40.5282,1137.2974],[29.8916,40.5151,1056.6938],[29.8569,40.4898,1090.377],[29.8389,40.4725,1103.1748],[29.8105,40.4282,405.3878],[29.8073,40.4205,245.3645],[29.8053,40.4101,245.4984],[29.8059,40.3454,446.8881],[29.8311,40.3433,314.1172],[29.8562,40.3357,555.3701],[29.8908,40.3316,304.2931],[29.9201,40.3231,559.8232],[30.0331,40.3213,291.9151],[30.0897,40.3074,114.0425],[30.1142,40.2994,293.743],[30.1432,40.2992,271.0804],[30.1804,40.3119,691.9078],[30.2103,40.3237,478.4911],[30.2221,40.3301,474.9098],[30.2478,40.3506,612.3328],[30.2532,40.3578,372.2646],[30.2565,40.3683,256.9619],[30.2691,40.381,453.1545],[30.2777,40.3961,625.9923]]]]}}