{"type":"Feature","properties":{"GID_2":"TUR.30.7_1","GID_0":"TUR","country":"Turkey","GID_1":"TUR.30_1","province":"Erzincan","NL_NAME_1":"NA","county":"Refahiye","VARNAME_2":"NA","NL_NAME_2":"NA","TYPE_2":"District","ENGTYPE_2":"District","CC_2":"NA","HASC_2":"TR.EN.RE","name":"Refahiye.county"},
"geometry":{"type": "MultiPolygon","coordinates": [[[[38.6773,39.7048,1972.6951],[38.7143,39.6884,1780.5448],[38.773,39.6857,2255.3137],[38.8038,39.6773,2150.6667],[38.8199,39.6795,2218.0825],[38.8469,39.6898,1900.5696],[38.8663,39.7029,2107.3838],[38.8833,39.7178,2315.2229],[38.899,39.7391,1924.0353],[38.9309,39.7666,1813.4049],[38.9418,39.785,1645.371],[38.9437,39.7915,1651.092],[38.9359,39.8121,1854.7334],[38.9352,39.823,2059.7144],[38.9365,39.8306,2274.5957],[38.9389,39.8351,2352.4194],[38.9564,39.8538,2228.8904],[38.972,39.8661,1999.5966],[39.0081,39.8816,1906.1964],[39.0182,39.8839,1910.9298],[39.0289,39.8841,1951.8982],[39.0426,39.8809,2021.9851],[39.0687,39.8652,1888.9628],[39.0976,39.8556,2093.1748],[39.1004,39.8831,2196.2603],[39.101,39.9757,2346.1631],[39.1046,39.988,2468.9612],[39.1157,40.0008,2545.9297],[39.1158,40.0125,2420.4084],[39.0871,40.0151,2367.1365],[39.0393,40.0332,2282.1663],[39.0091,40.0395,2286.1399],[38.9644,40.0567,2283.7288],[38.9285,40.0627,1977.8196],[38.8959,40.0572,1972.7952],[38.8743,40.0502,1909.4636],[38.8624,40.0483,1827.1023],[38.8244,40.0474,1830.4602],[38.7737,40.0488,1353.5988],[38.7681,40.0167,1203.9871],[38.7584,39.9969,1317.0333],[38.7553,39.9797,1502.9629],[38.7524,39.9718,1578.3763],[38.7461,39.9662,1655.0671],[38.7242,39.9566,1554.9982],[38.6998,39.9542,1488.3135],[38.5514,39.9548,1764.9601],[38.5352,39.9566,1994.7029],[38.5061,39.965,2109.9834],[38.4474,39.9694,1980.4705],[38.4298,39.9586,1990.5017],[38.4159,39.9468,1963.0906],[38.4113,39.9403,2073.156],[38.403,39.9213,2256.7205],[38.3829,39.8955,2440.0027],[38.3755,39.8745,2406.4194],[38.3659,39.8584,2052.2102],[38.3649,39.8447,2119.6299],[38.3703,39.8348,2282.6206],[38.375,39.8311,2250.2336],[38.3842,39.8274,2096.978],[38.4129,39.8269,1974.9861],[38.4233,39.8289,1883.0309],[38.4447,39.8363,1943.8625],[38.491,39.84,1955.7649],[38.5154,39.8475,1999.1854],[38.5222,39.8482,2027.0734],[38.5326,39.8466,2081.9668],[38.5443,39.8402,2184.5095],[38.5526,39.8317,2209.0298],[38.5544,39.8265,2215.7427],[38.5534,39.8218,2074.5073],[38.5436,39.8078,1867.0813],[38.539,39.8043,1907.0461],[38.5226,39.7972,1975.368],[38.506,39.7927,1944.3262],[38.4634,39.7913,1978.3369],[38.4505,39.7869,2132.5693],[38.4438,39.7811,1948.3287],[38.4411,39.7762,1952.4613],[38.4394,39.7569,1340.9232],[38.4528,39.7491,1506.7642],[38.4667,39.7458,1434.3165],[38.5248,39.745,1638.733],[38.5397,39.7434,1698.0857],[38.5611,39.7363,1734.2566],[38.5882,39.7309,1728.8724],[38.606,39.7245,1541.5776],[38.6332,39.7192,1486.7468],[38.6773,39.7048,1972.6951]]]]}}