{"type": "Feature","bbox": [32.0678,36.9908,32.6671,37.3048],"geometry": {"type": "MultiPolygon","coordinates": [[[[32.0927,37.0948,1721.4296],[32.1088,37.0854,1755.7646],[32.1496,37.0551,2088.7983],[32.1729,37.0456,1929.9111],[32.1833,37.0395,1870.6492],[32.2239,37.008,1802.2002],[32.2391,36.9941,1865.6973],[32.2538,36.9916,1762.152],[32.2752,36.9908,1853.4187],[32.2847,36.9929,1922.4695],[32.2915,36.9978,1907.5967],[32.3025,37.0124,1467.064],[32.3111,37.027,1358.5436],[32.3228,37.0381,1370.4359],[32.3374,37.047,1385.5958],[32.3715,37.059,1817.2133],[32.3953,37.0608,1571.0764],[32.44,37.0601,1534.1237],[32.4553,37.0577,1597.0647],[32.4804,37.0497,1517.2456],[32.5155,37.0488,1381.4531],[32.5305,37.051,1288.001],[32.5483,37.0575,1267.2683],[32.5754,37.0629,874.7319],[32.5966,37.0702,1429.271],[32.6319,37.076,1457.7031],[32.6354,37.0781,1494.9703],[32.648,37.0935,1862.9062],[32.6637,37.1194,1332.0405],[32.6671,37.1301,1328.1156],[32.6521,37.1417,1277.827],[32.6352,37.1451,1254.0909],[32.6061,37.1568,1263.9158],[32.5985,37.1641,1405.9967],[32.5967,37.1733,1408.4576],[32.5772,37.1883,1362.9436],[32.5579,37.1992,1353.5679],[32.5309,37.2093,1367.1295],[32.5072,37.2118,1386.1212],[32.4335,37.211,1528.9824],[32.4228,37.2124,1459.8611],[32.4167,37.2153,1445.3455],[32.4119,37.2227,1479.6443],[32.4119,37.237,1403.3452],[32.4146,37.2457,1430.365],[32.4242,37.262,1433.111],[32.4316,37.2939,1445.186],[32.3653,37.294,1428.1477],[32.3535,37.2961,1478.2618],[32.3317,37.303,1564.8525],[32.3152,37.3048,1582.7214],[32.2095,37.3042,1202.9829],[32.199,37.2827,1236.3002],[32.1903,37.269,1341.9209],[32.1835,37.2363,1258.7908],[32.173,37.2245,1250.4299],[32.143,37.2015,1350.5264],[32.1335,37.1924,1523.0601],[32.1289,37.1848,1532.0381],[32.1255,37.1637,1431.4878],[32.1219,37.157,1331.7554],[32.0986,37.145,1714.2028],[32.0678,37.1357,1893.7671],[32.0927,37.0948,1721.4296]]]]}
,"properties": {"GID_2": "TUR.53.6_1","GID_0": "TUR","country": "Turkey","GID_1": "TUR.53_1","province": "Konya","NL_NAME_1": "NA","county": "Bozkır","VARNAME_2": "NA","NL_NAME_2": "NA","TYPE_2": "District","ENGTYPE_2": "District","CC_2": "NA","HASC_2": "TR.KO.BO","name": "Bozkır.county","area_km2": 1048.2002,"hist_schema_id": "Elevation0-9000","hist_area_km2": {"875": 0.2538,"900": 0.609,"925": 0.6936,"950": 0.7782,"975": 1.0319,"1000": 0.998,"1025": 1.6576,"1050": 2.722,"1075": 4.2585,"1100": 6.4531,"1125": 8.6994,"1150": 10.5739,"1175": 15.9503,"1200": 14.0711,"1225": 18.1562,"1250": 26.3458,"1275": 35.4351,"1300": 43.4905,"1325": 49.5552,"1350": 55.4597,"1375": 60.4878,"1400": 69.4169,"1425": 73.9929,"1450": 68.4829,"1475": 62.1976,"1500": 51.3208,"1525": 41.3377,"1550": 34.8661,"1575": 28.7831,"1600": 25.2688,"1625": 21.6701,"1650": 19.102,"1675": 16.635,"1700": 16.3337,"1725": 16.894,"1750": 15.5272,"1775": 19.3349,"1800": 18.8965,"1825": 16.2591,"1850": 15.024,"1875": 13.686,"1900": 12.1797,"1925": 9.7099,"1950": 7.0206,"1975": 5.1597,"2000": 3.6878,"2025": 2.7746,"2050": 1.6583,"2075": 1.083,"2100": 0.6938,"2125": 0.4907,"2150": 0.3384,"2175": 0.2369,"2200": 0.2369,"2225": 0.2031,"2250": 0.0169}}}