{"type":"Feature","properties":{"GID_2":"TUR.17.4_1","GID_0":"TUR","country":"Turkey","GID_1":"TUR.17_1","province":"Bingöl","NL_NAME_1":"NA","county":"Kiğı","VARNAME_2":"NA","NL_NAME_2":"NA","TYPE_2":"District","ENGTYPE_2":"District","CC_2":"NA","HASC_2":"TR.BG.KI","name":"Kiğı.county"},
"geometry":{"type": "MultiPolygon","coordinates": [[[[40.3908,39.3829,2187.1177],[40.3711,39.3775,1835.9629],[40.3325,39.3515,2015.2656],[40.284,39.3327,2014.4829],[40.257,39.3171,2060.8936],[40.2241,39.3094,1832.942],[40.214,39.3027,1849.3127],[40.2021,39.2889,1585.0442],[40.2391,39.2763,1598.489],[40.2513,39.2677,1563.7188],[40.2675,39.2424,1290.7473],[40.2731,39.2208,1233.0127],[40.28,39.2032,1143.4202],[40.3141,39.211,1145.1669],[40.354,39.2261,1408.3154],[40.3627,39.2262,1306.8823],[40.3702,39.2225,1215.9023],[40.374,39.2188,1177.7372],[40.3875,39.1958,1627.1174],[40.3923,39.1681,1787.8979],[40.3978,39.1558,1788.1434],[40.4204,39.1616,1831.0571],[40.4213,39.1964,1672.7035],[40.4286,39.2197,1204.6591],[40.4252,39.2265,1304.8948],[40.4123,39.239,1396.5875],[40.4074,39.2465,1441.355],[40.4059,39.2575,1474.5369],[40.4082,39.2657,1516.061],[40.4119,39.2708,1612.5579],[40.422,39.2793,1785.4583],[40.4491,39.2943,1958.8435],[40.458,39.3061,1631.8506],[40.4601,39.3128,1502.6609],[40.4566,39.32,1572.4633],[40.447,39.328,1391.0996],[40.4381,39.3329,1458.0386],[40.4158,39.3413,1271.4382],[40.3995,39.3531,1774.6531],[40.3926,39.3632,1816.4395],[40.3908,39.3829,2187.1177]]]]}}