{"type": "Feature","bbox": [41.9222,39.1954,42.2221,39.4778],"geometry": {"type": "MultiPolygon","coordinates": [[[[41.9372,39.1954,2322.718],[41.959,39.1967,2218.8911],[41.9871,39.2051,2085.4263],[42.0226,39.2088,1761.3923],[42.0438,39.2158,1739.1998],[42.0743,39.2224,1731.9611],[42.0862,39.2293,1645.7706],[42.1247,39.2581,1524.5784],[42.152,39.2702,1621.707],[42.1856,39.2934,1622.2339],[42.1993,39.2995,1600.5229],[42.2185,39.3217,1659.0046],[42.2216,39.3295,1654.8745],[42.2221,39.3379,1711.0825],[42.2202,39.346,1722.011],[42.2121,39.3596,1554.4286],[42.206,39.3738,1689.535],[42.2004,39.3789,1845.4021],[42.1929,39.3815,2002.7996],[42.1254,39.3811,1612.7878],[42.1041,39.3839,1634.5314],[42.0918,39.3923,1689.5309],[42.0724,39.4212,1973.574],[42.0665,39.4266,1917.2161],[42.0261,39.4437,2139.8987],[41.9967,39.461,2329.2744],[41.9697,39.4715,2282.9216],[41.9302,39.4778,2447.8872],[41.9497,39.4506,2248.6001],[41.9528,39.4356,2012.8123],[41.9507,39.4205,2037.9036],[41.9396,39.3982,2060.759],[41.9348,39.3624,1660.7959],[41.9247,39.3429,1601.2421],[41.9222,39.3281,1592.8452],[41.9238,39.307,1550.8158],[41.9338,39.2875,1589.4585],[41.9368,39.2755,1601.4518],[41.9372,39.1954,2322.718]]]]}
,"properties": {"GID_2": "TUR.31.7_1","GID_0": "TUR","country": "Turkey","GID_1": "TUR.31_1","province": "Erzurum","NL_NAME_1": "NA","county": "Karaçoban","VARNAME_2": "NA","NL_NAME_2": "NA","TYPE_2": "District","ENGTYPE_2": "District","CC_2": "NA","HASC_2": "TR.EM.KC","name": "Karaçoban.county","area_km2": 481.2968,"hist_schema_id": "Elevation0-9000","hist_area_km2": {"1475": 0.0164,"1500": 1.1982,"1525": 28.437,"1550": 32.4914,"1575": 30.3246,"1600": 35.3598,"1625": 38.6725,"1650": 38.9195,"1675": 34.4954,"1700": 34.658,"1725": 34.8972,"1750": 18.686,"1775": 12.2235,"1800": 10.7313,"1825": 10.0427,"1850": 9.8783,"1875": 9.3692,"1900": 8.6308,"1925": 8.0564,"1950": 7.3676,"1975": 6.7108,"2000": 6.1196,"2025": 6.5786,"2050": 5.6106,"2075": 5.0199,"2100": 4.7719,"2125": 3.9507,"2150": 3.4748,"2175": 3.2118,"2200": 3.1948,"2225": 3.2274,"2250": 2.8172,"2275": 2.7839,"2300": 2.5219,"2325": 2.0795,"2350": 2.1614,"2375": 1.7356,"2400": 1.6537,"2425": 1.5554,"2450": 1.4244,"2475": 1.277,"2500": 0.9168,"2525": 0.6875,"2550": 0.7039,"2575": 0.5238,"2600": 0.5893,"2625": 0.3929,"2650": 0.3601,"2675": 0.3274,"2700": 0.2783,"2725": 0.131,"2750": 0.0491}}}