{"type": "Feature","id": "2298","bbox": [41.12744,40.55556,42.53873,41.51423],"geometry": {"type": "Polygon","coordinates": [[[41.63997,41.47871,636.3069],[41.62726,41.48052,854.8647],[41.52076,41.51423,0.0],[41.50709,41.49543,0.0],[41.44858,41.45624,0.0],[41.43816,41.45136,0.0],[41.43434,41.42914,0.0],[41.42416,41.40786,0.0],[41.40895,41.39033,0.0],[41.39039,41.37934,0.0],[41.37745,41.37604,19.7337],[41.34254,41.3725,2.6322],[41.3318,41.3697,0.0],[41.31031,41.36079,0.0],[41.285,41.35383,0.0],[41.19975,41.30126,0.0],[41.19979,41.3012,0.0],[41.20186,41.2981,0.0],[41.22842,41.24653,285.9436],[41.23586,41.2072,561.5452],[41.25529,41.17273,1210.6831],[41.274,41.15956,2220.2],[41.29446,41.14875,2529.4697],[41.30655,41.13258,2591.4417],[41.31617,41.1146,2679.8667],[41.35575,41.10002,2301.364],[41.38583,41.07535,2375.936],[41.35875,41.02856,2523.8638],[41.30438,41.00228,3001.2605],[41.28981,40.9814,3130.4536],[41.2803,40.96086,2309.2961],[41.26046,40.94629,2370.7432],[41.23731,40.93662,3187.5488],[41.14171,40.8528,2820.5969],[41.12744,40.81291,3075.042],[41.20547,40.77919,2342.2322],[41.32929,40.76454,1769.9185],[41.36526,40.7547,1142.8383],[41.3727,40.72209,1157.2206],[41.34696,40.68641,777.7375],[41.33343,40.60104,2335.1243],[41.40133,40.55556,2638.1404],[41.49352,40.58181,1914.4895],[41.57879,40.62429,2427.9629],[41.65661,40.64124,1359.1459],[41.73474,40.62359,2025.0735],[41.82084,40.58763,2071.9409],[41.86642,40.63972,2034.9014],[41.86797,40.6847,1286.6788],[41.8874,40.72439,1883.9683],[41.92719,40.75508,1381.5266],[41.95261,40.79562,976.2083],[41.946,40.83854,1512.4338],[41.95892,40.87748,2048.8083],[41.98961,40.8983,1380.2686],[42.02444,40.9119,2008.524],[42.09235,40.91668,2182.2698],[42.16118,40.91089,2434.9363],[42.22081,40.92076,2280.3884],[42.27921,40.92492,2247.4146],[42.34153,41.01972,2413.4255],[42.42917,41.09191,2171.9341],[42.51206,41.12351,1975.1073],[42.53873,41.19118,2304.5049],[42.5103,41.26105,1833.6445],[42.49232,41.29608,1595.9843],[42.48364,41.30714,1608.0],[42.47196,41.33161,1925.694],[42.46545,41.37362,2049.4973],[42.45103,41.43137,2119.9451],[42.43785,41.43086,1890.8225],[42.26246,41.48233,2327.5295],[42.21327,41.48021,2309.8157],[42.18929,41.48171,2157.5681],[42.17265,41.49349,2058.2729],[42.15839,41.4999,2176.0515],[42.14319,41.50026,2207.9675],[42.11178,41.49349,2115.0779],[42.09751,41.49835,2051.209],[42.08346,41.5001,2265.7119],[42.0694,41.49861,2143.7605],[42.05493,41.49349,1978.6857],[42.01958,41.48507,1464.2985],[41.94796,41.50558,1440.9966],[41.90776,41.49349,1345.4458],[41.89401,41.48553,616.0859],[41.86269,41.45179,1585.9014],[41.82259,41.426,2053.0139],[41.81298,41.42181,1792.1802],[41.80079,41.42569,1755.696],[41.761,41.45354,1003.8764],[41.74777,41.45685,794.6694],[41.71852,41.45959,218.3816],[41.70684,41.46316,270.3356],[41.7026,41.46946,433.0139],[41.70281,41.47762,194.8328],[41.70394,41.48512,229.6043],[41.7026,41.48904,304.4669],[41.69495,41.4891,619.5759],[41.66984,41.48047,907.4409],[41.63997,41.47871,636.3069]]]}
,"properties": {"ISO3166-1-Alpha-3": "TUR","country": "Turkey","fill": "#00F","name": "Artvin","area_km2": 7823.247,"hist_schema_id": "Elevation0-9000","hist_area_km2": {"0": 32.208,"25": 8.67,"50": 8.05,"75": 9.467,"100": 15.065,"125": 13.19,"150": 14.049,"175": 26.187,"200": 21.185,"225": 23.432,"250": 25.234,"275": 26.413,"300": 28.199,"325": 29.219,"350": 30.195,"375": 31.472,"400": 31.983,"425": 32.639,"450": 34.17,"475": 34.318,"500": 35.312,"525": 36.576,"550": 39.53,"575": 41.227,"600": 42.741,"625": 45.458,"650": 48.721,"675": 49.453,"700": 51.529,"725": 55.326,"750": 57.127,"775": 60.187,"800": 62.831,"825": 63.969,"850": 64.529,"875": 67.904,"900": 70.354,"925": 71.871,"950": 74.143,"975": 74.575,"1000": 81.853,"1025": 79.611,"1050": 79.896,"1075": 81.879,"1100": 82.746,"1125": 85.751,"1150": 85.414,"1175": 87.761,"1200": 90.095,"1225": 89.328,"1250": 88.863,"1275": 92.276,"1300": 92.96,"1325": 96.512,"1350": 95.948,"1375": 99.069,"1400": 100.127,"1425": 101.821,"1450": 103.639,"1475": 105.857,"1500": 107.949,"1525": 108.747,"1550": 109.386,"1575": 112.067,"1600": 110.806,"1625": 109.096,"1650": 108.909,"1675": 106.551,"1700": 106.667,"1725": 103.713,"1750": 103.476,"1775": 100.249,"1800": 98.993,"1825": 95.704,"1850": 91.601,"1875": 90.803,"1900": 89.828,"1925": 88.985,"1950": 85.721,"1975": 86.243,"2000": 82.335,"2025": 82.598,"2050": 81.609,"2075": 79.654,"2100": 78.708,"2125": 77.311,"2150": 74.906,"2175": 73.628,"2200": 71.73,"2225": 71.284,"2250": 67.406,"2275": 68.114,"2300": 64.969,"2325": 69.001,"2350": 65.589,"2375": 66.163,"2400": 66.526,"2425": 66.313,"2450": 68.329,"2475": 70.35,"2500": 71.42,"2525": 71.201,"2550": 67.203,"2575": 67.046,"2600": 61.772,"2625": 53.643,"2650": 50.242,"2675": 42.92,"2700": 40.065,"2725": 36.978,"2750": 32.582,"2775": 32.872,"2800": 29.799,"2825": 29.27,"2850": 25.661,"2875": 24.828,"2900": 22.942,"2925": 21.456,"2950": 20.261,"2975": 17.654,"3000": 17.177,"3025": 14.378,"3050": 13.21,"3075": 11.275,"3100": 10.668,"3125": 9.692,"3150": 8.428,"3175": 7.274,"3200": 6.298,"3225": 5.883,"3250": 4.425,"3275": 3.8,"3300": 2.983,"3325": 2.807,"3350": 1.925,"3375": 2.246,"3400": 1.412,"3425": 1.316,"3450": 0.915,"3475": 0.995,"3500": 0.786,"3525": 0.529,"3550": 0.385,"3575": 0.337,"3600": 0.385,"3625": 0.385,"3650": 0.144,"3675": 0.321,"3700": 0.193,"3725": 0.289,"3750": 0.128,"3775": 0.096,"3800": 0.08,"3825": 0.064}}}