{"type":"Feature","properties":{"GID_2":"TUR.5.4_1","GID_0":"TUR","country":"Turkey","GID_1":"TUR.5_1","province":"Aksaray","NL_NAME_1":"NA","county":"Güzelyurt","VARNAME_2":"NA","NL_NAME_2":"NA","TYPE_2":"District","ENGTYPE_2":"District","CC_2":"NA","HASC_2":"TR.AK.GY","name":"Güzelyurt.county"},
"geometry":{"type": "MultiPolygon","coordinates": [[[[34.2765,38.2814,1244.4238],[34.2539,38.2654,1335.0885],[34.2295,38.2552,1302.21],[34.2222,38.2501,1293.3995],[34.2186,38.2458,1290.5885],[34.2161,38.238,1285.7688],[34.2164,38.2328,1286.623],[34.2202,38.2258,1309.1198],[34.244,38.2144,1381.9471],[34.3234,38.1847,1479.3655],[34.3595,38.1632,1685.8553],[34.3632,38.1596,1757.7354],[34.3663,38.1533,1876.3184],[34.3821,38.157,1951.2654],[34.3895,38.1619,1886.6692],[34.3931,38.1662,1863.9956],[34.3962,38.1769,1617.5867],[34.3951,38.1947,1536.7001],[34.3968,38.2247,1600.2988],[34.3945,38.2426,1647.8557],[34.379,38.2689,1553.2184],[34.3632,38.2909,1468.2955],[34.3469,38.2923,1381.811],[34.3306,38.2917,1353.2618],[34.3016,38.2836,1292.55],[34.2765,38.2814,1244.4238]]]]}}