{"type": "Feature","bbox": [30.06,39.8549,30.3828,40.1823],"geometry": {"type": "MultiPolygon","coordinates": [[[[30.2487,39.8549,878.6515],[30.2722,39.8624,894.8629],[30.2753,39.8691,946.2815],[30.2828,39.877,984.9051],[30.3405,39.922,1152.6194],[30.3562,39.937,1279.3904],[30.3177,39.9994,956.014],[30.3153,40.017,887.3367],[30.316,40.0532,433.1359],[30.3189,40.0647,242.5897],[30.3333,40.0881,175.8505],[30.3509,40.1135,785.8718],[30.3711,40.134,449.374],[30.3828,40.1584,489.3715],[30.3596,40.163,611.7088],[30.3392,40.1748,1014.7415],[30.3261,40.1802,917.7467],[30.3068,40.1823,1231.5126],[30.2347,40.1811,573.7318],[30.1829,40.1641,487.9048],[30.1596,40.1321,322.6008],[30.1292,40.1058,278.4153],[30.1185,40.0941,369.6454],[30.1115,40.0895,462.142],[30.0744,40.0742,378.536],[30.0653,40.0669,553.5709],[30.0613,40.0589,609.204],[30.06,40.0499,760.3279],[30.0603,40.0313,753.0914],[30.0626,40.0129,732.045],[30.0666,40.0038,719.6105],[30.0758,39.9912,881.573],[30.0817,39.9858,932.4296],[30.1008,39.9754,999.8058],[30.146,39.9425,1094.417],[30.1941,39.924,1060.6741],[30.2041,39.9174,1136.0524],[30.2297,39.878,1026.7889],[30.2487,39.8549,878.6515]]]]}
,"properties": {"GID_2": "TUR.16.7_1","GID_0": "TUR","country": "Turkey","GID_1": "TUR.16_1","province": "Bilecik","NL_NAME_1": "NA","county": "Söğüt","VARNAME_2": "NA","NL_NAME_2": "NA","TYPE_2": "District","ENGTYPE_2": "District","CC_2": "NA","HASC_2": "TR.BC.SO","name": "Söğüt.county","area_km2": 589.8996,"hist_schema_id": "Elevation0-9000","hist_area_km2": {"125": 1.1348,"150": 9.7638,"175": 8.304,"200": 9.6343,"225": 11.6298,"250": 13.0087,"275": 11.4026,"300": 11.7107,"325": 11.7918,"350": 10.7053,"375": 11.1437,"400": 12.1985,"425": 13.2697,"450": 13.1398,"475": 14.0477,"500": 13.4645,"525": 14.634,"550": 14.6186,"575": 15.8039,"600": 15.2519,"625": 14.5714,"650": 15.4498,"675": 14.2156,"700": 12.4299,"725": 12.4956,"750": 11.1812,"775": 11.0039,"800": 11.6207,"825": 11.9632,"850": 14.448,"875": 13.946,"900": 15.4592,"925": 17.0538,"950": 21.5733,"975": 27.5618,"1000": 24.2311,"1025": 24.492,"1050": 20.1674,"1075": 16.0721,"1100": 13.0977,"1125": 11.0993,"1150": 7.3938,"1175": 4.3862,"1200": 2.5176,"1225": 2.1288,"1250": 1.1215,"1275": 0.8616,"1300": 0.4877,"1325": 0.1951,"1350": 0.0163}}}