{"type": "Feature","bbox": [29.1304,40.5554,29.1893,40.6571],"geometry": {"type": "MultiPolygon","coordinates": [[[[29.1522,40.5554,804.2405],[29.1736,40.5942,209.275],[29.1756,40.6063,121.198],[29.1758,40.6252,150.84],[29.1839,40.6334,153.1843],[29.1881,40.6406,27.9248],[29.1893,40.6488,9.0299],[29.1882,40.6571,0.0],[29.171,40.6549,23.4529],[29.1608,40.6557,0.0],[29.1608,40.6369,51.4924],[29.1486,40.6244,153.8162],[29.1325,40.5982,347.0591],[29.1304,40.5799,314.3292],[29.1334,40.5554,559.9932],[29.1522,40.5554,804.2405]]]]}
,"properties": {"GID_2": "TUR.79.6_1","GID_0": "TUR","country": "Turkey","GID_1": "TUR.79_1","province": "Yalova","NL_NAME_1": "NA","county": "Termal","VARNAME_2": "NA","NL_NAME_2": "NA","TYPE_2": "District","ENGTYPE_2": "District","CC_2": "NA","HASC_2": "TR.YL.TE","name": "Termal.county","area_km2": 29.39328,"hist_schema_id": "Elevation0-9000","hist_area_km2": {"0": 0.82039,"25": 1.89831,"50": 1.88229,"75": 1.36756,"100": 1.01376,"125": 1.77024,"150": 1.88298,"175": 1.57739,"200": 1.3843,"225": 1.36841,"250": 1.11086,"275": 1.52949,"300": 1.33636,"325": 1.57786,"350": 1.38472,"375": 1.27205,"400": 0.91784,"425": 0.98226,"450": 0.75682,"475": 0.62802,"500": 0.48312,"525": 0.37044,"550": 0.2899,"575": 0.22548,"600": 0.2255,"625": 0.16107,"650": 0.24161,"675": 0.24161,"700": 0.22551,"725": 0.19329,"750": 0.09665,"775": 0.09665,"800": 0.08054}}}