{"type":"Feature","properties":{"GID_2":"TUR.48.3_1","GID_0":"TUR","country":"Turkey","GID_1":"TUR.48_1","province":"Kilis","NL_NAME_1":"NA","county":"Musabeyli","VARNAME_2":"NA","NL_NAME_2":"NA","TYPE_2":"District","ENGTYPE_2":"District","CC_2":"NA","HASC_2":"TR.KI.MU","name":"Musabeyli.county"},
"geometry":{"type": "MultiPolygon","coordinates": [[[[36.8058,36.8526,705.7878],[36.8561,36.8126,805.1425],[36.9184,36.8116,499.3376],[36.9471,36.8042,481.6066],[36.9571,36.8037,471.0988],[36.9815,36.8104,416.4161],[37.0136,36.8151,552.9993],[37.0477,36.8252,558.5306],[37.0671,36.8361,652.4514],[37.1182,36.8764,862.83],[37.124,36.8832,855.3914],[37.1691,36.9529,989.3481],[37.1855,36.9818,933.1432],[37.179,36.9906,972.5259],[37.1704,36.9965,885.947],[37.137,37.0089,875.0023],[37.1126,37.0106,832.4665],[37.0133,37.0105,721.6422],[36.9779,36.9966,1016.1729],[36.9617,36.9872,965.4568],[36.9584,36.9766,988.8557],[36.949,36.9602,946.6566],[36.9432,36.9417,767.1484],[36.9217,36.9186,891.3611],[36.9139,36.9067,753.3986],[36.9053,36.8991,677.8654],[36.8544,36.8788,748.9197],[36.8282,36.8629,680.317],[36.8058,36.8526,705.7878]]]]}}