{"type":"Feature","properties":{"GID_2":"TUR.7.7_1","GID_0":"TUR","country":"Turkey","GID_1":"TUR.7_1","province":"Ankara","NL_NAME_1":"NA","county":"Çankaya","VARNAME_2":"NA","NL_NAME_2":"NA","TYPE_2":"District","ENGTYPE_2":"District","CC_2":"NA","HASC_2":"TR.AN.CK","name":"Çankaya.county"},
"geometry":{"type": "MultiPolygon","coordinates": [[[[32.8764,39.9712,892.6125],[32.84,39.9509,844.9495],[32.8188,39.9425,838.9055],[32.8038,39.9317,893.0396],[32.7977,39.9254,867.4056],[32.7849,39.9069,881.0823],[32.7375,39.8672,1053.1598],[32.7154,39.8319,1156.1017],[32.6959,39.8042,1156.8109],[32.7317,39.8102,1073.4227],[32.7761,39.8276,1208.8287],[32.7896,39.8302,1114.9139],[32.8071,39.8286,1102.2236],[32.8583,39.812,1088.1658],[32.9031,39.8467,1149.5342],[32.909,39.8528,1143.1938],[32.92,39.8692,979.3255],[32.9495,39.8943,1005.1991],[32.9518,39.8985,1003.0036],[32.9516,39.9031,973.5367],[32.9435,39.9123,959.9059],[32.9267,39.9157,981.9554],[32.8999,39.9261,964.5265],[32.8902,39.9327,930.8677],[32.8839,39.9407,885.4731],[32.8814,39.9584,884.9175],[32.8764,39.9712,892.6125]]]]}}