{"type": "Feature","bbox": [37.2552,40.6673,37.4806,40.8869],"geometry": {"type": "MultiPolygon","coordinates": [[[[37.3821,40.7369,943.7842],[37.4013,40.7538,944.8067],[37.4526,40.7735,484.5578],[37.4713,40.7825,379.2099],[37.4775,40.7874,313.8379],[37.4806,40.7937,379.3776],[37.4709,40.8042,344.3226],[37.4672,40.8124,342.3922],[37.4655,40.8504,711.2325],[37.4621,40.8623,386.096],[37.4547,40.8704,143.8323],[37.4411,40.879,229.8512],[37.4358,40.8869,273.7429],[37.4208,40.8869,460.0927],[37.3536,40.8341,686.4646],[37.3394,40.814,885.4544],[37.3198,40.795,1141.2943],[37.3095,40.7792,875.6033],[37.2917,40.7621,916.88],[37.2802,40.746,868.3443],[37.2584,40.7231,1276.5768],[37.2557,40.7149,1168.7714],[37.2552,40.7037,1285.0717],[37.2592,40.6834,1349.0242],[37.2653,40.6775,1467.1367],[37.2833,40.6697,1497.1938],[37.2939,40.6673,1547.5687],[37.3059,40.6811,1409.826],[37.3179,40.6907,1281.3884],[37.3514,40.7076,1239.3301],[37.3672,40.7269,960.7666],[37.3821,40.7369,943.7842]]]]}
,"properties": {"GID_2": "TUR.63.12_1","GID_0": "TUR","country": "Turkey","GID_1": "TUR.63_1","province": "Ordu","NL_NAME_1": "NA","county": "Korgan","VARNAME_2": "NA","NL_NAME_2": "NA","TYPE_2": "District","ENGTYPE_2": "District","CC_2": "NA","HASC_2": "TR.OR.KO","name": "Korgan.county","area_km2": 205.7761,"hist_schema_id": "Elevation0-9000","hist_area_km2": {"125": 0.1924,"150": 0.481,"175": 0.7376,"200": 0.8179,"225": 1.299,"250": 1.5557,"275": 2.0852,"300": 2.3259,"325": 2.6789,"350": 2.5987,"375": 3.2725,"400": 3.2405,"425": 3.6735,"450": 4.075,"475": 4.5724,"500": 4.043,"525": 4.6371,"550": 5.0863,"575": 5.2793,"600": 5.3115,"625": 5.7127,"650": 5.9698,"675": 5.8416,"700": 5.8741,"725": 6.2439,"750": 5.8749,"775": 5.1532,"800": 5.0891,"825": 5.0735,"850": 5.2344,"875": 5.1061,"900": 5.6203,"925": 4.5286,"950": 4.7695,"975": 4.9305,"1000": 4.8824,"1025": 5.5409,"1050": 5.9745,"1075": 5.6696,"1100": 4.2891,"1125": 4.9963,"1150": 4.7075,"1175": 5.1736,"1200": 4.7563,"1225": 5.1265,"1250": 3.6323,"1275": 3.0861,"1300": 2.2183,"1325": 1.3825,"1350": 0.9646,"1375": 0.6431,"1400": 0.6753,"1425": 0.82,"1450": 0.7557,"1475": 0.5789,"1500": 0.3698,"1525": 0.3538,"1550": 0.1608,"1575": 0.0322}}}