{"type":"Feature","properties":{"GID_2":"TUR.16.6_1","GID_0":"TUR","country":"Turkey","GID_1":"TUR.16_1","province":"Bilecik","NL_NAME_1":"NA","county":"Pazaryeri","VARNAME_2":"NA","NL_NAME_2":"NA","TYPE_2":"District","ENGTYPE_2":"District","CC_2":"NA","HASC_2":"TR.BC.PA","name":"Pazaryeri.county"},
"geometry":{"type": "MultiPolygon","coordinates": [[[[30.007,40.035,773.5614],[29.9567,40.045,801.9417],[29.9235,40.0572,1035.265],[29.8907,40.071,1221.6443],[29.8524,40.0974,871.5391],[29.8224,40.1093,954.86],[29.8044,40.1125,878.2031],[29.7539,40.1115,972.771],[29.7255,40.1029,915.3771],[29.7003,40.101,882.4934],[29.6984,40.084,876.0781],[29.688,40.0628,533.8262],[29.6886,40.055,559.5547],[29.7022,40.0318,548.379],[29.7176,40.0087,743.0786],[29.7333,39.9931,871.4149],[29.7465,39.9831,1034.5742],[29.7612,39.9749,998.4006],[29.7893,39.9677,1121.0708],[29.8124,39.9557,1148.3997],[29.8213,39.952,1156.1016],[29.8328,39.9499,1019.7543],[29.8975,39.9501,1163.298],[29.909,39.952,1168.1199],[29.9306,39.9587,1102.9745],[29.9529,39.9611,987.2211],[29.966,39.9648,1003.011],[29.9833,39.9849,690.7333],[29.9974,40.0085,708.4902],[30.007,40.035,773.5614]]]]}}