{"type":"Feature","properties":{"GID_2":"TUR.47.6_1","GID_0":"TUR","country":"Turkey","GID_1":"TUR.47_1","province":"Kayseri","NL_NAME_1":"NA","county":"İncesu","VARNAME_2":"NA","NL_NAME_2":"NA","TYPE_2":"District","ENGTYPE_2":"District","CC_2":"NA","HASC_2":"TR.KY.IN","name":"İncesu.county"},
"geometry":{"type": "MultiPolygon","coordinates": [[[[35.4416,38.5911,2160.2808],[35.4334,38.6121,1644.7588],[35.4268,38.6212,1551.8037],[35.4197,38.6263,1509.1853],[35.3976,38.637,1461.4153],[35.3814,38.6557,1300.3582],[35.3637,38.6683,1280.0338],[35.3602,38.6749,1230.4529],[35.3564,38.6957,1037.4584],[35.3517,38.7026,1035.1127],[35.342,38.7093,1035.2465],[35.308,38.723,1028.5725],[35.3015,38.7282,1029.6604],[35.2987,38.7355,1030.8081],[35.298,38.7436,1039.2125],[35.3008,38.767,1036.1099],[35.2977,38.7926,1338.4258],[35.2642,38.8192,1077.1447],[35.2342,38.8333,1034.4539],[35.196,38.8596,1050.0673],[35.1858,38.8623,1109.1056],[35.1682,38.8615,1180.757],[35.1594,38.8578,1137.0981],[35.1464,38.8452,1122.1475],[35.1389,38.8414,1183.9741],[35.0902,38.8368,1169.5898],[35.0636,38.8218,1154.9603],[35.0503,38.8175,1174.1602],[34.9881,38.8149,1092.8557],[34.9786,38.8117,1043.3379],[34.9532,38.7983,978.0],[34.9674,38.7853,978.0],[34.9966,38.7733,1134.9363],[35.0073,38.7711,1083.7107],[35.0345,38.769,1018.4129],[35.0454,38.7663,1064.4661],[35.0601,38.7575,1112.0474],[35.069,38.7483,1075.4814],[35.0727,38.7396,1074.9871],[35.074,38.7239,1118.8979],[35.0731,38.6401,1495.0748],[35.0701,38.6135,1509.1914],[35.1019,38.6046,1350.1582],[35.1343,38.5857,1551.1443],[35.2369,38.5463,1127.6776],[35.2693,38.5274,1442.7982],[35.3062,38.5154,1519.5845],[35.3153,38.5173,1530.5416],[35.342,38.527,1898.5422],[35.3583,38.5367,2304.7852],[35.3936,38.5634,2492.3145],[35.4227,38.5765,2167.2441],[35.4416,38.5911,2160.2808]]]]}}