{"type":"Feature","properties":{"GID_2":"TUR.53.11_1","GID_0":"TUR","country":"Turkey","GID_1":"TUR.53_1","province":"Konya","NL_NAME_1":"NA","county":"Derebucak","VARNAME_2":"NA","NL_NAME_2":"NA","TYPE_2":"District","ENGTYPE_2":"District","CC_2":"NA","HASC_2":"TR.KO.DE","name":"Derebucak.county"},
"geometry":{"type": "MultiPolygon","coordinates": [[[[31.6838,37.329,1406.323],[31.6628,37.3706,1481.1598],[31.6612,37.3893,1395.4849],[31.6623,37.4406,1443.4338],[31.6586,37.4555,1408.2798],[31.653,37.4619,1416.465],[31.6452,37.4667,1396.7198],[31.6239,37.4732,1397.1179],[31.6097,37.4764,1464.623],[31.5954,37.4527,1490.0989],[31.58,37.4401,1490.822],[31.5666,37.4346,1418.0883],[31.5509,37.4331,1332.4521],[31.5313,37.4348,1346.3633],[31.5099,37.4423,1267.5208],[31.4863,37.4472,1498.7234],[31.4652,37.4544,1417.8502],[31.454,37.4563,1298.1862],[31.3463,37.457,1472.905],[31.3414,37.4442,1708.2092],[31.3233,37.4244,2184.9238],[31.3414,37.4138,1829.5551],[31.3552,37.4022,2110.6404],[31.3746,37.3703,1578.8917],[31.4048,37.3614,1571.1151],[31.4493,37.344,1405.1516],[31.46,37.3415,1772.7183],[31.4759,37.3405,1618.9043],[31.5285,37.3396,1834.1333],[31.5398,37.3377,1563.8763],[31.5614,37.3307,1540.0819],[31.5775,37.3289,1761.4637],[31.6838,37.329,1406.323]]]]}}