{"type": "Feature","bbox": [31.6909,40.821,32.2852,41.0427],"geometry": {"type": "MultiPolygon","coordinates": [[[[32.282,40.9411,873.9999],[32.2849,40.9635,985.2354],[32.2852,41.0083,1150.7167],[32.252,41.007,1023.0371],[32.2087,41.0079,1574.6415],[32.1929,41.0111,1443.3834],[32.1787,41.016,1225.0984],[32.1538,41.0189,1106.7495],[31.9122,41.0195,374.2953],[31.8962,41.0218,339.5529],[31.8707,41.0293,235.3134],[31.8138,41.0321,696.7127],[31.7766,41.0416,718.8158],[31.7363,41.0427,1318.2341],[31.7538,41.0229,1070.9558],[31.7579,41.0156,829.4551],[31.7599,41.0016,748.5728],[31.7579,40.9877,557.3636],[31.7486,40.9712,710.5712],[31.7436,40.9557,869.3159],[31.7395,40.9485,1132.2893],[31.7306,40.9412,1228.2764],[31.7081,40.9307,1284.2596],[31.6909,40.9147,1436.1898],[31.8207,40.8643,742.1771],[31.8298,40.857,696.2399],[31.8493,40.8284,960.7477],[31.8561,40.8233,973.9268],[31.8662,40.821,1127.9153],[31.9049,40.8213,1342.3906],[31.9219,40.8233,1337.6478],[31.9285,40.8343,1317.6306],[31.9354,40.8413,1247.6995],[31.9525,40.8524,1122.67],[31.9663,40.8556,1133.5399],[31.9982,40.8587,1325.7654],[32.049,40.8771,1252.5278],[32.0592,40.8771,1086.9078],[32.0771,40.8738,1080.542],[32.0998,40.8605,1254.5698],[32.1128,40.8565,1170.8821],[32.1458,40.8555,1071.0717],[32.1636,40.8579,1189.6444],[32.1968,40.8709,1452.3778],[32.2326,40.8953,1208.1113],[32.2588,40.9074,1144.6858],[32.2673,40.9151,1103.5673],[32.282,40.9411,873.9999]]]]}
,"properties": {"GID_2": "TUR.19.5_1","GID_0": "TUR","country": "Turkey","GID_1": "TUR.19_1","province": "Bolu","NL_NAME_1": "NA","county": "Mengen","VARNAME_2": "NA","NL_NAME_2": "NA","TYPE_2": "District","ENGTYPE_2": "District","CC_2": "NA","HASC_2": "TR.BL.ME","name": "Mengen.county","area_km2": 802.5008,"hist_schema_id": "Elevation0-9000","hist_area_km2": {"225": 0.096,"250": 0.6078,"275": 1.3117,"300": 2.1117,"325": 2.8317,"350": 3.5998,"375": 4.0959,"400": 7.2175,"425": 6.1929,"450": 6.4332,"475": 7.1856,"500": 7.6661,"525": 8.7081,"550": 9.0128,"575": 10.7447,"600": 12.5546,"625": 18.5623,"650": 19.2827,"675": 23.287,"700": 26.0411,"725": 30.2211,"750": 32.4138,"775": 34.7369,"800": 33.8557,"825": 34.5142,"850": 33.1384,"875": 34.7741,"900": 32.0348,"925": 32.8199,"950": 30.2095,"975": 29.8583,"1000": 27.7449,"1025": 24.2697,"1050": 23.5017,"1075": 21.9148,"1100": 20.3609,"1125": 18.6791,"1150": 16.724,"1175": 15.3627,"1200": 12.9437,"1225": 12.2549,"1250": 10.4929,"1275": 9.3067,"1300": 8.0087,"1325": 7.4006,"1350": 6.9685,"1375": 6.3422,"1400": 5.5732,"1425": 4.5964,"1450": 3.4593,"1475": 2.4661,"1500": 1.7457,"1525": 0.993,"1550": 0.8169,"1575": 0.8007,"1600": 0.7048,"1625": 0.3845,"1650": 0.4327,"1675": 0.2885,"1700": 0.5128,"1725": 0.2244,"1750": 0.3205,"1775": 0.1763,"1800": 0.3045,"1825": 0.0962,"1850": 0.1442,"1875": 0.0641}}}