{"type":"Feature","properties":{"GID_2":"TUR.13.1_1","GID_0":"TUR","country":"Turkey","GID_1":"TUR.13_1","province":"Bartın","NL_NAME_1":"NA","county":"Amasra","VARNAME_2":"NA","NL_NAME_2":"NA","TYPE_2":"District","ENGTYPE_2":"District","CC_2":"NA","HASC_2":"TR.BR.AM","name":"Amasra.county"},
"geometry":{"type": "MultiPolygon","coordinates": [[[[32.5461,41.6993,551.7249],[32.5571,41.7054,701.9993],[32.5437,41.7134,263.8648],[32.5197,41.7235,527.0397],[32.4923,41.7442,415.543],[32.4845,41.7528,203.3252],[32.4701,41.7765,0.0],[32.4679,41.774,0.0],[32.464,41.7729,50.2699],[32.454,41.776,0.0],[32.4349,41.764,0.0],[32.4315,41.7635,15.7991],[32.429,41.7615,0.0],[32.4282,41.7582,63.0535],[32.4238,41.7568,5.018],[32.4207,41.7474,15.7042],[32.4154,41.7396,8.0995],[32.4076,41.7385,66.2007],[32.4032,41.739,4.6929],[32.396,41.7429,10.3548],[32.3918,41.7421,4.5239],[32.3904,41.7435,4.5239],[32.3929,41.7438,0.0],[32.3937,41.7454,0.0],[32.3901,41.744,0.0],[32.3879,41.7476,0.0],[32.3924,41.7499,0.1529],[32.3854,41.7507,0.0],[32.3849,41.7535,4.2438],[32.3821,41.7538,0.0],[32.3804,41.7504,0.0],[32.384,41.7496,11.1434],[32.3843,41.7479,5.0072],[32.3782,41.7479,5.3429],[32.374,41.7435,73.2167],[32.3707,41.746,0.0],[32.3649,41.7446,0.0],[32.3632,41.7401,6.1065],[32.3651,41.7368,1.9292],[32.3635,41.7343,8.4018],[32.3529,41.734,2.4311],[32.3518,41.7363,0.0],[32.3471,41.736,0.0],[32.3454,41.7354,0.0],[32.3468,41.7332,10.1736],[32.339,41.7315,0.0],[32.3424,41.7265,0.0],[32.3404,41.7229,3.3015],[32.336,41.7218,3.9009],[32.3338,41.724,0.0],[32.3335,41.7218,13.0347],[32.329,41.7207,0.0],[32.3265,41.7246,0.0],[32.3204,41.7254,12.6073],[32.3088,41.7238,0.0],[32.3037,41.7257,0.0],[32.3037,41.724,1.8858],[32.301,41.7229,23.0762],[32.2954,41.7232,23.9497],[32.2832,41.7196,11.9799],[32.2707,41.7126,11.344],[32.2693,41.7096,18.4198],[32.2651,41.709,0.0],[32.2637,41.7054,110.0918],[32.2582,41.7038,0.0],[32.2504,41.6954,62.7057],[32.2324,41.6888,0.0],[32.2321,41.6857,3.4141],[32.236,41.6851,4.5191],[32.2368,41.6829,1.4672],[32.2318,41.6857,3.4141],[32.2263,41.6865,1.0266],[32.2243,41.6849,0.0],[32.226,41.6854,4.8271],[32.2271,41.684,4.8271],[32.2238,41.6835,0.0],[32.226,41.6813,60.5165],[32.2235,41.6799,3.3734],[32.2282,41.6776,78.1369],[32.2296,41.674,23.7606],[32.2763,41.6606,74.3681],[32.3381,41.6577,111.408],[32.3743,41.648,76.6932],[32.4543,41.6474,141.4307],[32.469,41.6509,129.6047],[32.4807,41.658,219.3115],[32.4922,41.6691,448.5476],[32.5017,41.6829,208.5217],[32.5084,41.6883,167.643],[32.5171,41.6921,159.4428],[32.5461,41.6993,551.7249]]],
[[[32.3893,41.7551,5.1209],[32.3871,41.7538,0.0],[32.3887,41.7513,0.0],[32.3899,41.7518,0.0],[32.3893,41.7551,5.1209]]]]}}