{"type":"Feature","properties":{"GID_2":"TUR.41.21_1","GID_0":"TUR","country":"Turkey","GID_1":"TUR.41_1","province":"Izmir","NL_NAME_1":"NA","county":"Menemen","VARNAME_2":"NA","NL_NAME_2":"NA","TYPE_2":"District","ENGTYPE_2":"District","CC_2":"NA","HASC_2":"TR.IZ.MN","name":"Menemen.county"},
"geometry":{"type": "MultiPolygon","coordinates": [[[[26.8844,38.5053,0.0487],[26.8844,38.5054,0.0487],[26.8843,38.5054,0.0487],[26.8844,38.5053,0.0487]]],
[[[26.8188,38.5449,0.0],[26.821,38.5488,0.0],[26.814,38.5443,0.0],[26.8185,38.5374,-0.0193],[26.826,38.5315,0.0],[26.8276,38.5335,0.0],[26.8243,38.5357,0.0],[26.8263,38.5382,0.0],[26.8246,38.5374,0.0],[26.8243,38.5401,0.0],[26.8215,38.5401,0.0],[26.8188,38.5449,0.0]]],
[[[26.8846,38.5057,0.0],[26.8846,38.5055,0.0],[26.8849,38.5057,0.0],[26.8846,38.5057,0.0]]],
[[[26.851,38.5343,0.0],[26.849,38.5346,0.0],[26.8546,38.5326,0.0],[26.8546,38.5335,0.0],[26.851,38.5343,0.0]]],
[[[26.8613,38.5351,0.0],[26.8613,38.5337,0.0],[26.859,38.5337,0.0],[26.8596,38.5365,0.0],[26.8579,38.5337,0.0],[26.8635,38.5332,0.0],[26.8613,38.5351,0.0]]],
[[[26.9621,38.7179,141.6739],[26.9263,38.7179,96.2568],[26.945,38.696,88.1714],[26.9488,38.6826,58.0778],[26.9467,38.6717,122.0157],[26.9439,38.667,111.9495],[26.93,38.6464,5.2408],[26.9232,38.6407,4.1864],[26.888,38.6272,3.2957],[26.8746,38.6276,2.4227],[26.8551,38.6341,1.5979],[26.8421,38.6324,1.0672],[26.8326,38.6258,0.5884],[26.822,38.6099,-0.5319],[26.8088,38.5969,0.0],[26.8104,38.5949,0.0],[26.8163,38.5943,-0.0869],[26.8143,38.5899,0.0],[26.8165,38.5896,-0.0245],[26.8182,38.586,0.0],[26.8257,38.5907,-0.2522],[26.8257,38.5871,0.0],[26.8276,38.5851,0.0],[26.8271,38.5815,0.0],[26.8304,38.5782,0.0],[26.8354,38.5876,0.0054],[26.8382,38.5887,-0.0909],[26.8401,38.5871,-0.0909],[26.8399,38.5804,0.0],[26.8437,38.5821,-0.8145],[26.8479,38.5757,0.0],[26.8418,38.5682,0.0],[26.8437,38.5649,-0.1383],[26.8432,38.5629,-0.2445],[26.846,38.5624,-0.5219],[26.8468,38.5604,-0.5828],[26.8385,38.5612,-0.0463],[26.841,38.5579,0.0],[26.8401,38.5563,-0.0157],[26.8296,38.5582,0.0],[26.8229,38.5504,0.0],[26.8249,38.5507,0.0],[26.8304,38.5565,0.0012],[26.8357,38.5535,0.0],[26.8379,38.554,-0.0785],[26.8426,38.5504,0.0],[26.8426,38.5521,0.0],[26.8393,38.554,-0.1867],[26.8426,38.5554,0.0],[26.8429,38.5576,0.0],[26.841,38.5601,-0.0334],[26.8471,38.5596,-0.5828],[26.8474,38.5565,0.1475],[26.8451,38.5554,0.0],[26.8476,38.5554,0.0],[26.8487,38.5504,2.726],[26.8476,38.5485,0.1257],[26.8465,38.5493,0.0],[26.8454,38.5457,0.0743],[26.8482,38.5429,0.0],[26.8593,38.5388,-0.4309],[26.8701,38.5371,-0.5896],[26.876,38.534,-0.0001],[26.8826,38.5349,0.0705],[26.8807,38.529,0.0249],[26.8765,38.5288,0.0],[26.8801,38.5271,-0.2618],[26.8812,38.5174,0.0],[26.8796,38.5165,0.0],[26.8782,38.5179,0.0],[26.8771,38.516,0.0],[26.8843,38.5157,-0.3003],[26.8882,38.5118,-0.5119],[26.8863,38.5101,-1.0713],[26.8804,38.5104,0.0],[26.8668,38.5157,0.0],[26.8568,38.5176,0.0],[26.856,38.5185,-0.026],[26.8574,38.5187,0.0],[26.854,38.5204,0.0],[26.8371,38.5226,0.0],[26.8271,38.5299,0.0],[26.8299,38.5251,0.0],[26.8437,38.5199,0.0],[26.8746,38.5121,0.0],[26.8838,38.5082,-0.1641],[26.8849,38.5057,0.0],[26.8957,38.5147,-1.0],[26.9014,38.5158,-1.0],[26.9095,38.5154,-1.0],[26.932,38.5081,-1.0],[26.9704,38.5077,2.6504],[27.0143,38.5119,2.6894],[27.0273,38.5187,5.6746],[27.055,38.529,95.6969],[27.0754,38.5318,320.8379],[27.0922,38.5476,282.7679],[27.1071,38.5538,505.5189],[27.1167,38.5557,551.3026],[27.1471,38.5461,692.1272],[27.1839,38.545,764.2523],[27.2102,38.55,759.1417],[27.2205,38.5554,883.8686],[27.233,38.5568,1052.4553],[27.28,38.5722,512.2292],[27.2768,38.5973,357.5192],[27.2668,38.6166,324.8111],[27.2618,38.6435,120.3916],[27.2518,38.6632,206.0356],[27.2469,38.6901,168.0716],[27.2372,38.7098,366.5272],[27.2335,38.7337,391.476],[27.2297,38.7416,325.7212],[27.2181,38.7505,317.3654],[27.1612,38.7722,369.4088],[27.1245,38.7797,139.4613],[27.1141,38.7599,238.4111],[27.1072,38.7547,355.0997],[27.0936,38.7523,439.5944],[27.0558,38.7498,355.3086],[26.981,38.721,39.0673],[26.9621,38.7179,141.6739]]]]}}