{"type":"Feature","properties":{"GID_2":"TUR.21.3_1","GID_0":"TUR","country":"Turkey","GID_1":"TUR.21_1","province":"Bursa","NL_NAME_1":"NA","county":"Gürsu","VARNAME_2":"NA","NL_NAME_2":"NA","TYPE_2":"District","ENGTYPE_2":"District","CC_2":"NA","HASC_2":"TR.BU.GU","name":"Gürsu.county"},
"geometry":{"type": "MultiPolygon","coordinates": [[[[29.195,40.2939,524.6225],[29.1706,40.2892,452.5188],[29.1313,40.2852,192.3535],[29.1137,40.2748,125.0839],[29.0934,40.2546,96.2164],[29.0767,40.2486,89.112],[29.0646,40.2462,89.0159],[29.0851,40.2293,89.6703],[29.0981,40.221,92.9212],[29.1311,40.2085,105.8401],[29.1449,40.2061,106.3325],[29.1611,40.2156,105.0593],[29.2097,40.2341,94.6808],[29.2352,40.2524,179.4885],[29.2455,40.263,580.6036],[29.2555,40.2887,655.6046],[29.2755,40.3091,689.7374],[29.278,40.3157,720.8146],[29.2764,40.3244,715.6399],[29.2661,40.3402,609.5281],[29.2402,40.3328,747.5231],[29.2338,40.3299,855.5134],[29.2257,40.3234,867.4042],[29.2146,40.3032,565.6516],[29.195,40.2939,524.6225]]]]}}