{"type":"Feature","properties":{"GID_2":"TUR.41.16_1","GID_0":"TUR","country":"Turkey","GID_1":"TUR.41_1","province":"Izmir","NL_NAME_1":"NA","county":"Kemalpaşa","VARNAME_2":"NA","NL_NAME_2":"NA","TYPE_2":"District","ENGTYPE_2":"District","CC_2":"NA","HASC_2":"TR.IZ.KP","name":"Kemalpaşa.county"},
"geometry":{"type": "MultiPolygon","coordinates": [[[[27.7183,38.4542,187.0549],[27.6909,38.4599,201.5344],[27.6441,38.4625,125.3514],[27.5955,38.4748,71.9235],[27.5654,38.4863,138.8351],[27.5426,38.5009,217.4303],[27.4784,38.5514,1090.7744],[27.4579,38.5635,1187.2927],[27.4309,38.5688,925.7168],[27.4063,38.5766,1037.0985],[27.3542,38.5776,309.9903],[27.3425,38.5648,414.8703],[27.3361,38.5464,574.1554],[27.3273,38.5313,654.4006],[27.327,38.5264,596.4016],[27.3291,38.522,564.4418],[27.3335,38.5189,610.3178],[27.3724,38.5037,429.5962],[27.3776,38.498,417.7215],[27.3776,38.4912,367.314],[27.3655,38.4712,217.3585],[27.3466,38.4557,339.7975],[27.3105,38.4413,367.4207],[27.2939,38.4379,123.9394],[27.3026,38.4147,515.1119],[27.2984,38.404,918.8865],[27.2931,38.3998,1005.7513],[27.3211,38.3814,788.562],[27.3395,38.3672,1247.9038],[27.3586,38.3447,1096.7974],[27.362,38.3322,905.842],[27.3626,38.3218,620.0806],[27.387,38.321,327.5457],[27.3975,38.3189,275.6906],[27.427,38.3021,309.3005],[27.4457,38.2945,484.7299],[27.4728,38.2801,521.3654],[27.5025,38.2888,764.8079],[27.5319,38.3061,815.8814],[27.5621,38.3179,658.3095],[27.6077,38.3238,865.0026],[27.6413,38.3356,1210.5604],[27.6624,38.346,958.9855],[27.6682,38.3545,961.269],[27.6709,38.373,966.3683],[27.6737,38.3807,724.062],[27.689,38.4042,477.1724],[27.711,38.4271,300.8209],[27.7183,38.4542,187.0549]]]]}}