{"type":"Feature","properties":{"GID_2":"TUR.42.5_1","GID_0":"TUR","country":"Turkey","GID_1":"TUR.42_1","province":"K.Maras","NL_NAME_1":"NA","county":"Elbistan","VARNAME_2":"NA","NL_NAME_2":"NA","TYPE_2":"District","ENGTYPE_2":"District","CC_2":"NA","HASC_2":"TR.KM.EL","name":"Elbistan.county"},
"geometry":{"type": "MultiPolygon","coordinates": [[[[37.0243,38.1513,1120.8296],[37.0243,38.1397,1171.2496],[37.0408,38.1353,1151.1953],[37.0642,38.1218,1233.8938],[37.0818,38.1168,1222.0366],[37.15,38.116,1396.4087],[37.1656,38.1173,1567.6384],[37.1763,38.1203,1765.8584],[37.1994,38.1341,1552.6776],[37.2094,38.138,1506.4783],[37.2325,38.1403,1630.4574],[37.256,38.1392,1535.6888],[37.273,38.133,1459.4534],[37.2882,38.1203,1645.8207],[37.293,38.1126,1395.9177],[37.2993,38.0899,1391.6565],[37.3314,38.0928,1521.954],[37.4164,38.0921,1877.8428],[37.454,38.0826,1993.7231],[37.4993,38.0791,2301.5693],[37.5288,38.0708,2384.9543],[37.5817,38.0685,1710.858],[37.5933,38.0666,2073.1758],[37.6181,38.0593,2054.3931],[37.6647,38.0559,1366.0264],[37.6998,38.046,1501.0205],[37.7033,38.0566,1500.1702],[37.7125,38.0733,1607.9344],[37.7175,38.1002,1837.8792],[37.7283,38.1228,2099.7832],[37.7325,38.1468,2332.874],[37.7417,38.1635,2403.5437],[37.7486,38.1846,2204.9839],[37.7709,38.2192,2313.8315],[37.7741,38.2271,2221.1633],[37.7756,38.2416,1992.2336],[37.7757,38.3015,1965.6874],[37.771,38.3155,1791.2349],[37.7593,38.3266,1693.1377],[37.7446,38.3352,1625.3448],[37.7289,38.3411,1689.0732],[37.6993,38.3581,1668.1729],[37.6632,38.3688,2021.9414],[37.6394,38.3815,2018.8281],[37.4623,38.4502,1827.5707],[37.4441,38.4533,1731.5055],[37.4091,38.4551,1719.432],[37.3805,38.4636,1647.7325],[37.3617,38.4654,1605.2272],[37.2437,38.4651,1702.7651],[37.2252,38.4632,1891.1995],[37.206,38.4584,1877.1177],[37.1978,38.4611,1762.4233],[37.192,38.4668,1770.6631],[37.1897,38.4746,1748.4144],[37.191,38.4855,1671.1315],[37.195,38.4928,1671.7559],[37.2076,38.5111,1677.7734],[37.2139,38.517,1694.2732],[37.2465,38.5328,1802.7189],[37.2741,38.5544,1887.7719],[37.2797,38.5618,1912.7246],[37.2894,38.58,2224.2773],[37.2884,38.5959,2070.3567],[37.2517,38.5936,1993.9332],[37.1332,38.5933,2044.4587],[37.1167,38.591,2021.459],[37.095,38.584,2033.941],[37.0599,38.5782,1979.3922],[37.0526,38.5512,1910.0391],[37.045,38.5373,1890.9117],[37.041,38.5253,1825.4146],[37.0398,38.5058,1775.5244],[37.0402,38.4237,1409.8657],[37.0424,38.4114,1344.4949],[37.0535,38.3886,1281.7119],[37.055,38.3692,1263.8027],[37.0526,38.3533,1212.2229],[37.0416,38.3303,1184.7882],[37.037,38.2952,1153.4653],[37.0281,38.2783,1240.0347],[37.0251,38.266,1271.2629],[37.0243,38.1513,1120.8296]]]]}}