{"type":"Feature","properties":{"GID_2":"TUR.40.7_1","GID_0":"TUR","country":"Turkey","GID_1":"TUR.40_1","province":"Istanbul","NL_NAME_1":"NA","county":"Bakırköy","VARNAME_2":"NA","NL_NAME_2":"NA","TYPE_2":"District","ENGTYPE_2":"District","CC_2":"NA","HASC_2":"TR.IB.BK","name":"Bakırköy.county"},
"geometry":{"type": "MultiPolygon","coordinates": [[[[28.7588,40.9796,0.0],[28.7671,40.9813,0.3824],[28.7801,40.9738,5.2846],[28.7885,40.971,0.9255],[28.7979,40.9635,0.0],[28.8057,40.961,14.4449],[28.8101,40.9557,0.1427],[28.8243,40.954,0.0],[28.8229,40.9568,2.2133],[28.8265,40.9576,8.3323],[28.8324,40.9551,0.0],[28.8357,40.9588,16.6732],[28.8404,40.9582,0.0],[28.8407,40.9604,0.0],[28.8449,40.9637,0.0],[28.8454,40.969,2.2392],[28.8493,40.974,5.1579],[28.8657,40.9738,2.8515],[28.8693,40.9704,0.0],[28.8751,40.9685,0.0],[28.8799,40.9718,0.0],[28.881,40.9751,0.612],[28.8863,40.9771,0.5497],[28.8799,40.9882,23.2822],[28.8796,40.9915,26.0646],[28.8858,41.0046,26.9713],[28.8861,41.009,54.2477],[28.8735,41.009,70.2114],[28.8627,41.0023,66.5368],[28.8475,41.0018,18.3285],[28.8424,40.9997,39.0478],[28.8177,40.9997,11.4351],[28.8023,41.0109,64.6264],[28.7975,41.0072,87.7206],[28.7932,40.9977,71.5163],[28.7674,40.9928,2.1522],[28.768,40.9915,0.9608],[28.7585,40.9828,2.183],[28.7588,40.9796,0.0]]]]}}