{"type": "Feature","bbox": [32.7809,40.9803,33.0771,41.1952],"geometry": {"type": "MultiPolygon","coordinates": [[[[33.0771,41.0889,1150.7039],[33.0426,41.1196,493.2218],[33.0319,41.1359,488.1956],[33.0259,41.1423,508.428],[32.9915,41.1696,720.7753],[32.9753,41.1793,850.9933],[32.9452,41.191,623.0178],[32.9276,41.1952,442.3586],[32.9147,41.1807,723.9413],[32.8971,41.1702,841.1895],[32.8666,41.1596,607.9668],[32.8265,41.1577,672.1526],[32.8125,41.1556,645.4817],[32.7839,41.1403,426.191],[32.7817,41.1273,364.0358],[32.7809,41.107,679.5613],[32.7809,41.0524,1179.0199],[32.7826,41.0268,850.3321],[32.8457,40.9803,1479.1945],[32.8694,40.9859,1400.7338],[32.891,40.9931,1023.4548],[32.9258,40.997,1408.0725],[32.9511,41.0047,1086.014],[32.9859,41.0086,1112.6525],[33.0107,41.0158,907.3862],[33.0279,41.0165,928.1813],[33.0485,41.0423,922.2196],[33.0771,41.0889,1150.7039]]]]}
,"properties": {"GID_2": "TUR.43.4_1","GID_0": "TUR","country": "Turkey","GID_1": "TUR.43_1","province": "Karabük","NL_NAME_1": "NA","county": "Ovacık","VARNAME_2": "NA","NL_NAME_2": "NA","TYPE_2": "District","ENGTYPE_2": "District","CC_2": "NA","HASC_2": "TR.KB.OV","name": "Ovacık.county","area_km2": 408.9726,"hist_schema_id": "Elevation0-9000","hist_area_km2": {"350": 0.6547,"375": 2.6987,"400": 4.4388,"425": 6.4501,"450": 6.9612,"475": 7.2328,"500": 8.1596,"525": 8.9419,"550": 9.5175,"575": 9.2941,"600": 10.9393,"625": 11.1317,"650": 11.6432,"675": 11.0367,"700": 10.5429,"725": 10.3679,"750": 11.4874,"775": 11.7452,"800": 11.4104,"825": 12.4029,"850": 12.2914,"875": 12.7558,"900": 11.382,"925": 12.6613,"950": 12.6932,"975": 13.1573,"1000": 13.5733,"1025": 14.4849,"1050": 14.3248,"1075": 14.4688,"1100": 13.8452,"1125": 13.1416,"1150": 11.6237,"1175": 10.1043,"1200": 9.3052,"1225": 8.5216,"1250": 7.9464,"1275": 6.6835,"1300": 4.8452,"1325": 3.9817,"1350": 3.4543,"1375": 2.4949,"1400": 1.5352,"1425": 1.0557,"1450": 0.72,"1475": 0.6562,"1500": 0.2081}}}