{"type": "Feature","bbox": [35.4757,37.2083,36.3627,37.7908],"geometry": {"type": "MultiPolygon","coordinates": [[[[35.4885,37.2899,243.1457],[35.5275,37.2922,253.6277],[35.5521,37.2999,192.3689],[35.5635,37.3018,180.9009],[35.6321,37.3036,118.5649],[35.6607,37.3123,85.473],[35.6844,37.3172,74.6441],[35.7017,37.3238,71.8224],[35.7117,37.3252,68.8834],[35.7215,37.3244,67.1349],[35.7272,37.3222,66.1128],[35.7313,37.3186,64.0983],[35.7511,37.2895,52.8245],[35.7712,37.2688,46.2917],[35.7803,37.2545,43.249],[35.7989,37.2306,37.7906],[35.8196,37.2296,35.4804],[35.8706,37.2109,29.4156],[35.9043,37.2083,29.4948],[35.8871,37.2287,30.773],[35.8818,37.2416,31.5068],[35.8809,37.3394,45.5281],[35.8832,37.3569,47.4439],[35.9143,37.4061,40.1479],[35.9386,37.4313,47.3244],[36.0193,37.5575,416.0698],[36.0281,37.5667,510.4268],[36.0389,37.5747,363.056],[36.0665,37.5869,674.0524],[36.1023,37.6113,1263.2791],[36.132,37.6216,1425.967],[36.144,37.6317,1282.499],[36.1538,37.6369,1259.2766],[36.1805,37.6428,1257.9799],[36.2023,37.6497,1673.1738],[36.2143,37.6511,1551.7965],[36.3024,37.6512,1182.8265],[36.307,37.6642,1200.6722],[36.3599,37.7453,1531.6299],[36.3627,37.7589,1606.7898],[36.3601,37.7747,1397.3458],[36.3559,37.7807,1491.4846],[36.3236,37.7792,1559.8229],[36.2899,37.7797,1606.8479],[36.274,37.7822,1498.9204],[36.2526,37.7893,1998.7832],[36.2371,37.7908,2072.2354],[36.2176,37.7893,1887.0767],[36.1961,37.7822,1452.8795],[36.1802,37.7797,1343.7225],[36.1509,37.7795,1365.9939],[36.1266,37.7832,1448.519],[36.1017,37.7622,1703.6965],[36.0877,37.743,1889.3687],[36.0732,37.7299,1919.2053],[36.0613,37.7231,1795.7341],[36.0342,37.7129,1379.4042],[36.0236,37.7105,1085.7789],[35.9322,37.7099,893.6567],[35.917,37.7116,1284.1438],[35.8957,37.7187,1201.6002],[35.8808,37.721,924.5324],[35.7971,37.7215,751.2455],[35.7782,37.719,767.0465],[35.7306,37.7006,642.4429],[35.7194,37.6986,731.0485],[35.7038,37.6978,656.9098],[35.6766,37.6998,865.8718],[35.6552,37.7071,956.6153],[35.6417,37.7099,1177.4707],[35.628,37.7023,1276.1624],[35.6102,37.6952,1264.8594],[35.5995,37.6855,1193.2714],[35.5962,37.6719,830.4694],[35.5978,37.658,801.4223],[35.6076,37.6395,761.2857],[35.6086,37.6343,662.5847],[35.6068,37.6267,485.5958],[35.5785,37.5829,904.5787],[35.5559,37.5602,937.1719],[35.5405,37.5369,768.4943],[35.5369,37.5259,677.1025],[35.5357,37.4897,554.3247],[35.533,37.4781,339.336],[35.4776,37.3922,270.0665],[35.4757,37.3811,208.7855],[35.477,37.3671,158.9082],[35.4873,37.3481,199.8703],[35.4903,37.3366,221.6385],[35.4908,37.3121,117.0],[35.4885,37.2899,243.1457]]]]}
,"properties": {"GID_2": "TUR.1.7_1","GID_0": "TUR","country": "Turkey","GID_1": "TUR.1_1","province": "Adana","NL_NAME_1": "NA","county": "Kozan","VARNAME_2": "NA","NL_NAME_2": "NA","TYPE_2": "District","ENGTYPE_2": "District","CC_2": "NA","HASC_2": "TR.AA.KZ","name": "Kozan.county","area_km2": 2228.766,"hist_schema_id": "Elevation0-9000","hist_area_km2": {"25": 35.226,"50": 126.258,"75": 99.015,"100": 59.429,"125": 60.843,"150": 67.933,"175": 59.894,"200": 58.946,"225": 56.232,"250": 51.663,"275": 55.126,"300": 45.911,"325": 46.255,"350": 44.686,"375": 43.939,"400": 39.168,"425": 34.823,"450": 35.863,"475": 39.333,"500": 37.618,"525": 37.531,"550": 36.703,"575": 35.035,"600": 34.998,"625": 38.305,"650": 35.546,"675": 36.131,"700": 36.431,"725": 34.58,"750": 33.15,"775": 32.794,"800": 32.373,"825": 29.886,"850": 28.912,"875": 28.156,"900": 24.983,"925": 23.505,"950": 21.255,"975": 20.281,"1000": 20.684,"1025": 19.273,"1050": 18.686,"1075": 17.007,"1100": 15.077,"1125": 13.767,"1150": 14.404,"1175": 17.305,"1200": 13.966,"1225": 12.371,"1250": 12.925,"1275": 12.338,"1300": 11.312,"1325": 12.267,"1350": 13.103,"1375": 16.14,"1400": 16.876,"1425": 17.713,"1450": 17.728,"1475": 18.248,"1500": 17.778,"1525": 19.857,"1550": 18.668,"1575": 17.275,"1600": 14.055,"1625": 13.132,"1650": 12.931,"1675": 11.959,"1700": 10.148,"1725": 10.466,"1750": 10.483,"1775": 8.302,"1800": 6.927,"1825": 5.819,"1850": 4.41,"1875": 4.276,"1900": 3.555,"1925": 3.688,"1950": 2.984,"1975": 3.253,"2000": 3.185,"2025": 2.967,"2050": 3.688,"2075": 3.219,"2100": 1.961,"2125": 1.324,"2150": 1.274,"2175": 0.553,"2200": 0.335,"2225": 0.201,"2250": 0.134,"2275": 0.05}}}