{"type": "Feature","bbox": [26.8791,41.3255,27.0683,41.4699],"geometry": {"type": "MultiPolygon","coordinates": [[[[26.9034,41.4311,60.9767],[26.8829,41.406,37.5618],[26.8791,41.3882,66.0225],[26.8796,41.373,35.2064],[26.8817,41.3642,23.8706],[26.886,41.3567,24.11],[26.8983,41.343,19.5953],[26.9145,41.3331,56.3363],[26.9298,41.3268,104.8764],[26.9533,41.3255,90.0969],[26.9649,41.3269,82.7645],[26.9863,41.3342,56.8896],[27.0012,41.3365,59.94],[27.0683,41.336,28.499],[27.0565,41.3499,38.5819],[27.0361,41.3688,60.9572],[27.0274,41.3827,83.8621],[27.0197,41.3912,76.7227],[26.9193,41.4699,41.5444],[26.9034,41.4311,60.9767]]]]}
,"properties": {"GID_2": "TUR.50.6_1","GID_0": "TUR","country": "Turkey","GID_1": "TUR.50_1","province": "Kirklareli","NL_NAME_1": "NA","county": "Pehlivanköy","VARNAME_2": "NA","NL_NAME_2": "NA","TYPE_2": "District","ENGTYPE_2": "District","CC_2": "NA","HASC_2": "TR.KL.PE","name": "Pehlivanköy.county","area_km2": 136.2398,"hist_schema_id": "Elevation0-9000","hist_area_km2": {"25": 51.6829,"50": 49.3417,"75": 31.541,"100": 3.6741}}}