{"type":"Feature","properties":{"GID_2":"TUR.80.13_1","GID_0":"TUR","country":"Turkey","GID_1":"TUR.80_1","province":"Yozgat","NL_NAME_1":"NA","county":"Yenifakılı","VARNAME_2":"NA","NL_NAME_2":"NA","TYPE_2":"District","ENGTYPE_2":"District","CC_2":"NA","HASC_2":"TR.YZ.YF","name":"Yenifakılı.county"},
"geometry":{"type": "MultiPolygon","coordinates": [[[[35.0019,39.1294,1113.4401],[35.028,39.1329,1055.3135],[35.0633,39.1473,1052.6377],[35.0698,39.1529,1057.295],[35.0791,39.1668,1082.5288],[35.0855,39.1734,1080.3928],[35.1282,39.2079,1029.8684],[35.132,39.2154,1042.3938],[35.1315,39.2234,1077.5398],[35.1,39.2718,1312.0762],[35.0706,39.297,1156.6956],[35.0628,39.306399999999996,1145.9762],[35.0599,39.3173,1121.8889],[35.0578,39.3484,1080.0547],[35.044,39.3719,1166.4991],[35.0386,39.3784,1215.5598],[35.0285,39.385,1196.6417],[34.9685,39.4077,1034.9991],[34.9408,39.4125,1039.0383],[34.9166,39.4201,1055.8058],[34.9111,39.4185,1067.8059],[34.9018,39.4126,1049.1733],[34.8983,39.4087,1045.8721],[34.8895,39.3907,1018.5883],[34.8707,39.3783,987.8712],[34.8561,39.3643,1049.9359],[34.9156,39.3407,1041.3882],[34.9202,39.3376,1023.4487],[34.9237,39.3306,1026.2875],[34.9219,39.3178,1075.9344],[34.9114,39.2991,1082.2014],[34.9075,39.2653,981.4053],[34.8954,39.2412,983.6016],[34.8959,39.2275,1110.0079],[34.9049,39.2153,1090.8823],[34.9582,39.1739,1080.3767],[34.9776,39.1533,1063.1614],[34.9923,39.145,1056.9028],[34.9977,39.1384,1076.759],[35.0019,39.1294,1113.4401]]]]}}