{"type":"Feature","properties":{"GID_2":"TUR.32.1_1","GID_0":"TUR","country":"Turkey","GID_1":"TUR.32_1","province":"Eskisehir","NL_NAME_1":"NA","county":"Alpu","VARNAME_2":"NA","NL_NAME_2":"NA","TYPE_2":"District","ENGTYPE_2":"District","CC_2":"NA","HASC_2":"TR.ES.AL","name":"Alpu.county"},
"geometry":{"type": "MultiPolygon","coordinates": [[[[30.9539,40.0196,704.2004],[30.9832,39.9799,1200.2432],[31.0173,39.9501,1076.1588],[31.0311,39.9299,1053.9966],[31.0335,39.9207,1096.2017],[31.0295,39.9145,1048.5435],[30.9965,39.8957,923.861],[30.9685,39.8837,855.2192],[30.942,39.8638,794.8286],[30.9337,39.8547,787.1051],[30.9053,39.8105,765.7784],[30.9012,39.7972,764.6296],[30.9013,39.751,800.792],[30.9041,39.7401,819.1894],[30.9132,39.7238,861.3166],[30.919,39.6937,1008.4816],[30.9377,39.673,934.7737],[30.9589,39.6612,965.6639],[30.9656,39.6591,986.5151],[30.9849,39.6571,990.2789],[31.0121,39.6586,994.9857],[31.0408,39.6675,866.1665],[31.0601,39.6694,829.405],[31.0874,39.6683,835.5304],[31.1185,39.6606,809.5574],[31.1383,39.6817,777.0639],[31.1816,39.7493,790.582],[31.1895,39.7728,919.0334],[31.2039,39.7963,894.1689],[31.2357,39.8451,960.7901],[31.255,39.867,1012.9322],[31.2363,39.889,1168.147],[31.2282,39.9125,1306.4001],[31.2136,39.9358,1487.0537],[31.1936,39.9562,1539.5372],[31.1889,39.964,1447.4191],[31.1867,39.9757,1427.4712],[31.1855,40.0118,1404.5734],[31.176,40.044,497.7544],[31.1203,40.0404,841.9785],[31.0915,40.0322,1057.9941],[31.0569,40.028,1145.2148],[31.0353,40.0211,579.8919],[31.0234,40.0192,534.2486],[30.9941,40.0183,800.0132],[30.9539,40.0196,704.2004]]]]}}