{"type": "Feature","bbox": [28.1234,40.0555,28.74,40.5668],"geometry": {"type": "MultiPolygon","coordinates": [[[[28.1234,40.2099,84.5875],[28.1235,40.1138,25.391],[28.1326,40.1095,15.0617],[28.1361,40.1047,16.6367],[28.1382,40.0956,19.8525],[28.1385,40.0788,70.1762],[28.1511,40.0734,46.6576],[28.1684,40.0555,25.1602],[28.1786,40.066,29.3223],[28.1877,40.0806,18.6726],[28.2049,40.0958,16.9034],[28.2143,40.1004,17.0626],[28.2211,40.1019,18.1126],[28.2345,40.1012,17.0259],[28.2424,40.097,17.4231],[28.2622,40.066,19.7769],[28.2688,40.0604,47.3247],[28.2813,40.0569,61.8653],[28.2942,40.0593,159.2499],[28.3178,40.0686,40.2592],[28.3297,40.0755,17.3723],[28.3423,40.0863,33.4008],[28.3683,40.1268,7.2981],[28.3827,40.1402,7.8808],[28.419,40.1667,5.2103],[28.4407,40.176,4.7761],[28.463,40.1888,4.4978],[28.4692,40.19,2.5],[28.4777,40.1886,2.5],[28.5221,40.1727,2.5],[28.6078,40.1713,2.5],[28.6303,40.1681,2.5],[28.6504,40.184,3.1431],[28.6625,40.1909,52.579],[28.6931,40.1973,16.0921],[28.7264,40.2092,27.1519],[28.7358,40.2164,62.9061],[28.74,40.2263,95.1938],[28.7374,40.2362,183.7114],[28.7292,40.2411,211.5781],[28.7191,40.2422,176.5169],[28.6655,40.2415,79.7337],[28.6511,40.2441,112.3312],[28.6456,40.2469,108.9868],[28.639,40.2523,90.888],[28.6347,40.2582,130.1772],[28.634,40.279,133.3878],[28.6306,40.2897,92.3927],[28.6174,40.306,79.622],[28.6047,40.3105,27.6769],[28.5781,40.3112,18.5619],[28.5648,40.315,79.8992],[28.5611,40.3199,140.5507],[28.5601,40.3255,96.2226],[28.561,40.3312,103.0238],[28.5724,40.3532,274.7756],[28.5739,40.3627,115.628],[28.5732,40.376,0.0],[28.554,40.3804,0.5958],[28.5512,40.3826,0.0],[28.5285,40.3904,0.3005],[28.5196,40.3915,0.5641],[28.5182,40.3937,0.183],[28.5135,40.3949,0.0],[28.5112,40.391,0.4217],[28.5026,40.3885,0.2659],[28.4957,40.3826,0.0],[28.4824,40.3632,1.2549],[28.4907,40.3796,0.0],[28.4971,40.3863,0.4289],[28.5104,40.3951,0.0],[28.4632,40.3957,0.0],[28.4501,40.394,0.4035],[28.4121,40.3932,0.8467],[28.3951,40.3943,0.2638],[28.3723,40.3987,11.7191],[28.3646,40.3971,0.5472],[28.3446,40.4018,0.7102],[28.2954,40.396,0.0],[28.2862,40.3987,1.4634],[28.279,40.3985,18.1767],[28.2632,40.4018,3.4073],[28.2393,40.4018,8.7738],[28.2157,40.3982,9.4181],[28.1912,40.3736,660.4407],[28.1768,40.3544,431.0649],[28.144,40.3249,110.0822],[28.141,40.3194,95.2354],[28.1388,40.3072,73.9451],[28.1378,40.2633,26.2308],[28.1353,40.2545,23.4051],[28.1261,40.2379,80.5733],[28.1239,40.2257,139.937],[28.1234,40.2099,84.5875]]],
[[[28.539,40.5668,27.4358],[28.5246,40.5646,35.807],[28.5201,40.566,0.0],[28.5179,40.5651,14.6651],[28.5251,40.5596,0.0],[28.5265,40.5551,6.6557],[28.5254,40.5518,0.0],[28.5271,40.549,9.296],[28.524,40.5337,16.8302],[28.5157,40.5215,0.0],[28.5207,40.514,0.0],[28.5246,40.5113,0.0],[28.5415,40.5151,0.0],[28.5454,40.526,1.9432],[28.5424,40.5343,0.0],[28.5396,40.5371,14.116],[28.5393,40.5418,6.0764],[28.5365,40.5454,8.515],[28.5362,40.5488,0.0],[28.5393,40.5546,18.4608],[28.5432,40.554,0.614],[28.5501,40.556,7.1531],[28.5504,40.5593,7.1099],[28.5551,40.5649,0.0],[28.539,40.5668,27.4358]]]]}
,"properties": {"GID_2": "TUR.21.7_1","GID_0": "TUR","country": "Turkey","GID_1": "TUR.21_1","province": "Bursa","NL_NAME_1": "NA","county": "Karacabey","VARNAME_2": "NA","NL_NAME_2": "NA","TYPE_2": "District","ENGTYPE_2": "District","CC_2": "NA","HASC_2": "TR.BU.KA","name": "Karacabey.county","area_km2": 1241.179,"hist_schema_id": "Elevation0-9000","hist_area_km2": {"0": 354.4796,"25": 240.1603,"50": 94.6117,"75": 85.2261,"100": 80.5529,"125": 66.9321,"150": 39.0079,"175": 24.5294,"200": 20.9039,"225": 20.2396,"250": 19.7539,"275": 17.1342,"300": 16.0985,"325": 15.6456,"350": 15.8395,"375": 16.0333,"400": 17.0357,"425": 13.6565,"450": 13.187,"475": 12.2491,"500": 10.9716,"525": 8.466,"550": 7.3994,"575": 8.4169,"600": 6.462,"625": 4.5716,"650": 3.053,"675": 2.52,"700": 2.1,"725": 1.5023,"750": 1.05,"775": 0.7915,"800": 0.3715,"825": 0.21,"850": 0.0162}}}