{"type":"Feature","properties":{"GID_2":"TUR.28.3_1","GID_0":"TUR","country":"Turkey","GID_1":"TUR.28_1","province":"Edirne","NL_NAME_1":"NA","county":"İpsala","VARNAME_2":"NA","NL_NAME_2":"NA","TYPE_2":"District","ENGTYPE_2":"District","CC_2":"NA","HASC_2":"TR.ED.IP","name":"İpsala.county"},
"geometry":{"type": "MultiPolygon","coordinates": [[[[26.1403,40.7885,1.1275],[26.1774,40.7904,0.2476],[26.239,40.7894,0.2582],[26.2497,40.7869,0.5432],[26.2943,40.7697,1.2108],[26.3233,40.7643,15.0131],[26.3588,40.7679,26.9545],[26.3721,40.7719,22.0971],[26.4088,40.7969,16.9955],[26.4382,40.8099,47.3156],[26.4511,40.819,47.8972],[26.4671,40.8331,31.6688],[26.4725,40.8453,52.36],[26.4748,40.8658,89.2954],[26.4798,40.8753,91.5553],[26.4986,40.8938,68.0634],[26.5098,40.9101,50.1588],[26.5442,40.9402,101.5986],[26.5849,41.0032,73.6095],[26.6389,41.0462,82.9157],[26.6354,41.0518,100.7453],[26.6281,41.0559,95.5593],[26.5877,41.0592,38.0],[26.5729,41.063,93.7421],[26.5473,41.0737,13.8663],[26.5266,41.0903,10.6679],[26.512,41.093,8.6161],[26.4915,41.0934,7.2207],[26.4509,41.0905,5.7884],[26.4415,41.0843,5.9697],[26.4181,41.0798,6.3573],[26.4065,41.075,5.233],[26.3865,41.0604,5.6631],[26.3658,41.0385,7.0393],[26.3588,41.0278,7.7929],[26.3594,41.0216,8.3297],[26.3626,41.0183,7.4357],[26.3623,41.0133,8.7374],[26.3557,40.9984,6.3386],[26.3506,40.9926,13.8614],[26.3438,40.9871,6.876],[26.3259,40.9895,6.5329],[26.3235,40.9836,6.3473],[26.342,40.9699,4.5],[26.3531,40.9547,4.4414],[26.3509,40.9498,6.0678],[26.32,40.9441,11.457],[26.3108,40.9355,6.2241],[26.289,40.9349,4.9878],[26.2904,40.9278,4.9947],[26.2957,40.9222,4.3476],[26.2975,40.9151,3.8388],[26.3007,40.9144,3.8179],[26.3014,40.9102,4.0801],[26.2978,40.9052,4.6662],[26.2902,40.8998,3.6666],[26.2833,40.8991,3.3135],[26.2736,40.9064,3.1772],[26.2647,40.9217,4.2016],[26.2559,40.9086,5.919],[26.2542,40.8944,2.908],[26.2498,40.8914,5.9978],[26.2404,40.8907,2.698],[26.2362,40.892,3.0247],[26.2334,40.8959,3.4818],[26.2283,40.8981,3.5357],[26.223,40.8905,2.4429],[26.2282,40.8821,3.7574],[26.2262,40.8777,3.5878],[26.2181,40.8756,2.44],[26.2182,40.8715,2.3685],[26.2113,40.8693,2.0534],[26.2164,40.8655,3.3485],[26.2068,40.8599,4.4141],[26.2071,40.8584,6.4196],[26.2014,40.8522,1.8958],[26.2164,40.8486,2.6774],[26.2173,40.8367,2.6466],[26.1685,40.8164,2.469],[26.1577,40.8147,1.6882],[26.1403,40.7885,1.1275]]]]}}