{"type": "Feature","bbox": [35.5726,40.6551,35.9851,40.8946],"geometry": {"type": "MultiPolygon","coordinates": [[[[35.9851,40.8693,1390.0851],[35.9553,40.8756,1217.8955],[35.9183,40.8766,1515.8949],[35.8941,40.8746,1395.604],[35.8726,40.8674,1528.3928],[35.861,40.8653,1335.3593],[35.8199,40.8646,1096.0157],[35.8001,40.8673,975.6776],[35.7604,40.8801,1032.5302],[35.7304,40.8764,1048.8293],[35.7026,40.8773,866.3281],[35.6879,40.8819,791.1071],[35.6657,40.8946,760.9091],[35.6436,40.8636,632.4619],[35.6255,40.8456,499.6278],[35.6208,40.8379,493.1722],[35.6186,40.8263,487.5777],[35.6187,40.7901,463.2305],[35.6171,40.7784,453.9642],[35.6134,40.7705,450.2178],[35.5958,40.7525,456.7484],[35.5909,40.7446,455.9247],[35.5866,40.7087,600.9196],[35.5757,40.6866,917.6592],[35.5726,40.6736,878.3181],[35.6194,40.6578,736.2639],[35.6463,40.6551,817.6101],[35.7298,40.6561,943.639],[35.7403,40.6585,846.1119],[35.7707,40.6702,799.7383],[35.7849,40.6795,809.7617],[35.7961,40.6909,789.0951],[35.8103,40.7146,598.5375],[35.8177,40.7382,732.2731],[35.8306,40.7547,1089.3208],[35.8391,40.7588,1129.6014],[35.8752,40.7635,1407.7108],[35.903,40.7733,1755.4814],[35.9166,40.7812,1852.9598],[35.9258,40.7891,1807.9626],[35.9309,40.7959,1475.5797],[35.9372,40.8171,1415.6919],[35.9531,40.8427,1484.3344],[35.9638,40.8529,1823.3235],[35.9851,40.8693,1390.0851]]]]}
,"properties": {"GID_2": "TUR.6.6_1","GID_0": "TUR","country": "Turkey","GID_1": "TUR.6_1","province": "Amasya","NL_NAME_1": "NA","county": "Suluova","VARNAME_2": "NA","NL_NAME_2": "NA","TYPE_2": "District","ENGTYPE_2": "District","CC_2": "NA","HASC_2": "TR.AM.SU","name": "Suluova.county","area_km2": 543.7264,"hist_schema_id": "Elevation0-9000","hist_area_km2": {"400": 0.7875,"425": 30.0099,"450": 48.6352,"475": 29.1933,"500": 21.8678,"525": 17.2117,"550": 14.0639,"575": 14.6908,"600": 13.6648,"625": 15.3189,"650": 14.8375,"675": 13.6645,"700": 12.959,"725": 17.0445,"750": 16.5909,"775": 16.7992,"800": 17.9748,"825": 15.8717,"850": 17.4966,"875": 14.3622,"900": 10.3762,"925": 7.16,"950": 5.2645,"975": 4.9904,"1000": 5.1345,"1025": 5.1173,"1050": 6.2241,"1075": 7.8281,"1100": 6.4969,"1125": 6.2083,"1150": 5.4548,"1175": 5.375,"1200": 4.7812,"1225": 5.1661,"1250": 4.2836,"1275": 4.3798,"1300": 3.5453,"1325": 3.6737,"1350": 3.0482,"1375": 3.9305,"1400": 3.6738,"1425": 4.0105,"1450": 4.8771,"1475": 4.9732,"1500": 5.1179,"1525": 5.2622,"1550": 4.9575,"1575": 4.781,"1600": 4.5725,"1625": 4.5406,"1650": 4.2194,"1675": 4.0109,"1700": 3.3848,"1725": 2.7592,"1750": 2.3581,"1775": 1.7326,"1800": 1.4279,"1825": 1.3319,"1850": 0.9949,"1875": 0.5135,"1900": 0.5296,"1925": 0.4493,"1950": 0.4814,"1975": 0.3851,"2000": 0.4012,"2025": 0.337,"2050": 0.1605}}}