{"type":"Feature","properties":{"GID_2":"TUR.37.3_1","GID_0":"TUR","country":"Turkey","GID_1":"TUR.37_1","province":"Hatay","NL_NAME_1":"NA","county":"Dörtyol","VARNAME_2":"NA","NL_NAME_2":"NA","TYPE_2":"District","ENGTYPE_2":"District","CC_2":"NA","HASC_2":"TR.HT.DO","name":"Dörtyol.county"},
"geometry":{"type": "MultiPolygon","coordinates": [[[[36.1851,36.724,0.0],[36.184,36.7238,0.0],[36.186,36.7224,0.0],[36.1888,36.7226,0.0],[36.1888,36.7232,0.0],[36.1851,36.724,0.0]]],
[[[36.4483,36.9473,1615.7102],[36.4426,36.9533,1324.959],[36.3591,36.9532,1657.9238],[36.3472,36.9553,1514.1312],[36.3117,36.9685,1056.2484],[36.2995,36.9521,800.6464],[36.2786,36.936,566.498],[36.1971,36.9038,132.3143],[36.1896,36.8993,109.1293],[36.1739,36.8854,50.9896],[36.1577,36.8827,31.562],[36.1143,36.8839,1.3578],[36.1237,36.8796,1.7327],[36.124,36.876,0.0],[36.1407,36.8621,1.8342],[36.1293,36.8535,0.0],[36.1315,36.8524,0.0],[36.1318,36.854,0.0],[36.141,36.8604,0.0],[36.1465,36.8571,2.2469],[36.1626,36.8385,0.0],[36.1674,36.829,0.2694],[36.174,36.8229,1.056],[36.1738,36.8204,0.0],[36.1696,36.8193,0.0],[36.1715,36.8187,0.0],[36.1765,36.8204,0.8171],[36.1807,36.8132,2.6397],[36.199,36.7935,4.0058],[36.2057,36.7835,18.7422],[36.206,36.781,11.7931],[36.2043,36.7793,9.2613],[36.206,36.7751,0.0],[36.2062,36.7663,0.0],[36.2029,36.7615,5.1763],[36.1976,36.7615,0.2413],[36.1974,36.7585,7.1132],[36.1918,36.7532,1.4817],[36.1904,36.7465,0.0],[36.1921,36.7385,0.4418],[36.1957,36.7326,1.7471],[36.1871,36.729,0.0],[36.1929,36.7293,0.0],[36.1974,36.7324,2.7018],[36.196,36.7293,0.0],[36.1976,36.7282,0.0],[36.2001,36.7293,1.8653],[36.2018,36.7276,2.4246],[36.2007,36.7224,0.2973],[36.2026,36.7226,1.4612],[36.2029,36.7212,2.4284],[36.1979,36.7204,17.0749],[36.1926,36.7221,0.0],[36.1954,36.7207,0.9725],[36.1965,36.7157,0.0],[36.1954,36.7085,8.6047],[36.1926,36.7051,0.0],[36.2026,36.6876,0.0],[36.2043,36.6876,4.8507],[36.2035,36.6835,4.45],[36.2062,36.684,4.2952],[36.2107,36.6751,0.0],[36.2112,36.6816,2.7698],[36.2261,36.6844,334.6693],[36.239,36.6854,593.0089],[36.2587,36.6836,863.6642],[36.267,36.6781,1022.4633],[36.2721,36.6595,1022.0907],[36.2784,36.6529,956.2093],[36.2971,36.6495,980.8401],[36.3371,36.6506,980.1906],[36.357,36.686,1411.6875],[36.364,36.707,1569.5322],[36.3733,36.7235,1187.5349],[36.3754,36.7381,1202.3065],[36.3756,36.7744,1596.4982],[36.3787,36.7888,2132.8408],[36.4312,36.8699,1564.65],[36.4392,36.8933,1567.533],[36.4648,36.9358,1677.5305],[36.4551,36.941,1706.6396],[36.4483,36.9473,1615.7102]]]]}}