{"type": "Feature","bbox": [29.182,37.8303,29.5308,38.215],"geometry": {"type": "MultiPolygon","coordinates": [[[[29.5286,38.0934,819.1997],[29.4958,38.1142,1045.469],[29.4843,38.1194,1083.5151],[29.442,38.1246,684.7666],[29.3788,38.1489,832.6716],[29.3402,38.175,969.7285],[29.2973,38.1935,728.5403],[29.2923,38.1996,710.2838],[29.2894,38.215,588.1709],[29.262,38.2127,486.7273],[29.2326,38.2015,459.925],[29.2213,38.1955,440.5],[29.2287,38.1769,681.5476],[29.2291,38.1634,495.8281],[29.2263,38.1556,575.4553],[29.2029,38.1214,638.218],[29.1874,38.0952,950.3424],[29.1851,38.0805,947.5057],[29.1844,38.044,1127.5251],[29.182,38.0293,1158.1449],[29.2277,38.0296,1081.1377],[29.2376,38.0274,1057.6919],[29.2425,38.0235,1016.7584],[29.2448,38.0164,1117.1588],[29.2437,38.0088,1185.2899],[29.2339,37.9931,1325.5621],[29.2305,37.9816,1362.6055],[29.2296,37.9663,1217.0742],[29.2318,37.9513,1159.7596],[29.2702,37.8906,746.4153],[29.2797,37.8648,531.9262],[29.2977,37.8403,495.4734],[29.3261,37.8428,483.5646],[29.367,37.8422,482.8081],[29.3823,37.8388,497.4717],[29.4015,37.8303,517.3743],[29.4372,37.8669,718.619],[29.4669,37.9135,912.7294],[29.4748,37.937,869.2969],[29.5122,37.9949,818.6764],[29.518,38.0134,813.6817],[29.5274,38.0298,810.2382],[29.5298,38.0384,809.1855],[29.5308,38.0659,813.2208],[29.5286,38.0934,819.1997]]]]}
,"properties": {"GID_2": "TUR.25.9_1","GID_0": "TUR","country": "Turkey","GID_1": "TUR.25_1","province": "Denizli","NL_NAME_1": "NA","county": "Çal","VARNAME_2": "NA","NL_NAME_2": "NA","TYPE_2": "District","ENGTYPE_2": "District","CC_2": "NA","HASC_2": "TR.DN.CL","name": "Çal.county","area_km2": 825.453,"hist_schema_id": "Elevation0-9000","hist_area_km2": {"425": 0.0334,"450": 1.7833,"475": 5.6719,"500": 11.211,"525": 11.5752,"550": 9.0445,"575": 9.1586,"600": 10.0271,"625": 10.0077,"650": 11.3237,"675": 17.6287,"700": 25.2673,"725": 21.3226,"750": 26.1915,"775": 35.1216,"800": 62.7884,"825": 88.2106,"850": 52.9119,"875": 47.3856,"900": 42.7079,"925": 39.4811,"950": 35.568,"975": 26.3902,"1000": 21.6839,"1025": 21.9551,"1050": 17.8943,"1075": 15.5374,"1100": 14.0499,"1125": 13.9007,"1150": 13.6166,"1175": 11.3102,"1200": 10.3411,"1225": 9.7232,"1250": 7.6515,"1275": 6.599,"1300": 6.2313,"1325": 6.4654,"1350": 6.8001,"1375": 7.2343,"1400": 5.4295,"1425": 5.0111,"1450": 4.2765,"1475": 3.5417,"1500": 3.1242,"1525": 2.7903,"1550": 2.0552,"1575": 1.3535,"1600": 1.3033,"1625": 1.2198,"1650": 0.8354,"1675": 0.9023,"1700": 0.5179,"1725": 0.3843,"1750": 0.2339,"1775": 0.4176,"1800": 0.1336,"1825": 0.1169}}}