{"type":"Feature","properties":{"GID_2":"TUR.40.36_1","GID_0":"TUR","country":"Turkey","GID_1":"TUR.40_1","province":"Istanbul","NL_NAME_1":"NA","county":"Ümraniye","VARNAME_2":"NA","NL_NAME_2":"NA","TYPE_2":"District","ENGTYPE_2":"District","CC_2":"NA","HASC_2":"TR.IB.UM","name":"Ümraniye.county"},
"geometry":{"type": "MultiPolygon","coordinates": [[[[29.1842,41.0023,159.4025],[29.1842,41.008,132.2452],[29.1747,41.0194,139.97],[29.1747,41.0242,120.4369],[29.1794,41.0278,126.9473],[29.1788,41.029,132.6704],[29.1597,41.0452,162.9902],[29.1417,41.0512,134.0678],[29.1309,41.0512,96.7392],[29.1285,41.0614,129.3219],[29.1225,41.0679,79.8359],[29.1165,41.0679,129.4771],[29.1015,41.0751,26.9973],[29.0889,41.0757,81.7854],[29.0807,41.074,9.859],[29.0853,41.0614,24.8314],[29.0848,41.0542,53.4577],[29.0764,41.047,108.3114],[29.0746,41.0398,132.3488],[29.074,41.029,209.6661],[29.0778,41.023,150.3558],[29.0967,41.0218,139.6487],[29.1117,41.0146,109.5517],[29.1267,41.0134,139.2681],[29.1417,41.0092,141.4453],[29.1729,41.008,136.9965],[29.1842,41.0023,159.4025]]]]}}