{"type": "Feature","bbox": [37.0067,36.9568,37.6518,37.3712],"geometry": {"type": "MultiPolygon","coordinates": [[[[37.5873,37.2008,784.0607],[37.5548,37.2247,838.3334],[37.5289,37.2363,788.485],[37.5224,37.2418,750.3257],[37.5135,37.2557,679.4617],[37.5049,37.264,594.5813],[37.4917,37.2728,656.5099],[37.4714,37.2814,825.4949],[37.4633,37.288,842.7439],[37.4588,37.2967,825.0675],[37.4574,37.3061,631.9659],[37.4596,37.3673,838.7374],[37.4307,37.371,790.1516],[37.407,37.3712,864.0403],[37.3843,37.3685,867.4096],[37.3629,37.3614,909.5073],[37.3129,37.3576,768.8109],[37.288,37.3498,817.0288],[37.256,37.3465,849.8327],[37.2279,37.3382,989.3334],[37.1959,37.3352,991.6705],[37.1859,37.3329,1092.626],[37.1555,37.3211,743.4363],[37.1174,37.2954,549.0284],[37.0892,37.2826,542.4551],[37.0782,37.2743,540.8637],[37.0718,37.2678,541.5337],[37.0631,37.2534,553.1206],[37.0483,37.2347,653.3826],[37.0108,37.2174,883.4468],[37.0067,37.1955,1059.9631],[37.007,37.1863,1061.4668],[37.0091,37.1775,1096.7922],[37.0122,37.1725,1093.3667],[37.0238,37.164,1171.1696],[37.0405,37.1567,1245.4585],[37.0486,37.1488,1229.7479],[37.0521,37.1353,1306.6174],[37.0494,37.1131,1079.3392],[37.0709,37.115,1071.4141],[37.0968,37.1148,1283.4954],[37.1108,37.1125,1080.4719],[37.1317,37.1049,978.0153],[37.157,37.1035,981.3565],[37.171,37.1061,1004.0848],[37.1959,37.1206,1095.4586],[37.2023,37.122,1135.7866],[37.2089,37.1208,1100.9358],[37.2169,37.1163,1065.3729],[37.2246,37.1079,1076.0728],[37.2255,37.1011,1109.6854],[37.2203,37.09,1070.2872],[37.2211,37.0857,1043.2139],[37.2249,37.0821,1006.7551],[37.2334,37.08,977.7031],[37.2605,37.0775,963.6896],[37.2911,37.0665,928.9375],[37.3031,37.0596,932.8336],[37.3349,37.0342,899.1001],[37.3458,37.0278,925.8049],[37.3557,37.027,922.6124],[37.3642,37.0309,913.8316],[37.3736,37.0388,851.8947],[37.3837,37.0514,879.5996],[37.3885,37.0546,866.8289],[37.3979,37.0565,833.5669],[37.4116,37.0548,810.4746],[37.4288,37.0441,799.8721],[37.4446,37.0272,771.1818],[37.4492,37.0242,776.6946],[37.4738,37.018,786.0327],[37.5217,36.9996,777.6208],[37.5506,36.998,786.1455],[37.5643,36.9947,780.7391],[37.5758,36.988,783.9399],[37.6025,36.9682,732.567],[37.6223,36.9568,703.6958],[37.6222,37.0095,752.4656],[37.6239,37.026,703.3888],[37.6352,37.0486,780.1627],[37.6414,37.067,788.8143],[37.6498,37.0806,843.4974],[37.6518,37.0887,738.2921],[37.6515,37.0969,718.8785],[37.6486,37.1047,681.017],[37.6198,37.1487,862.2374],[37.596,37.174,841.0706],[37.5873,37.2008,784.0607]]]]}
,"properties": {"GID_2": "TUR.33.8_1","GID_0": "TUR","country": "Turkey","GID_1": "TUR.33_1","province": "Gaziantep","NL_NAME_1": "NA","county": "Şehitkamil","VARNAME_2": "NA","NL_NAME_2": "NA","TYPE_2": "District","ENGTYPE_2": "District","CC_2": "NA","HASC_2": "TR.GA.GK","name": "Şehitkamil.county","area_km2": 1461.58,"hist_schema_id": "Elevation0-9000","hist_area_km2": {"550": 15.723,"575": 3.509,"600": 2.902,"625": 4.623,"650": 8.637,"675": 13.331,"700": 23.44,"725": 36.229,"750": 49.179,"775": 64.179,"800": 102.249,"825": 135.55,"850": 143.79,"875": 130.88,"900": 130.481,"925": 105.456,"950": 88.67,"975": 79.866,"1000": 63.046,"1025": 49.255,"1050": 33.924,"1075": 29.753,"1100": 26.61,"1125": 20.258,"1150": 14.193,"1175": 11.828,"1200": 9.463,"1225": 8.77,"1250": 9.092,"1275": 9.008,"1300": 9.414,"1325": 8.738,"1350": 6.456,"1375": 6.236,"1400": 3.583,"1425": 2.231,"1450": 0.93,"1475": 0.101}}}