{"type": "Feature","bbox": [29.7618,40.5775,30.3408,41.0268],"geometry": {"type": "MultiPolygon","coordinates": [[[[29.9249,40.5775,1024.8878],[30.0072,40.5779,1144.994],[30.0268,40.5797,1149.1039],[30.0783,40.5986,1140.827],[30.1084,40.605,974.2508],[30.1532,40.622,1245.6985],[30.1681,40.6241,1236.3726],[30.2183,40.6257,858.5397],[30.2286,40.6285,651.7456],[30.2421,40.6361,707.1189],[30.2454,40.6467,602.4191],[30.2549,40.663,562.6417],[30.2606,40.6815,85.9553],[30.27,40.6979,30.568],[30.2789,40.7291,28.5],[30.2945,40.7463,151.0298],[30.2994,40.7557,184.5729],[30.2988,40.7636,199.7215],[30.2909,40.7769,236.623],[30.2876,40.7883,86.4813],[30.2869,40.8096,19.8906],[30.2903,40.8212,24.3876],[30.2961,40.8275,29.1423],[30.3039,40.8323,38.6063],[30.3408,40.8439,23.0767],[30.329,40.8587,24.5737],[30.3146,40.8714,131.9809],[30.2711,40.9057,134.7748],[30.2568,40.9135,171.7245],[30.2462,40.9154,153.8488],[30.2286,40.9134,122.6647],[30.1992,40.8958,190.1565],[30.1631,40.8817,355.9365],[30.145,40.88,348.7276],[30.1269,40.8816,305.1478],[30.1139,40.8871,241.2556],[30.0991,40.9,240.6171],[30.0946,40.9077,163.8857],[30.0894,40.9258,213.1457],[30.0787,40.9353,233.5517],[30.0491,40.9418,186.3482],[30.0012,40.9597,142.1675],[29.9622,40.9639,233.8532],[29.9284,40.9759,226.9405],[29.8865,41.0003,205.7817],[29.8761,41.015,258.9411],[29.8698,41.0268,363.4423],[29.8472,41.0159,443.4045],[29.831,41.0036,383.0172],[29.8247,40.9966,365.2654],[29.8166,40.9832,387.3762],[29.8282,40.9732,219.6985],[29.8397,40.9693,311.8216],[29.8466,40.9611,397.8062],[29.8589,40.9509,297.6924],[29.8777,40.9427,324.4662],[29.892,40.9443,297.2278],[29.9108,40.9521,232.2742],[29.9169,40.957,275.061],[29.921,40.957,209.0585],[29.93,40.9517,213.8734],[29.934,40.9464,211.9792],[29.934,40.9268,316.3231],[29.9434,40.9092,296.5257],[29.9422,40.8982,276.8882],[29.9136,40.8867,290.1538],[29.9005,40.8761,332.0891],[29.8809,40.8839,350.4685],[29.8605,40.9031,211.2151],[29.8548,40.9059,212.7805],[29.8167,40.9067,230.9644],[29.8187,40.8957,345.4341],[29.8107,40.8798,337.4244],[29.8089,40.8719,300.8685],[29.8096,40.8613,341.6371],[29.8143,40.8505,313.0415],[29.8144,40.8438,319.4649],[29.7959,40.8215,411.133],[29.7885,40.8006,262.0605],[29.7799,40.7868,273.1069],[29.7743,40.772,58.9429],[29.7618,40.7479,0.0],[29.7699,40.7429,0.6157],[29.7771,40.7418,0.0],[29.7807,40.7418,0.507],[29.7849,40.7449,1.353],[29.7851,40.7424,0.9319],[29.7812,40.7415,0.507],[29.7851,40.741,0.36],[29.7882,40.7446,1.9098],[29.7924,40.7454,0.4144],[29.7938,40.7438,1.4624],[29.7971,40.7438,2.1511],[29.8029,40.7485,1.423],[29.8224,40.7499,0.5951],[29.8249,40.7485,2.5793],[29.8254,40.7463,0.0],[29.8312,40.7463,0.0],[29.8374,40.7518,0.0],[29.8424,40.7524,2.623],[29.8482,40.7499,0.0],[29.854,40.7499,0.0],[29.859,40.7535,0.0],[29.8654,40.7543,0.0],[29.866,40.7576,1.3965],[29.8732,40.7568,0.0],[29.8804,40.7596,1.1129],[29.8876,40.7593,0.9521],[29.8885,40.7604,1.0523],[29.8985,40.7579,0.4117],[29.9137,40.759,0.0],[29.914,40.7601,0.0],[29.9176,40.7593,0.0],[29.9176,40.7604,0.0],[29.9204,40.7588,0.0],[29.9307,40.7601,1.6731],[29.9346,40.7562,0.2534],[29.9401,40.7557,1.4022],[29.9424,40.7474,0.7308],[29.9399,40.744,1.5157],[29.941,40.7382,0.0],[29.9385,40.7365,0.0],[29.9382,40.7343,0.0],[29.9407,40.7337,0.0],[29.941,40.7287,0.5196],[29.936,40.719,0.0],[29.9215,40.7171,0.0],[29.9168,40.714,0.4287],[29.9121,40.7157,0.0],[29.9035,40.7146,1.2452],[29.8971,40.7176,0.0],[29.8874,40.7146,0.4801],[29.8829,40.7165,1.711],[29.8754,40.7163,1.2096],[29.8743,40.7201,0.8465],[29.8721,40.7207,0.0],[29.8665,40.7274,0.715],[29.8465,40.7282,0.4072],[29.8429,40.726,0.6787],[29.8365,40.7251,0.5912],[29.8588,40.7049,20.2381],[29.8786,40.6818,308.6329],[29.8845,40.6518,346.2957],[29.8894,40.6407,463.6166],[29.8891,40.632,664.534],[29.8701,40.6004,981.0031],[29.8665,40.5898,1036.7683],[29.8801,40.5871,816.1118],[29.9013,40.58,900.1328],[29.9249,40.5775,1024.8878]]]]}
,"properties": {"GID_2": "TUR.52.7_1","GID_0": "TUR","country": "Turkey","GID_1": "TUR.52_1","province": "Kocaeli","NL_NAME_1": "NA","county": "Merkez","VARNAME_2": "KocaeliMerkezi","NL_NAME_2": "NA","TYPE_2": "District","ENGTYPE_2": "District","CC_2": "NA","HASC_2": "TR.KC.KC","name": "Merkez.county","area_km2": 1349.966,"hist_schema_id": "Elevation0-9000","hist_area_km2": {"0": 48.96,"25": 119.408,"50": 90.763,"75": 72.287,"100": 63.894,"125": 56.052,"150": 56.88,"175": 61.103,"200": 67.649,"225": 69.006,"250": 68.15,"275": 67.058,"300": 61.123,"325": 56.058,"350": 50.305,"375": 40.556,"400": 32.896,"425": 24.913,"450": 18.017,"475": 14.377,"500": 9.855,"525": 7.752,"550": 8.059,"575": 7.705,"600": 8.044,"625": 7.239,"650": 6.821,"675": 6.484,"700": 6.5,"725": 6.275,"750": 5.986,"775": 5.551,"800": 5.567,"825": 5.857,"850": 5.874,"875": 5.906,"900": 6.148,"925": 6.196,"950": 6.486,"975": 6.18,"1000": 5.633,"1025": 5.215,"1050": 5.07,"1075": 4.442,"1100": 5.021,"1125": 5.15,"1150": 4.99,"1175": 5.231,"1200": 5.167,"1225": 5.392,"1250": 4.506,"1275": 4.216,"1300": 3.701,"1325": 2.317,"1350": 2.365,"1375": 1.979,"1400": 1.544,"1425": 0.821,"1450": 0.998,"1475": 0.981,"1500": 0.627,"1525": 0.386,"1550": 0.209,"1575": 0.064}}}