{"type":"Feature","properties":{"GID_2":"TUR.7.6_1","GID_0":"TUR","country":"Turkey","GID_1":"TUR.7_1","province":"Ankara","NL_NAME_1":"NA","county":"Çamlıdere","VARNAME_2":"NA","NL_NAME_2":"NA","TYPE_2":"District","ENGTYPE_2":"District","CC_2":"NA","HASC_2":"TR.AN.CA","name":"Çamlıdere.county"},
"geometry":{"type": "MultiPolygon","coordinates": [[[[32.2462,40.3406,1237.8745],[32.28,40.3431,1327.5673],[32.3155,40.3591,1131.8069],[32.3387,40.3731,1221.3334],[32.3526,40.3775,1144.5616],[32.3721,40.3787,974.4411],[32.4928,40.3785,1251.402],[32.508,40.3806,1412.4028],[32.55,40.3934,1296.8864],[32.5674,40.4137,1483.0616],[32.5814,40.4396,1539.2449],[32.5808,40.4475,1743.0945],[32.572,40.4635,1656.5333],[32.5657,40.4818,1500.7388],[32.5574,40.4955,1422.9095],[32.5553,40.5063,1361.4171],[32.5574,40.5171,1406.403],[32.5658,40.5308,1109.3958],[32.5723,40.5491,1295.6718],[32.5813,40.5651,1162.0199],[32.582,40.573,1157.0381],[32.5776,40.5824,1073.7305],[32.5681,40.5947,1462.8589],[32.561,40.5994,1515.4282],[32.4304,40.6518,1455.7583],[32.4366,40.6264,1522.0098],[32.4461,40.61,1514.4301],[32.4529,40.5889,1659.4197],[32.4624,40.5726,1613.2861],[32.4672,40.5567,1405.5841],[32.4759,40.5407,1301.6796],[32.4766,40.5328,1245.4604],[32.4737,40.5256,1297.366],[32.4618,40.5072,1365.0707],[32.4392,40.4845,1203.2234],[32.4293,40.47,1206.9922],[32.4093,40.4495,1142.7161],[32.3978,40.4325,1036.6208],[32.388,40.4238,1003.0224],[32.3762,40.4168,963.5],[32.3656,40.4139,963.5],[32.3542,40.4129,993.0601],[32.2999,40.4137,1199.8179],[32.2852,40.416,1173.3284],[32.2607,40.4238,1251.5183],[32.2173,40.4251,1259.4475],[32.1981,40.4036,1697.5144],[32.1961,40.3986,1683.7788],[32.1967,40.3906,1633.4558],[32.2145,40.3633,1402.9966],[32.2284,40.3518,1312.1244],[32.2462,40.3406,1237.8745]]]]}}