{"type": "Feature","bbox": [34.0543,39.5325,34.7301,39.976],"geometry": {"type": "MultiPolygon","coordinates": [[[[34.0543,39.9049,661.8475],[34.0575,39.892,672.9464],[34.0663,39.8755,652.8384],[34.0688,39.8665,656.7064],[34.07,39.8444,656.5284],[34.0689,39.8084,706.7439],[34.0914,39.8058,671.5035],[34.1013,39.803,666.1297],[34.1281,39.787,701.7131],[34.1763,39.7681,736.7148],[34.2002,39.7534,726.3632],[34.2212,39.7448,713.523],[34.2346,39.7367,699.9399],[34.2715,39.7379,743.4262],[34.296,39.7457,769.6053],[34.3069,39.7476,809.0455],[34.3574,39.7485,801.5353],[34.3838,39.7459,874.9933],[34.4257,39.7331,1026.1378],[34.441,39.7148,889.9799],[34.4623,39.6792,748.1879],[34.4685,39.6721,750.9956],[34.4847,39.6602,756.2869],[34.5068,39.6513,884.647],[34.5192,39.6441,1023.1758],[34.5361,39.6316,909.7424],[34.545,39.6221,980.884],[34.5471,39.6167,922.5521],[34.5465,39.6088,816.1175],[34.5238,39.5755,1068.9595],[34.5218,39.5651,957.2054],[34.5255,39.5578,975.7649],[34.5365,39.5479,1008.9272],[34.5503,39.5396,1025.1917],[34.5677,39.5325,1014.8517],[34.5821,39.561,898.2198],[34.5946,39.5736,816.3728],[34.6107,39.5832,930.3088],[34.6567,39.5998,1172.7468],[34.6767,39.6142,1209.5217],[34.6831,39.6236,1214.9543],[34.6884,39.6421,1211.6343],[34.7024,39.6657,1154.3156],[34.7196,39.691,1161.0449],[34.7301,39.7014,1140.4291],[34.7198,39.7118,1121.1865],[34.7069,39.7304,1111.6311],[34.6905,39.7443,1187.7869],[34.6749,39.755,1062.3232],[34.6389,39.769,1026.4187],[34.6114,39.7737,899.7173],[34.5812,39.785,920.7284],[34.5702,39.7911,977.2275],[34.5396,39.813,938.1559],[34.5185,39.8216,953.6861],[34.4944,39.8362,1011.8535],[34.4733,39.8446,1131.2002],[34.4602,39.853,1113.8673],[34.4494,39.8632,1067.7504],[34.4385,39.8796,997.6708],[34.418,39.9005,1169.2024],[34.37,39.976,1328.8741],[34.3514,39.9608,1362.4652],[34.3299,39.9507,1336.803],[34.2969,39.9432,1413.0066],[34.2789,39.9371,1339.7517],[34.2547,39.9345,1218.155],[34.1787,39.9348,1132.2712],[34.154,39.9335,1256.3066],[34.1247,39.9252,1099.1282],[34.0863,39.9204,845.6732],[34.0543,39.9049,661.8475]]]]}
,"properties": {"GID_2": "TUR.80.14_1","GID_0": "TUR","country": "Turkey","GID_1": "TUR.80_1","province": "Yozgat","NL_NAME_1": "NA","county": "Yerköy","VARNAME_2": "NA","NL_NAME_2": "NA","TYPE_2": "District","ENGTYPE_2": "District","CC_2": "NA","HASC_2": "TR.YZ.YK","name": "Yerköy.county","area_km2": 1096.0012,"hist_schema_id": "Elevation0-9000","hist_area_km2": {"650": 4.1509,"675": 23.8402,"700": 38.8832,"725": 35.3751,"750": 44.3427,"775": 53.6845,"800": 66.701,"825": 64.5883,"850": 67.0244,"875": 70.2598,"900": 73.4995,"925": 73.6309,"950": 64.5749,"975": 60.3702,"1000": 57.2795,"1025": 51.114,"1050": 41.1532,"1075": 35.0601,"1100": 29.6169,"1125": 26.5695,"1150": 23.328,"1175": 14.5504,"1200": 9.5411,"1225": 8.6059,"1250": 7.0415,"1275": 6.0976,"1300": 5.4958,"1325": 5.2356,"1350": 4.8128,"1375": 4.8126,"1400": 4.3736,"1425": 4.1134,"1450": 4.0808,"1475": 3.5442,"1500": 3.219,"1525": 2.65,"1550": 1.3494,"1575": 0.8617,"1600": 0.5203,"1625": 0.0488}}}