{"type":"Feature","properties":{"GID_2":"TUR.20.2_1","GID_0":"TUR","country":"Turkey","GID_1":"TUR.20_1","province":"Burdur","NL_NAME_1":"NA","county":"Altınyayla","VARNAME_2":"NA","NL_NAME_2":"NA","TYPE_2":"District","ENGTYPE_2":"District","CC_2":"NA","HASC_2":"TR.BD.AL","name":"Altınyayla.county"},
"geometry":{"type": "MultiPolygon","coordinates": [[[[29.7372,36.9272,1286.3129],[29.7263,36.9468,1625.9553],[29.721,36.9656,1664.4581],[29.7117,36.982,1598.5083],[29.7051,37.0031,1540.1598],[29.6969,37.0169,1493.8083],[29.6903,37.0381,1207.8463],[29.653199999999998,37.0961,1152.5166],[29.6488,37.1069,1037.9517],[29.5527,37.1103,957.5831],[29.5194,37.1194,974.2469],[29.4586,37.1227,1424.8545],[29.4368,37.1295,1567.3318],[29.4055,37.1348,1572.6104],[29.3926,37.1387,1610.947],[29.3929,37.0967,1254.615],[29.3878,37.0761,1530.646],[29.3954,37.0547,1276.3052],[29.4062,37.0357,1262.9531],[29.4083,37.0246,1334.4189],[29.4067,36.999,1086.8801],[29.3956,36.9801,1079.5099],[29.3923,36.9694,1221.8972],[29.3923,36.9566,1127.6558],[29.3967,36.95,1191.0206],[29.4027,36.948,1241.8365],[29.4117,36.949,1315.6556],[29.4461,36.9644,1171.3604],[29.4842,36.9939,1116.1211],[29.4931,37.0031,1151.4045],[29.5023,37.0171,1325.818],[29.5118,37.0242,1413.6982],[29.525,37.0277,1285.7903],[29.5467,37.0276,1357.5273],[29.5572,37.0256,1501.6263],[29.5875,37.0142,1889.1799],[29.6169,37.0022,1774.7324],[29.6246,36.9975,1837.838],[29.6307,36.9915,1883.3057],[29.6405,36.9774,1654.2111],[29.6586,36.9592,1378.5919],[29.6769,36.9326,1262.3442],[29.6843,36.919,1246.9854],[29.7243,36.9234,1268.5576],[29.7372,36.9272,1286.3129]]]]}}