{"type": "Feature","bbox": [30.1782,38.5893,30.7487,38.9777],"geometry": {"type": "MultiPolygon","coordinates": [[[[30.7105,38.7866,1023.1215],[30.6997,38.7904,1026.9812],[30.6911,38.7975,1071.8433],[30.6774,38.8179,1099.8854],[30.6738,38.8293,1132.0908],[30.6748,38.8477,1106.4766],[30.685,38.8673,1158.7903],[30.6881,38.8791,1216.7557],[30.6888,38.936,1383.4268],[30.6987,38.9465,1439.9829],[30.7039,38.9593,1381.0011],[30.6874,38.9553,1450.2993],[30.6738,38.9477,1435.8468],[30.6602,38.9451,1351.4546],[30.639,38.9379,1286.8987],[30.6151,38.9335,1191.301],[30.5672,38.9155,1109.3215],[30.54,38.9101,1059.0503],[30.4894,38.8917,1169.7839],[30.4731,38.8938,1222.6167],[30.4445,38.9062,1128.0457],[30.4381,38.912,1110.2594],[30.4289,38.9261,1082.7556],[30.4224,38.933,1091.3828],[30.4118,38.941,1105.9636],[30.4023,38.9456,1130.9557],[30.3834,38.9482,1109.1018],[30.3114,38.9478,1105.342],[30.2882,38.9496,1115.5519],[30.2668,38.9567,1091.8348],[30.2397,38.9622,1087.1323],[30.2068,38.9777,1078.2058],[30.1796,38.9301,1256.3113],[30.1782,38.9248,1253.3832],[30.207,38.9223,1317.7843],[30.267,38.8992,1319.5062],[30.2964,38.8819,1283.5942],[30.3152,38.8744,1503.4763],[30.3416,38.8588,1407.179],[30.3596,38.8513,1296.1709],[30.3688,38.8441,1197.1703],[30.393,38.8068,1162.7109],[30.4153,38.7839,1127.9287],[30.4462,38.7347,1493.3436],[30.4485,38.7142,1605.7092],[30.4474,38.6662,1578.7542],[30.4434,38.6554,1577.0182],[30.4312,38.6399,1554.4365],[30.4639,38.6238,1635.735],[30.491,38.6136,1485.0096],[30.4979,38.6117,1418.0256],[30.5218,38.6099,1578.3241],[30.6453,38.6095,1267.0208],[30.6569,38.6075,1265.665],[30.7009,38.5911,1397.2305],[30.7103,38.5893,1458.3593],[30.729,38.6086,1381.9091],[30.7452,38.6342,1211.4015],[30.7481,38.6463,1133.1826],[30.7487,38.6654,1015.1381],[30.7485,38.7071,992.019],[30.7463,38.7226,997.77],[30.7372,38.7393,1031.7365],[30.7302,38.7603,1028.6483],[30.7105,38.7866,1023.1215]]]]}
,"properties": {"GID_2": "TUR.3.14_1","GID_0": "TUR","country": "Turkey","GID_1": "TUR.3_1","province": "Afyon","NL_NAME_1": "NA","county": "Merkez","VARNAME_2": "AfyonkarahisarMerkez","NL_NAME_2": "NA","TYPE_2": "District","ENGTYPE_2": "District","CC_2": "NA","HASC_2": "TR.AF.AF","name": "Merkez.county","area_km2": 1033.5042,"hist_schema_id": "Elevation0-9000","hist_area_km2": {"975": 4.1203,"1000": 178.7531,"1025": 155.6641,"1050": 65.9109,"1075": 53.3376,"1100": 70.0683,"1125": 83.9435,"1150": 63.213,"1175": 46.5369,"1200": 35.0665,"1225": 27.4111,"1250": 23.22,"1275": 23.9718,"1300": 22.2727,"1325": 17.7373,"1350": 17.3748,"1375": 16.4659,"1400": 15.7794,"1425": 13.6452,"1450": 11.8105,"1475": 9.5964,"1500": 7.9431,"1525": 6.7838,"1550": 6.7034,"1575": 6.9038,"1600": 7.1359,"1625": 8.6416,"1650": 9.569,"1675": 7.1352,"1700": 4.7679,"1725": 3.5266,"1750": 3.1128,"1775": 2.2024,"1800": 1.4407,"1825": 0.9605,"1850": 0.53,"1875": 0.1656,"1900": 0.0828}}}