{"type":"Feature","properties":{"GID_2":"TUR.74.2_1","GID_0":"TUR","country":"Turkey","GID_1":"TUR.74_1","province":"Tokat","NL_NAME_1":"NA","county":"Artova","VARNAME_2":"NA","NL_NAME_2":"NA","TYPE_2":"District","ENGTYPE_2":"District","CC_2":"NA","HASC_2":"TR.TT.AR","name":"Artova.county"},
"geometry":{"type": "MultiPolygon","coordinates": [[[[36.4125,40.1956,1398.6038],[36.3844,40.1867,1346.4207],[36.3368,40.1681,1286.962],[36.3174,40.1658,1244.5687],[36.2979,40.1674,1295.1766],[36.2689,40.1761,1236.6104],[36.2381,40.1796,1288.8412],[36.2092,40.188,1370.9188],[36.1606,40.1906,1332.1266],[36.1573,40.1554,1105.02],[36.1544,40.1437,1319.5863],[36.1465,40.1298,1389.1631],[36.1393,40.109,1445.5327],[36.1198,40.0866,1397.5409],[36.131,40.0713,1239.2284],[36.1474,40.0576,1412.0835],[36.1623,40.0512,1366.5892],[36.1799,40.0492,1322.158],[36.3353,40.0498,1087.7017],[36.3514,40.0521,1094.9061],[36.3726,40.0592,1112.2323],[36.4095,40.0664,1099.8918],[36.4241,40.0825,1156.6611],[36.439,40.1058,1160.6786],[36.4422,40.1164,1183.187],[36.4401,40.1301,1194.5078],[36.4152,40.1694,1246.418],[36.4125,40.1956,1398.6038]]]]}}