{"type":"Feature","properties":{"GID_2":"TUR.47.3_1","GID_0":"TUR","country":"Turkey","GID_1":"TUR.47_1","province":"Kayseri","NL_NAME_1":"NA","county":"Develi","VARNAME_2":"NA","NL_NAME_2":"NA","TYPE_2":"District","ENGTYPE_2":"District","CC_2":"NA","HASC_2":"TR.KY.DE","name":"Develi.county"},
"geometry":{"type": "MultiPolygon","coordinates": [[[[35.8228,38.1056,2252.8433],[35.8337,38.1089,2077.4424],[35.8446,38.1149,2187.9829],[35.8636,38.1206,2251.145],[35.8873,38.1371,1890.3816],[35.9085,38.1439,1606.2266],[35.9192,38.1507,1803.8789],[35.9441,38.1617,1637.4989],[35.9747,38.1725,1897.1077],[36.0014,38.1781,2229.0002],[36.0134,38.1856,2139.7861],[36.0271,38.2031,1970.5011],[36.0377,38.2233,2184.2495],[36.0892,38.302,2225.8555],[36.0979,38.3236,2209.8948],[36.065,38.3293,2050.2148],[36.0354,38.3462,1742.3409],[36.0053,38.3582,1546.2893],[35.9751,38.3645,1500.4215],[35.9505,38.3724,1440.0234],[35.9322,38.3737,1408.1884],[35.9102,38.3728,1380.2039],[35.8998,38.3709,1339.5074],[35.8786,38.3635,1352.426],[35.856,38.3615,1349.4027],[35.8094,38.3617,1694.7841],[35.7982,38.3633,1577.4097],[35.788,38.3671,1491.9705],[35.7531,38.391,1525.1388],[35.7294,38.4018,1441.0717],[35.7209,38.4094,1455.4307],[35.7063,38.4326,1484.014],[35.7042,38.4407,1509.9475],[35.7015,38.4747,1595.7812],[35.6862,38.5009,1622.5034],[35.6694,38.5161,1707.4478],[35.6328,38.5337,1927.0018],[35.5923,38.5651,2078.0244],[35.5866,38.5725,2103.2327],[35.5846,38.5778,2063.0847],[35.5818,38.6081,1691.1194],[35.5524,38.5974,1947.8843],[35.5404,38.5953,1880.5768],[35.5069,38.5946,1968.9216],[35.4729,38.5963,2179.4844],[35.4416,38.5911,2160.2808],[35.4227,38.5765,2167.2441],[35.3936,38.5634,2492.3145],[35.3478,38.5298,1976.7402],[35.3153,38.5173,1530.5416],[35.3062,38.5154,1519.5845],[35.288,38.4921,1316.1599],[35.2842,38.4832,1290.5417],[35.2826,38.4705,1175.9944],[35.2837,38.435,1087.0803],[35.286,38.4232,1073.2712],[35.3144,38.4116,1073.3381],[35.3382,38.4071,1086.7373],[35.348,38.4034,1091.5314],[35.3662,38.3892,1099.9204],[35.3796,38.3709,1077.8108],[35.3924,38.3629,1085.2209],[35.5062,38.319,1784.2942],[35.5365,38.3128,1854.8414],[35.5577,38.3056,1694.8923],[35.5818,38.3015,1383.2695],[35.6118,38.2905,1296.542],[35.6216,38.2837,1290.6415],[35.6264,38.2765,1295.9324],[35.6283,38.2678,1285.2697],[35.6272,38.2059,1333.6343],[35.6297,38.1912,1368.6449],[35.6328,38.1863,1381.7806],[35.6393,38.1806,1431.5378],[35.6639,38.169,1431.9486],[35.6697,38.1628,1497.0836],[35.672,38.1576,1701.34],[35.6732,38.1493,1726.5226],[35.6723,38.1381,1584.2747],[35.6697,38.13,1525.187],[35.6597,38.1138,1470.5159],[35.6578,38.1056,1496.7473],[35.6576,38.0943,1512.1163],[35.6618,38.081,1762.6982],[35.681,38.0597,1902.8978],[35.734,38.0799,2182.3618],[35.7613,38.085,1817.0798],[35.8062,38.102,2343.1685],[35.8228,38.1056,2252.8433]]]]}}