{"type": "Feature","bbox": [30.4526,40.9127,30.8437,41.1546],"geometry": {"type": "MultiPolygon","coordinates": [[[[30.6149,40.9562,234.2232],[30.6496,40.9411,332.6612],[30.6768,40.9357,435.3504],[30.6946,40.9294,416.0987],[30.7217,40.924,582.6443],[30.7395,40.9177,727.9314],[30.7989,40.9127,586.6987],[30.8103,40.9276,718.0106],[30.8134,40.9394,696.8983],[30.8125,40.9637,578.9941],[30.8061,40.9804,314.3777],[30.806,40.9872,366.4036],[30.8105,40.993899999999996,317.5244],[30.8254,41.0091,304.8328],[30.8394,41.0299,207.9601],[30.8426,41.0377,156.333],[30.8437,41.0576,37.2254],[30.8391,41.0785,5.1581],[30.8065,41.084,0.0],[30.7771,41.0849,1.9462],[30.7654,41.0871,0.0],[30.7557,41.0863,1.6543],[30.7026,41.109,0.0],[30.6918,41.1118,4.5574],[30.6829,41.1174,0.0],[30.679,41.1168,2.2868],[30.6707,41.1224,0.0],[30.6604,41.1243,0.0],[30.6526,41.129,0.0],[30.6354,41.1285,1.0634],[30.5304,41.141,0.0],[30.457,41.1546,0.0],[30.4542,41.1447,3.7465],[30.4526,41.1233,4.6505],[30.454,41.1082,82.4732],[30.4578,41.0999,94.3359],[30.4668,41.0907,117.6479],[30.4843,41.0802,62.7819],[30.5218,41.0665,96.0498],[30.543,41.0666,39.6064],[30.5572,41.0644,44.4682],[30.5698,41.0583,2.8401],[30.5777,41.0522,2.5],[30.5856,41.0424,5.8427],[30.5881,41.0337,60.2812],[30.5885,41.0005,9.8629],[30.5902,40.9888,40.9801],[30.6046,40.9655,230.6259],[30.6149,40.9562,234.2232]]]]}
,"properties": {"GID_2": "TUR.66.6_1","GID_0": "TUR","country": "Turkey","GID_1": "TUR.66_1","province": "Sakarya","NL_NAME_1": "NA","county": "Karasu","VARNAME_2": "NA","NL_NAME_2": "NA","TYPE_2": "District","ENGTYPE_2": "District","CC_2": "NA","HASC_2": "TR.SK.KR","name": "Karasu.county","area_km2": 474.3917,"hist_schema_id": "Elevation0-9000","hist_area_km2": {"0": 118.849,"25": 43.0927,"50": 37.2108,"75": 33.1382,"100": 26.606,"125": 22.3734,"150": 20.4276,"175": 21.5976,"200": 17.8241,"225": 16.0341,"250": 15.1402,"275": 15.7174,"300": 13.9736,"325": 13.2858,"350": 10.9495,"375": 8.8054,"400": 6.3886,"425": 5.2685,"450": 4.5481,"475": 3.315,"500": 2.7707,"525": 2.4185,"550": 2.7069,"575": 2.6108,"600": 2.1784,"625": 2.0183,"650": 1.6018,"675": 1.3296,"700": 1.0252,"725": 0.5127,"750": 0.2403,"775": 0.1762,"800": 0.1442,"825": 0.1121}}}