{"type": "Feature","bbox": [37.8303,36.665,40.2552,38.0307],"geometry": {"type": "MultiPolygon","coordinates": [[[[38.591,36.8174,438.3826],[38.6006,36.806,448.6061],[38.6229,36.7903,425.6268],[38.6389,36.7738,423.093],[38.697,36.7284,387.9534],[38.7236,36.7104,379.9689],[38.7315,36.7075,377.5165],[38.7774,36.6993,368.9728],[38.8471,36.6967,356.2888],[38.9697,36.6989,347.0121],[38.999,36.7029,346.316],[39.0202,36.7033,353.9942],[39.0855,36.6971,362.3145],[39.1503,36.6834,397.9871],[39.2155,36.666,376.1811],[39.2273,36.665,382.2741],[39.2759,36.6737,381.7105],[39.3448,36.6896,402.7695],[39.398,36.6944,404.6183],[39.4392,36.6953,410.2491],[39.4526,36.6997,410.8567],[39.4671,36.6979,412.8849],[39.4983,36.7013,399.0001],[39.5457,36.7078,404.8825],[39.5966,36.7196,417.7653],[39.6648,36.7258,411.2558],[39.712,36.7416,437.3523],[39.7227,36.7438,437.7241],[39.8073,36.7495,432.4945],[39.8418,36.7553,427.6898],[39.856,36.7605,424.0466],[39.8905,36.7771,393.1517],[39.9291,36.787,377.3576],[39.9632,36.7984,375.4106],[40.0158,36.824,354.3087],[40.0519,36.8361,352.7125],[40.0728,36.8491,355.911],[40.0801,36.8565,360.5463],[40.087,36.8607,364.6718],[40.1327,36.8718,356.4197],[40.1809,36.8787,386.9088],[40.208,36.8878,391.8504],[40.2383,36.9032,354.3448],[40.2552,36.9161,370.9883],[40.1916,36.9402,417.5113],[40.1816,36.9468,422.1431],[40.1347,37.0183,443.8987],[40.131,37.0291,449.7754],[40.1302,37.0379,452.1891],[40.1297,37.0919,435.7775],[40.1274,37.1003,436.969],[40.1204,37.1133,450.1462],[40.1149,37.1309,446.9703],[40.0752,37.1931,473.3488],[40.0661,37.219,475.3195],[40.0532,37.2402,485.148],[39.9405,37.4144,823.4259],[39.9326,37.4379,874.5404],[39.9233,37.4543,940.3583],[39.9178,37.4729,1012.8364],[39.9095,37.4868,1044.9349],[39.9031,37.5081,1141.1052],[39.8897,37.5262,1264.0659],[39.8836,37.529,1286.5759],[39.8798,37.5439,1366.599],[39.8814,37.5563,1428.1031],[39.8728,37.5776,1487.6448],[39.8646,37.5914,1509.963],[39.8617,37.6036,1580.028],[39.8616,37.7401,1700.1394],[39.8582,37.7523,1607.9424],[39.8495,37.7629,1622.1438],[39.8232,37.788,1605.6857],[39.8122,37.793,1551.7673],[39.7992,37.8018,1441.972],[39.7616,37.8334,1243.4309],[39.6856,37.8348,1075.8423],[39.6748,37.8358,1072.9143],[39.6616,37.8402,1065.7115],[39.6262,37.8646,1080.1165],[39.5988,37.8772,1153.5825],[39.5509,37.9116,1253.5343],[39.5297,37.9203,1174.2228],[39.5209,37.9255,1081.606],[39.4609,37.9718,910.1404],[39.4406,37.9846,966.7561],[39.4136,37.995,759.7545],[39.4034,37.9974,802.5439],[39.2772,37.9979,928.4957],[39.2548,37.9992,958.526],[39.2413,38.0036,959.2063],[39.2152,38.0192,1094.542],[39.1787,38.0307,537.0],[39.1692,38.0291,664.8315],[39.1425,38.0197,537.0],[39.0734,37.9918,537.8655],[39.0472,37.9717,570.7794],[39.0408,37.965,632.2941],[39.0292,37.9483,840.7742],[38.9954,37.9185,700.5902],[38.9801,37.8953,537.0],[38.9764,37.8844,650.8234],[38.9758,37.8214,537.0],[38.9781,37.7954,576.8145],[38.9643,37.7761,537.0],[38.9574,37.7554,537.0],[38.9469,37.7458,537.0],[38.9265,37.7373,537.0],[38.9048,37.7248,537.0],[38.8531,37.7048,551.0386],[38.8307,37.6931,537.0],[38.8288,37.6887,537.0],[38.8293,37.684,543.9817],[38.8382,37.6693,537.0],[38.8399,37.6586,551.0059],[38.8377,37.6506,537.0],[38.8294,37.6424,537.0],[38.8169,37.6382,550.6549],[38.785,37.6357,537.0],[38.7637,37.6289,537.0],[38.7364,37.6237,537.0],[38.6159,37.5778,537.0],[38.6048,37.5717,537.0],[38.5904,37.5601,537.0],[38.5768,37.5425,537.0],[38.5675,37.5402,537.0],[38.5589,37.5356,537.0],[38.5116,37.5017,537.0],[38.4844,37.491,537.0],[38.467,37.487,537.0],[38.3867,37.4868,543.4189],[38.359,37.488,537.0],[38.3305,37.4844,537.0],[38.2704,37.4614,451.3542],[38.2587,37.4549,416.7866],[38.2288,37.4338,464.7129],[38.169,37.4073,385.9516],[38.1502,37.408,440.0005],[38.1289,37.4149,480.4944],[38.0898,37.4201,523.1105],[38.0608,37.4312,381.1457],[38.0515,37.4376,380.5],[38.0139,37.4408,501.6972],[37.9955,37.4403,380.0],[37.9818,37.437,441.4432],[37.965,37.4266,418.9193],[37.9368,37.4041,510.3492],[37.9263,37.393,647.0417],[37.9058,37.3599,397.8685],[37.8998,37.353,477.4763],[37.8724,37.3298,429.8378],[37.861,37.3177,448.8151],[37.8484,37.3125,519.9735],[37.8485,37.2854,418.4812],[37.847,37.2727,397.2048],[37.8438,37.2645,425.3194],[37.8303,37.2439,628.4055],[37.8332,37.2031,380.0],[37.8365,37.1855,415.5057],[37.8454,37.1687,386.7867],[37.8504,37.1418,483.469],[37.8626,37.1165,441.3952],[37.865,37.0949,380.0],[37.8742,37.0785,380.0],[37.8797,37.06,380.0],[37.8845,37.0525,380.0],[37.8965,37.0415,401.1852],[37.9716,36.983,337.1266],[37.9801,36.9739,336.0],[37.9877,36.962,359.911],[38.0081,36.9412,335.0],[38.0126,36.928,334.0],[38.0131,36.9165,333.0],[38.0124,36.854,337.3121],[38.0106,36.8252,350.9072],[38.0409,36.8286,381.6459],[38.0517,36.8364,384.1179],[38.054,36.8435,384.6877],[38.0583,36.8487,395.3411],[38.0705,36.8586,407.3441],[38.1264,36.8811,509.0163],[38.1728,36.8946,587.8556],[38.1878,36.9046,561.061],[38.1943,36.9069,555.4047],[38.2005,36.908,567.7017],[38.2305,36.9059,583.8564],[38.2454,36.9119,620.6469],[38.2652,36.9135,555.5367],[38.2956,36.907,534.8881],[38.3163,36.9054,523.7817],[38.3425,36.9004,510.0262],[38.3985,36.8972,485.3984],[38.4078,36.8954,481.716],[38.4494,36.8818,470.0699],[38.493,36.8627,462.8027],[38.5634,36.8388,450.4488],[38.5681,36.836,478.761],[38.5796,36.8238,444.8663],[38.591,36.8174,438.3826]]]]}
,"properties": {"GID_1": "TUR.68_1","GID_0": "TUR","country": "Turkey","province": "Sanliurfa","VARNAME_1": "Şanlıurfa|Urfa","NL_NAME_1": "NA","TYPE_1": "Il","ENGTYPE_1": "Province","CC_1": "NA","HASC_1": "TR.SU","ISO_1": "TR-63","name": "Sanliurfa.province","area_km2": 19613.43,"hist_schema_id": "Elevation0-9000","hist_area_km2": {"325": 24.44,"350": 301.93,"375": 848.99,"400": 771.05,"425": 936.62,"450": 1074.96,"475": 1152.88,"500": 1028.99,"525": 1152.51,"550": 966.87,"575": 1031.61,"600": 1155.09,"625": 1107.99,"650": 1041.68,"675": 1066.96,"700": 983.06,"725": 806.71,"750": 618.19,"775": 487.1,"800": 354.31,"825": 304.17,"850": 223.13,"875": 199.61,"900": 184.23,"925": 195.74,"950": 181.51,"975": 152.03,"1000": 118.91,"1025": 103.11,"1050": 94.83,"1075": 102.08,"1100": 128.22,"1125": 104.4,"1150": 86.16,"1175": 72.29,"1200": 59.42,"1225": 54.0,"1250": 40.96,"1275": 28.56,"1300": 20.59,"1325": 16.85,"1350": 15.28,"1375": 17.11,"1400": 14.24,"1425": 12.71,"1450": 12.39,"1475": 12.37,"1500": 10.68,"1525": 10.3,"1550": 10.42,"1575": 8.99,"1600": 8.89,"1625": 9.95,"1650": 8.74,"1675": 9.38,"1700": 9.53,"1725": 9.78,"1750": 8.94,"1775": 9.43,"1800": 11.46,"1825": 12.58,"1850": 5.1,"1875": 1.41,"1900": 0.72,"1925": 0.25}}}