{"type": "Feature","id": "3017","bbox": [37.84062,36.65952,40.26141,38.04305],"geometry": {"type": "Polygon","coordinates": [[[39.73848,37.81723,1133.8063],[39.69125,37.83392,1078.3601],[39.6527,37.86211,1060.9841],[39.62025,37.871,1093.2278],[39.58883,37.88299,1157.6376],[39.5233,37.92611,1083.0619],[39.46264,37.9767,909.8917],[39.40786,37.99696,822.6478],[39.34864,37.99895,862.1754],[39.26751,38.0091,967.5283],[39.18896,38.04305,571.4249],[39.14989,38.02073,675.6102],[39.08964,38.00696,537.0],[39.07227,37.99952,550.6876],[39.06028,37.98786,537.0],[39.05563,37.97313,537.0],[39.05046,37.9397,577.0873],[39.04044,37.92518,585.2948],[39.02721,37.91797,537.0],[38.97832,37.90596,636.9289],[38.98845,37.89074,537.0],[38.98918,37.878,537.0],[38.98266,37.86544,537.0],[38.97088,37.85071,552.2085],[38.97615,37.84586,537.0],[38.97915,37.83844,537.0],[38.97791,37.8302,537.0],[38.97088,37.82276,537.0],[38.9653,37.82312,537.0],[38.94546,37.8288,537.0],[38.93678,37.82958,537.0],[38.92138,37.82508,537.0],[38.90846,37.81676,537.0],[38.89781,37.80462,537.0],[38.88892,37.78865,545.8921],[38.9035,37.79175,537.0],[38.93057,37.80749,537.0],[38.9436,37.80911,537.0],[38.95393,37.80136,537.0],[38.95249,37.77521,537.0],[38.96468,37.76131,537.0],[38.94484,37.75692,538.3541],[38.9222,37.75604,537.0],[38.90184,37.75271,537.0],[38.88892,37.74085,537.0],[38.89792,37.7356,537.0],[38.92313,37.71351,537.0],[38.91642,37.70902,537.0],[38.90815,37.7062,537.0],[38.89967,37.70617,537.0],[38.88241,37.71486,537.0],[38.87497,37.71039,537.0],[38.86929,37.70307,537.0],[38.86474,37.69925,537.0],[38.86112,37.69811,537.0],[38.85606,37.69563,537.0],[38.84934,37.69328,537.0],[38.84117,37.69243,537.0],[38.83601,37.6947,537.0],[38.82278,37.70447,537.0],[38.82071,37.70669,537.0],[38.80045,37.69698,537.0],[38.81854,37.68085,537.0],[38.86846,37.65145,551.7285],[38.64563,37.62416,537.0],[38.59737,37.58344,537.0],[38.58796,37.57946,537.0],[38.57535,37.56148,537.0],[38.51541,37.51107,537.0],[38.49484,37.50063,537.0],[38.37226,37.48391,537.0],[38.34084,37.49443,542.2963],[38.28255,37.47694,403.3477],[38.27201,37.47642,381.0],[38.26571,37.45441,409.247],[38.24989,37.44852,418.5666],[38.20679,37.45348,386.466],[38.19801,37.44795,385.9203],[38.19677,37.43575,440.9482],[38.19718,37.42361,424.913],[38.19315,37.41808,447.4732],[38.19005,37.4171,381.0],[38.18829,37.41498,381.0],[38.18571,37.41286,381.0],[38.18013,37.41188,381.0],[38.17662,37.41374,388.4524],[38.17507,37.42257,450.2481],[38.17021,37.42552,477.7356],[38.12556,37.43374,466.6248],[38.1084,37.44089,399.9545],[38.09445,37.45348,446.1887],[38.06551,37.43684,426.2025],[38.05404,37.43642,380.5],[38.03988,37.44598,446.9422],[38.02293,37.44345,382.9447],[38.00598,37.44523,553.5547],[37.98965,37.44474,461.8083],[37.97435,37.43544,380.0],[37.93002,37.39077,579.1686],[37.89632,37.36382,614.0383],[37.88557,37.35059,380.0],[37.87896,37.32511,470.3096],[37.87276,37.3209,399.8877],[37.86501,37.31767,380.0],[37.85767,37.31286,380.0],[37.85219,37.3038,539.8387],[37.84062,37.26785,380.0],[37.85488,37.25995,505.7157],[37.86687,37.2493,397.0046],[37.87421,37.23432,381.6487],[37.87472,37.21326,380.0],[37.8679,37.21326,380.0],[37.8617,37.22455,404.9174],[37.8525,37.22649,380.0],[37.84423,37.21923,432.4561],[37.84062,37.203,492.5733],[37.84351,37.18662,380.0],[37.85074,37.17334,380.0],[37.8679,37.15179,380.0],[37.87431,37.14001,380.0],[37.87617,37.13081,380.0],[37.87472,37.10681,380.0],[37.86821,37.07758,380.0],[37.86935,37.06513,380.0],[37.88154,37.05497,380.0],[37.89384,37.06012,381.5452],[37.90376,37.05528,370.7847],[37.91286,37.04709,342.1197],[37.92257,37.04193,337.5],[37.93084,37.04345,339.7456],[37.9543,37.05278,337.0],[37.96753,37.05497,337.0],[37.9788,37.05004,337.0],[37.97663,37.03841,342.6947],[37.96412,37.01402,336.5208],[37.96392,36.99878,337.2596],[37.96691,36.9904,337.4161],[37.98118,36.97676,338.1427],[38.00794,36.95707,336.0],[38.01187,36.94917,365.703],[38.01311,36.92366,333.5],[38.01518,36.91346,332.5],[38.01869,36.90416,332.0],[38.03606,36.8887,330.0],[38.0406,36.88044,329.5],[38.02934,36.87684,341.4678],[38.02117,36.87106,347.6149],[38.019,36.85801,327.2929],[38.02117,36.84416,328.3022],[38.02582,36.83535,326.4562],[38.02601,36.83501,326.4562],[38.12297,36.88462,479.361],[38.19005,36.90553,556.6062],[38.22426,36.90839,573.949],[38.28989,36.9017,538.3313],[38.47996,36.85574,464.496],[38.52936,36.83372,458.5869],[38.63519,36.74404,424.3719],[38.66413,36.71952,410.3666],[38.72501,36.69394,376.8138],[38.79539,36.68665,364.0098],[38.95796,36.6929,347.3026],[38.97998,36.69817,346.0656],[39.03217,36.70117,360.9816],[39.18586,36.65952,379.26],[39.2396,36.66128,383.2537],[39.44171,36.69237,409.1461],[39.76525,36.74215,432.3801],[39.97981,36.80695,365.8872],[40.07924,36.85486,359.3825],[40.1152,36.86473,370.4538],[40.15272,36.87036,367.1443],[40.19014,36.88442,388.7262],[40.26141,36.92278,369.0369],[40.26093,36.92299,369.0369],[40.21794,36.94172,359.996],[40.1275,37.06895,450.9045],[40.13722,37.14864,461.4972],[40.12492,37.16967,451.2641],[40.07407,37.21119,473.2134],[40.04224,37.23266,486.077],[40.01382,37.25752,501.923],[39.99997,37.3757,724.2073],[39.95366,37.41743,817.0115],[39.92018,37.46947,1006.984],[39.88432,37.55011,1370.3278],[39.88152,37.56499,1449.1003],[39.87222,37.59362,1529.9401],[39.85672,37.66935,1818.1371],[39.86323,37.77769,1567.1202],[39.84856,37.80188,1519.1833],[39.83047,37.80632,1509.1833],[39.8128,37.81356,1431.5004],[39.78747,37.83283,1284.6316],[39.75915,37.84244,1189.5906],[39.74934,37.82916,1155.7614],[39.73848,37.81723,1133.8063]]]}
,"properties": {"ISO3166-1-Alpha-3": "TUR","country": "Turkey","fill": "#F00","name": "Sanliurfa","area_km2": 19926.4,"hist_schema_id": "Elevation0-9000","hist_area_km2": {"325": 12.61,"350": 295.79,"375": 870.85,"400": 808.26,"425": 965.41,"450": 1128.21,"475": 1188.48,"500": 1036.32,"525": 1227.53,"550": 971.39,"575": 1032.69,"600": 1154.64,"625": 1108.62,"650": 1043.03,"675": 1068.43,"700": 984.5,"725": 809.0,"750": 620.91,"775": 489.81,"800": 357.19,"825": 306.78,"850": 224.73,"875": 201.28,"900": 186.02,"925": 197.51,"950": 184.32,"975": 155.14,"1000": 120.39,"1025": 104.32,"1050": 96.2,"1075": 107.96,"1100": 126.78,"1125": 103.93,"1150": 86.54,"1175": 72.45,"1200": 59.99,"1225": 54.8,"1250": 41.82,"1275": 29.37,"1300": 21.95,"1325": 18.04,"1350": 16.48,"1375": 18.16,"1400": 15.36,"1425": 13.55,"1450": 13.78,"1475": 13.66,"1500": 12.18,"1525": 12.69,"1550": 13.02,"1575": 13.22,"1600": 11.98,"1625": 12.14,"1650": 9.43,"1675": 9.66,"1700": 9.71,"1725": 9.61,"1750": 8.67,"1775": 9.09,"1800": 10.34,"1825": 12.16,"1850": 5.1,"1875": 1.41,"1900": 0.72,"1925": 0.25}}}