{"type":"Feature","properties":{"GID_2":"TUR.40.19_1","GID_0":"TUR","country":"Turkey","GID_1":"TUR.40_1","province":"Istanbul","NL_NAME_1":"NA","county":"Eyüp","VARNAME_2":"NA","NL_NAME_2":"NA","TYPE_2":"District","ENGTYPE_2":"District","CC_2":"NA","HASC_2":"TR.IB.EY","name":"Eyüp.county"},
"geometry":{"type": "MultiPolygon","coordinates": [[[[28.833,41.1326,197.9389],[28.8396,41.1283,197.7738],[28.8461,41.1302,148.792],[28.8475,41.1394,172.5992],[28.8548,41.1485,181.0455],[28.8607,41.1521,150.628],[28.8709,41.1532,29.0102],[28.8789,41.1474,47.1466],[28.8811,41.1401,112.8238],[28.8895,41.1401,22.8225],[28.9129,41.1215,60.6994],[28.9206,41.112,19.0],[28.9206,41.1047,19.0],[28.9191,41.0966,10.4624],[28.9107,41.0813,108.9186],[28.9107,41.0758,81.815],[28.9143,41.0711,46.592],[28.9213,41.0707,90.7312],[28.9271,41.0729,78.6116],[28.93,41.0642,120.2124],[28.9279,41.0601,110.2491],[28.9242,41.0583,112.4311],[28.9114,41.058,119.6644],[28.9081,41.0539,103.7876],[28.9107,41.0492,113.7358],[28.9096,41.0404,82.784],[28.9151,41.0331,92.5274],[28.9235,41.0324,71.4226],[28.9286,41.0346,85.6835],[28.933,41.0412,23.4498],[28.9373,41.0446,0.2539],[28.9363,41.0474,3.4865],[28.9282,41.055,84.5509],[28.9282,41.0572,111.2963],[28.9443,41.0678,4.6793],[28.9596,41.0828,41.1756],[28.9571,41.1003,80.587],[28.9592,41.1185,100.1341],[28.9647,41.1328,22.2632],[28.9775,41.1456,134.7412],[28.9779,41.1514,142.171],[28.9647,41.1565,167.5033],[28.9625,41.1605,141.1659],[28.9625,41.1755,105.1315],[28.9563,41.1854,143.3186],[28.9563,41.1894,109.4161],[28.9647,41.2029,140.7774],[28.9647,41.2062,144.4369],[28.9519,41.2182,197.8071],[28.9516,41.2237,158.1104],[28.9716,41.2537,11.2762],[28.966,41.2532,8.5172],[28.9635,41.2599,0.0],[28.9596,41.2604,3.8275],[28.9557,41.2632,0.0],[28.9432,41.2629,0.0],[28.9393,41.2643,0.0],[28.9374,41.2668,0.0],[28.9229,41.2721,0.0],[28.8954,41.2707,1.7805],[28.8868,41.2754,0.4005],[28.8746,41.2774,0.1367],[28.8732,41.2793,0.0],[28.874,41.2843,0.0],[28.8707,41.2843,0.0],[28.8643,41.2807,0.289],[28.8593,41.2832,-0.6173],[28.8388,41.2868,6.1784],[28.8343,41.2918,0.0],[28.831,41.2932,0.0],[28.8285,41.2979,0.0],[28.8263,41.281,59.7069],[28.8223,41.2709,83.4354],[28.8216,41.2615,98.1029],[28.8183,41.2568,121.3402],[28.8055,41.2474,76.2829],[28.8048,41.2433,110.6347],[28.8055,41.2393,74.6529],[28.8095,41.238,71.2426],[28.8176,41.2272,77.5098],[28.8183,41.2205,98.8905],[28.8243,41.2084,109.7686],[28.8351,41.199,133.562],[28.8398,41.1923,143.7224],[28.8411,41.1708,52.963],[28.8398,41.1641,58.0037],[28.8324,41.1513,145.8355],[28.833,41.1326,197.9389]]]]}}