{"type":"Feature","properties":{"GID_2":"TUR.71.7_1","GID_0":"TUR","country":"Turkey","GID_1":"TUR.71_1","province":"Sirnak","NL_NAME_1":"NA","county":"Uludere","VARNAME_2":"NA","NL_NAME_2":"NA","TYPE_2":"District","ENGTYPE_2":"District","CC_2":"NA","HASC_2":"TR.SR.UL","name":"Uludere.county"},
"geometry":{"type": "MultiPolygon","coordinates": [[[[43.501,37.2684,1321.7456],[43.4843,37.2837,1913.9376],[43.4729,37.3003,1486.7388],[43.4481,37.3211,1790.2637],[43.4378,37.3326,1840.1866],[43.4353,37.3407,1731.6157],[43.4356,37.3612,2353.8992],[43.4061,37.369,2967.6006],[43.3884,37.3756,2552.9443],[43.3612,37.3809,3164.8262],[43.34,37.3881,2734.5408],[43.3161,37.3924,3034.0732],[43.235,37.4231,1603.5264],[43.1996,37.427,1354.2314],[43.1711,37.4354,1271.158],[43.1132,37.4378,2027.1481],[43.0848,37.4462,2160.8621],[43.0528,37.4494,2090.2305],[43.0428,37.4517,2250.4402],[43.0095,37.4651,2157.6606],[42.9624,37.4996,1807.7339],[42.938,37.5107,2327.9456],[42.9116,37.5261,3053.9434],[42.9048,37.5283,3013.6677],[42.8861,37.5302,2876.3521],[42.8165,37.5305,2587.3584],[42.8054,37.5321,2523.6162],[42.7816,37.5393,2323.5747],[42.7683,37.5346,2324.6653],[42.7626,37.5288,2604.2407],[42.7605,37.5237,2661.6614],[42.76,37.5156,2595.4165],[42.7621,37.5076,2196.4358],[42.7723,37.4883,1815.6182],[42.7749,37.4612,1086.86],[42.7788,37.4472,1100.1724],[42.7952,37.4182,1157.064],[42.815,37.3917,1520.1229],[42.822,37.3796,1449.3062],[42.827,37.3726,1563.3359],[42.8313,37.3716,1371.7882],[42.8346,37.3682,1377.5909],[42.8421,37.3513,1756.579],[42.8498,37.3469,1985.7985],[42.8731,37.3459,1906.4041],[42.8821,37.339,1902.1958],[42.8865,37.3376,1721.5692],[42.9214,37.3311,1902.3201],[42.9603,37.3179,2163.5586],[42.9737,37.3165,1777.2035],[42.9775,37.3174,1696.1084],[42.9874,37.3241,1865.9867],[43.02,37.333,1762.6997],[43.0271,37.3386,1872.6134],[43.0347,37.3527,1389.9358],[43.0381,37.3555,1403.2015],[43.068,37.3582,1393.823],[43.0917,37.3639,1243.3735],[43.1086,37.3652,1216.6228],[43.1289,37.3718,1070.2275],[43.1412,37.37,1152.7217],[43.1674,37.374,1617.123],[43.1705,37.3724,1618.1716],[43.1789,37.3592,1054.7236],[43.1819,37.3573,983.9544],[43.2081,37.3551,1225.1737],[43.2289,37.3447,1266.2],[43.234,37.3436,1366.5131],[43.2535,37.344,1400.0841],[43.2635,37.3356,1675.4202],[43.2797,37.3267,1448.2029],[43.2886,37.3166,1861.2843],[43.3118,37.312,2054.8879],[43.3255,37.3036,2093.6567],[43.3279,37.3039,2108.3472],[43.332,37.3157,2015.3745],[43.3346,37.3187,1922.5679],[43.3462,37.3265,2074.1602],[43.3601,37.3303,2026.4211],[43.37,37.3286,1834.8884],[43.3837,37.3199,1684.3706],[43.3938,37.3087,2158.7068],[43.501,37.2684,1321.7456]]]]}}