{"type": "Feature","id": 137088.0,"bbox": [36.915293816021233,40.354254461712827,37.028086784771233,40.402411199994077],"geometry": {"type": "Polygon","coordinates": [[[36.924082878521233,40.401800848431577,791.5],[36.924082878521233,40.401800848431577,791.5],[36.915293816021233,40.393500067181577,791.5],[36.930918816021233,40.381903387494077,791.5],[36.996104362896233,40.355536199994077,791.5],[37.028086784771233,40.354254461712827,857.0989],[36.996104362896233,40.380926824994077,865.1122],[36.945323112896233,40.402411199994077,1096.0553],[36.924082878521233,40.401800848431577,791.5]]]}
,"properties": {"name": null,"lge_id": null,"pfafstette": 24595.0,"lke_type": "N","altitude": 787,"objectid": 85323,"scalerank": 12,"featurecla": "Lake","note": "_untitled_85323","funkyname": 0,"min_zoom": 7.0,"min_label": 8.0,"area_km2": 21.12595,"hist_schema_id": "Elevation0-9000","hist_area_km2": {"800": 11.92004,"825": 2.63281,"850": 1.93824,"875": 1.25974,"900": 0.83979,"925": 0.79131,"950": 0.54907,"975": 0.46831,"1000": 0.3391,"1025": 0.22607,"1050": 0.08074,"1075": 0.08073}}}