{"type":"Feature","properties":{"GID_1":"TUR.74_1","GID_0":"TUR","country":"Turkey","province":"Tokat","VARNAME_1":"NA","NL_NAME_1":"NA","TYPE_1":"Il","ENGTYPE_1":"Province","CC_1":"NA","HASC_1":"TR.TT","ISO_1":"TR-60","name":"Tokat.province"},
"geometry":{"type": "MultiPolygon","coordinates": [[[[36.2724,39.9658,1329.5787],[36.2938,39.959,1259.145],[36.3059,39.957,1222.2391],[36.421,39.9563,1529.2695],[36.4425,39.9496,1726.1427],[36.4716,39.958,1528.4663],[36.489,39.9652,1505.1543],[36.5163,39.9704,1511.1573],[36.5374,39.9777,1632.4955],[36.5614,39.982,1630.2887],[36.5826,39.9893,1578.6281],[36.6066,39.9935,1633.6521],[36.64,40.0056,1685.7117],[36.6592,40.0144,1621.9379],[36.6678,40.0211,1588.3015],[36.6792,40.036,1758.406],[36.7113,40.0876,1468.8027],[36.7124,40.0958,1499.5901],[36.711,40.1039,1556.2523],[36.6997,40.1252,1561.1244],[36.6991,40.1334,1463.058],[36.701,40.1415,1430.5576],[36.7197,40.1694,1441.1252],[36.7525,40.1959,1567.6854],[36.761,40.2111,1649.895],[36.7736,40.2238,1495.1084],[36.7886,40.2121,1580.4122],[36.862,40.2117,1705.2206],[36.8737,40.2103,1762.05],[36.8989,40.2026,1541.1848],[36.9372,40.1976,1934.3389],[36.9679,40.1822,2040.6702],[36.997,40.197,1819.4956],[37.0568,40.2204,1662.2246],[37.0668,40.2226,1722.019],[37.0775,40.2229,1850.5104],[37.091,40.2204,1714.542],[37.135,40.2022,1719.1692],[37.1688,40.1902,1791.3066],[37.2304,40.1872,1621.6083],[37.2664,40.1777,1588.9609],[37.3205,40.1756,1401.73],[37.349,40.1672,1060.9082],[37.3843,40.1631,1345.2228],[37.4089,40.1554,1591.6575],[37.4342,40.1534,2250.0857],[37.4376,40.1639,1816.4019],[37.4468,40.1807,1720.8026],[37.4528,40.2105,1922.8918],[37.4717,40.2382,1712.0792],[37.4811,40.2441,1535.0358],[37.4988,40.2515,1526.4442],[37.5227,40.2664,1075.2671],[37.56,40.2764,1442.264],[37.5547,40.2966,1465.2666],[37.5551,40.3182,981.8698],[37.5568,40.324,765.4437],[37.5617,40.3309,567.025],[37.5775,40.3414,1026.3903],[37.5826,40.3476,1130.6047],[37.5849,40.3589,1793.4948],[37.5849,40.3964,2105.9106],[37.588,40.4084,1861.3572],[37.5963,40.4185,1769.1543],[37.6156,40.4336,1633.7678],[37.631,40.443,1571.8982],[37.6479,40.4505,1528.842],[37.6418,40.4665,1534.0135],[37.6326,40.4832,1414.5996],[37.6277,40.5102,1460.7285],[37.6175,40.5295,1446.9008],[37.6116,40.5511,1491.7015],[37.5987,40.5578,1615.4359],[37.5797,40.5607,1903.1216],[37.484,40.5608,1711.576],[37.4663,40.5631,1758.5396],[37.4331,40.5761,1234.1337],[37.4069,40.592,1146.1338],[37.3884,40.5996,1359.2019],[37.3471,40.6271,1352.2944],[37.3333,40.6298,1518.2554],[37.3124,40.6279,1577.0964],[37.3141,40.6421,1576.8088],[37.3126,40.6503,1575.5265],[37.3062,40.659,1526.0146],[37.2939,40.6673,1547.5687],[37.2833,40.6697,1497.1938],[37.2653,40.6775,1467.1367],[37.2592,40.6834,1349.0242],[37.2265,40.6916,1356.4482],[37.2088,40.6984,1525.4702],[37.1873,40.7042,1548.2512],[37.1433,40.6994,1494.0837],[37.1186,40.6918,1162.5225],[37.107,40.6897,1215.4106],[37.0783,40.6888,1212.6125],[37.0539,40.6903,1051.2289],[37.0248,40.6988,1186.5864],[36.9825,40.7013,1087.5862],[36.9716,40.7036,1239.5974],[36.9612,40.7098,1233.1953],[36.9477,40.7271,918.7777],[36.932,40.7395,902.0886],[36.9051,40.746,914.2462],[36.8661,40.7479,1125.6854],[36.8511,40.7501,1344.1418],[36.698,40.8088,369.1578],[36.6888,40.8162,347.0432],[36.6849,40.8265,276.0632],[36.6859,40.8345,277.129],[36.6883,40.8395,272.7822],[36.6967,40.8464,248.7433],[36.6999,40.8809,320.4747],[36.6776,40.8929,169.4383],[36.6651,40.8976,165.375],[36.6461,40.8995,188.2888],[36.6187,40.8994,229.2908],[36.5997,40.8975,581.3851],[36.5782,40.8904,340.5537],[36.5512,40.8849,707.9447],[36.4998,40.8657,595.7595],[36.4724,40.8644,614.1359],[36.4608,40.8659,391.2769],[36.448,40.8698,193.9054],[36.4318,40.852,455.6981],[36.4186,40.8313,280.0878],[36.4169,40.8269,201.3643],[36.4179,40.8183,340.9366],[36.4247,40.8097,187.152],[36.4415,40.7936,369.2083],[36.4564,40.7701,237.3354],[36.4622,40.74,202.5969],[36.4722,40.7211,209.4499],[36.4728,40.7075,235.3579],[36.4712,40.7022,265.5443],[36.4621,40.6859,367.4042],[36.4561,40.6558,461.3272],[36.4415,40.6323,1060.761],[36.4331,40.6233,1096.7159],[36.4054,40.6003,1369.5747],[36.3972,40.5914,1430.4424],[36.3764,40.5789,1267.8658],[36.3621,40.5673,1332.7334],[36.3475,40.5467,1084.9686],[36.3252,40.5237,1270.6304],[36.292,40.5117,1238.2306],[36.2652,40.4956,1182.7938],[36.2468,40.4883,1166.2412],[36.2024,40.459,1262.8026],[36.1723,40.4476,1090.1028],[36.1545,40.4452,853.1141],[36.1101,40.4461,523.4138],[36.0781,40.4549,544.8513],[36.0398,40.4599,527.0297],[36.027,40.4663,568.7582],[35.9954,40.4885,546.6227],[35.9584,40.5023,509.6689],[35.9313,40.5041,570.3756],[35.8672,40.5044,641.5552],[35.8447,40.5015,631.3352],[35.839,40.4988,589.5015],[35.8303,40.4912,512.4993],[35.81,40.4583,1183.3699],[35.7994,40.444,1093.2627],[35.7833,40.4149,1105.7325],[35.7707,40.3982,1124.5627],[35.7499,40.3651,1154.0616],[35.7278,40.3422,1218.4072],[35.7162,40.3263,1173.218],[35.7062,40.3197,1194.2982],[35.6766,40.3079,1273.6685],[35.6461,40.297,1302.6846],[35.6157,40.2911,1278.1619],[35.5822,40.2778,1077.3181],[35.5624,40.2641,1092.4326],[35.5359,40.2426,1086.9626],[35.5296,40.2355,961.7158],[35.5141,40.2095,794.8785],[35.5121,40.1898,790.2576],[35.5335,40.172,969.1624],[35.5508,40.1489,978.8573],[35.6131,40.0991,771.1456],[35.6332,40.0872,881.17],[35.651,40.0847,1113.222],[35.7848,40.084,1312.0929],[35.7958,40.082,1337.9541],[35.8172,40.0748,1333.4316],[35.8327,40.0733,1447.4535],[35.8522,40.0748,1534.0225],[35.8736,40.0821,1482.3669],[35.8964,40.0852,1678.9175],[35.9198,40.0848,1726.848],[35.9365,40.0797,1473.8724],[35.9453,40.0721,1498.1278],[35.9618,40.0434,1429.9025],[35.9647,40.0318,1258.339],[35.962,40.0107,1067.2352],[35.9633,39.9865,1046.1318],[35.9665,39.9784,1100.2063],[35.9858,39.9459,986.9803],[36.0846,39.9446,1178.9351],[36.118,39.946,1371.225],[36.1475,39.9542,1399.3374],[36.1858,39.9592,1217.3643],[36.2271,39.9776,1270.803],[36.247,39.9704,1136.7523],[36.2724,39.9658,1329.5787]]]]}}