{"type": "Feature","id": "2297","bbox": [35.5098,39.92371,37.63494,40.91006],"geometry": {"type": "Polygon","coordinates": [[[36.70518,40.86249,250.5797],[36.6872,40.8866,183.5294],[36.65288,40.90562,164.0],[36.59997,40.90681,196.4653],[36.59366,40.91006,186.2418],[36.58684,40.90254,179.9816],[36.55263,40.89022,367.321],[36.44308,40.87037,310.6494],[36.41486,40.85854,206.1855],[36.41486,40.85172,194.0903],[36.4223,40.85172,399.6894],[36.4223,40.8449,312.7589],[36.4098,40.83141,225.7785],[36.42096,40.81449,223.6379],[36.44122,40.79911,263.3614],[36.45651,40.79028,236.9019],[36.47346,40.78519,242.9885],[36.49382,40.74558,193.9311],[36.45899,40.70625,309.951],[36.44204,40.67318,526.6929],[36.44173,40.63607,973.0974],[36.39729,40.58804,1363.4635],[36.31657,40.57499,1512.8821],[36.31027,40.52409,1095.3937],[36.30283,40.52078,1159.9163],[36.29466,40.51799,1183.7046],[36.27999,40.50792,1145.9363],[36.1972,40.46606,1210.0134],[36.13581,40.44368,780.9518],[36.11824,40.44404,571.8744],[36.10108,40.45438,649.7542],[36.08083,40.46174,584.35],[36.05923,40.4658,603.6539],[36.03091,40.47743,656.7384],[36.00579,40.49368,498.3271],[35.92507,40.51042,751.7356],[35.84229,40.50518,608.6671],[35.81604,40.48125,844.5063],[35.77139,40.40585,1154.5508],[35.74224,40.36575,1114.0245],[35.71568,40.33661,1192.4801],[35.68643,40.31046,1182.6721],[35.6514,40.29832,1328.683],[35.6329,40.29465,1238.856],[35.57853,40.27736,1144.3989],[35.54918,40.25274,1025.853],[35.5098,40.18863,802.825],[35.57832,40.12923,1017.5331],[35.65739,40.08675,1205.9832],[35.7503,40.09272,1245.2643],[35.82896,40.0805,1398.2688],[35.87598,40.08365,1559.053],[35.9228,40.09104,1846.0325],[35.96476,40.10497,1553.2456],[36.00641,40.11466,1259.582],[36.04775,40.08272,1398.8109],[36.04062,40.02658,1098.4435],[36.03938,39.98769,1054.5394],[36.05892,39.95911,1062.8384],[36.07783,39.94544,1189.571],[36.08868,39.92371,1322.0652],[36.32205,39.95968,1360.4534],[36.48752,39.96593,1481.6943],[36.6349,40.0097,1802.0854],[36.66694,40.03446,1840.9967],[36.68637,40.07301,1412.5598],[36.70725,40.13326,1453.5983],[36.73391,40.19132,1493.5963],[36.76926,40.20734,1793.677],[36.80771,40.21662,1627.1908],[36.92222,40.20486,1895.3632],[36.95871,40.21667,1742.1658],[37.08945,40.24336,1873.7906],[37.18236,40.25294,1515.6064],[37.26711,40.2494,1557.408],[37.35083,40.25904,1508.4286],[37.38803,40.27411,1209.7932],[37.42214,40.29553,1390.4125],[37.43609,40.29919,1427.0549],[37.45108,40.29912,1436.4517],[37.48808,40.30607,1699.7782],[37.52415,40.317,1049.3068],[37.58409,40.38203,1964.3354],[37.63494,40.4612,1552.4753],[37.61696,40.5212,1533.4059],[37.58409,40.56938,1827.7335],[37.4488,40.57595,1419.1671],[37.21967,40.6977,1460.5734],[37.15249,40.70188,1392.8259],[37.08459,40.69426,1153.4927],[37.01338,40.69894,1201.3158],[36.94682,40.72025,872.8569],[36.89535,40.74467,789.0568],[36.81184,40.76612,1144.0824],[36.75655,40.79201,745.7645],[36.71159,40.79942,391.4024],[36.69888,40.80681,324.5247],[36.68751,40.83601,246.9511],[36.70518,40.86249,250.5797]]]}
,"properties": {"ISO3166-1-Alpha-3": "TUR","country": "Turkey","fill": "#F00","name": "Tokat","area_km2": 9402.274,"hist_schema_id": "Elevation0-9000","hist_area_km2": {"175": 9.186,"200": 60.452,"225": 31.531,"250": 41.944,"275": 94.559,"300": 58.704,"325": 43.223,"350": 39.781,"375": 39.848,"400": 41.025,"425": 40.0,"450": 44.749,"475": 48.222,"500": 54.308,"525": 112.73,"550": 180.676,"575": 130.512,"600": 116.982,"625": 116.86,"650": 119.048,"675": 114.994,"700": 108.866,"725": 125.648,"750": 130.684,"775": 133.528,"800": 179.122,"825": 167.054,"850": 180.202,"875": 182.367,"900": 177.839,"925": 177.014,"950": 173.743,"975": 174.999,"1000": 180.842,"1025": 202.965,"1050": 217.273,"1075": 241.99,"1100": 271.473,"1125": 312.42,"1150": 294.172,"1175": 288.762,"1200": 293.89,"1225": 300.749,"1250": 296.827,"1275": 297.966,"1300": 286.689,"1325": 266.433,"1350": 247.35,"1375": 220.241,"1400": 193.014,"1425": 184.734,"1450": 171.449,"1475": 150.9,"1500": 136.95,"1525": 129.031,"1550": 123.638,"1575": 111.786,"1600": 99.12,"1625": 85.384,"1650": 72.677,"1675": 60.81,"1700": 47.405,"1725": 39.497,"1750": 28.011,"1775": 21.36,"1800": 14.517,"1825": 11.186,"1850": 8.583,"1875": 8.549,"1900": 7.078,"1925": 4.752,"1950": 5.704,"1975": 6.251,"2000": 3.99,"2025": 2.117,"2050": 1.099,"2075": 0.759,"2100": 0.743,"2125": 0.468,"2150": 0.21}}}