{"type":"Feature","properties":{"GID_2":"TUR.20.9_1","GID_0":"TUR","country":"Turkey","GID_1":"TUR.20_1","province":"Burdur","NL_NAME_1":"NA","county":"Merkez","VARNAME_2":"Burdur","NL_NAME_2":"NA","TYPE_2":"District","ENGTYPE_2":"District","CC_2":"NA","HASC_2":"TR.BD.BD","name":"Merkez.county"},
"geometry":{"type": "MultiPolygon","coordinates": [[[[30.4843,37.7294,1407.8241],[30.4537,37.7434,1311.9766],[30.4136,37.7739,1303.6],[30.4035,37.7846,1270.1951],[30.3815,37.8199,870.4661],[30.371,37.8303,850.0162],[30.3575,37.8331,851.4188],[30.3378,37.84,855.2143],[30.3237,37.8384,862.1181],[30.2974,37.8226,971.3379],[30.2737,37.8123,886.9104],[30.2306,37.7804,841.0],[30.2013,37.7672,841.0],[30.1651,37.7422,841.0],[30.144,37.7337,841.0],[30.1144,37.716,841.0],[30.0812,37.7035,841.0],[30.0633,37.7029,985.9883],[30.0563,37.7044,1020.3491],[30.0468,37.709,1043.2928],[30.0339,37.7193,1180.3029],[30.0187,37.7407,1224.6296],[30.0029,37.7549,1587.5316],[29.9837,37.7247,1232.0587],[29.9792,37.7,1433.5338],[29.9763,37.6921,1519.2357],[29.957,37.672,1686.2644],[29.953,37.6645,1569.4089],[29.953,37.6591,1465.1666],[29.9568,37.6516,1683.5652],[29.9838,37.6292,1414.4624],[29.9917,37.6199,1195.8073],[29.9944,37.6118,1073.4969],[29.9981,37.5899,926.5303],[30.0072,37.5737,979.3234],[30.0092,37.5656,1146.1516],[30.0088,37.5574,1025.024],[30.0053,37.5494,992.9215],[29.9848,37.5293,1109.3464],[29.9692,37.506,1427.679],[29.965699999999998,37.4955,1526.8926],[29.9648,37.4813,1499.2983],[29.9798,37.4697,1135.4502],[29.9932,37.4777,1060.6652],[30.0116,37.4851,1032.0785],[30.0381,37.5007,1013.1569],[30.0684,37.5076,992.9342],[30.0894,37.5147,1010.5146],[30.1106,37.5147,1064.703],[30.1317,37.5076,1090.1423],[30.1585,37.5022,1167.7043],[30.1641,37.4995,1236.6821],[30.1727,37.4918,1276.0631],[30.2242,37.41,1278.4182],[30.2348,37.3999,1287.7307],[30.2503,37.3886,1295.5856],[30.3014,37.4287,1819.8491],[30.3077,37.438,1696.3352],[30.3133,37.4565,1828.4536],[30.3189,37.4628,2092.0132],[30.3265,37.4675,2241.2197],[30.3417,37.473,2079.7852],[30.3702,37.4872,1670.76],[30.3571,37.5079,1382.6261],[30.3545,37.5247,1105.9583],[30.355,37.539,1207.47],[30.357,37.5473,1328.1182],[30.3663,37.5594,1298.4351],[30.4225,37.6023,1363.5236],[30.4354,37.6075,1377.3091],[30.4606,37.609,1709.2308],[30.458,37.6286,1625.7253],[30.4477,37.6474,1591.5962],[30.447,37.6611,1640.8351],[30.4499,37.6688,1698.7253],[30.4731,37.703,1699.2523],[30.4843,37.7294,1407.8241]]]]}}