{"type":"Feature","properties":{"GID_1":"TUR.4_1","GID_0":"TUR","country":"Turkey","province":"Agri","VARNAME_1":"Ağri|Karaköse","NL_NAME_1":"NA","TYPE_1":"Il","ENGTYPE_1":"Province","CC_1":"NA","HASC_1":"TR.AG","ISO_1":"TR-04","name":"Agri.province"},
"geometry":{"type": "MultiPolygon","coordinates": [[[[43.102,39.3225,2889.489],[43.1321,39.3239,2660.728],[43.1714,39.3228,2743.6626],[43.1828,39.3247,2662.0249],[43.1917,39.3281,2720.8635],[43.2101,39.3372,3088.9658],[43.2444,39.3742,2646.1389],[43.2838,39.399,2909.3845],[43.2938,39.4028,2793.2686],[43.3081,39.4045,3122.8132],[43.3331,39.4018,3434.1782],[43.3588,39.3873,2794.1606],[43.3758,39.3912,2873.3452],[43.3943,39.3927,2595.4773],[43.4127,39.3922,2989.116],[43.4266,39.3889,3072.082],[43.4433,39.3775,3148.8682],[43.4499,39.3706,3146.5632],[43.463,39.3514,3131.657],[43.4887,39.3309,2944.4001],[43.5004,39.3244,2734.2603],[43.516,39.3184,2778.9795],[43.5422,39.3025,2921.1743],[43.5752,39.2894,3310.7856],[43.5857,39.2879,3304.7041],[43.5998,39.2887,3242.457],[43.6208,39.2963,3122.1128],[43.6455,39.3024,3067.2109],[43.6731,39.3399,2898.7737],[43.6962,39.3585,2715.3489],[43.7164,39.3702,2738.2673],[43.7576,39.3687,2825.8015],[43.8652,39.3686,3302.3479],[43.8883,39.3658,3236.7954],[43.9062,39.3597,3177.4231],[43.9175,39.3577,3105.8145],[43.9621,39.3565,2764.5596],[43.9899,39.3586,2598.1655],[44.0328,39.372,2658.478],[44.0497,39.3608,2573.1658],[44.0473,39.3668,2535.3906],[44.0473,39.3764,2417.3743],[44.0493,39.3795,2360.3015],[44.0677,39.3868,2222.6719],[44.07,39.3904,2210.0017],[44.0683,39.4008,2212.6118],[44.0698,39.4053,2222.7205],[44.0906,39.4066,2257.2859],[44.109,39.4045,2404.6304],[44.1326,39.3992,2363.4868],[44.1436,39.4002,2383.1045],[44.1459,39.3946,2370.4087],[44.1381,39.3798,2368.4468],[44.1421,39.3778,2317.9292],[44.1518,39.3772,2309.0239],[44.1546,39.3791,2227.9041],[44.1579,39.393,2409.052],[44.1748,39.4024,2323.834],[44.1928,39.4067,2465.7432],[44.2243,39.4103,2331.1267],[44.2345,39.4081,2302.8247],[44.2607,39.394,2293.7578],[44.2734,39.3898,2238.8994],[44.2836,39.3834,2243.3984],[44.2934,39.3746,2352.6641],[44.3017,39.3715,2073.3342],[44.3137,39.374,2116.8447],[44.3299,39.3818,2022.3612],[44.353,39.3875,1784.512],[44.3726,39.3977,1542.1003],[44.3963,39.4066,1483.1313],[44.4237,39.4098,1399.1467],[44.4319,39.4179,1399.6326],[44.4411,39.4359,1469.1996],[44.4396,39.4485,1452.1504],[44.4327,39.4674,1438.0828],[44.4334,39.4731,1509.754],[44.4507,39.4934,1787.8127],[44.453,39.4968,1866.4729],[44.4534,39.5016,1921.589],[44.4523,39.5073,1843.0767],[44.4431,39.5237,1720.6456],[44.4354,39.5454,1640.7302],[44.4362,39.5607,1565.1069],[44.4755,39.6062,1536.2854],[44.4896,39.6301,1548.3087],[44.4916,39.6463,1676.3552],[44.4849,39.6777,1553.104],[44.487,39.6866,1438.9572],[44.4965,39.696,1314.746],[44.4829,39.7005,1380.0793],[44.4754,39.6977,1445.8365],[44.4519,39.6947,1705.7333],[44.3802,39.6932,2717.8408],[44.3686,39.6904,2947.5574],[44.3283,39.6748,3664.7725],[44.3128,39.6716,3505.1641],[44.3004,39.6709,3352.0947],[44.2506,39.6704,2889.6118],[44.2326,39.6717,2649.1665],[44.2222,39.6736,2586.458],[44.1777,39.6909,2089.6631],[44.1598,39.6942,1867.2882],[44.0494,39.6944,1685.3987],[44.0305,39.6925,1898.5869],[44.0128,39.6865,2014.8253],[43.9997,39.6853,2306.6367],[43.9666,39.6963,2636.6946],[43.8768,39.7318,2351.9453],[43.8443,39.7505,2550.4094],[43.7685,39.7792,2328.0564],[43.7474,39.7897,2247.5571],[43.7437,39.7932,2375.1897],[43.7406,39.7995,2450.3069],[43.7046,39.7994,2695.3098],[43.6854,39.8012,2489.0444],[43.6373,39.8193,2428.2634],[43.6225,39.8224,2193.2417],[43.5557,39.8235,2249.5],[43.5319,39.8204,2271.2107],[43.5263,39.8177,2389.9431],[43.5176,39.81,2458.5737],[43.498,39.7814,2578.0969],[43.4783,39.7667,2487.4138],[43.4564,39.7675,2478.9749],[43.4233,39.7796,2590.991],[43.3942,39.7946,2813.0764],[43.3957,39.9258,2965.8232],[43.3914,39.9415,2799.3867],[43.3804,39.9556,2694.0312],[43.376,39.959,2649.0127],[43.3658,39.962,2560.8726],[43.3505,39.9628,2462.1604],[43.3369,39.9655,2229.3228],[43.3154,39.9726,2298.9978],[43.2769,39.9772,2532.262],[43.2553,39.9842,2556.1655],[43.2206,39.9881,2728.9844],[43.1954,39.9959,2611.6304],[43.1491,39.9993,2724.9153],[43.1173,40.0083,2992.8801],[43.0964,40.0071,2994.8157],[43.0787,40.0008,2900.6282],[43.0517,39.9953,2740.8481],[43.0301,39.9882,2496.8862],[42.9913,39.9838,2508.2251],[42.9666,39.9748,2629.4648],[42.9432,39.974,2481.1812],[42.931399999999996,39.972,2552.1274],[42.8833,39.9542,2526.7856],[42.8503,39.9497,2475.2756],[42.8297,39.9415,2411.7754],[42.7724,39.936,2450.8518],[42.7596,39.9303,2346.4009],[42.7396,39.9262,2421.1584],[42.7109,39.9177,2498.0601],[42.6869,39.9163,2102.9219],[42.6383,39.9176,2596.3613],[42.6277,39.9201,2685.0286],[42.6006,39.9305,2183.5769],[42.5664,39.9476,2432.2717],[42.5376,39.9363,2540.8921],[42.5081,39.9191,2614.916],[42.4625,39.9014,2198.5913],[42.4332,39.884,2489.3794],[42.3997,39.8716,2503.1279],[42.3744,39.8705,2210.2068],[42.3604,39.8727,2108.6858],[42.3458,39.8784,2069.8396],[42.3319,39.8815,2132.7781],[42.289,39.8828,2191.3943],[42.2705,39.8802,2181.5237],[42.2624,39.8756,2352.0259],[42.2584,39.8715,2432.4678],[42.2552,39.8612,2294.2715],[42.2573,39.8503,2370.6228],[42.27,39.8273,2215.625],[42.2799,39.8171,2170.5342],[42.3152,39.8029,2247.8596],[42.3425,39.7979,2331.249],[42.3903,39.7798,2825.5117],[42.4043,39.7777,2711.3066],[42.4444,39.7756,2374.5833],[42.4748,39.765,2663.6018],[42.4806,39.7623,2670.3982],[42.4918,39.7529,2469.0625],[42.5062,39.7297,2191.792],[42.5088,39.7159,2186.6418],[42.5079,39.6975,2357.8345],[42.5098,39.6358,2119.0564],[42.5124,39.6268,2100.7996],[42.5213,39.6104,1995.0996],[42.5236,39.5995,1950.1344],[42.5236,39.5686,1863.8966],[42.5193,39.5544,1711.6453],[42.4879,39.5056,1858.0887],[42.476,39.4915,1891.0801],[42.4634,39.4861,1911.7227],[42.464,39.4734,1799.2668],[42.4664,39.4637,1749.1212],[42.5037,39.4059,1556.4531],[42.5103,39.3847,1657.7113],[42.5168,39.3754,1563.9203],[42.5572,39.3426,1591.8118],[42.5636,39.3361,1590.5859],[42.5769,39.3172,1850.636],[42.6145,39.2864,1844.5748],[42.6276,39.2727,2019.5515],[42.6567,39.2627,2260.4326],[42.6688,39.2542,1999.5994],[42.6722,39.2497,2157.6895],[42.7299,39.159,1608.9032],[42.7329,39.1446,1609.8829],[42.7338,39.0995,1656.5312],[42.7362,39.0911,1711.9684],[42.7462,39.0721,1737.2637],[42.7498,39.0371,1919.2498],[42.8279,39.0651,1859.8368],[42.9042,39.0678,1826.0085],[42.9333,39.0762,1803.6682],[42.9716,39.081,1777.7045],[42.9895,39.0873,1780.7557],[43.0225,39.0955,1851.0492],[43.0497,39.1105,1939.4944],[43.0769,39.1159,1956.6486],[43.0982,39.1228,2004.7159],[43.1222,39.1269,1946.645],[43.1497,39.1392,2022.5814],[43.1615,39.1535,2138.8359],[43.1676,39.166,2225.9963],[43.1694,39.217,2539.2026],[43.1685,39.2316,2496.1802],[43.1656,39.2399,2484.6006],[43.155,39.2496,2473.2805],[43.1371,39.2569,2396.0945],[43.1132,39.2704,2480.5308],[43.0947,39.2776,2599.2761],[43.0827,39.2863,2896.6394],[43.0782,39.2966,2917.3303],[43.0794,39.3075,2659.6746],[43.0823,39.3125,2556.6262],[43.0893,39.3182,2456.875],[43.102,39.3225,2889.489]]]]}}