{"type": "Feature","id": 135952.0,"bbox": [43.541758659771233,39.746222235150327,43.594981316021233,39.833624578900327],"geometry": {"type": "Polygon","coordinates": [[[43.547618034771233,39.767340399212827,2318.2329],[43.547618034771233,39.767340399212827,2318.2329],[43.562876823833733,39.746222235150327,2249.5],[43.592539909771233,39.751898504681577,2249.5],[43.594981316021233,39.769720770306577,2253.3074],[43.579844597271233,39.795294500775327,2324.1152],[43.566172722271233,39.819403387494077,2394.6108],[43.550669792583733,39.833624578900327,2385.821],[43.541758659771233,39.815497137494077,2249.5],[43.550059441021233,39.792364813275327,2249.5],[43.547618034771233,39.767340399212827,2318.2329]]]}
,"properties": {"name": null,"lge_id": null,"pfafstette": 2549973.0,"lke_type": null,"altitude": 2251,"objectid": 84964,"scalerank": 12,"featurecla": "Lake","note": "_untitled_84964","funkyname": 0,"min_zoom": 7.0,"min_label": 8.0,"area_km2": 25.15661,"hist_schema_id": "Elevation0-9000","hist_area_km2": {"2250": 22.72934,"2275": 1.01005,"2300": 0.57013,"2325": 0.35835,"2350": 0.26064,"2375": 0.04888,"2400": 0.11404,"2425": 0.04888,"2450": 0.01629}}}