{"type":"Feature","properties":{"featurecla":"River","scalerank":9,"rivernum":993,"dissolve":"993River","name":"Murat2","name_alt":null,"note":null,"min_zoom":7.1,"strokeweig":0.2,"name_en":"Murat","min_label":8.1},
"geometry":{"type": "LineString","coordinates": [[43.679443359375,39.51544830936912,1947.6652],[43.669677734375,39.549335028119117,1925.049],[43.636328125,39.57477448124412,1886.2455],[43.562744140625,39.60419342655662,1844.3767],[43.525488281250006,39.61225006718162,1797.3118],[43.441650390625,39.618036199994116,1777.7356],[43.405029296875,39.62531159061912,1742.3224],[43.3896484375,39.63336823124412,1771.2139],[43.378808593750023,39.642352606244117,1779.6113],[43.366455078125,39.64960358280662,1756.2236],[43.3466796875,39.65265534061912,1711.4446],[43.33642578125,39.65582916874412,1711.0103],[43.322363281250006,39.669940496869117,1800.8274],[43.312255859375,39.673114324994117,1710.5255],[43.301367187500006,39.671991278119116,1700.6674],[43.279541015625,39.66730377811912,1688.2631],[43.2671875,39.666278387494117,1711.2788],[43.228906250000023,39.671014715619116,1672.1248],[43.11767578125,39.70722077030662,1640.0757],[43.072509765625,39.71222565311912,1628.1157],[43.051171875000023,39.710565496869116,1624.9727],[43.0419921875,39.70416901249412,1622.1627],[43.0107421875,39.65094635624412,1614.3917],[43.0009765625,39.63898346561912,1623.5955],[42.994042968750023,39.63849518436912,1605.1182],[42.984619140625,39.640887762494117,1774.2183],[42.976660156250006,39.64398834843162,1734.3375],[42.973730468750006,39.64581940311912,1748.9731],[42.96875,39.63910553593162,1634.6866],[42.969140625000023,39.63214752811912,1667.578],[42.971582031250023,39.62689850468162,1661.2411],[42.973730468750006,39.62531159061912,1661.3813],[42.956298828125,39.607928778119117,1600.5095],[42.947265625,39.60272858280662,1607.9685],[42.937109375,39.60126373905662,1594.9307],[42.9287109375,39.598016668744116,1611.8615],[42.920996093750006,39.576190496869117,1899.3776],[42.9111328125,39.56745026249412,1833.6503],[42.89111328125,39.557001043744116,1577.4644],[42.851757812500011,39.54242584843162,1620.3357],[42.767675781250006,39.52863190311912,1649.3707],[42.725976562500023,39.51544830936912,1601.0557],[42.709716796875,39.50531647343162,1579.4652],[42.696044921875,39.49201080936912,1581.1221],[42.67138671875,39.460809637494116,1596.5588],[42.658398437500011,39.43988678593162,1545.1432],[42.650781250000023,39.43500397343162,1521.0945],[42.63427734375,39.43353912968162,1517.4517],[42.627539062500006,39.42841217655662,1516.8068],[42.603759765625,39.39935944218162,1537.2258],[42.574951171875,39.37763092655662,1504.153],[42.5654296875,39.365350653119116,1502.0942],[42.53857421875,39.29401276249412,1493.4281],[42.534570312500023,39.26691315311912,1559.7677],[42.541796875000017,39.248553778119117,1485.3406],[42.535546875000023,39.23346588749412,1483.7888],[42.532958984375,39.215692449994116,1482.116],[42.533105468750023,39.200555731244116,1481.5256],[42.534912109375,39.19330475468162,1480.5918],[42.528417968750006,39.16937897343162,1478.3005],[42.523339843750023,39.16193268436912,1474.795],[42.510839843750006,39.15912506718162,1505.5386],[42.465917968750006,39.16596100468162,1498.946],[42.40234375,39.164813543744117,1468.3304],[42.3765625,39.15912506718162,1467.126],[42.35302734375,39.169452215619117,1464.3962],[42.252685546875,39.15814850468162,1456.8358],[42.212158203125,39.16596100468162,1455.5779],[42.1953125,39.16071198124412,1453.6985],[42.165722656250011,39.16522858280662,1452.328],[42.15,39.15912506718162,1451.8447],[42.120996093750023,39.135126043744116,1450.1484],[42.107666015625,39.12787506718162,1449.6157],[42.089257812500023,39.124383856244116,1446.1588],[42.05908203125,39.12384674686912,1443.3063],[42.0484375,39.12067291874412,1471.7291],[42.034570312500023,39.11139557499412,1485.3898],[42.014746093750006,39.09332916874412,1489.3572],[42.0107421875,39.09088776249412,1462.2867],[41.99951171875,39.092059637494117,1432.5],[41.991601562500023,39.09406159061912,1460.0695],[41.9853515625,39.09442780155662,1432.5],[41.979394531250023,39.09088776249412,1432.5],[41.976660156250006,39.09454987186912,1432.5],[41.96630859375,39.10455963749412,1432.5],[41.954833984375,39.09076569218162,1432.5],[41.938574218750006,39.082538153119117,1432.5],[41.9208984375,39.081903387494116,1450.7429],[41.904296875,39.09088776249412,1432.5],[41.90390625,39.066522528119116,1432.5],[41.891015625000023,39.05695221561912,1460.3622],[41.830761718750011,39.05609772343162,1503.6836],[41.731640625000011,39.037616278119117,1507.2642],[41.708740234375,39.036249090619116,1399.5774],[41.686718750000011,39.03778717655662,1401.3662],[41.671630859375,39.04218170780662,1450.3052],[41.63671875,39.05670807499412,1401.573],[41.629003906250006,39.05792877811912,1408.3992],[41.6123046875,39.056415106244117,1326.9862],[41.6025390625,39.05670807499412,1332.189],[41.591699218750023,39.06073639530662,1437.6804],[41.570556640625,39.07428619999412,1412.1877],[41.564453125,39.07721588749412,1413.4093],[41.544824218750023,39.069940496869116,1279.377],[41.5361328125,39.05206940311912,1279.7163],[41.53369140625,39.00897858280662,1421.1104],[41.5322265625,39.002948309369117,1535.3492],[41.527441406250006,38.99323151249412,1396.0072],[41.527441406250006,38.98786041874412,1388.718],[41.531640625000023,38.978143621869116,1285.8164],[41.536230468750006,38.97418854374412,1268.4663],[41.540136718750006,38.96942780155662,1309.1704],[41.541796875000017,38.95746491093162,1274.5038],[41.53857421875,38.94891998905662,1328.9086],[41.5244140625,38.94281647343162,1259.053],[41.521386718750023,38.93634674686912,1255.9788],[41.523339843750023,38.92194244999412,1257.3481],[41.527441406250006,38.90595123905662,1255.8861],[41.540625,38.885272528119117,1262.9779],[41.547558593750011,38.870477606244116,1262.8015],[41.547949218750006,38.858172918744117,1299.0105],[41.539257812500011,38.85114166874412,1252.6583],[41.528076171875,38.85346100468162,1252.0801],[41.507080078125,38.86432526249412,1248.2869],[41.484619140625,38.870868231244117,1262.95],[41.479589843750006,38.87116119999412,1259.652],[41.473535156250023,38.866571356244116,1246.3882],[41.4736328125,38.861444403119116,1243.4604],[41.47509765625,38.85602448124412,1246.7782],[41.47216796875,38.85065338749412,1245.4258],[41.451757812500006,38.83808014530662,1244.2388],[41.444726562500023,38.83258698124412,1243.6157],[41.438085937500006,38.822772528119117,1243.3484],[41.427001953125,38.83832428593162,1242.7139],[41.424414062500006,38.844501043744117,1240.201],[41.417578125,38.844501043744117,1242.8564],[41.414794921875,38.838885809369117,1242.5623],[41.407470703125,38.82965729374412,1241.9648],[41.404052734375,38.822772528119117,1243.0684],[41.3765625,38.844501043744117,1239.0891],[41.37353515625,38.84247467655662,1237.0552],[41.366601562500023,38.84039948124412,1238.0734],[41.359472656250006,38.84369537968162,1239.3357],[41.356201171875,38.858172918744117,1248.54],[41.347070312500023,38.85431549686912,1238.1926],[41.34140625,38.85407135624412,1236.3279],[41.328222656250006,38.858172918744117,1238.5579],[41.316015625,38.849481512494116,1237.3176],[41.296875,38.84284088749412,1234.293],[41.237548828125,38.834588934369116,1260.1892],[41.222363281250011,38.82770416874412,1323.2433],[41.209863281250023,38.81708405155662,1321.2277],[41.197851562500006,38.80353424686912,1217.2057],[41.178125,38.771258856244117,1300.8647],[41.166113281250006,38.759637762494116,1296.2231],[41.146582031250006,38.75507233280662,1202.6411],[41.130078125000011,38.75885651249412,1390.9907],[40.990136718750023,38.849383856244117,1166.4619],[40.950439453125,38.88788483280662,1175.7041],[40.9453125,38.890741278119116,1156.74],[40.938378906250023,38.89166901249412,1209.0679],[40.926660156250023,38.88983795780662,1174.9468],[40.918359375000023,38.88507721561912,1310.6146],[40.912207031250006,38.88019440311912,1292.3789],[40.907128906250023,38.87799713749412,1225.6057],[40.885644531250023,38.875848699994116,1231.6445],[40.763769531250006,38.839471746869116,1397.1226],[40.74267578125,38.83698151249412,1182.9167],[40.705078125,38.838739324994116,1161.7742],[40.689697265625,38.83710358280662,1116.7764],[40.6708984375,38.830194403119116,1008.0839],[40.623437500000023,38.801629949994116,1025.5651],[40.60703125,38.77973053593162,991.426],[40.585205078125,38.77289459843162,988.0714],[40.56005859375,38.768426824994116,984.4228],[40.54052734375,38.76251862186912,984.7246],[40.53515625,38.75751373905662,980.5],[40.528076171875,38.746210028119116,982.314],[40.520117187500006,38.74079010624412,979.477],[40.510986328125,38.73761627811912,980.0521],[40.491455078125,38.73480866093162,976.5],[40.48193359375,38.734637762494117,979.4956],[40.467871093750006,38.73126862186912,987.8412],[40.43408203125,38.71674225468162,972.5],[40.417724609375,38.713495184369116,998.4375],[40.253173828125,38.74079010624412,957.9393],[40.245703125,38.748309637494117,1045.7772],[40.221435546875,38.738788153119117,991.3581],[40.19677734375,38.74225494999412,1222.8342],[40.171630859375,38.750506903119117,1229.7151],[40.146386718750023,38.75507233280662,983.0645],[40.133056640625,38.752801824994116,1032.5918],[40.11865234375,38.743036199994116,1055.7117],[40.10546875,38.74079010624412,964.8178],[40.058837890625,38.745624090619117,905.5054],[40.050537109375,38.74457428593162,883.875],[40.031005859375,38.72809479374412,1210.3689],[40.008398437500006,38.71637604374412,1068.4696],[39.925537109375,38.688104559369116,861.9133],[39.916796875000017,38.68622467655662,972.9179],[39.90185546875,38.687518621869117,869.1821],[39.889404296875,38.69098541874412,857.7756],[39.878662109375,38.692010809369116,854.7306],[39.861230468750023,38.68463776249412,845.7557]]}}