{"type": "Feature","id": "2307","bbox": [42.27156,39.00243,44.45825,39.98934],"geometry": {"type": "Polygon","coordinates": [[[43.21962,39.97932,2525.7573],[43.17352,39.98852,2745.3792],[43.06448,39.98934,2842.8306],[42.75732,39.92214,2364.7295],[42.56374,39.95185,2322.2432],[42.53604,39.92738,2717.8889],[42.50297,39.91278,2648.0696],[42.47651,39.91322,2295.6648],[42.46338,39.91167,2265.1914],[42.44002,39.90359,2183.364],[42.41791,39.88015,2325.3542],[42.38163,39.87064,2172.1038],[42.3067,39.88067,2332.1777],[42.27156,39.86935,2133.9214],[42.3529,39.79209,2405.0813],[42.49491,39.74814,2363.76],[42.48147,39.74062,2263.5508],[42.47103,39.71414,2461.1567],[42.47289,39.57862,1812.0576],[42.46318,39.53154,1787.484],[42.43134,39.49139,1990.6232],[42.45915,39.42868,1662.3828],[42.501,39.37323,1743.6659],[42.53273,39.35057,1499.9878],[42.56322,39.32323,1576.6696],[42.58027,39.29556,1828.3311],[42.6058,39.27652,2052.1731],[42.64125,39.23543,1886.5989],[42.63609,39.17099,1631.1656],[42.64167,39.15746,1636.8103],[42.64249,39.14206,1633.3456],[42.63216,39.10314,1626.2291],[42.62368,39.05369,1761.5958],[42.62761,39.00243,1940.2612],[42.67112,39.02304,1943.4264],[42.71815,39.03493,1895.571],[42.75391,39.05136,1790.4071],[42.78739,39.07185,1753.1261],[42.97198,39.10407,1790.306],[43.08846,39.14087,2051.1167],[43.11285,39.1619,2001.0432],[43.11544,39.19629,2222.7715],[43.12174,39.23115,2308.7351],[43.11461,39.26158,2447.6426],[43.07523,39.2744,2594.405],[43.03751,39.2915,2903.178],[43.04526,39.32122,2532.7671],[43.06965,39.32863,2401.6755],[43.12949,39.33755,3016.3159],[43.16267,39.34685,3064.9133],[43.20029,39.38426,2525.106],[43.2437,39.40987,2580.7139],[43.3208,39.40641,2963.53],[43.38984,39.38212,2975.4062],[43.4472,39.33548,3442.6284],[43.49226,39.31326,2658.8667],[43.57866,39.30008,3051.2954],[43.6136,39.29967,3267.8679],[43.63912,39.31974,3106.1812],[43.66755,39.33669,2907.9714],[43.70558,39.34036,2809.9226],[43.74351,39.33564,2607.0459],[43.79219,39.32318,2680.833],[43.85131,39.31905,3023.488],[43.86805,39.31396,2853.5122],[43.90598,39.30835,2724.0781],[44.04706,39.33744,2471.0117],[44.0474,39.33751,2471.0117],[44.04721,39.33791,2471.0117],[44.02096,39.36199,2607.885],[44.01486,39.37408,2606.415],[44.02603,39.38618,2523.1907],[44.04639,39.39605,2283.3369],[44.06137,39.40028,2266.438],[44.07698,39.40059,2209.7009],[44.0992,39.39847,2298.415],[44.12225,39.40044,2362.3257],[44.17651,39.41155,2323.916],[44.20043,39.40948,2376.6924],[44.26952,39.38287,2173.3711],[44.29495,39.38121,2117.6873],[44.31696,39.3853,1998.0283],[44.36874,39.40359,1567.1769],[44.38797,39.41449,1500.5795],[44.40481,39.43439,1408.0896],[44.40523,39.45248,1409.9529],[44.40171,39.47134,1415.4607],[44.40667,39.49366,1602.33],[44.40667,39.49371,1602.33],[44.40683,39.49371,1602.33],[44.4168,39.50555,1556.967],[44.41742,39.51749,1631.2722],[44.41401,39.53035,1688.5453],[44.41205,39.54446,1842.6284],[44.41401,39.56089,1661.7726],[44.41856,39.57433,1684.0834],[44.45168,39.62585,2101.7087],[44.45763,39.63872,2107.8757],[44.45825,39.64252,2119.0166],[44.45778,39.6428,2119.0166],[44.44218,39.65215,2562.0347],[44.4028,39.65949,3042.6543],[44.22452,39.62797,1858.6744],[44.14741,39.63502,1534.01],[44.07259,39.65324,1519.2301],[43.97326,39.64316,1782.351],[43.88087,39.65489,1805.8123],[43.87539,39.66993,1855.4998],[43.86815,39.68406,1908.9429],[43.80501,39.69559,1746.0073],[43.7155,39.72825,1958.5693],[43.68563,39.75819,2342.1143],[43.66352,39.79556,2419.7185],[43.63065,39.81341,2510.8472],[43.6106,39.81346,2212.5884],[43.57711,39.82501,2385.7109],[43.56337,39.83318,2448.01],[43.53164,39.8385,2337.6763],[43.46405,39.81747,2197.9297],[43.40038,39.7831,2709.7993],[43.36576,39.79323,2407.105],[43.35005,39.80382,2292.6853],[43.33537,39.8415,2261.4387],[43.33568,39.86522,2393.5867],[43.34095,39.9126,2430.5312],[43.31842,39.96932,2278.478],[43.2653,39.98658,2592.8311],[43.21962,39.97932,2525.7573]]]}
,"properties": {"ISO3166-1-Alpha-3": "TUR","country": "Turkey","fill": "#F0F","name": "Agri","area_km2": 10004.087,"hist_schema_id": "Elevation0-9000","hist_area_km2": {"1400": 3.029,"1425": 19.17,"1450": 19.381,"1475": 51.572,"1500": 56.554,"1525": 132.049,"1550": 89.4,"1575": 84.382,"1600": 162.744,"1625": 355.924,"1650": 433.183,"1675": 507.64,"1700": 411.612,"1725": 402.903,"1750": 326.437,"1775": 308.855,"1800": 304.203,"1825": 292.01,"1850": 272.581,"1875": 263.042,"1900": 244.934,"1925": 227.291,"1950": 233.778,"1975": 238.222,"2000": 238.182,"2025": 220.402,"2050": 199.999,"2075": 184.915,"2100": 196.819,"2125": 186.195,"2150": 195.03,"2175": 196.184,"2200": 183.271,"2225": 179.177,"2250": 207.614,"2275": 169.645,"2300": 156.865,"2325": 152.706,"2350": 145.966,"2375": 134.842,"2400": 123.558,"2425": 118.084,"2450": 116.074,"2475": 115.826,"2500": 108.401,"2525": 90.312,"2550": 84.59,"2575": 74.207,"2600": 67.217,"2625": 64.456,"2650": 62.885,"2675": 54.768,"2700": 50.267,"2725": 47.04,"2750": 41.71,"2775": 37.62,"2800": 36.815,"2825": 34.674,"2850": 31.339,"2875": 28.521,"2900": 24.245,"2925": 20.676,"2950": 17.989,"2975": 16.318,"3000": 15.584,"3025": 14.404,"3050": 13.634,"3075": 13.011,"3100": 11.914,"3125": 11.701,"3150": 12.193,"3175": 10.211,"3200": 9.326,"3225": 8.309,"3250": 6.505,"3275": 5.539,"3300": 4.49,"3325": 2.818,"3350": 2.113,"3375": 1.425,"3400": 1.179,"3425": 0.786,"3450": 0.507,"3475": 0.409,"3500": 0.245,"3525": 0.196,"3550": 0.163,"3575": 0.114,"3600": 0.098,"3625": 0.131,"3650": 0.098,"3675": 0.131,"3700": 0.098,"3725": 0.114,"3775": 0.098}}}