{"type": "Feature","bbox": [42.9645,38.4026,43.8736,38.9513],"geometry": {"type": "MultiPolygon","coordinates": [[[[42.9645,38.6213,1647.5],[42.9946,38.6242,1647.5],[43.016,38.6219,1647.5],[43.0905,38.5928,1647.5],[43.1209,38.5868,1647.5],[43.1511,38.5755,1647.5],[43.1658,38.5668,1647.5],[43.2011,38.5396,1647.5],[43.2136,38.5334,1647.5],[43.2524,38.5289,1647.5],[43.2805,38.5206,1647.5],[43.3159,38.5167,1649.1965],[43.4205,38.4761,1809.4274],[43.4305,38.4738,1855.2482],[43.459,38.4715,2128.2227],[43.4691,38.4688,2635.8633],[43.4861,38.4584,2698.8318],[43.5572,38.4026,2115.7449],[43.5857,38.4225,2238.6738],[43.604,38.4294,2249.063],[43.6308,38.4457,2405.7334],[43.6794,38.4644,2754.1914],[43.7087,38.4819,2460.8857],[43.7423,38.494,2575.6035],[43.7823,38.4959,2596.9045],[43.7964,38.498,2487.8247],[43.8267,38.5137,2279.5317],[43.8303,38.5384,2232.8193],[43.8411,38.5605,2292.6331],[43.8455,38.5963,2167.7559],[43.8503,38.6041,2126.6963],[43.8679,38.6221,2081.1428],[43.8718,38.6302,2038.0176],[43.8736,38.6419,2040.4495],[43.8736,38.6751,2020.6775],[43.8727,38.684,2081.5547],[43.8691,38.6949,2216.5962],[43.8538,38.7183,2559.4688],[43.8249,38.7446,2517.8213],[43.7824,38.7313,2413.2478],[43.7757,38.7306,2498.1143],[43.769,38.7313,2582.8862],[43.7484,38.7378,2480.167],[43.7129,38.7419,2183.7351],[43.6917,38.7488,2181.321],[43.6713,38.7525,2116.8105],[43.6579,38.757,2083.2432],[43.6429,38.7668,2161.1777],[43.6248,38.7826,2436.8848],[43.6055,38.8107,2151.4678],[43.5926,38.8318,2557.7224],[43.5895,38.8401,2493.3501],[43.5879,38.8586,2222.2786],[43.5884,38.922,1647.5],[43.5894,38.9377,1647.5],[43.5924,38.9513,1647.5],[43.5568,38.9498,1647.5],[43.4549,38.9495,1647.5],[43.4433,38.9482,1647.5],[43.4217,38.9411,1647.5],[43.3946,38.9357,1647.5],[43.3642,38.9247,1647.5],[43.3281,38.9095,1647.5],[43.2995,38.8892,1647.5],[43.2829,38.8817,1647.5],[43.263,38.8798,1647.5],[43.1979,38.8802,1647.5],[43.1982,38.8423,1647.5],[43.1968,38.8282,1647.5],[43.1938,38.8203,1647.5],[43.1785,38.7975,1647.5],[43.1691,38.7905,1647.5],[43.1453,38.78,1647.5],[43.1122,38.7574,1647.5],[43.0847,38.7455,1647.5],[43.0633,38.7298,1647.5],[43.0519,38.7188,1647.5],[43.0406,38.702,1647.5],[43.0089,38.6744,1647.5],[42.9975,38.6579,1647.5],[42.9761,38.6372,1647.5],[42.9645,38.6213,1647.5]]]]}
,"properties": {"GID_2": "TUR.78.9_1","GID_0": "TUR","country": "Turkey","GID_1": "TUR.78_1","province": "Van","NL_NAME_1": "NA","county": "Merkez","VARNAME_2": "VanMerkez","NL_NAME_2": "NA","TYPE_2": "District","ENGTYPE_2": "District","CC_2": "NA","HASC_2": "TR.VA.VA","name": "Merkez.county","area_km2": 2672.127,"hist_schema_id": "Elevation0-9000","hist_area_km2": {"1650": 668.221,"1675": 68.759,"1700": 87.233,"1725": 101.512,"1750": 84.678,"1775": 81.906,"1800": 179.994,"1825": 101.554,"1850": 89.802,"1875": 87.051,"1900": 79.984,"1925": 66.862,"1950": 56.289,"1975": 49.543,"2000": 50.338,"2025": 52.245,"2050": 48.093,"2075": 48.059,"2100": 48.341,"2125": 43.163,"2150": 40.301,"2175": 38.272,"2200": 37.465,"2225": 39.44,"2250": 41.269,"2275": 38.053,"2300": 35.04,"2325": 32.706,"2350": 30.24,"2375": 25.586,"2400": 21.28,"2425": 18.635,"2450": 16.715,"2475": 16.236,"2500": 14.845,"2525": 13.849,"2550": 26.234,"2575": 18.735,"2600": 15.168,"2625": 12.446,"2650": 10.338,"2675": 8.065,"2700": 6.09,"2725": 4.647,"2750": 3.269,"2775": 2.672,"2800": 2.008,"2825": 1.477,"2850": 1.626,"2875": 1.046,"2900": 1.212,"2925": 0.763,"2950": 0.266,"2975": 0.631,"3000": 0.332,"3025": 0.299,"3050": 0.415,"3075": 0.282,"3100": 0.282,"3125": 0.166,"3150": 0.083}}}