{"type": "Feature","id": "2293","bbox": [36.68751,40.33188,38.15832,41.14785],"geometry": {"type": "Polygon","coordinates": [[[38.1142,40.95816,3.3764],[38.10222,40.9597,35.7413],[37.9817,40.99022,0.0],[37.93474,40.9951,0.0],[37.89576,40.98212,5.3227],[37.87827,41.0056,0.0],[37.86793,41.01557,0.0],[37.85426,41.02367,0.0],[37.80274,41.04291,0.0],[37.78517,41.06,0.0],[37.78386,41.12263,0.0],[37.75807,41.11933,0.8091],[37.75123,41.12613,0.0],[37.73422,41.11465,37.0908],[37.7151,41.11473,0.0],[37.6985,41.12409,0.0],[37.68979,41.14037,0.0],[37.67205,41.13125,0.0],[37.65504,41.11762,1.8826],[37.64015,41.10155,0.0],[37.62827,41.08515,0.0],[37.61524,41.05854,59.0613],[37.60792,41.05044,0.0],[37.60043,41.04633,0.0],[37.58644,41.04222,0.0],[37.58058,41.03677,0.0],[37.56471,41.04047,0.0],[37.52475,41.03718,0.0],[37.50473,41.04291,0.0],[37.48129,41.0622,0.0],[37.47755,41.06778,0.0],[37.43653,41.0777,0.0],[37.41944,41.08759,0.0],[37.39536,41.10847,0.0],[37.37794,41.11249,0.0],[37.3545,41.11424,0.0],[37.33351,41.11933,0.0],[37.32244,41.12409,0.0],[37.29933,41.14037,0.0],[37.26344,41.14785,0.0],[37.15174,41.14679,3.5009],[37.15136,41.14085,10.1607],[37.09844,41.08661,128.2544],[37.04232,41.04176,303.2297],[36.99912,40.97967,519.3653],[36.92026,40.94577,864.0098],[36.88067,40.91241,857.8306],[36.86579,40.90383,1032.8359],[36.82838,40.88784,942.0969],[36.789,40.87756,1021.2836],[36.74601,40.87497,572.6451],[36.72637,40.86738,409.8181],[36.70518,40.86249,250.5797],[36.68751,40.83601,246.9511],[36.69888,40.80681,324.5247],[36.71159,40.79942,391.4024],[36.75655,40.79201,745.7645],[36.81184,40.76612,1144.0824],[36.89535,40.74467,789.0568],[36.94682,40.72025,872.8569],[37.01338,40.69894,1201.3158],[37.08459,40.69426,1153.4927],[37.15249,40.70188,1392.8259],[37.21967,40.6977,1460.5734],[37.4488,40.57595,1419.1671],[37.58409,40.56938,1827.7335],[37.61696,40.5212,1533.4059],[37.63494,40.4612,1552.4753],[37.69013,40.37942,1537.1871],[37.76693,40.33188,1735.853],[37.80186,40.33568,1748.7302],[37.83131,40.35276,1745.2991],[37.86139,40.38394,1663.0582],[37.89767,40.4041,2011.3015],[37.98025,40.40131,1970.5],[38.00164,40.41156,1657.4147],[38.00588,40.42859,1522.0095],[37.99533,40.43965,1510.7769],[37.99802,40.46882,1533.6946],[38.00836,40.48099,1556.3263],[38.04918,40.4888,1873.0371],[38.09517,40.49218,2203.7319],[38.12887,40.50373,2738.7754],[38.15832,40.52355,2984.0679],[38.06334,40.60522,1936.7625],[38.06727,40.63196,1757.627],[38.07915,40.65106,1056.5818],[38.0836,40.68436,1248.4951],[38.0805,40.7179,1268.2543],[38.08505,40.75229,1424.7767],[38.07967,40.78604,1218.201],[38.06272,40.81454,1331.2263],[38.06293,40.84627,840.1912],[38.07936,40.87048,500.7497],[38.10106,40.88913,490.7894],[38.11533,40.91944,332.1348],[38.11336,40.9543,25.7714],[38.11419,40.95812,3.3764],[38.1142,40.95816,3.3764]]]}
,"properties": {"ISO3166-1-Alpha-3": "TUR","country": "Turkey","fill": "#FF0","name": "Ordu","area_km2": 5860.202,"hist_schema_id": "Elevation0-9000","hist_area_km2": {"0": 102.801,"25": 60.359,"50": 54.008,"75": 58.257,"100": 66.599,"125": 73.036,"150": 80.276,"175": 86.044,"200": 86.837,"225": 85.355,"250": 86.677,"275": 90.88,"300": 90.438,"325": 88.031,"350": 88.438,"375": 91.942,"400": 88.427,"425": 86.31,"450": 86.385,"475": 86.842,"500": 83.47,"525": 82.213,"550": 81.888,"575": 77.922,"600": 78.281,"625": 79.25,"650": 78.671,"675": 76.899,"700": 74.843,"725": 73.637,"750": 74.073,"775": 74.755,"800": 76.592,"825": 76.546,"850": 79.458,"875": 81.587,"900": 82.106,"925": 83.699,"950": 85.55,"975": 86.069,"1000": 92.706,"1025": 98.022,"1050": 100.532,"1075": 103.383,"1100": 105.093,"1125": 100.742,"1150": 98.595,"1175": 98.226,"1200": 95.832,"1225": 89.084,"1250": 87.047,"1275": 82.674,"1300": 77.911,"1325": 76.171,"1350": 71.74,"1375": 73.661,"1400": 69.617,"1425": 70.561,"1450": 71.056,"1475": 75.29,"1500": 74.665,"1525": 76.412,"1550": 71.917,"1575": 62.002,"1600": 56.901,"1625": 51.176,"1650": 43.575,"1675": 40.342,"1700": 39.819,"1725": 35.858,"1750": 31.2,"1775": 27.821,"1800": 23.907,"1825": 20.762,"1850": 17.54,"1875": 16.912,"1900": 16.026,"1925": 15.64,"1950": 14.369,"1975": 14.387,"2000": 13.293,"2025": 13.196,"2050": 13.292,"2075": 13.76,"2100": 11.715,"2125": 10.04,"2150": 9.121,"2175": 8.364,"2200": 7.896,"2225": 6.237,"2250": 5.221,"2275": 4.609,"2300": 3.787,"2325": 3.546,"2350": 2.981,"2375": 2.562,"2400": 2.079,"2425": 2.272,"2450": 1.66,"2475": 1.66,"2500": 1.338,"2525": 1.241,"2550": 0.822,"2575": 0.677,"2600": 0.532,"2625": 0.371,"2650": 0.596,"2675": 0.306,"2700": 0.403,"2725": 0.403,"2750": 0.145,"2775": 0.177,"2800": 0.177,"2825": 0.161,"2850": 0.064,"2875": 0.145,"2900": 0.161,"2925": 0.129,"2950": 0.064,"2975": 0.097,"3000": 0.081,"3025": 0.081,"3050": 0.081}}}