{"type":"Feature","properties":{"GID_2":"TUR.40.5_1","GID_0":"TUR","country":"Turkey","GID_1":"TUR.40_1","province":"Istanbul","NL_NAME_1":"NA","county":"Bağcılar","VARNAME_2":"NA","NL_NAME_2":"NA","TYPE_2":"District","ENGTYPE_2":"District","CC_2":"NA","HASC_2":"TR.IB.BA","name":"Bağcılar.county"},
"geometry":{"type": "MultiPolygon","coordinates": [[[[28.8582,41.0214,86.9469],[28.8606,41.0252,73.0937],[28.8555,41.0341,89.3313],[28.867,41.0344,99.7083],[28.8715,41.0386,46.7067],[28.8573,41.0539,83.1534],[28.8565,41.0632,114.9614],[28.8622,41.0719,131.3772],[28.857,41.0727,124.4053],[28.8465,41.0634,84.0699],[28.8431,41.0634,97.1942],[28.8353,41.0689,125.4561],[28.8213,41.0678,87.2175],[28.8142,41.0601,41.999],[28.8132,41.0375,30.3214],[28.8087,41.028,19.2032],[28.846,41.0264,37.3297],[28.8582,41.0214,86.9469]]]]}}