{"type":"Feature","properties":{"GID_1":"TUR.7_1","GID_0":"TUR","country":"Turkey","province":"Ankara","VARNAME_1":"Ancara|Angora","NL_NAME_1":"NA","TYPE_1":"Il","ENGTYPE_1":"Province","CC_1":"NA","HASC_1":"TR.AN","ISO_1":"TR-06","name":"Ankara.province"},
"geometry":{"type": "MultiPolygon","coordinates": [[[[33.8991,38.9813,881.6823],[33.9089,38.9952,865.5918],[33.9267,39.0081,934.6821],[33.9433,39.0242,901.6257],[33.945,39.0314,886.2917],[33.9409,39.0378,883.809],[33.9201,39.0473,850.0277],[33.8409,39.0765,848.0],[33.8196,39.0869,853.6842],[33.7664,39.106,857.733],[33.7087,39.122,848.0],[33.6788,39.1339,848.0],[33.6493,39.1515,848.0],[33.598,39.1714,848.0],[33.5823,39.182,848.0],[33.5619,39.2002,848.0],[33.528,39.2548,848.0],[33.5138,39.2471,848.0],[33.5042,39.2398,882.759],[33.4908,39.2214,875.4781],[33.4594,39.1936,856.7081],[33.4486,39.1767,885.8707],[33.4407,39.1684,867.2726],[33.4339,39.1632,874.922],[33.4259,39.1599,880.3745],[33.4197,39.1601,889.9683],[33.4145,39.1624,900.4617],[33.4104,39.1658,900.6976],[33.4005,39.1815,898.5986],[33.3816,39.2003,916.9691],[33.3656,39.2256,941.8316],[33.3658,39.2362,937.5443],[33.3882,39.2698,887.4562],[33.3903,39.2774,923.6296],[33.3884,39.2851,904.1406],[33.3694,39.3172,828.4514],[33.3526,39.3201,830.8975],[33.3236,39.3288,910.6398],[33.2867,39.3304,857.2029],[33.2401,39.3663,817.9303],[33.2349,39.3722,817.8574],[33.2333,39.3767,824.0588],[33.2343,39.3812,843.4546],[33.2451,39.399,832.463],[33.268,39.4218,807.561],[33.2764,39.4452,811.9185],[33.2855,39.4619,807.6697],[33.2898,39.4978,900.8405],[33.3005,39.5202,863.9611],[33.3057,39.5471,945.4291],[33.3158,39.5664,894.0237],[33.3176,39.5746,920.8465],[33.3204,39.595,944.2676],[33.3181,39.6229,1022.3525],[33.3199,39.6488,1048.7355],[33.3315,39.6744,1103.6421],[33.336,39.7102,1249.5229],[33.3563,39.7511,1139.9335],[33.3746,39.7691,976.3807],[33.4341,39.814,829.0515],[33.4701,39.8283,674.7274],[33.4999,39.8362,715.7502],[33.5059,39.8449,729.3666],[33.5155,39.8515,761.694],[33.5609,39.8684,803.9922],[33.5954,39.884,922.9269],[33.6033,39.8919,949.9251],[33.6164,39.9126,952.7228],[33.6195,39.9274,941.692],[33.6194,39.9583,1094.5847],[33.6173,39.9664,1148.3645],[33.6018,39.9924,1139.3677],[33.5773,40.029,1099.4812],[33.5757,40.0344,1083.4277],[33.5765,40.0481,1061.3837],[33.5869,40.0669,1102.2258],[33.592,40.0944,1117.8691],[33.6013,40.1108,931.4781],[33.6093,40.1343,865.285],[33.6527,40.2019,974.8031],[33.6611,40.2109,935.11],[33.6861,40.2318,900.7503],[33.7015,40.2527,780.7562],[33.7291,40.2784,643.9974],[33.6964,40.2865,649.6929],[33.664,40.3053,616.6973],[33.577,40.3391,1086.2593],[33.567,40.3414,1022.3455],[33.5315,40.3451,833.347],[33.4982,40.3572,731.9723],[33.4769,40.3675,841.9762],[33.427,40.3857,974.2443],[33.4099,40.389,984.0569],[33.3737,40.3909,883.0799],[33.3641,40.3859,910.712],[33.3539,40.3761,808.0217],[33.3457,40.353,774.5503],[33.3366,40.3403,789.7078],[33.3308,40.3347,781.2946],[33.3246,40.3323,781.3092],[33.2803,40.3284,808.4224],[33.2579,40.3341,828.3085],[33.231,40.3447,949.4324],[33.2172,40.3554,937.1603],[33.2041,40.3763,942.6702],[33.1968,40.4,1143.339],[33.1825,40.4235,1271.9067],[33.1717,40.4348,1194.4698],[33.1476,40.4525,1234.3806],[33.1232,40.4627,1527.3739],[33.1126,40.4692,1657.7839],[33.1016,40.4791,1802.4351],[33.0964,40.4878,1688.3298],[33.0701,40.5021,1514.0481],[32.9984,40.5566,1538.9238],[32.9867,40.5728,1405.2219],[32.9708,40.5889,1629.8405],[32.9557,40.5983,1611.1091],[32.9288,40.6084,1601.911],[32.9068,40.6131,1823.6781],[32.8932,40.6202,1688.4308],[32.8727,40.6258,1834.2233],[32.8621,40.632,1959.0747],[32.8413,40.6367,1718.17],[32.7936,40.6549,1574.137],[32.7718,40.6598,1755.4449],[32.7582,40.6668,1852.6595],[32.7334,40.6727,1656.5193],[32.6549,40.7026,1620.7557],[32.6305,40.7044,1787.588],[32.5013,40.7043,1498.0011],[32.4903,40.6994,1444.0835],[32.4746,40.6888,1506.8667],[32.4449,40.6655,1437.9277],[32.4304,40.6518,1455.7583],[32.4366,40.6264,1522.0098],[32.4461,40.61,1514.4301],[32.4529,40.5889,1659.4197],[32.4624,40.5726,1613.2861],[32.4672,40.5567,1405.5841],[32.4759,40.5407,1301.6796],[32.4759,40.5302,1258.356],[32.4618,40.5072,1365.0707],[32.4392,40.4845,1203.2234],[32.4293,40.47,1206.9922],[32.4093,40.4495,1142.7161],[32.3978,40.4325,1036.6208],[32.388,40.4238,1003.0224],[32.3762,40.4168,963.5],[32.3656,40.4139,963.5],[32.3542,40.4129,993.0601],[32.3231,40.4128,1062.748],[32.2924,40.4145,1160.1908],[32.2607,40.4238,1251.5183],[32.2463,40.425,1123.2],[32.1669,40.4269,1564.9067],[32.1456,40.4247,1692.6709],[32.1352,40.4224,1643.761],[32.1257,40.4181,1743.6008],[32.1023,40.4043,1749.3516],[32.0422,40.3812,1613.8097],[32.0149,40.3759,1588.6992],[31.9938,40.3688,1674.1049],[31.9698,40.3644,1733.6274],[31.952,40.358,1601.506],[31.9249,40.3527,1434.0472],[31.9034,40.3456,1474.5505],[31.857,40.3425,1317.0227],[31.8283,40.3339,1280.4663],[31.7936,40.3318,1224.1511],[31.7642,40.3343,1270.6346],[31.7375,40.3429,965.5416],[31.7051,40.3439,635.186],[31.6947,40.3426,656.21],[31.6862,40.3384,821.1124],[31.671,40.3345,684.0494],[31.6396,40.3293,625.9376],[31.6099,40.3132,922.7393],[31.5912,40.3092,869.3616],[31.5465,40.3088,796.5458],[31.5267,40.3103,807.0597],[31.4939,40.3196,901.3046],[31.4326,40.3229,927.7862],[31.4114,40.3299,864.0104],[31.4005,40.3318,891.6643],[31.3311,40.3338,933.9013],[31.3027,40.3421,1072.7615],[31.2639,40.3468,1201.2883],[31.2306,40.3596,960.8792],[31.2013,40.3769,1246.9624],[31.1443,40.3991,1088.7371],[31.1141,40.4054,1217.9011],[31.0929,40.4125,1284.7021],[31.0607,40.4158,1008.1071],[31.0418,40.3925,1153.2946],[31.0385,40.3847,1344.7019],[31.0373,40.3763,1464.2578],[31.0377,40.3125,1348.6707],[31.0399,40.3015,1193.5581],[31.0497,40.2832,953.0871],[31.0497,40.2778,973.0311],[31.0475,40.2726,991.9026],[31.0389,40.2635,926.9082],[31.0276,40.256,806.7806],[30.9751,40.2362,797.4348],[30.955,40.2229,767.7031],[30.8934,40.1739,1055.4534],[30.888,40.1665,774.6908],[30.874,40.1403,524.0443],[30.8997,40.1191,381.5466],[30.9136,40.0991,399.9981],[30.9166,40.084,475.1545],[30.9162,40.0466,453.3375],[30.9194,40.0357,294.2852],[30.9235,40.0316,425.8452],[30.9441,40.0222,489.7661],[30.9539,40.0196,704.2004],[30.9728,40.0187,804.6769],[31.0234,40.0192,534.2486],[31.0353,40.0211,579.8919],[31.0569,40.028,1145.2148],[31.0915,40.0322,1057.9941],[31.1203,40.0404,841.9785],[31.176,40.044,497.7544],[31.2115,40.0416,719.421],[31.3453,40.0413,698.5638],[31.3617,40.0396,737.9772],[31.3835,40.0327,545.7599],[31.3998,40.0303,538.4813],[31.5036,40.029,651.7044],[31.5456,40.019,627.3583],[31.6007,40.0179,467.0],[31.617,40.0163,469.2996],[31.696,39.9882,470.2706],[31.7189,39.9561,836.5746],[31.7504,39.9284,549.6622],[31.7617,39.9117,725.9915],[31.7681,39.9049,556.3088],[31.7885,39.8884,629.9126],[31.7972,39.8832,636.2878],[31.8071,39.8798,625.5297],[31.8459,39.8781,685.5355],[31.8577,39.8745,598.6946],[31.8622,39.8682,591.4272],[31.8706,39.8391,685.4228],[31.8852,39.813,749.2404],[31.886,39.8085,830.379],[31.8827,39.8016,841.3999],[31.8539,39.777,970.2769],[31.8473,39.7683,920.212],[31.8469,39.7444,796.9843],[31.8491,39.7304,799.429],[31.8582,39.714,835.6705],[31.8651,39.6929,740.8857],[31.8883,39.6558,784.119],[31.8939,39.6373,784.7825],[31.908,39.6137,768.3094],[31.9295,39.5909,756.2276],[31.9416,39.574,688.1945],[31.9637,39.5511,688.0916],[31.9934,39.5046,693.1096],[31.9967,39.4868,695.3792],[31.9973,39.422,701.3646],[31.9998,39.4134,729.0906],[32.009,39.3968,735.4769],[32.0113,39.3818,750.1099],[32.0106,39.2971,775.9806],[32.0077,39.2853,798.8153],[31.998,39.2658,803.225],[31.9956,39.2359,793.0789],[31.9928,39.2274,748.637],[31.9872,39.221,751.9201],[31.9795,39.2162,791.2246],[31.907,39.189,910.1893],[31.8832,39.1738,831.0115],[31.9077,39.1646,879.8585],[31.9272,39.1517,848.2432],[31.9441,39.1367,803.4535],[31.9589,39.1157,882.5297],[31.9733,39.1044,832.9575],[32.0304,39.0814,849.7335],[32.0726,39.05,924.5272],[32.0867,39.0415,962.6331],[32.1133,39.0314,946.1909],[32.1232,39.0299,961.337],[32.13,39.0306,964.5565],[32.1472,39.0369,938.3748],[32.1743,39.0424,959.8024],[32.1959,39.0494,977.0529],[32.2307,39.0532,978.443],[32.2557,39.061,941.0264],[32.2803,39.0645,1072.1099],[32.2945,39.0681,1018.2089],[32.3274,39.0539,1082.2832],[32.3607,39.0466,976.752],[32.3818,39.0363,1082.3271],[32.3904,39.0267,1126.1865],[32.3996,39.0199,1059.3118],[32.4325,39.011,998.5615],[32.4586,38.9964,1141.1807],[32.4686,38.9946,1119.8859],[32.4786,38.996,1124.3596],[32.5075,39.0077,1113.304],[32.5165,39.0152,1113.0861],[32.5298,39.034,1098.6813],[32.5428,39.0443,1081.5674],[32.5559,39.0498,1038.5167],[32.5787,39.0516,1012.5502],[32.6329,39.0501,1023.0485],[32.6839,39.0326,1075.4058],[32.7027,39.0328,1057.7451],[32.7422,39.0821,1068.2805],[32.8184,39.142,1168.2947],[32.8347,39.1523,1253.1609],[32.8444,39.1551,1278.1179],[32.8581,39.1562,1400.2743],[32.8925,39.1543,1217.8461],[32.9257,39.1416,1108.5389],[32.9484,39.1277,1081.5737],[32.9568,39.1255,1070.1611],[32.9626,39.1265,1058.0621],[32.9855,39.1398,1051.1405],[33.0038,39.1469,1053.6882],[33.0216,39.1593,1084.8085],[33.0298,39.1702,1119.6118],[33.035,39.1895,1053.8645],[33.0475,39.2105,998.6098],[33.0552,39.2189,990.9009],[33.0636,39.2232,995.7726],[33.0775,39.2249,994.7625],[33.0877,39.2238,997.9824],[33.104,39.219,1050.8027],[33.1152,39.2209,1048.4919],[33.1299,39.2304,1000.778],[33.1878,39.2768,994.9573],[33.2002,39.2494,1152.6313],[33.2091,39.2398,1244.6653],[33.2376,39.2151,1121.381],[33.2768,39.1538,922.666],[33.3276,39.1102,904.0],[33.374,39.0379,904.0],[33.3765,39.0294,904.0],[33.3774,39.0176,904.0],[33.3768,38.9057,904.5364],[33.3745,38.8912,904.6669],[33.3651,38.8748,904.7326],[33.3621,38.8611,904.5565],[33.3621,38.7918,903.9063],[33.3664,38.7811,902.5],[33.3884,38.7584,904.3408],[33.4039,38.7353,904.2521],[33.4486,38.6654,902.5],[33.465,38.6365,902.5],[33.4981,38.6463,904.728],[33.5282,38.6579,905.0394],[33.5485,38.6682,905.4644],[33.5854,38.6799,905.8467],[33.633,38.6985,904.8964],[33.6602,38.7038,907.6375],[33.6815,38.711,942.6498],[33.7083,38.7128,1010.8479],[33.8031,38.7122,1174.6132],[33.8256,38.7149,1262.4492],[33.8437,38.725,1183.2715],[33.9035,38.7714,1261.384],[33.9151,38.778,1260.2435],[33.924,38.7807,1282.123],[33.9447,38.8068,1316.8616],[33.9468,38.8126,1282.0372],[33.9478,38.8241,1254.1383],[33.9448,38.8333,1317.962],[33.9371,38.8351,1342.7991],[33.9302,38.8601,1224.839],[33.9208,38.8766,1220.9657],[33.9151,38.8951,1167.9298],[33.9057,38.9114,1124.6396],[33.8998,38.9299,1118.3752],[33.8894,38.9487,981.8995],[33.8886,38.9624,930.5997],[33.8902,38.9678,910.8489],[33.8991,38.9813,881.6823]]]]}}