{"type":"Feature","properties":{"featurecla":"River","scalerank":7,"rivernum":481,"dissolve":"481River","name":"Kiz1","name_alt":null,"note":null,"min_zoom":6.0,"strokeweig":0.2,"name_en":"Kiz?lirmak","min_label":7.0},
"geometry":{"type": "LineString","coordinates": [[37.174707031250023,39.797967840619116,1266.3921],[37.139550781250023,39.79376862186912,1312.0392],[37.002343750000023,39.752557684369116,1317.1208],[36.91845703125,39.71210358280662,1250.4208],[36.909082031250023,39.70880768436912,1258.3329],[36.9,39.70856354374412,1340.0961],[36.890625,39.71332428593162,1376.2208],[36.88720703125,39.71991608280662,1324.1553],[36.885156250000023,39.726922918744116,1255.7611],[36.880615234375,39.73273346561912,1311.1973],[36.860742187500023,39.737665106244116,1510.7748],[36.837890625,39.733417059369117,1302.6726],[36.814160156250011,39.72626373905662,1338.4728],[36.79150390625,39.722528387494116,1325.1882],[36.752685546875,39.722430731244117,1293.7771],[36.735058593750011,39.719501043744117,1314.5432],[36.694580078125,39.70551178593162,1246.0339],[36.63525390625,39.69769928593162,1303.7012],[36.613867187500006,39.691424871869117,1430.2261],[36.599023437500023,39.68231842655662,1451.9692],[36.570556640625,39.657001043744117,1325.5103],[36.535546875000023,39.63678619999412,1251.4835],[36.463964843750006,39.609491278119116,1299.5077],[36.433984375000023,39.585956121869117,1259.536],[36.408593750000023,39.55695221561912,1216.8856],[36.403564453125,39.547626043744117,1204.5249],[36.395263671875,39.52326080936912,1215.595],[36.38427734375,39.50739166874412,1205.809],[36.371484375000023,39.494745184369116,1213.4988],[36.253027343750006,39.409784246869116,1407.1084],[36.202880859375,39.38287994999412,1350.4984],[36.162109375,39.35236237186912,1243.2303],[36.111914062500006,39.32526276249412,1232.9668],[36.096582031250023,39.312518621869117,1243.7134],[36.065673828125,39.27619049686912,1158.7798],[36.049414062500006,39.26581452030662,1216.0544],[35.992919921875,39.24872467655662,1161.8612],[35.975683593750006,39.240350653119116,1158.7305],[35.961669921875,39.23114655155662,1163.4999],[35.955468750000023,39.22528717655662,1158.579],[35.951171875,39.21771881718162,1157.22],[35.950439453125,39.20905182499412,1134.6859],[35.955761718750011,39.19599030155662,1118.795],[35.95556640625,39.188592840619116,1133.4135],[35.947363281250006,39.17462799686912,1126.474],[35.934814453125,39.165790106244117,1138.7727],[35.858642578125,39.13397858280662,1214.9064],[35.846093750000023,39.12616608280662,1224.1415],[35.833105468750006,39.11432526249412,1188.0039],[35.811425781250023,39.08734772343162,1112.8896],[35.798583984375,39.07575104374412,1128.0095],[35.790136718750006,39.07221100468162,1213.7058],[35.769921875000023,39.06879303593162,1380.3807],[35.760986328125,39.06586334843162,1323.1184],[35.753808593750023,39.060565496869117,1305.6086],[35.740478515625,39.04767487186912,1170.1405],[35.73291015625,39.043085028119116,1104.191],[35.690332031250023,39.034442449994117,1648.0645],[35.560644531250006,39.04132721561912,1151.3921],[35.549414062500006,39.011981512494117,1175.0061],[35.526269531250023,38.98700592655662,1088.0],[35.495849609375,38.971454168744117,1088.0],[35.463623046875,38.970233465619117,1088.0],[35.427001953125,38.97614166874412,1221.0471],[35.39013671875,38.97638580936912,1242.1394],[35.3564453125,38.97113678593162,1125.8491],[35.318115234375,38.95795319218162,1088.0],[35.291259765625,38.93537018436912,1124.557],[35.292236328125,38.90216705936912,1205.0146],[35.27978515625,38.89508698124412,1152.0327],[35.254003906250006,38.890887762494117,1056.3434],[35.241455078125,38.88690827030662,1079.6814],[35.23095703125,38.87933991093162,1048.2246],[35.20556640625,38.853778387494117,1002.6354],[35.161865234375,38.82855866093162,1088.0947],[35.091552734375,38.79950592655662,1047.6064],[35.047949218750006,38.77020905155662,1078.1672],[35.024316406250023,38.758563543744117,1002.1891],[35.005859375,38.75507233280662,1011.66],[34.969824218750006,38.75604889530662,1014.7626],[34.949951171875,38.751971746869117,992.9337],[34.920019531250006,38.74164459843162,989.436],[34.905371093750006,38.73895905155662,963.557],[34.870849609375,38.739618231244116,1052.0798],[34.807373046875,38.75214264530662,1120.9484],[34.762597656250023,38.774774481244116,974.4265],[34.750683593750011,38.77802155155662,955.3143],[34.726464843750023,38.78070709843162,936.6147],[34.656982421875,38.77313873905662,987.9356],[34.63427734375,38.773700262494117,984.0063],[34.61328125,38.778924871869116,1007.5093],[34.593505859375,38.787616278119117,963.0636],[34.54248046875,38.821405340619116,1043.5134],[34.529199218750023,38.82807037968162,1016.1394],[34.36875,38.86322662968162,919.2109],[34.35546875,38.86871979374412,893.8007],[34.34619140625,38.877557684369116,911.0466],[34.32958984375,38.898944403119117,976.1154],[34.317138671875,38.90839264530662,931.8041],[34.274804687500023,38.92816803593162,913.5953],[34.234619140625,38.95551178593162,952.7554],[34.218994140625,38.96259186405662,949.9846],[34.202246093750006,38.96637604374412,920.9874],[34.194238281250023,38.96930573124412,899.5115],[34.187597656250006,38.97479889530662,877.7622],[34.184179687500006,38.98309967655662,877.6497],[34.182861328125,39.00079987186912,882.0359],[34.178417968750011,39.00910065311912,904.8768],[34.156347656250006,39.022577215619116,918.4785],[34.104248046875,39.028583074994117,884.9779],[34.079199218750006,39.03644440311912,882.7339],[34.022558593750006,39.06378815311912,920.9462],[33.991455078125,39.069452215619116,935.3435],[33.96142578125,39.06293366093162,864.7538],[33.94677734375,39.06989166874412,902.9708],[33.929785156250006,39.09149811405662,974.9124],[33.917724609375,39.10138580936912,922.0245],[33.901757812500023,39.10590241093162,928.6336],[33.845117187500023,39.10492584843162,923.7328],[33.809472656250023,39.10993073124412,928.5824],[33.6734375,39.17035553593162,848.0],[33.5419921875,39.27472565311912,900.0866],[33.518164062500006,39.298846746869117,969.7795],[33.504638671875,39.308710028119116,945.0286],[33.464941406250006,39.320184637494116,876.0626],[33.455468750000023,39.32684967655662,831.3078],[33.450878906250011,39.34149811405662,892.4769],[33.453222656250006,39.37274811405662,900.5266],[33.444726562500023,39.38739655155662,817.9454],[33.433691406250006,39.39301178593162,807.3078],[33.408105468750023,39.39948151249412,757.7607],[33.398535156250006,39.407342840619116,765.98],[33.395117187500006,39.42584869999412,739.9282],[33.4072265625,39.49518463749412,738.031],[33.406005859375,39.50372955936912,732.5864],[33.40380859375,39.51032135624412,731.3124],[33.403076171875,39.517938543744116,730.0773],[33.406005859375,39.52973053593162,739.5701],[33.420996093750006,39.55866119999412,733.9614],[33.4248046875,39.56891510624412,722.6696],[33.43310546875,39.60333893436912,720.0],[33.440185546875,39.619501043744116,720.0],[33.452392578125,39.63178131718162,720.0],[33.478271484375,39.63971588749412,726.7783],[33.48876953125,39.646356512494116,728.7761],[33.488867187500006,39.658807684369116,832.8625],[33.480859375000023,39.659540106244116,792.9294],[33.46142578125,39.669549871869116,751.5408],[33.4462890625,39.681170965619117,720.0],[33.451416015625,39.68671295780662,720.0],[33.463623046875,39.692499090619116,720.0],[33.473388671875,39.70697662968162,720.0],[33.479882812500023,39.725946356244116,781.5837],[33.485449218750006,39.779559637494117,728.626],[33.464453125,39.79682037968162,682.0352],[33.461669921875,39.80341217655662,705.2498],[33.464599609375,39.808465887494116,701.0511],[33.4794921875,39.817157293744117,675.0637],[33.482177734375,39.82453034061912,684.1582],[33.478759765625,39.82807037968162,693.775],[33.4638671875,39.837030340619116,674.1595],[33.443359375,39.85248444218162,694.9797],[33.428955078125,39.860126043744117,691.613],[33.418066406250006,39.871210028119116,669.3759],[33.413818359375,39.892840887494117,688.09],[33.41748046875,39.90863678593162,670.5991],[33.423925781250006,39.92084381718162,681.3832],[33.425195312500023,39.932733465619116,701.335],[33.413818359375,39.94745514530662,652.5],[33.431542968750023,39.96076080936912,651.5707],[33.44189453125,39.980975653119117,661.4444],[33.446875,40.005731512494116,684.3746],[33.451171875,40.063104559369116,667.579],[33.460693359375,40.083368231244116,752.7167],[33.477636718750006,40.09808991093162,670.6641],[33.544189453125,40.13483307499412,779.831],[33.5634765625,40.153094793744117,812.2969],[33.571533203125,40.17645905155662,607.3796],[33.574462890625,40.20050690311912,607.6159],[33.583398437500023,40.21954987186912,622.4903],[33.5986328125,40.235126043744117,724.0565],[33.619873046875,40.24909088749412,590.1751],[33.619873046875,40.25531647343162,633.7849],[33.612402343750006,40.25531647343162,598.2644],[33.612402343750006,40.26215241093162,610.8677],[33.620703125,40.26642487186912,592.5504],[33.6259765625,40.27265045780662,586.2804],[33.6279296875,40.280536199994117,584.1596],[33.626074218750006,40.290057684369117,591.0371],[33.638916015625,40.285760809369116,611.1965],[33.6513671875,40.29437897343162,580.4236],[33.65966796875,40.311053778119117,580.7845],[33.660253906250006,40.33100006718162,709.7695],[33.675878906250006,40.33063385624412,578.0102],[33.69970703125,40.33685944218162,572.0472],[33.715429687500006,40.33783600468162,570.8644],[33.754785156250023,40.33063385624412,593.1992],[33.824316406250006,40.33869049686912,559.7786],[33.852148437500006,40.34686920780662,559.0942],[33.865625,40.35895416874412,564.1899],[33.887451171875,40.35211823124412,554.9421],[33.911035156250023,40.35736725468162,553.8618],[33.934179687500006,40.35993073124412,570.1128],[33.955078125,40.34528229374412,549.8366],[33.98876953125,40.358270574994116,547.8054],[34.000244140625,40.366083074994116,546.7798],[34.009765625,40.37946198124412,544.563],[34.031982421875,40.40082428593162,542.7268],[34.036865234375,40.41132233280662,547.5226],[34.030175781250023,40.420428778119117,540.9856],[34.053955078125,40.43146393436912,539.918],[34.11279296875,40.48187897343162,609.1957],[34.120019531250023,40.47882721561912,563.1106],[34.121826171875,40.47638580936912,534.6224],[34.12265625,40.47662994999412,534.8322],[34.127050781250006,40.48187897343162,556.7438],[34.171875,40.480829168744116,531.8708],[34.199951171875,40.484881903119117,529.9365],[34.226953125000023,40.48432037968162,553.326],[34.240917968750011,40.486200262494116,526.2787],[34.269628906250006,40.49835846561912,523.6331],[34.35302734375,40.55280182499412,526.7577],[34.40478515625,40.56854889530662,571.0087],[34.452050781250023,40.59601471561912,555.2455],[34.4921875,40.61066315311912,530.5523]]}}