{"type":"Feature","properties":{"ISO3166-1-Alpha-3":"TUR","country":"Turkey","fill":"#FF0","id":"3008","name":"Ankara"},
"geometry":{"type": "Polygon","coordinates": [[[33.27139,40.33108,826.7944],[33.20555,40.37051,931.592],[33.19428,40.40482,1140.7688],[33.17258,40.43035,1168.9866],[33.14116,40.44438,1224.5845],[33.09817,40.47363,1821.3771],[33.08101,40.4796,1653.6555],[33.04339,40.50177,1496.2478],[33.01042,40.53058,1495.2428],[32.98737,40.56437,1380.3268],[32.95864,40.59401,1665.9166],[32.66512,40.6979,1609.9492],[32.58616,40.70759,1703.5111],[32.50709,40.70516,1540.7142],[32.47133,40.69392,1521.2476],[32.4427,40.67302,1481.3601],[32.43898,40.61899,1574.8029],[32.47671,40.53897,1281.8848],[32.45945,40.5159,1371.6322],[32.42389,40.48559,1137.1995],[32.39609,40.44828,1155.0421],[32.31537,40.41518,1086.7399],[32.17678,40.43128,1537.1288],[32.13492,40.42102,1674.9475],[32.09306,40.39888,1685.6018],[31.97513,40.3771,1550.4105],[31.90609,40.35335,1459.7759],[31.82145,40.33842,1144.0452],[31.69649,40.33999,683.9099],[31.65774,40.33614,749.7592],[31.56792,40.3085,799.5366],[31.53557,40.31162,791.2429],[31.50446,40.32105,905.9066],[31.47501,40.3241,899.9075],[31.45238,40.33201,934.2289],[31.41972,40.35966,1017.0937],[31.25094,40.34596,1091.2899],[31.16299,40.38694,1100.709],[31.06925,40.41133,1123.2721],[31.04392,40.38989,1262.8486],[31.03411,40.35242,1338.5314],[31.03824,40.29217,1089.6782],[31.00723,40.2416,745.7701],[30.92538,40.20574,825.1013],[30.86357,40.1428,600.9506],[30.90667,40.10058,389.4289],[30.91659,40.04086,359.0498],[30.92207,40.02001,750.1989],[30.94574,40.01464,895.2568],[30.98646,40.01652,858.0098],[31.08165,40.04812,421.1232],[31.13994,40.04355,892.3293],[31.16474,40.0313,1371.4385],[31.1911,40.02409,1460.6382],[31.21973,40.03913,856.9182],[31.24691,40.05771,419.9636],[31.33889,40.04828,384.0],[31.36411,40.05448,394.7825],[31.38912,40.05688,551.5812],[31.43077,40.02358,467.0],[31.45982,40.03006,470.4959],[31.49258,40.02205,497.7506],[31.53154,40.02911,468.2292],[31.6041,40.02999,467.0],[31.64027,40.04006,526.4846],[31.6812,40.01838,600.1875],[31.72698,40.02353,468.0162],[31.72605,39.99407,733.9364],[31.73866,39.9764,654.48],[31.743,39.95136,580.5179],[31.75696,39.92025,559.0464],[31.78228,39.89054,590.3137],[31.81163,39.87813,609.8069],[31.84501,39.87607,684.3854],[31.85245,39.86196,591.7922],[31.86713,39.84529,622.7222],[31.87953,39.83829,704.99],[31.8817,39.81178,770.8359],[31.84078,39.77576,994.5726],[31.84729,39.7259,831.1145],[31.897,39.62061,777.9186],[31.94692,39.58647,684.5676],[31.96118,39.56616,689.4545],[31.96511,39.5349,708.0603],[31.97947,39.51676,696.8137],[31.99115,39.49591,712.1418],[31.99053,39.46519,697.052],[31.98495,39.43511,706.0636],[31.97524,39.40493,702.7903],[31.97958,39.39196,704.4678],[31.98268,39.38649,705.4743],[31.9833,39.34824,713.111],[32.00428,39.32225,727.6467],[32.0358,39.30528,723.9323],[32.04273,39.27512,768.1978],[32.02361,39.25107,746.5357],[31.99994,39.23272,865.8778],[31.97803,39.23047,749.8821],[31.95612,39.22551,802.5829],[31.94847,39.21505,891.5306],[31.93834,39.20453,923.0168],[31.88532,39.18505,767.7515],[31.86145,39.17143,864.1882],[31.90475,39.15658,883.9532],[31.94816,39.13642,807.3347],[32.09058,39.04348,951.7546],[32.12696,39.03423,973.0565],[32.23207,39.05896,977.5549],[32.2823,39.06353,1077.2434],[32.36756,39.04129,1037.2479],[32.39971,39.02687,1060.1013],[32.43598,39.0,1032.0629],[32.47867,38.99715,1114.7405],[32.53799,39.0356,1102.5342],[32.60145,39.05839,1011.7791],[32.67607,39.03382,1077.3644],[32.72175,39.05441,1108.9041],[32.75793,39.09208,1021.823],[32.86004,39.1572,1404.3784],[32.908,39.14495,1180.4299],[32.96577,39.11051,1091.2078],[33.00908,39.10508,1022.6142],[33.02365,39.12361,1008.3085],[33.03212,39.17549,1120.0193],[33.04339,39.20208,1016.5799],[33.06241,39.22208,993.8182],[33.10478,39.2221,1056.4001],[33.14809,39.19678,1077.8748],[33.16607,39.18893,1133.0264],[33.22271,39.17523,1005.5996],[33.32058,39.11989,904.0],[33.37443,39.02255,904.0],[33.3796,38.96871,904.0],[33.37536,38.91458,902.5],[33.36378,38.8568,904.8267],[33.36616,38.79869,902.5],[33.38724,38.75797,904.3361],[33.41339,38.71968,902.5],[33.44491,38.68374,902.5],[33.46662,38.64358,902.5],[33.55354,38.66198,905.5452],[33.63539,38.6987,904.8493],[33.72242,38.71764,1197.2207],[33.81161,38.71541,1186.2629],[33.84975,38.73012,1166.0886],[33.93326,38.79226,1303.2708],[33.93656,38.85045,1208.6134],[33.89667,38.93499,1083.7599],[33.93005,39.00108,971.5286],[33.93739,39.03467,881.3596],[33.87528,39.0526,848.0],[33.86143,39.0633,848.0],[33.82877,39.07446,848.0],[33.77606,39.07772,848.0],[33.75559,39.08932,848.0],[33.73926,39.10893,848.0],[33.72541,39.11761,848.0],[33.70919,39.12299,848.0],[33.65751,39.15562,848.0],[33.54496,39.21091,848.0],[33.5245,39.26678,848.0],[33.44475,39.3874,817.9454],[33.40602,39.52973,739.5701],[33.37772,39.56806,875.848],[33.298,39.6428,1125.0013],[33.27309,39.7275,1204.5724],[33.30299,39.8122,918.5537],[33.3279,39.8969,762.2479],[33.37274,39.9816,1117.7463],[33.44687,40.00572,684.3746],[33.56207,40.01647,1180.3185],[33.57659,40.07357,1116.7155],[33.56853,40.13321,961.0853],[33.56853,40.20098,600.8741],[33.58206,40.2579,676.5096],[33.59519,40.33955,977.1088],[33.45969,40.37356,895.0451],[33.42952,40.38702,1063.417],[33.3982,40.39624,961.3244],[33.37794,40.39725,912.3569],[33.35996,40.39133,827.6661],[33.34921,40.36356,800.0515],[33.34466,40.338,771.4335],[33.27139,40.33108,826.7944]]]}}