{"type": "Feature","bbox": [29.4015,37.7946,29.666,38.0934],"geometry": {"type": "MultiPolygon","coordinates": [[[[29.666,37.9887,1469.9664],[29.6394,37.9948,1123.1654],[29.629,38.0004,1027.3853],[29.623,38.0064,1048.6851],[29.6139,38.0204,842.8269],[29.5953,38.0391,824.239],[29.588,38.0512,821.0215],[29.5802,38.0598,815.2543],[29.5531,38.0809,801.9631],[29.5286,38.0934,819.1997],[29.5308,38.0659,813.2208],[29.5298,38.0384,809.1855],[29.5274,38.0298,810.2382],[29.518,38.0134,813.6817],[29.5122,37.9949,818.6764],[29.4748,37.937,869.2969],[29.4669,37.9135,912.7294],[29.4372,37.8669,718.619],[29.4015,37.8303,517.3743],[29.4444,37.8147,645.4599],[29.4568,37.8058,609.3188],[29.4674,37.7946,706.6356],[29.4987,37.7984,831.7573],[29.5615,37.8226,804.8403],[29.5726,37.8319,826.6179],[29.6076,37.8883,1147.6027],[29.6162,37.8977,1221.5195],[29.627,37.9056,1188.842],[29.6366,37.91,1256.4249],[29.6654,37.9131,1463.5708],[29.666,37.9887,1469.9664]]]]}
,"properties": {"GID_2": "TUR.25.4_1","GID_0": "TUR","country": "Turkey","GID_1": "TUR.25_1","province": "Denizli","NL_NAME_1": "NA","county": "Baklan","VARNAME_2": "NA","NL_NAME_2": "NA","TYPE_2": "District","ENGTYPE_2": "District","CC_2": "NA","HASC_2": "TR.DN.BK","name": "Baklan.county","area_km2": 365.8193,"hist_schema_id": "Elevation0-9000","hist_area_km2": {"525": 1.055,"550": 2.2271,"575": 2.227,"600": 3.4158,"625": 5.9281,"650": 8.4398,"675": 9.7121,"700": 8.9748,"725": 8.1538,"750": 7.6343,"775": 8.0523,"800": 24.3832,"825": 53.9214,"850": 26.7339,"875": 24.1135,"900": 23.6142,"925": 20.3552,"950": 15.6567,"975": 12.7126,"1000": 11.006,"1025": 9.4171,"1050": 7.5271,"1075": 6.8415,"1100": 6.7915,"1125": 6.6744,"1150": 6.691,"1175": 5.6535,"1200": 4.4659,"1225": 3.8637,"1250": 2.2241,"1275": 1.5886,"1300": 1.7223,"1325": 1.137,"1350": 1.4045,"1375": 1.4881,"1400": 1.5046,"1425": 2.257,"1450": 2.2068,"1475": 2.9927,"1500": 3.2937,"1525": 2.8256,"1550": 2.5414,"1575": 1.0533,"1600": 0.8359,"1625": 0.5015}}}