{"type": "Feature","bbox": [33.5485,38.5427,34.067,38.7807],"geometry": {"type": "MultiPolygon","coordinates": [[[[33.8809,38.5427,1151.2058],[33.9156,38.5514,1094.5525],[33.9513,38.5658,1290.3773],[33.9997,38.6011,1200.2904],[34.0237,38.611,1324.0134],[34.0425,38.6227,1493.2395],[34.0593,38.6364,1770.8344],[34.0656,38.6456,1722.1213],[34.067,38.653,1551.5397],[34.0647,38.6651,1435.0242],[34.0478,38.6904,1366.6008],[34.025,38.7133,1352.655],[34.0103,38.7397,1368.7488],[33.9948,38.7465,1278.3552],[33.9719,38.7626,1375.3516],[33.9585,38.7695,1438.1798],[33.924,38.7807,1282.123],[33.9151,38.778,1260.2435],[33.887,38.7592,1197.0222],[33.8437,38.725,1183.2715],[33.829,38.7161,1296.5405],[33.822,38.7139,1230.2806],[33.8031,38.7122,1174.6132],[33.7083,38.7128,1010.8479],[33.6815,38.711,942.6498],[33.6602,38.7038,907.6375],[33.633,38.6985,904.8964],[33.5854,38.6799,905.8467],[33.5485,38.6682,905.4644],[33.5822,38.6478,905.6916],[33.609,38.636,905.8742],[33.6512,38.6048,905.4236],[33.6811,38.5909,906.1271],[33.7166,38.5662,906.9979],[33.7495,38.5528,909.3771],[33.7704,38.5495,911.6798],[33.8563,38.5492,1149.1562],[33.8703,38.5469,1125.7664],[33.8809,38.5427,1151.2058]]]]}
,"properties": {"GID_2": "TUR.5.1_1","GID_0": "TUR","country": "Turkey","GID_1": "TUR.5_1","province": "Aksaray","NL_NAME_1": "NA","county": "Ağaçören","VARNAME_2": "NA","NL_NAME_2": "NA","TYPE_2": "District","ENGTYPE_2": "District","CC_2": "NA","HASC_2": "TR.AK.AG","name": "Ağaçören.county","area_km2": 678.3677,"hist_schema_id": "Elevation0-9000","hist_area_km2": {"900": 131.1079,"925": 45.0868,"950": 17.3421,"975": 11.1285,"1000": 7.7162,"1025": 6.2271,"1050": 7.9001,"1075": 13.649,"1100": 20.905,"1125": 27.6631,"1150": 33.6397,"1175": 33.2399,"1200": 25.6846,"1225": 25.9962,"1250": 30.2475,"1275": 42.6928,"1300": 54.7447,"1325": 31.5111,"1350": 22.0401,"1375": 18.7621,"1400": 16.595,"1425": 13.2041,"1450": 9.0188,"1475": 6.14,"1500": 4.4027,"1525": 3.4266,"1550": 2.6323,"1575": 2.7482,"1600": 1.9868,"1625": 1.6557,"1650": 1.2087,"1675": 1.0763,"1700": 1.0432,"1725": 0.712,"1750": 0.6955,"1775": 0.5134,"1800": 0.5299,"1825": 0.4968,"1850": 0.3974,"1875": 0.414,"1900": 0.2981,"1925": 0.4306,"1950": 0.265,"1975": 0.265,"2000": 0.3146,"2025": 0.1822,"2050": 0.2318,"2075": 0.0994,"2100": 0.0828,"2125": 0.0166}}}