{"type":"Feature","properties":{"GID_2":"TUR.28.5_1","GID_0":"TUR","country":"Turkey","GID_1":"TUR.28_1","province":"Edirne","NL_NAME_1":"NA","county":"Lalapaşa","VARNAME_2":"NA","NL_NAME_2":"NA","TYPE_2":"District","ENGTYPE_2":"District","CC_2":"NA","HASC_2":"TR.ED.LA","name":"Lalapaşa.county"},
"geometry":{"type": "MultiPolygon","coordinates": [[[[26.5659,41.867,50.5428],[26.5663,41.8508,88.7974],[26.597,41.8406,103.1923],[26.6273,41.8342,151.2625],[26.6387,41.8276,153.0027],[26.6699,41.8035,170.9529],[26.6837,41.7947,143.867],[26.7168,41.7817,172.2049],[26.7413,41.774,153.3688],[26.7611,41.7915,153.8774],[26.7908,41.8145,199.0182],[26.8041,41.8227,223.0009],[26.8196,41.8283,222.2981],[26.8307,41.8342,254.7335],[26.9065,41.8911,355.4171],[26.9276,41.8996,281.6709],[26.9573,41.9168,342.0761],[26.9691,41.9186,274.6695],[26.9889,41.9179,294.89],[26.9836,41.9602,401.6107],[26.9754,41.9675,373.7508],[26.972,41.9777,417.4905],[26.9731,41.9916,462.1237],[26.9783,42.0044,409.3651],[26.9728,42.0058,452.1251],[26.9681,42.0021,468.5751],[26.9427,42.001,452.5299],[26.9181,41.9929,436.5445],[26.8998,41.9901,448.5778],[26.865,41.9874,498.5277],[26.8511,41.9798,485.0314],[26.8483,41.9748,512.5764],[26.8385,41.9694,531.6858],[26.7957,41.9743,423.0437],[26.7812,41.978,450.5284],[26.7601,41.9641,467.191],[26.7511,41.9545,434.1967],[26.7389,41.9577,459.2357],[26.7321,41.956,440.5527],[26.7233,41.9566,459.5944],[26.7135,41.9611,444.9879],[26.7014,41.9608,430.9229],[26.6887,41.9647,456.6642],[26.6644,41.9656,473.6685],[26.6445,41.9697,400.1421],[26.6283,41.9771,424.2111],[26.6234,41.9769,444.9064],[26.6198,41.9703,436.2736],[26.6195,41.9639,408.177],[26.5928,41.9513,299.4205],[26.5789,41.9415,242.2915],[26.5692,41.9275,132.5454],[26.571,41.9208,151.1199],[26.5792,41.914,155.1994],[26.5858,41.9052,109.7878],[26.5841,41.9004,103.6013],[26.5743,41.8903,52.4701],[26.573,41.887,114.1643],[26.5815,41.8781,75.428],[26.5659,41.867,50.5428]]]]}}