{"type": "Feature","bbox": [39.298,40.972,39.4051,41.1015],"geometry": {"type": "MultiPolygon","coordinates": [[[[39.4051,41.1015,8.3738],[39.3854,41.0879,4.2615],[39.3787,41.0857,0.0],[39.3707,41.0799,1.7119],[39.3676,41.0796,5.8399],[39.3679,41.0821,0.0],[39.3649,41.079,2.0453],[39.351,41.0718,5.1453],[39.3471,41.0713,0.0],[39.3321,41.0638,1.3655],[39.3257,41.0618,12.1629],[39.3182,41.0621,0.0],[39.298,41.0532,4.9049],[39.3235,41.0291,172.0342],[39.3681,40.994,851.9375],[39.3862,40.9812,992.14],[39.4033,40.972,1414.8335],[39.4034,41.0606,168.3996],[39.4051,41.1015,8.3738]]]]}
,"properties": {"GID_2": "TUR.75.5_1","GID_0": "TUR","country": "Turkey","GID_1": "TUR.75_1","province": "Trabzon","NL_NAME_1": "NA","county": "Çarşıbaşı","VARNAME_2": "NA","NL_NAME_2": "NA","TYPE_2": "District","ENGTYPE_2": "District","CC_2": "NA","HASC_2": "TR.TB.CB","name": "Çarşıbaşı.county","area_km2": 63.4886,"hist_schema_id": "Elevation0-9000","hist_area_km2": {"0": 1.67838,"25": 2.65351,"50": 2.82951,"75": 2.41397,"100": 1.95037,"125": 2.9097,"150": 2.82983,"175": 2.86188,"200": 2.63802,"225": 2.65422,"250": 2.22251,"275": 2.36639,"300": 2.44646,"325": 1.96687,"350": 2.15879,"375": 1.88704,"400": 1.63129,"425": 1.67936,"450": 1.64747,"475": 1.58354,"500": 1.61556,"525": 1.29572,"550": 1.27984,"575": 1.42383,"600": 1.1039,"625": 0.95997,"650": 1.02395,"675": 1.03998,"700": 0.89595,"725": 0.94402,"750": 0.89601,"775": 0.78398,"800": 0.688,"825": 0.72002,"850": 0.51202,"875": 0.62406,"900": 0.41604,"925": 0.30404,"950": 0.20803,"975": 0.25607,"1000": 0.30406,"1025": 0.19205,"1050": 0.09603,"1075": 0.14405,"1100": 0.08002,"1125": 0.09603,"1150": 0.14405,"1175": 0.016,"1200": 0.08003,"1225": 0.06402,"1250": 0.03201,"1275": 0.03201,"1300": 0.04802,"1325": 0.01601,"1350": 0.08004,"1375": 0.01601,"1400": 0.04802}}}