{"type": "Feature","bbox": [28.8808,38.0072,29.2291,38.2655],"geometry": {"type": "MultiPolygon","coordinates": [[[[29.1167,38.0072,778.3807],[29.182,38.0293,1158.1449],[29.1844,38.044,1127.5251],[29.1851,38.0805,947.5057],[29.1874,38.0952,950.3424],[29.2029,38.1214,638.218],[29.2263,38.1556,575.4553],[29.2291,38.1634,495.8281],[29.2287,38.1769,681.5476],[29.2213,38.1955,440.5],[29.1656,38.2136,522.027],[29.1116,38.2159,706.8452],[29.0967,38.218,708.4315],[29.0789,38.2243,707.3048],[29.0518,38.2297,739.6102],[29.034,38.236,745.1946],[29.0068,38.2414,781.1433],[28.9522,38.261,833.7321],[28.921,38.2655,881.666],[28.9014,38.2603,966.5699],[28.8808,38.2518,1070.076],[28.8872,38.2308,990.2771],[28.8978,38.2119,874.8108],[28.9013,38.1985,777.7714],[28.906,38.1886,714.1061],[28.9179,38.1699,785.6486],[28.9422,38.1447,885.4476],[28.9924,38.0648,313.4819],[29.0073,38.0461,445.6999],[29.0118,38.0432,477.6163],[29.0366,38.0373,721.4957],[29.1167,38.0072,778.3807]]]]}
,"properties": {"GID_2": "TUR.25.13_1","GID_0": "TUR","country": "Turkey","GID_1": "TUR.25_1","province": "Denizli","NL_NAME_1": "NA","county": "Güney","VARNAME_2": "NA","NL_NAME_2": "NA","TYPE_2": "District","ENGTYPE_2": "District","CC_2": "NA","HASC_2": "TR.DN.GU","name": "Güney.county","area_km2": 518.4089,"hist_schema_id": "Elevation0-9000","hist_area_km2": {"175": 1.4519,"200": 1.6854,"225": 1.6354,"250": 1.6521,"275": 5.1379,"300": 3.4368,"325": 3.5701,"350": 3.9203,"375": 4.304,"400": 4.4874,"425": 4.988,"450": 14.2041,"475": 7.988,"500": 7.9881,"525": 8.1549,"550": 8.5047,"575": 9.3725,"600": 9.5559,"625": 9.7238,"650": 10.2901,"675": 14.0403,"700": 17.9723,"725": 26.421,"750": 27.3389,"775": 26.5219,"800": 25.9874,"825": 32.8904,"850": 44.0595,"875": 35.4904,"900": 26.4117,"925": 32.124,"950": 16.227,"975": 10.3215,"1000": 9.5703,"1025": 9.7387,"1050": 9.9082,"1075": 8.1602,"1100": 7.1115,"1125": 7.8639,"1150": 3.2557,"1175": 3.2395,"1200": 1.7032}}}