{"type": "Feature","bbox": [27.8851,40.9635,28.1233,41.1508],"geometry": {"type": "MultiPolygon","coordinates": [[[[28.0573,41.1508,149.5328],[28.0192,41.1294,130.2984],[28.0041,41.1272,88.2737],[27.9732,41.1262,90.5557],[27.9594,41.1228,45.1002],[27.9499,41.116,82.7192],[27.9361,41.0991,116.5098],[27.9104,41.0868,90.9195],[27.8942,41.075,62.923],[27.8884,41.0677,101.3308],[27.8851,41.0558,98.7125],[27.8851,40.966,2.399],[27.8937,40.9649,0.0],[27.904,40.9688,29.244],[27.9226,40.9701,0.0],[27.9301,40.9674,4.4047],[27.9335,40.9635,0.0],[27.939,40.9649,3.4262],[27.9557,40.9637,0.0],[27.9624,40.9649,0.0],[27.9674,40.9679,2.0492],[27.9679,40.9701,0.0],[27.9585,40.9699,2.6137],[27.9562,40.9729,0.0],[27.9568,40.9768,0.8199],[27.966,40.9829,0.4554],[27.969,40.9832,0.6298],[27.9704,40.9815,0.0],[27.9762,40.9821,3.3072],[27.9813,40.9865,1.6257],[27.9821,40.9901,29.6577],[27.9871,40.9913,0.0],[27.9865,40.9938,0.0],[27.9843,40.9935,0.0],[27.9829,41.0026,0.0],[27.9857,41.0129,2.5622],[27.9929,41.0204,0.0],[27.9963,41.021,10.3744],[28.0018,41.0268,0.0],[28.0138,41.0343,5.3576],[28.0168,41.0343,1.5064],[28.0304,41.0412,9.3847],[28.0451,41.0418,0.0],[28.0713,41.0563,1.2098],[28.1099,41.061,0.44],[28.1233,41.0599,0.0],[28.0984,41.0926,16.9094],[28.0764,41.128,111.2704],[28.0573,41.1508,149.5328]]]]}
,"properties": {"GID_2": "TUR.73.5_1","GID_0": "TUR","country": "Turkey","GID_1": "TUR.73_1","province": "Tekirdag","NL_NAME_1": "NA","county": "Marmaraereğlisi","VARNAME_2": "NA","NL_NAME_2": "NA","TYPE_2": "District","ENGTYPE_2": "District","CC_2": "NA","HASC_2": "TR.TG.ME","name": "Marmaraereğlisi.county","area_km2": 218.3372,"hist_schema_id": "Elevation0-9000","hist_area_km2": {"0": 19.4982,"25": 39.1967,"50": 51.1832,"75": 54.8511,"100": 31.1824,"125": 8.1155,"150": 3.8812,"175": 3.4337,"200": 3.9127,"225": 2.5394,"250": 0.543}}}