{"type":"Feature","properties":{"GID_2":"TUR.75.11_1","GID_0":"TUR","country":"Turkey","GID_1":"TUR.75_1","province":"Trabzon","NL_NAME_1":"NA","county":"Maçka","VARNAME_2":"NA","NL_NAME_2":"NA","TYPE_2":"District","ENGTYPE_2":"District","CC_2":"NA","HASC_2":"TR.TB.MA","name":"Maçka.county"},
"geometry":{"type": "MultiPolygon","coordinates": [[[[39.778,40.6923,2139.5586],[39.7524,40.7323,2131.9663],[39.7479,40.7485,1744.9641],[39.7477,40.7694,1307.1577],[39.7497,40.785,1519.8213],[39.7596,40.8047,1318.5991],[39.7622,40.8137,1326.8463],[39.7657,40.8672,822.2357],[39.7169,40.8826,502.0372],[39.6785,40.8875,387.0647],[39.6542,40.8944,413.2711],[39.6411,40.8932,657.7437],[39.5988,40.8787,865.4211],[39.5894,40.8675,1088.3579],[39.5733,40.8553,1709.0354],[39.5368,40.8411,1911.924],[39.5095,40.836,1726.4988],[39.4917,40.8296,1841.744],[39.4582,40.8259,1832.5918],[39.4203,40.8162,1838.3416],[39.3668,40.8163,1726.8943],[39.3591,40.8059,1919.9359],[39.3427,40.7921,1650.7928],[39.3295,40.784,1636.1118],[39.3087,40.7763,1376.9087],[39.2866,40.7613,1487.5605],[39.2742,40.7501,1841.3846],[39.2706,40.7449,1755.181],[39.2676,40.7339,1809.89],[39.2684,40.7051,2113.7632],[39.2767,40.6937,2149.5688],[39.286,40.6847,2117.0535],[39.3018,40.6726,2138.7026],[39.3135,40.6662,1816.0557],[39.3438,40.655,1560.7347],[39.3711,40.65,1883.8566],[39.4188,40.6318,2375.9243],[39.4461,40.6267,2417.4011],[39.4672,40.6194,2537.1064],[39.4912,40.6151,2589.7432],[39.5459,40.5936,2562.626],[39.5693,40.5906,2470.6555],[39.6406,40.5624,2520.0796],[39.6578,40.5592,2820.9548],[39.6761,40.5593,2692.8174],[39.6898,40.5621,2964.1421],[39.7192,40.574,2366.4292],[39.7281,40.5815,2435.2217],[39.732,40.5888,2392.2107],[39.7366,40.6045,2506.6177],[39.7457,40.621,2347.072],[39.7512,40.6396,2395.4556],[39.7605,40.656,2386.167],[39.7663,40.6745,1919.2173],[39.778,40.6923,2139.5586]]]]}}