{"type": "Feature","bbox": [38.0219,37.4106,38.5101,37.9294],"geometry": {"type": "MultiPolygon","coordinates": [[[[38.1772,37.4106,381.0],[38.2288,37.4338,464.7129],[38.2587,37.4549,416.7866],[38.2704,37.4614,451.3542],[38.3305,37.4844,537.0],[38.359,37.488,537.0],[38.3599,37.5585,537.0],[38.3636,37.5698,537.0],[38.3753,37.5882,537.0],[38.3809,37.5946,537.0],[38.391,37.6011,537.0],[38.4364,37.6182,601.0574],[38.4581,37.629,558.5288],[38.47,37.651,617.6738],[38.4914,37.6741,538.5438],[38.4989,37.695,537.0],[38.5082,37.7114,594.954],[38.5101,37.7281,565.5308],[38.5082,37.7392,554.361],[38.4989,37.7556,592.1431],[38.4918,37.7766,655.4152],[38.4675,37.8165,796.15],[38.4648,37.8465,680.8617],[38.4628,37.8552,710.1392],[38.4584,37.8626,731.8293],[38.4503,37.8708,783.1164],[38.4336,37.8742,827.7939],[38.4119,37.8842,1067.4954],[38.4063,37.89,1061.7375],[38.3975,37.9057,1301.1724],[38.3472,37.9257,1263.7312],[38.3287,37.929,1116.4944],[38.3126,37.9294,1055.4315],[38.2267,37.9289,1487.1021],[38.2151,37.9275,1393.4027],[38.1937,37.9208,1468.7249],[38.1665,37.9153,1555.7578],[38.1486,37.9087,1800.28],[38.1101,37.9042,1183.9481],[38.0885,37.8971,1278.6052],[38.0749,37.8944,1098.2456],[38.0755,37.8487,971.3918],[38.0786,37.8373,964.4915],[38.0877,37.8211,759.5692],[38.0883,37.8075,864.4668],[38.083,37.7972,726.5038],[38.0627,37.777,696.2922],[38.0478,37.7537,695.1309],[38.0454,37.745,691.3512],[38.0421,37.7121,522.001],[38.0328,37.6954,665.5656],[38.0219,37.6702,609.6709],[38.0495,37.6566,591.1195],[38.0632,37.6468,579.8084],[38.072,37.6376,598.4891],[38.0851,37.6165,485.091],[38.0885,37.6059,502.6159],[38.0901,37.5775,524.7991],[38.0935,37.567,566.8286],[38.1107,37.5413,517.0682],[38.1446,37.5116,468.9788],[38.1611,37.4859,456.0582],[38.1667,37.4674,493.4277],[38.1777,37.4457,475.9011],[38.179,37.4315,465.95],[38.1772,37.4106,381.0]]]]}
,"properties": {"GID_2": "TUR.2.6_1","GID_0": "TUR","country": "Turkey","GID_1": "TUR.2_1","province": "Adiyaman","NL_NAME_1": "NA","county": "Merkez","VARNAME_2": "Adiyaman","NL_NAME_2": "NA","TYPE_2": "District","ENGTYPE_2": "District","CC_2": "NA","HASC_2": "TR.AD.AD","name": "Merkez.county","area_km2": 1592.133,"hist_schema_id": "Elevation0-9000","hist_area_km2": {"375": 4.157,"400": 6.329,"425": 17.665,"450": 20.854,"475": 26.257,"500": 31.869,"525": 213.309,"550": 93.933,"575": 123.965,"600": 151.795,"625": 120.446,"650": 112.407,"675": 89.037,"700": 73.079,"725": 50.678,"750": 39.931,"775": 29.106,"800": 23.623,"825": 22.396,"850": 17.268,"875": 13.648,"900": 15.121,"925": 15.656,"950": 17.464,"975": 16.123,"1000": 15.503,"1025": 16.088,"1050": 13.175,"1075": 13.123,"1100": 12.521,"1125": 13.909,"1150": 14.042,"1175": 13.623,"1200": 12.786,"1225": 11.313,"1250": 12.684,"1275": 12.868,"1300": 10.809,"1325": 9.906,"1350": 9.454,"1375": 8.835,"1400": 8.065,"1425": 6.375,"1450": 5.706,"1475": 4.501,"1500": 4.133,"1525": 3.012,"1550": 2.727,"1575": 2.242,"1600": 1.924,"1625": 1.824,"1650": 1.606,"1675": 1.389,"1700": 1.021,"1725": 0.402,"1750": 0.167,"1775": 0.117,"1800": 0.134,"1825": 0.033}}}