{"type":"Feature","properties":{"GID_2":"TUR.21.17_1","GID_0":"TUR","country":"Turkey","GID_1":"TUR.21_1","province":"Bursa","NL_NAME_1":"NA","county":"Yıldırım","VARNAME_2":"NA","NL_NAME_2":"NA","TYPE_2":"District","ENGTYPE_2":"District","CC_2":"NA","HASC_2":"TR.BU.BY","name":"Yıldırım.county"},
"geometry":{"type": "MultiPolygon","coordinates": [[[[29.0646,40.2462,89.0159],[29.053,40.2209,90.7224],[29.0448,40.2115,98.1046],[29.0408,40.1973,132.3441],[29.0397,40.1724,621.0038],[29.0438,40.1581,819.7331],[29.0573,40.1372,1138.8732],[29.0703,40.1236,1304.4182],[29.099,40.1472,1332.5945],[29.1279,40.1644,727.9261],[29.142,40.1837,208.4007],[29.1442,40.1919,153.3828],[29.1449,40.2061,106.3325],[29.1311,40.2085,105.8401],[29.0981,40.221,92.9212],[29.0851,40.2293,89.6703],[29.0646,40.2462,89.0159]]]]}}