{"type": "Feature","bbox": [36.8468,39.2605,37.3576,39.5926],"geometry": {"type": "MultiPolygon","coordinates": [[[[36.9891,39.2605,1662.9409],[36.9991,39.2617,1661.6807],[37.0259,39.2705,1616.5225],[37.0524,39.2836,1624.0808],[37.0569,39.2934,1653.5542],[37.0572,39.338,1535.0459],[37.0611,39.3519,1469.4823],[37.0745,39.3729,1446.5889],[37.081,39.3801,1473.2822],[37.139,39.4249,2093.5715],[37.1483,39.4299,2026.2985],[37.1786,39.441,2145.9761],[37.2176,39.4453,1763.8448],[37.2389,39.4523,1915.6791],[37.2661,39.4575,1641.7942],[37.3409,39.4863,1972.4336],[37.3576,39.4899,1938.5601],[37.3545,39.5005,2043.8435],[37.3417,39.5144,1783.7061],[37.3265,39.5226,1684.4167],[37.3159,39.5245,1618.0581],[37.2723,39.5265,1461.4659],[37.2386,39.5385,1392.531],[37.2239,39.5473,1368.5471],[37.1827,39.5782,1340.4965],[37.1499,39.5914,1339.7344],[37.1435,39.5926,1343.709],[37.1367,39.5926,1348.6733],[37.1128,39.5852,1341.0851],[37.0981,39.5835,1350.7817],[37.0207,39.5835,1393.3306],[37.0019,39.582,1438.4192],[36.9923,39.5791,1450.395],[36.971,39.5688,1385.3682],[36.9552,39.5475,1396.66],[36.9476,39.5239,1548.6091],[36.9194,39.4795,1598.8759],[36.9107,39.4702,1489.619],[36.8664,39.4336,1471.4116],[36.8513,39.4101,1504.1656],[36.8468,39.3971,1534.819],[36.8606,39.3947,1644.7699],[36.8909,39.3836,1674.8242],[36.9019,39.3775,1676.3247],[36.9138,39.3679,1596.5344],[36.9194,39.3614,1546.2333],[36.9694,39.2815,1840.4497],[36.9891,39.2605,1662.9409]]]]}
,"properties": {"GID_2": "TUR.72.15_1","GID_0": "TUR","country": "Turkey","GID_1": "TUR.72_1","province": "Sivas","NL_NAME_1": "NA","county": "Ulaş","VARNAME_2": "NA","NL_NAME_2": "NA","TYPE_2": "District","ENGTYPE_2": "District","CC_2": "NA","HASC_2": "TR.SV.UL","name": "Ulaş.county","area_km2": 733.4849,"hist_schema_id": "Elevation0-9000","hist_area_km2": {"1325": 8.9554,"1350": 48.4795,"1375": 72.1919,"1400": 59.7887,"1425": 59.4859,"1450": 58.0878,"1475": 49.5964,"1500": 48.8202,"1525": 54.8472,"1550": 51.2764,"1575": 35.3858,"1600": 24.4699,"1625": 20.2134,"1650": 17.7446,"1675": 15.6481,"1700": 12.5823,"1725": 11.0412,"1750": 10.3843,"1775": 10.4477,"1800": 10.2671,"1825": 9.6616,"1850": 8.3029,"1875": 6.567,"1900": 4.9777,"1925": 3.9785,"1950": 3.1925,"1975": 2.8973,"2000": 2.2916,"2025": 1.7515,"2050": 1.6698,"2075": 1.4406,"2100": 1.5226,"2125": 1.5389,"2150": 1.3916,"2175": 1.0314,"2200": 0.966,"2225": 0.3766,"2250": 0.2129}}}