{"type": "Feature","bbox": [33.9655,39.9049,34.672,40.5041],"geometry": {"type": "MultiPolygon","coordinates": [[[[33.9655,40.2608,795.5469],[33.9689,40.255,923.3196],[33.9755,40.2508,1000.1252],[34.016,40.2405,838.0038],[34.0545,40.2354,594.5649],[34.0812,40.2228,607.371],[34.0854,40.2133,576.1132],[34.0879,40.183,662.0927],[34.0978,40.1638,677.152],[34.1018,40.139,665.6652],[34.1054,40.1311,694.201],[34.1253,40.1107,690.5085],[34.1498,40.0734,703.2452],[34.1592,40.0663,667.1111],[34.1836,40.0563,690.6524],[34.196,40.0469,743.0507],[34.1988,40.0424,755.2955],[34.1974,40.0352,736.7473],[34.1914,40.0302,707.2238],[34.1711,40.0222,699.9385],[34.1348,39.9982,748.1083],[34.1042,39.9841,711.9097],[34.066,39.9551,723.6313],[34.0595,39.948,662.2656],[34.0558,39.94,663.0283],[34.0543,39.9049,661.8475],[34.0863,39.9204,845.6732],[34.1247,39.9252,1099.1282],[34.154,39.9335,1256.3066],[34.1787,39.9348,1132.2712],[34.2547,39.9345,1218.155],[34.2789,39.9371,1339.7517],[34.2969,39.9432,1413.0066],[34.3207,39.9477,1479.3318],[34.3464,39.9581,1434.2861],[34.37,39.976,1328.8741],[34.3805,39.9865,1349.2233],[34.3871,39.9898,1455.5481],[34.4068,39.993,1408.4766],[34.4603,39.9919,1449.6677],[34.46,40.0612,1313.5027],[34.462,40.07,1349.1792],[34.4679,40.078,1296.4094],[34.4739,40.0821,1145.5544],[34.4847,40.0853,1033.99],[34.5269,40.0873,969.0337],[34.5561,40.0952,892.2221],[34.5909,40.0987,938.8126],[34.6018,40.102,963.4233],[34.619,40.1105,1028.4006],[34.623,40.1147,1055.3733],[34.6251,40.1198,1064.5217],[34.6298,40.1423,1199.074],[34.6651,40.1866,1164.7108],[34.6694,40.1942,1186.0936],[34.6717,40.2061,1167.3336],[34.672,40.2152,1147.0013],[34.6691,40.2331,1094.4854],[34.662,40.2431,1060.4532],[34.6483,40.2564,1068.5884],[34.6427,40.2666,1017.9645],[34.6418,40.2836,1109.6639],[34.646,40.3006,1095.8535],[34.5975,40.3091,1205.0247],[34.5674,40.3205,1238.6323],[34.5541,40.3283,1213.1456],[34.5386,40.3417,1226.329],[34.4022,40.3417,990.3768],[34.3872,40.344,1003.5794],[34.3805,40.3467,1056.829],[34.3619,40.3607,1069.5981],[34.3572,40.3686,1153.7225],[34.356,40.3769,1235.5349],[34.3577,40.3852,1139.7635],[34.3629,40.393,1096.277],[34.3926,40.4164,996.7689],[34.3985,40.4237,1012.2688],[34.3996,40.4318,949.3818],[34.3974,40.4369,857.3223],[34.391,40.4428,726.6217],[34.3818,40.4466,744.9426],[34.3566,40.4478,636.874],[34.3397,40.4436,708.9954],[34.3292,40.4338,774.9258],[34.324,40.4157,740.7522],[34.3195,40.4088,812.5284],[34.31,40.4018,879.6213],[34.2898,40.3946,781.9582],[34.2812,40.393,706.0377],[34.2753,40.3938,761.6262],[34.2486,40.403,752.7436],[34.2369,40.4103,768.9375],[34.2272,40.4191,853.7267],[34.2225,40.427,860.1893],[34.2213,40.4353,777.6137],[34.225,40.4485,700.2191],[34.2486,40.4845,526.1211],[34.2353,40.4914,544.2053],[34.2113,40.5008,671.2495],[34.1984,40.5041,622.5728],[34.1807,40.5035,576.8435],[34.1564,40.4956,549.0916],[34.1312,40.4935,632.7583],[34.1345,40.4829,555.4518],[34.144,40.4666,536.6505],[34.1497,40.4481,606.6837],[34.1593,40.4317,568.9087],[34.161,40.4121,541.669],[34.1569,40.3988,543.6732],[34.1115,40.3294,555.5336],[34.0994,40.3209,565.6608],[34.0538,40.3035,745.8075],[34.0275,40.2877,672.7039],[33.9818,40.2701,702.2629],[33.9655,40.2608,795.5469]]]]}
,"properties": {"GID_2": "TUR.24.13_1","GID_0": "TUR","country": "Turkey","GID_1": "TUR.24_1","province": "Çorum","NL_NAME_1": "NA","county": "Sungurlu","VARNAME_2": "NA","NL_NAME_2": "NA","TYPE_2": "District","ENGTYPE_2": "District","CC_2": "NA","HASC_2": "TR.CM.SU","name": "Sungurlu.county","area_km2": 1993.543,"hist_schema_id": "Elevation0-9000","hist_area_km2": {"525": 13.208,"550": 29.13,"575": 61.374,"600": 54.92,"625": 63.248,"650": 80.18,"675": 93.737,"700": 99.243,"725": 100.868,"750": 103.93,"775": 88.911,"800": 82.707,"825": 74.878,"850": 74.574,"875": 76.231,"900": 71.455,"925": 66.855,"950": 67.018,"975": 65.813,"1000": 61.015,"1025": 58.842,"1050": 52.361,"1075": 46.782,"1100": 43.943,"1125": 40.736,"1150": 39.744,"1175": 38.494,"1200": 35.595,"1225": 27.497,"1250": 21.832,"1275": 19.759,"1300": 19.21,"1325": 18.666,"1350": 18.442,"1375": 17.003,"1400": 15.854,"1425": 13.039,"1450": 10.14,"1475": 8.439,"1500": 6.46,"1525": 4.336,"1550": 3.037,"1575": 1.851,"1600": 1.38,"1625": 0.682,"1650": 0.13}}}