{"type": "Feature","bbox": [36.1432,40.1658,36.4125,40.2885],"geometry": {"type": "MultiPolygon","coordinates": [[[[36.4125,40.1956,1398.6038],[36.4104,40.2086,1424.0887],[36.3999,40.2308,1632.0688],[36.3962,40.2669,1059.6414],[36.3857,40.2885,727.1688],[36.3522,40.2724,1052.7074],[36.3224,40.2619,1054.0842],[36.309,40.2619,898.3467],[36.2917,40.2678,688.5886],[36.2773,40.2702,587.3024],[36.2266,40.271,541.6496],[36.2041,40.2685,546.8447],[36.1737,40.2575,575.4996],[36.1645,40.2528,597.6437],[36.1536,40.2448,664.3561],[36.1471,40.2378,731.1161],[36.1436,40.2297,880.05],[36.1432,40.2214,1145.9312],[36.1455,40.2133,1249.9871],[36.1606,40.1906,1332.1266],[36.2092,40.188,1370.9188],[36.2381,40.1796,1288.8412],[36.2689,40.1761,1236.6104],[36.3056,40.1663,1298.1057],[36.3174,40.1658,1244.5687],[36.3368,40.1681,1286.962],[36.3844,40.1867,1346.4207],[36.4125,40.1956,1398.6038]]]]}
,"properties": {"GID_2": "TUR.74.7_1","GID_0": "TUR","country": "Turkey","GID_1": "TUR.74_1","province": "Tokat","NL_NAME_1": "NA","county": "Pazar","VARNAME_2": "NA","NL_NAME_2": "NA","TYPE_2": "District","ENGTYPE_2": "District","CC_2": "NA","HASC_2": "TR.TT.PA","name": "Pazar.county","area_km2": 211.3091,"hist_schema_id": "Elevation0-9000","hist_area_km2": {"550": 3.9637,"575": 6.4881,"600": 5.2427,"625": 3.9323,"650": 3.1718,"675": 2.7511,"700": 2.3304,"725": 2.0229,"750": 2.4275,"775": 2.1362,"800": 2.0391,"825": 2.4113,"850": 2.5409,"875": 2.2496,"900": 2.638,"925": 2.7027,"950": 3.0264,"975": 3.3018,"1000": 3.6414,"1025": 4.0624,"1050": 4.9687,"1075": 5.6968,"1100": 5.1794,"1125": 4.9692,"1150": 4.8398,"1175": 4.9049,"1200": 4.9049,"1225": 5.0671,"1250": 6.9136,"1275": 9.2141,"1300": 10.1373,"1325": 9.8621,"1350": 9.5055,"1375": 9.6836,"1400": 7.9672,"1425": 8.3395,"1450": 6.4449,"1475": 5.0199,"1500": 3.9186,"1525": 3.2221,"1550": 2.121,"1575": 1.7648,"1600": 1.7324,"1625": 1.5867,"1650": 1.7324,"1675": 1.8619,"1700": 1.5057,"1725": 1.3762,"1750": 1.1657,"1775": 1.1333,"1800": 0.5505,"1825": 0.4533,"1850": 0.259,"1875": 0.1619,"1900": 0.0648}}}