{"type": "Feature","bbox": [28.268,36.9379,28.7154,37.1802],"geometry": {"type": "MultiPolygon","coordinates": [[[[28.7154,37.15,959.5233],[28.7041,37.17,938.3745],[28.6955,37.1773,1067.2426],[28.6775,37.1802,995.2784],[28.6285,37.18,974.068],[28.5988,37.1772,930.6504],[28.5475,37.1582,920.98],[28.5012,37.1551,770.4349],[28.4686,37.146,914.3026],[28.449,37.1448,910.0252],[28.3926,37.1452,817.9741],[28.3734,37.1426,817.2161],[28.361,37.1363,642.7375],[28.3531,37.1302,770.3337],[28.3464,37.1233,626.2366],[28.3367,37.1089,642.4822],[28.3156,37.0856,897.1417],[28.3126,37.0747,671.9344],[28.312,37.0634,269.8924],[28.3243,37.051,4.4257],[28.3237,37.0496,0.0],[28.3265,37.0493,0.5947],[28.3304,37.0337,0.1868],[28.3299,37.0299,0.0711],[28.326,37.026,2.5822],[28.3213,37.0257,0.0],[28.3193,37.0226,7.8853],[28.3099,37.0251,19.6687],[28.3062,37.0213,16.4565],[28.3001,37.0229,16.2393],[28.2976,37.0213,61.6036],[28.2924,37.0215,3.7484],[28.2907,37.0187,78.239],[28.2787,37.0196,1.9482],[28.268,37.016,0.6582],[28.2883,36.999,280.5065],[28.2995,36.983,126.3633],[28.3079,36.9753,204.5412],[28.3282,36.9665,439.9342],[28.3579,36.9491,265.9194],[28.3946,36.9379,565.9014],[28.4079,36.9622,517.4431],[28.4317,36.982,338.6167],[28.4452,36.9902,222.509],[28.4908,37.007,88.2132],[28.5009,37.0136,84.8859],[28.5267,37.0529,216.931],[28.5494,37.0758,424.6426],[28.5715,37.1112,736.8129],[28.5821,37.1217,594.72],[28.5994,37.1351,553.377],[28.6107,37.1414,664.0519],[28.6215,37.1441,890.7711],[28.6948,37.1449,980.9471],[28.7091,37.1468,982.7495],[28.7154,37.15,959.5233]]]]}
,"properties": {"GID_2": "TUR.59.11_1","GID_0": "TUR","country": "Turkey","GID_1": "TUR.59_1","province": "Mugla","NL_NAME_1": "NA","county": "Ula","VARNAME_2": "NA","NL_NAME_2": "NA","TYPE_2": "District","ENGTYPE_2": "District","CC_2": "NA","HASC_2": "TR.MG.UL","name": "Ula.county","area_km2": 430.6438,"hist_schema_id": "Elevation0-9000","hist_area_km2": {"0": 18.9557,"25": 7.0745,"50": 7.9039,"75": 18.127,"100": 26.8816,"125": 14.6247,"150": 14.4558,"175": 13.6264,"200": 11.7138,"225": 11.1891,"250": 8.6496,"275": 7.6509,"300": 7.9215,"325": 7.8707,"350": 7.1935,"375": 7.0931,"400": 8.007,"425": 7.1267,"450": 6.0936,"475": 6.3971,"500": 6.177,"525": 5.5838,"550": 5.5657,"575": 6.2243,"600": 15.9467,"625": 14.9476,"650": 14.3716,"675": 12.0046,"700": 13.9652,"725": 16.4826,"750": 14.1836,"775": 9.9567,"800": 10.7672,"825": 10.6317,"850": 10.1073,"875": 10.4277,"900": 8.6022,"925": 8.3994,"950": 5.5765,"975": 4.0723,"1000": 2.6359,"1025": 2.4163,"1050": 1.3518,"1075": 0.9801,"1100": 0.4394,"1125": 0.1014,"1150": 0.1014,"1175": 0.0507,"1200": 0.0169}}}