{"type":"Feature","properties":{"GID_2":"TUR.45.6_1","GID_0":"TUR","country":"Turkey","GID_1":"TUR.45_1","province":"Kars","NL_NAME_1":"NA","county":"Sarıkamış","VARNAME_2":"NA","NL_NAME_2":"NA","TYPE_2":"District","ENGTYPE_2":"District","CC_2":"NA","HASC_2":"TR.KA.SA","name":"Sarıkamış.county"},
"geometry":{"type": "MultiPolygon","coordinates": [[[[42.7724,39.936,2450.8518],[42.7826,39.9622,2369.3208],[42.7975,39.9856,1981.2146],[42.8063,39.9949,1849.4167],[42.8462,40.0268,1949.5078],[42.8541,40.0362,1675.2716],[42.866,40.0547,1618.808],[42.8698,40.0657,1340.0057],[42.8703,40.102,2028.5522],[42.867,40.1135,2187.2197],[42.8452,40.1364,2381.1355],[42.8297,40.1597,2656.5056],[42.8227,40.1806,2841.8013],[42.8115,40.2023,2885.8811],[42.8104,40.2135,2678.2197],[42.8117,40.2246,2458.6277],[42.8238,40.2489,2261.6111],[42.8278,40.2802,2119.1042],[42.7968,40.2749,2286.5718],[42.7543,40.2587,2378.0544],[42.7481,40.259,2429.7546],[42.7405,40.2629,2513.1982],[42.7352,40.2723,2708.7354],[42.7357,40.2831,2525.8718],[42.7376,40.2884,2592.2947],[42.7633,40.3249,2614.145],[42.774,40.3452,2423.3135],[42.7734,40.3518,2363.1211],[42.7687,40.3629,2120.2419],[42.7655,40.3847,1968.5601],[42.7611,40.3949,1935.6177],[42.7546,40.4007,1916.287],[42.7285,40.4128,1927.9246],[42.6927,40.4371,2032.3927],[42.6595,40.4499,2030.1055],[42.6356,40.4542,2042.9294],[42.6145,40.4615,1970.282],[42.5857,40.4641,1997.155],[42.5383,40.4642,2343.4958],[42.5394,40.4497,2236.7827],[42.5365,40.4391,2367.4907],[42.5214,40.4162,2632.4648],[42.5092,40.4077,2714.4268],[42.2718,40.3163,2134.333],[42.2618,40.314,2252.9231],[42.2297,40.311,2370.9023],[42.2085,40.3039,2307.8726],[42.1846,40.2995,2373.5068],[42.1635,40.2922,2380.8169],[42.1498,40.2896,2324.8977],[42.1461,40.2793,2393.1189],[42.1382,40.2658,2345.918],[42.1381,40.2553,2430.5295],[42.1674,40.209,2011.5265],[42.1878,40.188,1981.8308],[42.2009,40.1701,2050.271],[42.2112,40.1638,1979.5256],[42.2381,40.1586,1918.0565],[42.2559,40.1523,1975.666],[42.2949,40.148,2085.4082],[42.3161,40.1409,1874.7595],[42.3515,40.1372,1743.6576],[42.3675,40.1315,1672.1241],[42.4122,40.0983,1624.4653],[42.4365,40.0879,1841.514],[42.4476,40.0812,2065.8901],[42.499,40.0412,2034.6],[42.507,40.0323,2221.354],[42.5292,39.997,2387.2798],[42.5517,39.9741,1932.6862],[42.5664,39.9476,2432.2717],[42.6006,39.9305,2183.5769],[42.6277,39.9201,2685.0286],[42.6502,39.9166,2511.085],[42.7109,39.9177,2498.0601],[42.7396,39.9262,2421.1584],[42.7596,39.9303,2346.4009],[42.7724,39.936,2450.8518]]]]}}