{"type":"Feature","properties":{"GID_2":"TUR.46.1_1","GID_0":"TUR","country":"Turkey","GID_1":"TUR.46_1","province":"Kastamonu","NL_NAME_1":"NA","county":"Abana","VARNAME_2":"NA","NL_NAME_2":"NA","TYPE_2":"District","ENGTYPE_2":"District","CC_2":"NA","HASC_2":"TR.KS.AB","name":"Abana.county"},
"geometry":{"type": "MultiPolygon","coordinates": [[[[34.0142,41.981,0.1705],[33.9768,41.9793,5.6263],[33.9685,41.981,0.0],[33.9629,41.9765,28.6828],[33.956,41.9768,9.7575],[33.9457,41.974,2.2615],[33.9296,41.9751,6.6382],[33.9217,41.9732,14.1552],[33.9265,41.9616,358.8889],[33.9413,41.9382,539.9726],[33.9478,41.9321,271.3754],[33.9558,41.928,480.6373],[33.9761,41.9251,588.9546],[34.0469,41.9253,316.2859],[34.041,41.9477,405.6091],[34.0142,41.981,0.1705]]]]}}