{"type":"Feature","properties":{"GID_2":"TUR.66.8_1","GID_0":"TUR","country":"Turkey","GID_1":"TUR.66_1","province":"Sakarya","NL_NAME_1":"NA","county":"Kocaali","VARNAME_2":"NA","NL_NAME_2":"NA","TYPE_2":"District","ENGTYPE_2":"District","CC_2":"NA","HASC_2":"TR.SK.KO","name":"Kocaali.county"},
"geometry":{"type": "MultiPolygon","coordinates": [[[[30.9759,41.0726,0.7197],[30.9132,41.0724,1.8249],[30.8624,41.0754,6.5522],[30.8532,41.0776,0.0],[30.8391,41.0785,5.1581],[30.8437,41.0576,37.2254],[30.8438,41.0461,71.119],[30.840699999999998,41.0323,173.6937],[30.8254,41.0091,304.8328],[30.8105,40.993899999999996,317.5244],[30.8054,40.9848,357.7753],[30.8125,40.9637,578.9941],[30.8134,40.9394,696.8983],[30.8103,40.9276,718.0106],[30.7989,40.9127,586.6987],[30.8017,40.9045,751.535],[30.8094,40.8949,915.8615],[30.826,40.8836,564.6337],[30.837,40.8807,547.8014],[30.8967,40.8804,309.0289],[30.9039,40.8931,619.0103],[30.911,40.9003,333.821],[30.9322,40.9116,301.8547],[30.9473,40.917,202.8597],[30.958,40.9228,302.3151],[31.0087,40.9615,464.5619],[31.0134,40.9744,318.3627],[31.0348,41.006,596.9515],[31.0363,41.0163,548.3904],[31.0339,41.0212,462.5477],[31.0277,41.0268,259.2605],[31.008,41.0352,40.0273],[30.9986,41.042,8.0189],[30.9759,41.0726,0.7197]]]]}}