{"type":"Feature","properties":{"GID_2":"TUR.40.6_1","GID_0":"TUR","country":"Turkey","GID_1":"TUR.40_1","province":"Istanbul","NL_NAME_1":"NA","county":"Bahçelievler","VARNAME_2":"NA","NL_NAME_2":"NA","TYPE_2":"District","ENGTYPE_2":"District","CC_2":"NA","HASC_2":"TR.IB.BC","name":"Bahçelievler.county"},
"geometry":{"type": "MultiPolygon","coordinates": [[[[28.8087,41.028,19.2032],[28.8059,41.0222,19.5473],[28.8056,41.0138,19.3074],[28.8024,41.0109,64.6264],[28.8177,40.9997,11.4351],[28.8424,40.9997,39.0478],[28.8475,41.0018,18.3285],[28.8627,41.0023,66.5368],[28.8735,41.009,70.2114],[28.8727,41.018,47.206],[28.865,41.0157,82.0157],[28.8582,41.0214,86.9469],[28.846,41.0264,37.3297],[28.8087,41.028,19.2032]]]]}}