{"type":"Feature","properties":{"GID_2":"TUR.19.2_1","GID_0":"TUR","country":"Turkey","GID_1":"TUR.19_1","province":"Bolu","NL_NAME_1":"NA","county":"Gerede","VARNAME_2":"NA","NL_NAME_2":"NA","TYPE_2":"District","ENGTYPE_2":"District","CC_2":"NA","HASC_2":"TR.BL.GE","name":"Gerede.county"},
"geometry":{"type": "MultiPolygon","coordinates": [[[[32.2173,40.4251,1259.4475],[32.2607,40.4238,1251.5183],[32.2852,40.416,1173.3284],[32.2999,40.4137,1199.8179],[32.3542,40.4129,993.0601],[32.3728,40.4155,963.5],[32.388,40.4238,1003.0224],[32.3978,40.4325,1036.6208],[32.4093,40.4495,1142.7161],[32.4293,40.47,1206.9922],[32.4392,40.4845,1203.2234],[32.4618,40.5072,1365.0707],[32.4759,40.5302,1258.356],[32.4766,40.5381,1267.5731],[32.4672,40.5567,1405.5841],[32.4624,40.5726,1613.2861],[32.4529,40.5889,1659.4197],[32.4461,40.61,1514.4301],[32.4366,40.6264,1522.0098],[32.4304,40.6518,1455.7583],[32.4449,40.6655,1437.9277],[32.4746,40.6888,1506.8667],[32.4903,40.6994,1444.0835],[32.5013,40.7043,1498.0011],[32.5214,40.7286,1740.3396],[32.5241,40.7374,1714.8434],[32.527,40.7675,1617.8177],[32.5389,40.792,1477.3274],[32.5401,40.8088,1393.0214],[32.5371,40.8197,1338.5725],[32.5193,40.8392,1248.0756],[32.5157,40.8492,1291.6348],[32.506,40.8642,1298.9351],[32.4848,40.8746,1268.1149],[32.457,40.8814,1421.4749],[32.4429,40.8883,1198.5813],[32.4123,40.8929,1338.4856],[32.3983,40.8998,1345.0085],[32.3765,40.9047,1422.3513],[32.3465,40.9163,1723.4271],[32.3136,40.9346,1245.046],[32.282,40.9411,873.9999],[32.2673,40.9151,1103.5673],[32.2635,40.9109,1132.7524],[32.2536,40.9044,1222.9918],[32.2326,40.8953,1208.1113],[32.2053,40.876,1461.6188],[32.1906,40.8682,1486.7877],[32.1567,40.8565,1094.2783],[32.1273,40.8553,1068.844],[32.1058,40.8581,1240.4606],[32.0771,40.8738,1080.542],[32.0618,40.8553,1103.8347],[32.0504,40.8366,956.444],[32.0475,40.8268,1000.3646],[32.0484,40.8216,1127.7825],[32.056,40.8084,1061.2145],[32.0585,40.7976,1061.309],[32.0575,40.7865,1004.1629],[32.0525,40.7753,1009.1794],[32.0683,40.7549,1181.0753],[32.0737,40.7412,1159.8174],[32.0751,40.6919,1211.8309],[32.0773,40.6867,1222.5377],[32.0838,40.681399999999996,1214.209],[32.1172,40.6648,1394.11],[32.1318,40.6455,1328.7864],[32.1338,40.6397,1342.3127],[32.1352,40.6217,1343.332],[32.1335,40.6102,1429.1034],[32.1311,40.6052,1451.071],[32.1271,40.6013,1424.7434],[32.1059,40.5889,1475.8018],[32.0943,40.5779,1416.2489],[32.0905,40.5696,1388.0029],[32.0853,40.5428,1637.7009],[32.0664,40.5197,1613.7596],[32.0998,40.5035,1777.4399],[32.115,40.4872,1719.0907],[32.1531,40.4566,1831.3942],[32.1621,40.4447,1901.8186],[32.1669,40.4269,1564.9067],[32.2173,40.4251,1259.4475]]]]}}