{"type":"Feature","properties":{"GID_2":"TUR.74.3_1","GID_0":"TUR","country":"Turkey","GID_1":"TUR.74_1","province":"Tokat","NL_NAME_1":"NA","county":"Başçiftlik","VARNAME_2":"NA","NL_NAME_2":"NA","TYPE_2":"District","ENGTYPE_2":"District","CC_2":"NA","HASC_2":"TR.TT.BA","name":"Başçiftlik.county"},
"geometry":{"type": "MultiPolygon","coordinates": [[[[37.1724,40.4118,649.245],[37.1845,40.4144,527.7521],[37.2053,40.4241,486.3002],[37.2083,40.4286,665.5518],[37.2096,40.4363,835.8519],[37.2087,40.4416,941.6484],[37.2049,40.4488,1068.6952],[37.1949,40.461,1342.6702],[37.188,40.4659,1381.4512],[37.163,40.4717,1302.5496],[37.1322,40.4823,1001.3262],[37.1107,40.4918,1095.8569],[37.1054,40.4978,1201.6365],[37.1054,40.5074,1502.9302],[37.1118,40.5134,1505.651],[37.1217,40.5153,1539.6241],[37.1894,40.5141,1498.3687],[37.2089,40.5163,1455.4088],[37.2186,40.5206,1428.0692],[37.2289,40.5281,1310.2656],[37.2337,40.535,1219.1448],[37.2337,40.5405,1240.1128],[37.2265,40.5494,1296.9148],[37.2121,40.5577,1332.5607],[37.2017,40.5602,1385.9017],[37.1733,40.5621,1491.6349],[37.1609,40.5663,1680.0809],[37.1522,40.5739,1657.3729],[37.1411,40.5943,1570.1924],[37.0952,40.5965,1492.7546],[37.0834,40.5956,1330.9147],[37.0693,40.5912,1179.515],[37.0606,40.5857,1134.939],[37.0491,40.5744,1168.2231],[37.0406,40.5508,1273.7341],[37.0317,40.5342,942.3678],[37.0279,40.4892,887.1644],[37.0253,40.4809,745.1884],[37.0175,40.4678,331.8508],[37.0166,40.4626,528.5228],[37.0177,40.4574,739.7748],[37.0209,40.4529,861.4849],[37.031,40.4467,812.1436],[37.0728,40.4419,597.8217],[37.1208,40.4241,725.9474],[37.1483,40.419,531.9255],[37.1724,40.4118,649.245]]]]}}