{"type":"Feature","properties":{"GID_2":"TUR.42.8_1","GID_0":"TUR","country":"Turkey","GID_1":"TUR.42_1","province":"K.Maras","NL_NAME_1":"NA","county":"Nurhak","VARNAME_2":"NA","NL_NAME_2":"NA","TYPE_2":"District","ENGTYPE_2":"District","CC_2":"NA","HASC_2":"TR.KM.NU","name":"Nurhak.county"},
"geometry":{"type": "MultiPolygon","coordinates": [[[[37.5582,37.8087,957.9552],[37.5667,37.8239,917.1763],[37.5914,37.8491,1277.5339],[37.6349,37.9168,1678.354],[37.6429,37.9402,1721.1047],[37.6663,37.9773,1147.9773],[37.6731,37.9984,1192.6494],[37.6951,38.0331,1246.4873],[37.6998,38.046,1501.0205],[37.6647,38.0559,1366.0264],[37.6181,38.0593,2054.3931],[37.5933,38.0666,2073.1758],[37.5817,38.0685,1710.858],[37.5288,38.0708,2384.9543],[37.4993,38.0791,2301.5693],[37.454,38.0826,1993.7231],[37.4164,38.0921,1877.8428],[37.3314,38.0928,1521.954],[37.2993,38.0899,1391.6565],[37.2593,38.0764,1739.9033],[37.2374,38.0613,1772.4348],[37.2237,38.048,1619.1008],[37.2202,38.0401,1820.5531],[37.219,38.0317,1664.6978],[37.2194,37.9853,1846.9822],[37.2181,37.9711,1717.1602],[37.215,37.9633,2176.3857],[37.2017,37.9423,2161.5244],[37.1929,37.9331,1817.3082],[37.1791,37.9234,1770.1788],[37.1572,37.9145,1847.322],[37.1277,37.8972,1880.438],[37.0975,37.8859,1967.5646],[37.0701,37.8811,1968.8276],[37.037,37.8687,1845.1693],[37.024,37.8604,1673.3706],[37.0091,37.8477,1933.9744],[37.0247,37.8391,2389.438],[37.0549,37.8277,2587.5151],[37.0789,37.8235,2566.7974],[37.1,37.8162,2496.9521],[37.1239,37.8118,2309.7544],[37.1822,37.7912,2401.2397],[37.2132,37.7898,1986.3005],[37.2365,37.791,2127.5156],[37.2474,37.7931,2100.5503],[37.265,37.7993,2045.9768],[37.2788,37.8009,1958.3746],[37.2926,37.7993,1830.0756],[37.3102,37.7931,1701.4567],[37.3252,37.7907,1573.5538],[37.405,37.7893,1309.9365],[37.4122,37.7874,1220.5084],[37.4202,37.7829,1082.2495],[37.426,37.7771,1037.2784],[37.4318,37.7681,1130.7131],[37.44,37.7606,1192.5435],[37.4557,37.7555,1358.9229],[37.4777,37.7552,1332.2476],[37.4971,37.757,1227.8453],[37.5087,37.7604,1223.408],[37.5258,37.7727,1309.2792],[37.5405,37.7933,1080.6956],[37.5582,37.8087,957.9552]]]]}}