{"type":"Feature","properties":{"GID_2":"TUR.40.30_1","GID_0":"TUR","country":"Turkey","GID_1":"TUR.40_1","province":"Istanbul","NL_NAME_1":"NA","county":"Sarıyer","VARNAME_2":"NA","NL_NAME_2":"NA","TYPE_2":"District","ENGTYPE_2":"District","CC_2":"NA","HASC_2":"TR.IB.SA","name":"Sarıyer.county"},
"geometry":{"type": "MultiPolygon","coordinates": [[[[29.0546,41.0949,0.0],[29.0549,41.1001,0.0],[29.0604,41.1099,9.7828],[29.059,41.1124,1.0305],[29.0624,41.1129,1.0327],[29.0696,41.1182,0.0],[29.0724,41.1221,0.8605],[29.0724,41.1249,0.0],[29.0701,41.1282,0.0],[29.0646,41.1304,4.2828],[29.0613,41.1362,0.0],[29.0579,41.1374,0.8775],[29.0585,41.1399,0.0],[29.0526,41.1474,0.0],[29.0438,41.1501,29.8188],[29.0374,41.156,0.0],[29.0468,41.1601,0.0],[29.0493,41.1632,4.2627],[29.0579,41.1654,0.0],[29.0613,41.171,8.5631],[29.0715,41.1738,4.8397],[29.0743,41.1768,4.9723],[29.0768,41.1846,33.8671],[29.0815,41.1871,0.0],[29.0912,41.2004,34.8703],[29.0976,41.2024,0.0],[29.1004,41.206,14.5905],[29.1054,41.2057,3.7877],[29.1112,41.2135,5.3221],[29.1068,41.2182,2.3459],[29.1068,41.2204,0.0],[29.1099,41.2226,0.0],[29.1104,41.226,22.9865],[29.1138,41.229,1.599],[29.116,41.229,0.9664],[29.1162,41.2343,0.0],[29.1099,41.2351,20.4247],[29.1121,41.2379,0.0],[29.1065,41.2371,2.1157],[29.1074,41.2393,1.8123],[29.1035,41.2404,34.155],[29.1029,41.2421,0.0],[29.0979,41.2404,14.89],[29.0985,41.2426,0.0],[29.0951,41.2454,14.2565],[29.0921,41.2435,10.4206],[29.0907,41.2479,1.458],[29.0849,41.2454,33.0989],[29.0846,41.2499,1.634],[29.0799,41.249,1.1702],[29.0804,41.2515,0.0],[29.0782,41.2546,0.0],[29.0718,41.2479,2.954],[29.0724,41.2518,6.4791],[29.071,41.2526,0.0],[29.0668,41.2535,3.2446],[29.0654,41.2507,2.0404],[29.0637,41.2507,2.5154],[29.0607,41.2551,0.0],[29.0557,41.2549,17.4466],[29.0485,41.2571,0.0],[29.0471,41.2549,16.4808],[29.0435,41.2543,0.0],[29.0415,41.2565,7.7974],[29.0374,41.2576,0.0],[29.0385,41.2529,9.2198],[29.0335,41.2499,0.0],[29.0332,41.2463,2.1215],[29.0026,41.2449,4.5073],[29.001,41.2474,0.0],[28.9888,41.2493,8.1579],[28.9793,41.2532,8.3088],[28.9735,41.2524,0.0],[28.9716,41.2537,11.2762],[28.9516,41.2237,158.1104],[28.9519,41.2182,197.8071],[28.9647,41.2062,144.4369],[28.9647,41.2029,140.7774],[28.9563,41.1894,109.4161],[28.9563,41.1854,143.3186],[28.9625,41.1755,105.1315],[28.9625,41.1605,141.1659],[28.9647,41.1565,167.5033],[28.9779,41.1514,142.171],[28.9777,41.1472,135.6021],[28.9925,41.146,164.7747],[28.9969,41.1412,145.0605],[29.011,41.1412,118.9898],[29.0148,41.146,152.611],[29.0192,41.1457,130.4337],[29.0216,41.1415,132.3114],[29.0216,41.1145,107.2835],[29.013,41.1114,77.3893],[29.0097,41.1083,83.9482],[29.0442,41.0878,99.9722],[29.0492,41.0968,11.9178],[29.0546,41.0949,0.0]]]]}}