{"type":"Feature","properties":{"GID_2":"TUR.56.12_1","GID_0":"TUR","country":"Turkey","GID_1":"TUR.56_1","province":"Manisa","NL_NAME_1":"NA","county":"Sarıgöl","VARNAME_2":"NA","NL_NAME_2":"NA","TYPE_2":"District","ENGTYPE_2":"District","CC_2":"NA","HASC_2":"TR.MN.SG","name":"Sarıgöl.county"},
"geometry":{"type": "MultiPolygon","coordinates": [[[[28.7197,38.0993,780.8826],[28.7333,38.1072,701.4543],[28.7736,38.1239,594.9493],[28.7799,38.1293,543.2747],[28.7894,38.1419,558.8442],[28.7933,38.1494,586.6439],[28.7949,38.1581,657.0049],[28.7952,38.2061,291.8274],[28.7981,38.2145,329.7838],[28.8016,38.2189,354.5216],[28.8114,38.2256,551.4575],[28.9014,38.2603,966.5699],[28.921,38.2655,881.666],[28.9096,38.2774,886.3694],[28.8788,38.3032,929.9058],[28.866,38.3217,949.8766],[28.8599,38.328,988.6912],[28.8254,38.3553,756.6028],[28.7457,38.2941,313.4758],[28.7337,38.2882,365.8343],[28.7099,38.2839,205.4925],[28.7001,38.2805,196.2978],[28.6728,38.2616,189.6861],[28.6631,38.2501,203.8102],[28.6622,38.242,238.9009],[28.6639,38.237,245.821],[28.6794,38.2144,394.5969],[28.701,38.1942,528.6627],[28.7045,38.1866,780.2967],[28.7045,38.1789,718.3095],[28.7024,38.1742,665.1469],[28.6978,38.1707,629.8646],[28.6733,38.1656,618.4618],[28.6491,38.1546,585.2747],[28.6443,38.1454,513.9393],[28.6393,38.1259,730.7321],[28.638,38.1122,817.9216],[28.683,38.1148,771.3218],[28.7034,38.1088,877.4112],[28.7197,38.0993,780.8826]]]]}}