{"type": "Feature","bbox": [41.4287,40.4698,41.7598,40.6628],"geometry": {"type": "MultiPolygon","coordinates": [[[[41.4287,40.5631,2363.0806],[41.431399999999996,40.5544,2468.938],[41.437,40.549,2278.0991],[41.4761,40.5425,1790.5155],[41.5631,40.5091,1668.9626],[41.5749,40.5005,1712.944],[41.5886,40.483,2138.2988],[41.61,40.4698,1979.0208],[41.6291,40.5011,2179.843],[41.6481,40.5184,1761.7595],[41.6712,40.532,2172.7815],[41.6985,40.537,2500.4263],[41.7377,40.552,2245.3364],[41.7562,40.5676,2511.7954],[41.7588,40.5727,2568.2349],[41.7598,40.5838,2628.8911],[41.7572,40.5918,2194.1777],[41.7538,40.5964,1929.6545],[41.7367,40.6123,1984.6461],[41.7313,40.6222,1727.3833],[41.7307,40.6392,1659.1501],[41.735,40.6547,1774.0024],[41.7072,40.6617,1454.9082],[41.659,40.6628,1058.0824],[41.638,40.6588,1371.665],[41.6117,40.6432,1454.5999],[41.5901,40.634,1957.1667],[41.5668,40.6198,1743.0486],[41.548,40.6123,1343.6017],[41.5186,40.5949,1892.5859],[41.4884,40.5837,1775.4771],[41.458,40.5776,2114.9556],[41.4287,40.5631,2363.0806]]]]}
,"properties": {"GID_2": "TUR.31.19_1","GID_0": "TUR","country": "Turkey","GID_1": "TUR.31_1","province": "Erzurum","NL_NAME_1": "NA","county": "Uzundere","VARNAME_2": "NA","NL_NAME_2": "NA","TYPE_2": "District","ENGTYPE_2": "District","CC_2": "NA","HASC_2": "TR.EM.UZ","name": "Uzundere.county","area_km2": 299.4358,"hist_schema_id": "Elevation0-9000","hist_area_km2": {"925": 0.0161,"950": 0.2573,"975": 0.2734,"1000": 6.9191,"1025": 6.6166,"1050": 3.8957,"1075": 4.46,"1100": 4.5244,"1125": 4.6049,"1150": 4.2185,"1175": 4.7015,"1200": 4.5244,"1225": 4.6857,"1250": 5.3299,"1275": 4.9918,"1300": 5.1531,"1325": 6.0224,"1350": 5.733,"1375": 6.0066,"1400": 6.3126,"1425": 6.4574,"1450": 7.0855,"1475": 7.5203,"1500": 6.8765,"1525": 7.086,"1550": 7.2469,"1575": 7.0217,"1600": 6.9894,"1625": 6.9733,"1650": 7.0379,"1675": 6.5063,"1700": 6.6677,"1725": 6.6192,"1750": 6.8771,"1775": 6.378,"1800": 6.2004,"1825": 6.2488,"1850": 6.893,"1875": 6.0071,"1900": 5.5884,"1925": 5.0088,"1950": 5.5398,"1975": 4.8474,"2000": 5.3628,"2025": 4.2677,"2050": 4.429,"2075": 4.0908,"2100": 3.9138,"2125": 3.4949,"2150": 3.6721,"2175": 3.3017,"2200": 2.9314,"2225": 2.5126,"2250": 2.6897,"2275": 2.4,"2300": 1.7396,"2325": 1.8524,"2350": 1.8684,"2375": 1.2402,"2400": 1.2242,"2425": 1.0148,"2450": 0.7893,"2475": 0.8538,"2500": 0.7409,"2525": 0.6282,"2550": 0.6121,"2575": 0.5638,"2600": 0.6282,"2625": 0.3705,"2650": 0.5477,"2675": 0.5638,"2700": 0.29,"2725": 0.3222,"2750": 0.3222,"2775": 0.3222,"2800": 0.4189,"2825": 0.145,"2850": 0.145,"2875": 0.0644,"2900": 0.0967,"2925": 0.0805}}}