{"type": "Feature","bbox": [38.5625,38.0924,39.1117,38.3658],"geometry": {"type": "MultiPolygon","coordinates": [[[[39.1117,38.1847,1183.785],[39.1012,38.1911,1143.9031],[39.0918,38.1945,808.2504],[39.0303,38.1977,1208.7845],[38.9982,38.2069,1828.8337],[38.9211,38.2092,1643.5171],[38.9085,38.2132,1422.0348],[38.8905,38.2223,1180.3206],[38.8876,38.2269,1115.4669],[38.8867,38.2346,1129.3842],[38.889,38.2425,993.7954],[38.8927,38.2475,946.7269],[38.9478,38.2905,778.1237],[38.9686,38.309,697.7717],[38.9362,38.3313,935.8329],[38.9152,38.3398,1217.3582],[38.8887,38.3565,703.9937],[38.8694,38.3658,1347.3899],[38.8539,38.3372,1527.2977],[38.8314,38.3142,1888.2223],[38.811,38.2814,1253.9038],[38.8033,38.2731,1440.343],[38.7917,38.2683,1414.4049],[38.7744,38.2688,1614.2955],[38.7617,38.2466,1277.9545],[38.7384,38.232,1183.0823],[38.7174,38.2114,984.928],[38.6933,38.1998,1051.0607],[38.6709,38.1965,1091.3518],[38.6345,38.1992,1447.9298],[38.6281,38.1744,1596.0637],[38.6196,38.1644,1551.4388],[38.5968,38.1476,1243.9563],[38.5678,38.1348,1561.9929],[38.5625,38.1269,1746.8794],[38.564,38.1223,1632.1707],[38.5724,38.1161,1538.3914],[38.629,38.0953,1775.0267],[38.6435,38.0924,1866.2903],[38.8589,38.0924,1874.604],[38.8699,38.0943,1753.7369],[38.8913,38.1014,2058.0103],[38.9376,38.1046,1877.2864],[38.9663,38.1129,1490.157],[39.0051,38.1175,1448.4222],[39.0356,38.1283,1448.7402],[39.0655,38.1401,1476.4136],[39.0828,38.1509,1393.8597],[39.0901,38.1575,1522.0337],[39.1016,38.1742,1434.5248],[39.1117,38.1847,1183.785]]]]}
,"properties": {"GID_2": "TUR.55.12_1","GID_0": "TUR","country": "Turkey","GID_1": "TUR.55_1","province": "Malatya","NL_NAME_1": "NA","county": "Pötürge","VARNAME_2": "NA","NL_NAME_2": "NA","TYPE_2": "District","ENGTYPE_2": "District","CC_2": "NA","HASC_2": "TR.ML.PO","name": "Pötürge.county","area_km2": 659.0349,"hist_schema_id": "Elevation0-9000","hist_area_km2": {"675": 1.4309,"700": 10.1692,"725": 6.1595,"750": 9.1404,"775": 12.023,"800": 12.3412,"825": 11.91,"850": 12.0609,"875": 11.9769,"900": 12.0932,"925": 11.4107,"950": 12.9433,"975": 14.8254,"1000": 14.81,"1025": 13.1938,"1050": 13.5611,"1075": 13.2619,"1100": 13.862,"1125": 13.9622,"1150": 15.5795,"1175": 16.3306,"1200": 15.5642,"1225": 15.3145,"1250": 14.4819,"1275": 14.0988,"1300": 13.8822,"1325": 14.4337,"1350": 15.0344,"1375": 15.8694,"1400": 17.638,"1425": 19.54,"1450": 19.6065,"1475": 20.3912,"1500": 18.8239,"1525": 17.6746,"1550": 14.5395,"1575": 11.9211,"1600": 9.7519,"1625": 9.8693,"1650": 9.5852,"1675": 9.7355,"1700": 9.4692,"1725": 9.6022,"1750": 8.6851,"1775": 7.9522,"1800": 8.1021,"1825": 8.436,"1850": 7.6526,"1875": 7.4025,"1900": 5.9687,"1925": 5.9519,"1950": 5.3356,"1975": 4.3017,"2000": 3.7181,"2025": 2.7843,"2050": 3.2012,"2075": 2.8343,"2100": 1.9673,"2125": 2.1006,"2150": 1.2669,"2175": 0.7169,"2200": 0.5168,"2225": 0.2,"2250": 0.0667}}}