{"type": "Feature","bbox": [39.1117,38.1321,39.5349,38.3681],"geometry": {"type": "MultiPolygon","coordinates": [[[[39.2432,38.1321,750.6056],[39.2937,38.1533,1377.4547],[39.3353,38.1807,1126.8145],[39.3656,38.1873,973.3534],[39.3868,38.1944,932.5072],[39.4108,38.1986,918.3005],[39.4709,38.2211,867.7788],[39.4785,38.226,801.9327],[39.4852,38.2349,809.5364],[39.4883,38.2593,1073.7854],[39.4937,38.269,1212.0767],[39.501,38.2742,1055.7191],[39.5073,38.2765,991.2782],[39.5349,38.2794,912.2062],[39.53,38.3084,1025.7018],[39.5192,38.3312,1243.7501],[39.5177,38.3555,1563.0979],[39.4979,38.3584,1452.5493],[39.4815,38.358,1580.1542],[39.47,38.3554,1618.0179],[39.4224,38.3375,1775.6699],[39.3987,38.3354,1640.9597],[39.358,38.3357,1368.5731],[39.3385,38.3382,1467.6423],[39.3118,38.3484,1769.615],[39.3013,38.3539,1609.3997],[39.2832,38.367,1828.0476],[39.267,38.3681,1818.5146],[39.2422,38.3613,2051.3467],[39.2074,38.3573,2022.3513],[39.182,38.3496,1916.7751],[39.1433,38.3452,1460.6554],[39.1191,38.3383,862.7004],[39.1401,38.2973,952.8256],[39.1422,38.2854,898.7007],[39.1423,38.2732,683.0],[39.1398,38.2584,683.0],[39.1288,38.2361,1251.0438],[39.1243,38.2003,1120.281],[39.1198,38.1929,754.5847],[39.1117,38.1847,1183.785],[39.128,38.1753,1331.0812],[39.1493,38.1726,722.8138],[39.1705,38.1756,753.9401],[39.193,38.1886,805.1322],[39.202,38.1913,830.6438],[39.2107,38.1902,799.1391],[39.2278,38.1847,847.9926],[39.2408,38.1766,835.7185],[39.2463,38.1667,900.5116],[39.2469,38.1497,933.2692],[39.2432,38.1321,750.6056]]]]}
,"properties": {"GID_2": "TUR.26.4_1","GID_0": "TUR","country": "Turkey","GID_1": "TUR.26_1","province": "Diyarbakir","NL_NAME_1": "NA","county": "Çüngüş","VARNAME_2": "NA","NL_NAME_2": "NA","TYPE_2": "District","ENGTYPE_2": "District","CC_2": "NA","HASC_2": "TR.DY.CU","name": "Çüngüş.county","area_km2": 605.586,"hist_schema_id": "Elevation0-9000","hist_area_km2": {"525": 1.6837,"550": 3.9994,"575": 1.9831,"600": 2.6831,"625": 2.8997,"650": 2.7329,"675": 10.1057,"700": 4.2813,"725": 4.5477,"750": 4.6475,"775": 4.9971,"800": 5.9797,"825": 7.4116,"850": 7.1445,"875": 7.5601,"900": 8.1094,"925": 9.2926,"950": 10.825,"975": 12.8571,"1000": 12.7067,"1025": 14.1053,"1050": 14.1213,"1075": 13.0382,"1100": 12.5545,"1125": 13.4865,"1150": 14.8019,"1175": 14.8182,"1200": 15.9661,"1225": 16.515,"1250": 17.1304,"1275": 17.3291,"1300": 17.5949,"1325": 17.5772,"1350": 17.4609,"1375": 16.7443,"1400": 15.761,"1425": 16.8256,"1450": 14.4955,"1475": 15.3601,"1500": 14.8941,"1525": 13.6458,"1550": 13.4119,"1575": 12.514,"1600": 12.0642,"1625": 11.5482,"1650": 11.3484,"1675": 10.4831,"1700": 9.5842,"1725": 8.669,"1750": 7.5212,"1775": 7.0714,"1800": 6.6388,"1825": 5.9898,"1850": 5.6741,"1875": 5.2246,"1900": 4.6093,"1925": 3.794,"1950": 3.4946,"1975": 2.7456,"2000": 2.7121,"2025": 1.9133,"2050": 1.7467,"2075": 1.2309,"2100": 0.9148,"2125": 0.7484,"2150": 0.6486,"2175": 0.5987,"2200": 0.4656,"2225": 0.3658,"2250": 0.3159,"2275": 0.3658,"2300": 0.3159,"2325": 0.1663,"2350": 0.0166}}}