{"type":"Feature","properties":{"GID_2":"TUR.8.9_1","GID_0":"TUR","country":"Turkey","GID_1":"TUR.8_1","province":"Antalya","NL_NAME_1":"NA","county":"Kaş","VARNAME_2":"NA","NL_NAME_2":"NA","TYPE_2":"District","ENGTYPE_2":"District","CC_2":"NA","HASC_2":"TR.AL.KS","name":"Kaş.county"},
"geometry":{"type": "MultiPolygon","coordinates": [[[[29.6635,36.136,0.0],[29.6585,36.1357,0.0],[29.6546,36.1329,0.0],[29.6579,36.1301,0.0],[29.6604,36.1301,0.0],[29.6635,36.136,0.0]]],
[[[29.656,36.1437,2.2689],[29.6537,36.144,0.0],[29.653199999999998,36.1413,0.0],[29.6549,36.1413,0.0],[29.656,36.1437,2.2689]]],
[[[29.6324,36.1526,0.0],[29.6313,36.1535,0.0],[29.6288,36.1515,0.0],[29.6313,36.1515,0.0],[29.6324,36.1526,0.0]]],
[[[29.6274,36.1621,0.0],[29.6254,36.1626,0.0],[29.624,36.161,0.0],[29.626,36.1601,0.0],[29.6274,36.1621,0.0]]],
[[[29.6299,36.1632,0.0],[29.6279,36.1624,0.0],[29.629,36.1604,0.0],[29.6301,36.1607,1.1877],[29.6299,36.1632,0.0]]],
[[[29.6254,36.1529,0.5883],[29.6232,36.1532,1.5231],[29.6218,36.1507,0.0],[29.6279,36.1515,0.0],[29.6254,36.1529,0.5883]]],
[[[29.549,36.1862,3.3945],[29.5471,36.1871,0.0],[29.546,36.1846,0.0],[29.5485,36.1826,0.7358],[29.5518,36.1829,0.0],[29.5518,36.184,0.0],[29.549,36.1862,3.3945]]],
[[[29.4399,36.204,0.0],[29.4354,36.204,0.0],[29.4346,36.1999,0.0],[29.4368,36.199,3.7617],[29.4374,36.2021,3.1996],[29.4399,36.204,0.0]]],
[[[29.3646,36.2176,2.3301],[29.3665,36.2199,1.1751],[29.3474,36.214,0.0],[29.3463,36.2088,0.0],[29.3515,36.2101,0.0],[29.3646,36.2176,2.3301]]],
[[[29.3743,36.224,2.3991],[29.369,36.224,0.0],[29.3674,36.2212,18.2088],[29.3701,36.2193,4.3523],[29.3729,36.2196,2.6326],[29.3746,36.221,11.4323],[29.3743,36.224,2.3991]]],
[[[29.601,36.6059,2231.9304],[29.574,36.6149,1868.9183],[29.5615,36.6006,1814.8638],[29.5423,36.5851,2354.7129],[29.529,36.577,2617.9797],[29.5135,36.5714,2382.8772],[29.5021,36.5652,1984.3296],[29.4294,36.5104,624.3032],[29.3969,36.4955,258.4297],[29.3271,36.4423,41.7131],[29.3214,36.4357,36.3024],[29.3192,36.4269,41.235],[29.3212,36.4206,35.1396],[29.3277,36.41,42.0881],[29.3285,36.4019,35.5084],[29.3193,36.384,54.5465],[29.3144,36.3559,17.5623],[29.3052,36.3397,20.0589],[29.2988,36.3188,5.0298],[29.288,36.3091,4.3427],[29.2624,36.301,4.2172],[29.2626,36.2985,2.3833],[29.2651,36.2968,2.7119],[29.2646,36.2954,1.391],[29.2613,36.296,1.1542],[29.2565,36.3018,1.1185],[29.256,36.301,1.1185],[29.2593,36.2946,0.0],[29.2638,36.2935,0.74],[29.2629,36.2915,0.3319],[29.2646,36.2899,0.4489],[29.3149,36.2515,13.655],[29.3163,36.2487,12.6342],[29.3137,36.2468,0.0],[29.3307,36.2476,17.9018],[29.3301,36.246,0.9865],[29.3326,36.2432,0.9928],[29.3388,36.2418,0.0],[29.3468,36.2365,3.0447],[29.3496,36.2346,10.1235],[29.3501,36.2313,3.5575],[29.3532,36.2296,0.0],[29.3585,36.2304,0.0],[29.3599,36.2326,2.1311],[29.3676,36.236,0.0],[29.3713,36.2446,0.0],[29.3749,36.2487,4.3733],[29.3743,36.2562,2.0685],[29.3685,36.2596,1.5764],[29.3685,36.2626,11.6916],[29.3874,36.2607,8.7369],[29.3904,36.264,6.7647],[29.3929,36.264,3.9795],[29.3957,36.2632,0.0],[29.401,36.2576,0.0],[29.409,36.2615,0.0],[29.4171,36.2607,20.0101],[29.4149,36.251,16.638],[29.4107,36.249,16.9718],[29.4085,36.2435,48.6978],[29.4043,36.2443,4.6228],[29.4065,36.2332,0.0],[29.4118,36.2243,0.6521],[29.416,36.2254,0.0],[29.4232,36.2313,2.028],[29.4293,36.2318,7.0918],[29.431,36.2301,0.0],[29.4496,36.2285,12.4985],[29.4551,36.2257,5.5046],[29.4535,36.2207,0.0],[29.4471,36.2193,0.0],[29.4426,36.2163,0.0],[29.4415,36.2104,0.0],[29.4485,36.214,0.0],[29.4535,36.2204,1.955],[29.4588,36.2212,0.0],[29.4674,36.2151,0.0],[29.4774,36.211,0.0],[29.4826,36.2118,0.0],[29.4988,36.2088,20.7322],[29.5382,36.211,7.0786],[29.5663,36.2093,6.2655],[29.5707,36.2082,1.6325],[29.5707,36.2038,2.5201],[29.5799,36.201,1.0971],[29.5965,36.2024,2.7025],[29.6015,36.2049,2.9164],[29.6015,36.2071,45.1015],[29.6113,36.2082,1.7831],[29.6304,36.2054,0.0],[29.6338,36.2024,0.452],[29.6288,36.2029,0.0],[29.6246,36.2013,2.5808],[29.6168,36.2051,2.1352],[29.6118,36.2043,0.0],[29.6054,36.1982,15.9396],[29.594,36.1954,13.6467],[29.5915,36.1924,2.9896],[29.5851,36.191,0.0],[29.5838,36.186,0.0],[29.5907,36.1838,9.7644],[29.5963,36.1874,9.7078],[29.6096,36.1874,6.7206],[29.6099,36.1924,1.2548],[29.6135,36.1971,18.3547],[29.6207,36.1974,2.0441],[29.6243,36.1993,4.2853],[29.6315,36.196,0.0],[29.6346,36.1982,0.0],[29.6449,36.1963,7.1291],[29.6465,36.1924,0.0],[29.6501,36.1913,0.0],[29.6504,36.1735,2.4452],[29.6468,36.1757,0.0],[29.6437,36.1749,1.5196],[29.6413,36.1782,0.8684],[29.6429,36.1829,0.0],[29.6418,36.1838,0.0],[29.6396,36.1826,6.2142],[29.6354,36.1757,5.8149],[29.6324,36.1746,0.0],[29.6304,36.1696,0.0],[29.6418,36.1654,2.751],[29.6443,36.159,5.0342],[29.6493,36.159,11.8325],[29.6543,36.1557,10.7376],[29.654,36.1535,0.0],[29.6563,36.1521,0.0],[29.6521,36.1496,0.0],[29.6546,36.1471,3.6439],[29.6646,36.146,0.0],[29.6665,36.1474,0.0],[29.6654,36.1504,48.1604],[29.6696,36.1524,24.6465],[29.6782,36.1529,6.1196],[29.676,36.1518,4.3397],[29.6751,36.1488,0.0],[29.679,36.1465,0.0],[29.6774,36.1435,0.0],[29.6796,36.1418,0.9468],[29.679,36.1387,0.0],[29.6815,36.1368,0.0],[29.6829,36.1343,6.1444],[29.6821,36.1315,5.6809],[29.6838,36.1304,0.0],[29.6874,36.134,3.0427],[29.6882,36.1379,5.9914],[29.6915,36.1396,4.4011],[29.6943,36.1479,1.8254],[29.7013,36.144,0.0],[29.7015,36.1474,1.6437],[29.7101,36.1482,0.0],[29.7138,36.1518,0.0],[29.7138,36.1568,0.0],[29.7229,36.1635,0.0],[29.729,36.1629,0.0],[29.7324,36.1571,0.0],[29.7354,36.156,0.0],[29.7415,36.1568,0.0],[29.7476,36.161,4.7039],[29.7546,36.1543,1.7378],[29.764,36.1568,0.0],[29.7689,36.1739,336.4066],[29.7793,36.1929,427.4283],[29.7843,36.2204,452.7029],[29.7943,36.2395,511.7828],[29.7992,36.267,561.019],[29.8234,36.3068,637.0383],[29.8303,36.3278,298.0019],[29.8361,36.3351,521.6102],[29.8464,36.3434,534.1431],[29.8733,36.3558,756.0176],[29.8806,36.3608,694.615],[29.9005,36.3878,350.2773],[29.9091,36.4026,370.6173],[29.8801,36.4101,306.6371],[29.8683,36.4153,330.9029],[29.8596,36.4229,360.5521],[29.8452,36.4461,679.5234],[29.8421,36.4645,1158.5404],[29.8426,36.5501,2173.7993],[29.8129,36.5505,1816.0729],[29.7988,36.5526,1564.1564],[29.781,36.5589,1308.959],[29.7508,36.5653,1092.9639],[29.6762,36.5942,1434.6326],[29.6224,36.5986,2677.7437],[29.601,36.6059,2231.9304]]]]}}