{"type": "Feature","bbox": [32.681,41.6816,33.3011,42.0046],"geometry": {"type": "MultiPolygon","coordinates": [[[[32.7457,41.7531,980.1862],[32.7508,41.7475,996.02],[32.7635,41.7277,1002.9457],[32.7649,41.7198,1018.3341],[32.7633,41.711,1098.2822],[32.7744,41.6843,892.7413],[32.7976,41.6822,485.2389],[32.8255,41.6816,603.6321],[32.8562,41.6842,557.3712],[32.8895,41.6972,969.6541],[32.9306,41.7244,891.2364],[32.961,41.7315,841.111],[32.9825,41.7384,795.7942],[33.0062,41.7402,814.5153],[33.1315,41.7399,1161.6521],[33.1247,41.7622,1036.2654],[33.1019,41.7966,727.5107],[33.0986,41.8044,746.2944],[33.0974,41.8212,1010.5537],[33.1005,41.8323,944.9703],[33.1064,41.8397,975.5658],[33.117,41.848,767.3683],[33.1259,41.8531,141.0276],[33.1448,41.8598,863.5837],[33.1665,41.87,856.615],[33.1792,41.8827,273.4383],[33.1894,41.8881,296.3811],[33.1993,41.8889,400.7182],[33.219,41.8829,738.2994],[33.2289,41.8822,821.817],[33.3011,41.9002,993.6437],[33.2817,41.9409,594.5659],[33.2824,41.9487,495.558],[33.2897,41.9621,524.3864],[33.2922,41.9701,394.9447],[33.293,42.0046,0.0],[33.279,42.0004,24.3912],[33.2754,41.9957,6.1096],[33.2637,41.9896,35.6252],[33.2443,41.9849,27.9556],[33.2399,41.9854,19.1535],[33.2299,41.9801,8.6525],[33.2221,41.9804,31.9546],[33.2196,41.9787,96.9353],[33.2129,41.9801,0.0],[33.2076,41.9749,18.5328],[33.2035,41.9738,0.0],[33.2012,41.9749,1.6435],[33.1965,41.9712,22.1087],[33.1929,41.9715,16.4044],[33.1904,41.9676,129.8757],[33.1824,41.9657,26.2701],[33.1793,41.9668,1.3959],[33.1724,41.9615,0.0],[33.1721,41.959,0.0],[33.1688,41.9582,0.0],[33.169,41.9554,63.0432],[33.1604,41.9535,21.0767],[33.1576,41.9546,0.0],[33.1535,41.9524,6.9858],[33.1471,41.9532,0.0],[33.1426,41.9482,51.4361],[33.1326,41.9501,33.4827],[33.1224,41.949,0.0],[33.1096,41.9463,0.0],[33.1054,41.9432,47.1792],[33.0962,41.9432,13.8875],[33.0851,41.939,0.0],[33.0707,41.9374,0.0],[33.0668,41.9346,8.1394],[33.0485,41.9332,1.7214],[33.0468,41.931,4.6414],[33.0435,41.9321,0.0],[33.0379,41.9287,73.3148],[33.0274,41.9274,0.0],[33.0276,41.9221,0.0],[33.0171,41.9154,82.377],[33.0124,41.9168,5.1255],[33.0065,41.9115,31.2997],[32.9888,41.9099,24.1172],[32.9821,41.9074,0.0],[32.9815,41.904,21.5879],[32.9771,41.9001,0.0],[32.9815,41.9029,0.6728],[32.9857,41.9018,0.0],[32.9857,41.9001,0.6972],[32.9826,41.899,0.0],[32.9799,41.9004,0.0],[32.9821,41.8963,1.7472],[32.971,41.8904,4.3586],[32.9368,41.8818,0.4518],[32.914,41.8735,4.5635],[32.8868,41.8671,0.0],[32.8735,41.8679,26.109],[32.8621,41.8635,17.4225],[32.8607,41.861,0.9893],[32.8632,41.8601,27.2901],[32.8599,41.8587,74.6758],[32.8574,41.859,0.0],[32.8579,41.861,0.0],[32.8413,41.8613,2.3132],[32.8374,41.8599,39.1769],[32.8329,41.8624,0.0],[32.8226,41.8601,14.7765],[32.8218,41.8579,0.0],[32.8174,41.856,1.0324],[32.8146,41.8576,0.0],[32.7996,41.859,0.0],[32.7762,41.8593,0.0],[32.7749,41.8576,9.1844],[32.7771,41.8565,10.0713],[32.7701,41.8532,0.0],[32.7665,41.8488,18.382],[32.7574,41.8501,0.0],[32.7576,41.8482,4.736],[32.7521,41.8474,0.0],[32.7499,41.849,0.0],[32.7371,41.8496,2.8992],[32.7332,41.849,0.0],[32.7274,41.8454,21.1657],[32.7226,41.8451,4.1735],[32.7215,41.8451,4.1735],[32.7221,41.8474,0.5021],[32.7163,41.8485,3.1645],[32.7118,41.8457,0.0],[32.7121,41.8429,5.2689],[32.7079,41.8379,7.4402],[32.6935,41.8385,13.9348],[32.6818,41.8354,0.0],[32.681,41.8343,0.0],[32.6842,41.8344,39.3153],[32.7032,41.8115,521.2499],[32.7267,41.7738,412.6813],[32.7457,41.7531,980.1862]]]]}
,"properties": {"GID_2": "TUR.46.7_1","GID_0": "TUR","country": "Turkey","GID_1": "TUR.46_1","province": "Kastamonu","NL_NAME_1": "NA","county": "Cide","VARNAME_2": "NA","NL_NAME_2": "NA","TYPE_2": "District","ENGTYPE_2": "District","CC_2": "NA","HASC_2": "TR.KS.CI","name": "Cide.county","area_km2": 762.5061,"hist_schema_id": "Elevation0-9000","hist_area_km2": {"0": 7.9068,"25": 12.3888,"50": 13.2587,"75": 13.9694,"100": 16.4173,"125": 20.018,"150": 23.0037,"175": 24.2835,"200": 23.9517,"225": 24.3157,"250": 23.4477,"275": 24.1435,"300": 24.0658,"325": 23.6084,"350": 22.4889,"375": 22.9009,"400": 22.0955,"425": 22.0815,"450": 22.511,"475": 22.8614,"500": 19.9385,"525": 19.2753,"550": 19.5286,"575": 17.3481,"600": 16.3694,"625": 14.996,"650": 13.3055,"675": 12.4355,"700": 12.1197,"725": 10.7301,"750": 9.8932,"775": 9.278,"800": 9.7364,"825": 8.2825,"850": 8.9309,"875": 8.6638,"900": 8.7437,"925": 11.2131,"950": 13.0163,"975": 15.4378,"1000": 18.0812,"1025": 15.0909,"1050": 13.0967,"1075": 11.4513,"1100": 8.8416,"1125": 6.8168,"1150": 5.2829,"1175": 4.065,"1200": 3.3532,"1225": 2.0721,"1250": 1.4236,"1275": 1.4711,"1300": 1.0914,"1325": 0.6327,"1350": 0.4428,"1375": 0.2373,"1400": 0.0633,"1425": 0.0316}}}