{"type":"Feature","properties":{"GID_2":"TUR.40.34_1","GID_0":"TUR","country":"Turkey","GID_1":"TUR.40_1","province":"Istanbul","NL_NAME_1":"NA","county":"Sultangazi","VARNAME_2":"NA","NL_NAME_2":"NA","TYPE_2":"District","ENGTYPE_2":"District","CC_2":"NA","HASC_2":"NA","name":"Sultangazi.county"},
"geometry":{"type": "MultiPolygon","coordinates": [[[[28.854,41.1045,159.6891],[28.8711,41.086,129.258],[28.8786,41.0853,101.5391],[28.886,41.0896,87.2244],[28.8984,41.0912,90.1105],[28.916,41.0909,80.7059],[28.9191,41.0966,10.4624],[28.9206,41.112,19.0],[28.9129,41.1215,60.6994],[28.8979,41.1342,19.0],[28.8895,41.1401,22.8225],[28.8811,41.1401,112.8238],[28.8789,41.1474,47.1466],[28.8738,41.1518,33.88],[28.8654,41.1532,34.0553],[28.8548,41.1485,181.0455],[28.8475,41.1394,172.5992],[28.8461,41.1302,148.792],[28.8396,41.1283,197.7738],[28.8479,41.1218,178.3905],[28.8527,41.1156,170.5082],[28.8559,41.1098,149.7104],[28.8559,41.1065,151.0705],[28.854,41.1045,159.6891]]]]}}