{"type":"Feature","properties":{"GID_1":"TUR.37_1","GID_0":"TUR","country":"Turkey","province":"Hatay","VARNAME_1":"NA","NL_NAME_1":"NA","TYPE_1":"Il","ENGTYPE_1":"Province","CC_1":"NA","HASC_1":"TR.HT","ISO_1":"TR-31","name":"Hatay.province"},
"geometry":{"type": "MultiPolygon","coordinates": [[[[36.1809,35.9017,527.6805],[36.1877,35.9185,574.8767],[36.1992,35.9356,627.5621],[36.2127,35.9515,320.7982],[36.2288,35.9604,429.142],[36.2444,35.9635,670.4055],[36.2546,35.9638,524.4713],[36.2634,35.9617,460.7715],[36.2789,35.9548,489.5311],[36.2897,35.9539,447.2129],[36.3025,35.9574,385.8677],[36.3061,35.9607,302.1564],[36.2946,35.9802,452.5306],[36.2979,35.9917,496.5135],[36.3028,35.9964,384.4626],[36.3172,36.0041,413.3493],[36.3442,35.9924,285.6889],[36.3569,35.992,216.0689],[36.3684,35.9948,152.3696],[36.3786,36.001,100.9225],[36.3823,36.0099,107.1602],[36.3808,36.026,99.8498],[36.3834,36.0314,98.6567],[36.3925,36.0398,109.5377],[36.3951,36.046,120.0019],[36.3946,36.0525,214.501],[36.3887,36.0682,148.1532],[36.3978,36.0838,157.1425],[36.3942,36.0906,100.8765],[36.3887,36.0948,98.0678],[36.386,36.0994,95.0244],[36.3852,36.1078,95.8111],[36.3812,36.1188,94.6366],[36.392,36.1426,118.9163],[36.3883,36.1515,129.187],[36.3767,36.1694,102.0369],[36.3817,36.1807,110.9795],[36.3888,36.1885,90.628],[36.3987,36.1898,91.0271],[36.4006,36.1915,92.4956],[36.4031,36.1996,89.664],[36.3976,36.2127,88.1078],[36.3975,36.2232,87.6106],[36.4034,36.2264,86.8373],[36.4128,36.2231,86.6795],[36.4267,36.2145,86.7178],[36.4353,36.2113,89.0687],[36.4575,36.2084,121.6406],[36.4711,36.2018,159.0377],[36.4773,36.2029,126.3426],[36.4817,36.2055,119.6891],[36.4892,36.2187,105.1939],[36.4924,36.2328,92.6396],[36.4954,36.2345,92.5804],[36.5095,36.23,101.5648],[36.5228,36.2381,125.2354],[36.5426,36.2381,271.0181],[36.5574,36.2281,434.131],[36.5782,36.2324,202.8499],[36.5839,36.2321,192.1818],[36.6093,36.2175,243.3973],[36.6184,36.2166,241.47],[36.6274,36.2177,264.836],[36.6406,36.2292,318.8383],[36.6749,36.2293,415.2628],[36.6842,36.2373,421.3891],[36.7007,36.2443,513.6249],[36.7048,36.2503,463.4977],[36.706,36.2552,478.2561],[36.6958,36.266,349.9292],[36.6928,36.2716,366.1776],[36.6923,36.2764,337.0468],[36.6991,36.2871,340.0065],[36.7003,36.2922,254.1515],[36.6948,36.2969,252.1601],[36.6711,36.3024,198.6375],[36.6689,36.3094,186.8761],[36.6692,36.3262,223.0034],[36.6662,36.3302,202.8658],[36.6593,36.334,170.4244],[36.6502,36.3361,149.9147],[36.6394,36.3356,141.6467],[36.6215,36.3288,128.5151],[36.6116,36.3279,122.0929],[36.6078,36.3299,117.5951],[36.6077,36.3329,117.4663],[36.612,36.3407,147.2487],[36.6277,36.3542,163.4964],[36.6278,36.3597,174.7026],[36.6203,36.3749,236.9321],[36.6235,36.388,274.8086],[36.6226,36.3912,316.0129],[36.6157,36.3927,325.0516],[36.6067,36.3913,381.4556],[36.5993,36.3923,219.315],[36.5932,36.3942,155.614],[36.5891,36.3978,148.8355],[36.5867,36.4019,152.647],[36.585,36.4117,167.804],[36.5769,36.4248,177.1521],[36.5756,36.4386,196.3156],[36.5735,36.4423,209.9205],[36.5685,36.445,219.7641],[36.5678,36.4677,220.8588],[36.555,36.4858,190.1137],[36.557,36.4918,191.3663],[36.5529,36.497,192.705],[36.553,36.5011,195.6],[36.5734,36.5121,229.2959],[36.5833,36.5227,266.0782],[36.5913,36.5375,320.631],[36.5961,36.5557,340.248],[36.5999,36.562,354.7589],[36.6042,36.5791,401.5745],[36.6029,36.591,406.633],[36.6006,36.6005,465.4604],[36.5879,36.6305,257.916],[36.588,36.636,268.1547],[36.5919,36.6501,276.0569],[36.6064,36.6715,255.8933],[36.6188,36.68,498.9282],[36.6278,36.6953,379.8816],[36.6369,36.7051,445.7396],[36.6387,36.7116,418.0549],[36.6351,36.728,312.0933],[36.6252,36.7425,424.9373],[36.624,36.7471,457.2238],[36.6271,36.7577,410.111],[36.6328,36.7663,381.6332],[36.6703,36.7998,361.0656],[36.6782,36.8112,374.5406],[36.6786,36.8185,379.8925],[36.6685,36.8368,370.0619],[36.6632,36.8388,369.6421],[36.6409,36.8371,422.7213],[36.6261,36.841,374.6533],[36.6024,36.8556,381.5108],[36.5815,36.8643,393.2933],[36.5454,36.8893,787.4265],[36.5188,36.9009,981.4801],[36.4856,36.9248,1134.2205],[36.4551,36.941,1706.6396],[36.4426,36.9533,1324.959],[36.3716,36.9525,1702.2653],[36.3472,36.9553,1514.1312],[36.3117,36.9685,1056.2484],[36.2983,36.9866,1058.1287],[36.2899,36.9944,1275.6716],[36.2547,37.0087,746.3824],[36.2046,37.0124,276.1534],[36.1795,37.02,241.2864],[36.1645,37.0223,132.5987],[36.0881,37.0227,212.2257],[36.0416,37.0256,216.2116],[36.0118,37.0024,200.9411],[35.9956,36.9944,179.8536],[35.9786,36.9828,185.7419],[35.947,36.9569,122.7962],[35.9143,36.9085,170.1857],[35.9124,36.9008,77.3542],[35.9136,36.8955,67.9139],[35.9188,36.889,113.4628],[35.934,36.8799,0.5337],[35.936,36.8807,0.3887],[35.9435,36.8743,0.0],[35.9437,36.8679,0.0],[35.9457,36.8643,0.0],[35.9449,36.8743,0.0],[35.9388,36.879,0.0],[35.9404,36.8824,0.0],[35.9371,36.8835,1.8376],[35.9376,36.8865,0.0],[35.9449,36.8899,0.0],[35.954,36.8907,0.0],[35.9588,36.894,0.5852],[35.964,36.904,12.98],[35.9751,36.9082,0.0],[35.9801,36.914,3.9295],[35.9837,36.9101,0.0],[35.9829,36.9071,0.0],[35.984,36.9057,0.0],[35.9854,36.9093,0.0],[35.9826,36.9157,2.1683],[35.9849,36.9188,7.4542],[35.9882,36.9185,0.0],[35.9921,36.9118,0.0],[35.9912,36.9068,0.0],[35.9926,36.9074,0.0],[35.9938,36.9113,0.0],[35.9893,36.9182,0.0],[35.9899,36.9204,0.0],[36.0015,36.926,0.0],[36.0049,36.9301,3.087],[36.0171,36.9301,1.5549],[36.0185,36.9285,0.2148],[36.0276,36.9274,1.7106],[36.0315,36.9243,0.7326],[36.0365,36.924,2.0559],[36.0376,36.9218,0.0],[36.0429,36.9193,0.9184],[36.0576,36.916,1.2713],[36.0588,36.9137,0.0],[36.0699,36.9093,1.9257],[36.0807,36.9026,0.8637],[36.0826,36.9032,1.307],[36.079,36.9049,1.3147],[36.0785,36.9068,1.5757],[36.0826,36.9049,1.6247],[36.0851,36.9054,1.3445],[36.0829,36.9007,0.5239],[36.0849,36.9029,1.409],[36.089,36.9021,1.6274],[36.0882,36.9001,2.7208],[36.086,36.9013,0.5],[36.0854,36.9001,0.62],[36.1093,36.886,0.0],[36.1237,36.8796,1.7327],[36.124,36.876,0.0],[36.1407,36.8621,1.8342],[36.1293,36.8535,0.0],[36.1315,36.8524,0.0],[36.1318,36.854,0.0],[36.141,36.8604,0.0],[36.1465,36.8571,2.2469],[36.1626,36.8385,0.0],[36.1674,36.829,0.2694],[36.174,36.8229,1.056],[36.1738,36.8204,0.0],[36.1696,36.8193,0.0],[36.1715,36.8187,0.0],[36.1765,36.8204,0.8171],[36.1807,36.8132,2.6397],[36.199,36.7935,4.0058],[36.2057,36.7835,18.7422],[36.206,36.781,11.7931],[36.2043,36.7793,9.2613],[36.206,36.7751,0.0],[36.2062,36.7663,0.0],[36.2029,36.7615,5.1763],[36.1976,36.7615,0.2413],[36.1974,36.7585,7.1132],[36.1918,36.7532,1.4817],[36.1904,36.7465,0.0],[36.1921,36.7385,0.4418],[36.1957,36.7326,1.7471],[36.1871,36.729,0.0],[36.1929,36.7293,0.0],[36.1974,36.7324,2.7018],[36.196,36.7293,0.0],[36.1976,36.7282,0.0],[36.2001,36.7293,1.8653],[36.2021,36.727,0.9693],[36.2007,36.7224,0.2973],[36.2026,36.7226,1.4612],[36.2029,36.7212,2.4284],[36.1979,36.7204,17.0749],[36.1926,36.7221,0.0],[36.1954,36.7207,0.9725],[36.1965,36.7157,0.0],[36.1954,36.7085,8.6047],[36.1926,36.7051,0.0],[36.2026,36.6876,0.0],[36.2043,36.6876,4.8507],[36.2035,36.6835,4.45],[36.2062,36.684,4.2952],[36.2124,36.6724,2.3441],[36.2107,36.6707,0.0],[36.2124,36.6668,0.0],[36.204,36.6637,0.0],[36.2068,36.6632,0.0],[36.2121,36.6651,0.0],[36.2157,36.6604,12.7963],[36.2115,36.6512,0.0],[36.211,36.6407,0.0],[36.2071,36.639,3.6728],[36.2057,36.6351,5.017],[36.1976,36.6301,0.0],[36.1963,36.6221,0.0],[36.1974,36.6218,0.9302],[36.1971,36.6135,1.8196],[36.1982,36.6124,1.8196],[36.1968,36.6118,2.8041],[36.1968,36.6049,3.5618],[36.1951,36.6051,2.094],[36.1963,36.6029,2.413],[36.1946,36.599,2.5114],[36.1876,36.5996,0.0],[36.1946,36.5965,2.4362],[36.1929,36.5935,2.5305],[36.1907,36.596,2.6022],[36.1893,36.5932,2.1091],[36.1888,36.5951,1.5351],[36.1862,36.5954,0.7407],[36.1871,36.5937,1.6447],[36.1854,36.5924,1.0108],[36.1768,36.5915,1.853],[36.1774,36.5951,0.3793],[36.1757,36.5921,0.4258],[36.1732,36.5915,1.2351],[36.1621,36.5951,1.8482],[36.1532,36.5907,0.5153],[36.1488,36.5907,0.0],[36.1396,36.5851,2.23],[36.1374,36.5804,2.0721],[36.1218,36.5735,2.6486],[36.1218,36.5721,2.6486],[36.1101,36.5662,1.0544],[36.1043,36.5646,1.0189],[36.0971,36.5585,4.5009],[36.051,36.5376,21.3095],[36.0368,36.5337,2.7365],[36.034,36.5257,1.1093],[36.031,36.5229,0.0],[36.0296,36.519,0.0],[36.0218,36.5149,0.0],[36.0118,36.5018,9.8056],[36.0062,36.4976,15.1996],[35.9982,36.4949,4.0196],[35.9929,36.4851,2.052],[35.9826,36.4743,0.6756],[35.9712,36.4712,1.3457],[35.9607,36.466,2.3847],[35.9546,36.466,0.0],[35.9418,36.4596,13.6095],[35.9321,36.4604,1.8346],[35.9257,36.4501,5.3498],[35.9179,36.4468,0.0],[35.9154,36.4437,14.3953],[35.9085,36.4443,0.0],[35.9068,36.4401,4.7657],[35.9015,36.4376,1.0786],[35.9004,36.4249,0.0],[35.896,36.4154,6.2698],[35.8943,36.414,6.2698],[35.8857,36.4137,6.0552],[35.8821,36.4165,0.0],[35.8801,36.4162,1.3011],[35.8743,36.4101,3.9438],[35.8732,36.4057,0.0],[35.8696,36.4012,21.9311],[35.8604,36.3957,0.0934],[35.859,36.3782,4.0487],[35.8568,36.3724,0.0],[35.8535,36.369,4.5137],[35.8382,36.3657,0.0],[35.8312,36.366,0.0],[35.821,36.3601,5.6236],[35.8174,36.3593,0.0],[35.816,36.3604,0.0],[35.816,36.3521,0.0],[35.8132,36.3457,10.9825],[35.8082,36.3421,1.4967],[35.8074,36.3396,7.0563],[35.8024,36.3385,7.8371],[35.7993,36.3351,20.3493],[35.7951,36.3349,0.0],[35.7887,36.3304,11.7963],[35.7854,36.3237,16.2036],[35.781,36.3224,0.0],[35.7796,36.3176,1.1912],[35.7835,36.311,15.2852],[35.7843,36.3049,0.0],[35.7804,36.2988,0.0],[35.7821,36.2979,3.2742],[35.7829,36.2915,0.0],[35.7882,36.2874,12.096],[35.7901,36.2804,0.0],[35.7993,36.2743,1.1684],[35.8104,36.2599,0.0],[35.8129,36.2593,18.5706],[35.819,36.2535,0.0],[35.8235,36.2454,0.0],[35.8382,36.2326,1.2519],[35.8407,36.2268,0.0],[35.8532,36.2118,6.8124],[35.8535,36.2085,0.0],[35.8576,36.2012,15.3892],[35.8599,36.2004,7.088],[35.8657,36.1907,52.0529],[35.8718,36.1846,31.6731],[35.8735,36.1796,0.0],[35.8771,36.1782,1.1078],[35.8787,36.1724,0.0],[35.8854,36.1701,3.8949],[35.8968,36.1579,21.8731],[35.9049,36.1457,31.2223],[35.9038,36.1435,0.0],[35.9104,36.1385,6.7877],[35.9118,36.1318,0.0],[35.9143,36.1296,0.5232],[35.9132,36.1265,0.0],[35.916,36.1254,0.0],[35.9113,36.1265,0.0],[35.9132,36.1243,0.0],[35.9193,36.1243,5.9121],[35.9338,36.1024,0.8916],[35.9451,36.0801,0.0],[35.9504,36.0732,0.6215],[35.9543,36.0624,0.6498],[35.964,36.044,0.0],[35.979,36.019,1.7094],[35.9813,36.0104,23.3869],[35.9787,36.0085,17.2043],[35.9799,36.0071,17.2043],[35.9779,36.0065,0.0],[35.979,36.0046,52.8337],[35.9765,36.0046,0.0],[35.9735,36.001,12.3582],[35.9701,36.0004,0.0],[35.9607,35.9938,0.0],[35.9582,35.9893,4.8553],[35.959,35.9871,1.1027],[35.9574,35.9868,0.1867],[35.9571,35.9824,1.5752],[35.9551,35.9829,1.5085],[35.9415,35.9701,11.635],[35.9368,35.9682,5.3256],[35.929,35.9618,6.3213],[35.9296,35.9582,55.1038],[35.9282,35.9568,69.6199],[35.9232,35.9565,19.9699],[35.9212,35.9504,86.3855],[35.9188,35.9482,0.0],[35.9185,35.9323,0.0],[35.9358,35.9187,502.0439],[35.9509,35.9218,801.9933],[35.9937,35.9393,1053.8921],[36.0015,35.9409,862.4837],[36.0085,35.9403,729.7434],[36.0163,35.9341,645.9278],[36.0229,35.9245,552.9534],[36.0217,35.9087,463.6972],[36.0149,35.8899,466.4027],[36.0163,35.8837,597.4088],[36.0187,35.8811,623.735],[36.0499,35.8791,346.3019],[36.1164,35.8655,419.5571],[36.1341,35.8553,566.4886],[36.1417,35.8465,489.5526],[36.1548,35.8202,548.8625],[36.1691,35.8154,435.4628],[36.1831,35.8356,490.1706],[36.1891,35.8844,604.611],[36.1809,35.9017,527.6805]]],
[[[36.1865,36.7238,0.0],[36.184,36.7243,0.0],[36.186,36.7224,0.0],[36.1888,36.7226,0.0],[36.1865,36.7238,0.0]]]]}}