{"type": "Feature","id": "2289","bbox": [35.78736,35.81978,36.67004,37.02001],"geometry": {"type": "Polygon","coordinates": [[[36.0616,37.00968,255.5679],[36.03897,37.01673,190.3619],[36.01757,37.02001,181.686],[35.99928,37.01048,185.0908],[35.91701,36.93483,112.1879],[35.91639,36.89341,89.3216],[35.93252,36.873,0.0],[35.93252,36.87299,0.0],[35.95086,36.89102,10.2328],[35.98504,36.91559,0.0],[36.02027,36.92634,0.0],[36.0586,36.91844,1.4533],[36.09547,36.89712,2.2178],[36.12989,36.86929,0.0],[36.18898,36.80174,0.0],[36.19874,36.78457,0.0],[36.20248,36.76919,0.0],[36.20191,36.70628,49.2705],[36.20248,36.69937,14.2469],[36.20655,36.68871,6.7006],[36.2116,36.67992,3.5907],[36.21559,36.67048,9.7302],[36.21616,36.65778,29.0428],[36.21119,36.6424,6.6307],[36.20118,36.62198,31.8007],[36.18914,36.60399,0.0],[36.17872,36.59634,0.0],[36.16293,36.59341,4.0364],[36.05543,36.53828,17.2225],[36.04493,36.53767,0.0],[36.03745,36.52704,32.5326],[35.99024,36.47964,5.5737],[35.98178,36.47565,0.0],[35.94239,36.46434,0.0],[35.93556,36.45946,0.0],[35.93084,36.45458,23.9769],[35.91871,36.44819,0.0],[35.91326,36.42719,7.5855],[35.90846,36.41816,8.4139],[35.89942,36.4123,3.9908],[35.88185,36.40469,15.1831],[35.87355,36.39769,62.0489],[35.86183,36.37352,24.1402],[35.85678,36.36978,10.5243],[35.84498,36.36896,0.0],[35.83424,36.36628,0.0],[35.82447,36.36107,4.6433],[35.81593,36.35301,0.0],[35.78875,36.32026,229.3636],[35.78736,36.30427,96.4282],[35.79859,36.28168,94.8163],[35.8108,36.2696,46.0443],[35.82691,36.25755,238.4317],[35.84099,36.24453,245.8908],[35.85222,36.21353,1.1297],[35.86451,36.19684,58.2431],[35.87827,36.18207,124.8093],[35.94842,36.08784,3.4565],[35.97543,36.0185,0.0],[35.97674,36.00096,105.0558],[35.96608,35.99364,176.9383],[35.9227,35.93159,197.0882],[35.91139,35.91787,376.8297],[35.91131,35.91775,376.8297],[35.91131,35.91775,376.8297],[35.92084,35.91512,604.5626],[35.94058,35.91838,548.5124],[35.96073,35.92437,871.7328],[35.98026,35.92685,874.9687],[35.99277,35.91528,554.9073],[35.99308,35.90236,488.4925],[35.99008,35.88928,519.8048],[35.99236,35.87735,561.588],[36.00393,35.86918,636.7743],[36.01943,35.86618,572.0619],[36.05075,35.86541,354.5793],[36.08031,35.8542,512.1965],[36.1385,35.81978,441.8491],[36.15531,35.82223,585.289],[36.15762,35.82257,573.2908],[36.16878,35.85208,517.5916],[36.17488,35.92267,559.0633],[36.19689,35.95171,422.171],[36.22903,35.96117,496.5769],[36.25311,35.95564,607.4561],[36.26903,35.95874,415.7052],[36.2774,35.99398,513.1274],[36.2774,35.99403,513.1274],[36.27751,35.99419,513.1274],[36.27751,35.99424,513.1274],[36.29735,36.00075,401.2525],[36.33673,35.98824,170.5131],[36.35802,35.99398,200.17],[36.35554,36.0224,173.6932],[36.35864,36.16699,184.3164],[36.3605,36.18167,106.5507],[36.36629,36.18921,90.4487],[36.37445,36.19588,90.5995],[36.37579,36.20451,91.2402],[36.36143,36.21815,90.1004],[36.373,36.22761,88.606],[36.38561,36.21546,89.5112],[36.39812,36.20823,90.4277],[36.41186,36.20446,98.6732],[36.43925,36.20141,132.8631],[36.44525,36.19991,179.4601],[36.45073,36.19991,166.6204],[36.4592,36.20311,164.3491],[36.46395,36.2088,119.4976],[36.4653,36.21593,98.1522],[36.46892,36.22239,90.8703],[36.48018,36.22554,94.3927],[36.49858,36.22787,96.5129],[36.57444,36.21836,533.7245],[36.59346,36.2181,455.813],[36.66425,36.229,449.7415],[36.67004,36.23732,363.634],[36.66911,36.25986,350.4825],[36.66549,36.27401,272.2712],[36.65846,36.2905,212.8036],[36.64876,36.30572,192.0904],[36.64865,36.3059,192.0904],[36.63707,36.3168,147.9633],[36.62074,36.32202,136.5166],[36.58777,36.32481,102.7187],[36.57764,36.33287,95.1803],[36.58219,36.33308,95.0361],[36.58777,36.34212,95.1334],[36.59428,36.35711,102.7955],[36.59449,36.36595,111.4995],[36.59335,36.37349,107.1538],[36.59056,36.38036,108.5516],[36.5857,36.38703,121.6031],[36.58085,36.38987,124.4809],[36.56503,36.39561,125.6381],[36.55801,36.40062,123.2779],[36.55273,36.40817,136.3037],[36.53382,36.46248,197.7268],[36.53124,36.47901,145.6518],[36.53547,36.494,196.0417],[36.56534,36.5325,206.7398],[36.56999,36.5757,283.5525],[36.56927,36.62014,230.906],[36.58281,36.66241,242.6446],[36.5947,36.68582,263.9955],[36.59811,36.70546,281.058],[36.59893,36.72479,310.956],[36.60327,36.74696,336.1763],[36.61568,36.76659,341.9104],[36.63201,36.78432,353.6811],[36.64327,36.80365,383.4631],[36.63986,36.82809,377.2786],[36.64916,36.82855,376.7307],[36.65857,36.82752,372.8534],[36.65956,36.82724,372.8534],[36.6595,36.82731,372.8534],[36.65133,36.83633,414.8526],[36.63521,36.8378,378.6698],[36.6226,36.84674,374.5684],[36.61402,36.867,392.7584],[36.59687,36.88023,411.3766],[36.51708,36.90904,872.2762],[36.45186,36.96069,1624.822],[36.40205,36.95557,1710.2013],[36.35213,36.95656,1605.4084],[36.31358,36.97596,1153.7859],[36.28061,37.00433,1070.0504],[36.23534,37.01536,608.332],[36.188,37.00539,167.263],[36.14625,37.00632,80.5336],[36.10532,37.01547,120.9733],[36.0616,37.00968,255.5679]]]}
,"properties": {"ISO3166-1-Alpha-3": "TUR","country": "Turkey","fill": "#00F","name": "Hatay","area_km2": 5577.851,"hist_schema_id": "Elevation0-9000","hist_area_km2": {"0": 120.576,"25": 138.408,"50": 120.329,"75": 711.48,"100": 465.646,"125": 217.398,"150": 174.958,"175": 163.388,"200": 142.049,"225": 133.944,"250": 130.641,"275": 111.032,"300": 103.059,"325": 102.957,"350": 122.377,"375": 138.058,"400": 108.954,"425": 101.184,"450": 97.64,"475": 101.449,"500": 97.779,"525": 94.604,"550": 88.082,"575": 88.231,"600": 77.426,"625": 71.648,"650": 67.411,"675": 64.654,"700": 59.599,"725": 57.255,"750": 53.01,"775": 54.352,"800": 55.199,"825": 53.641,"850": 53.758,"875": 50.681,"900": 53.288,"925": 50.969,"950": 47.5,"975": 43.718,"1000": 41.062,"1025": 42.598,"1050": 38.975,"1075": 39.33,"1100": 39.417,"1125": 36.605,"1150": 35.818,"1175": 33.192,"1200": 31.678,"1225": 30.331,"1250": 30.738,"1275": 28.439,"1300": 26.91,"1325": 24.695,"1350": 25.136,"1375": 23.876,"1400": 22.924,"1425": 23.707,"1450": 22.958,"1475": 22.667,"1500": 21.677,"1525": 19.023,"1550": 16.896,"1575": 14.425,"1600": 13.78,"1625": 12.837,"1650": 10.882,"1675": 10.013,"1700": 9.01,"1725": 7.736,"1750": 6.083,"1775": 4.414,"1800": 3.275,"1825": 2.902,"1850": 2.732,"1875": 1.952,"1900": 1.714,"1925": 1.494,"1950": 1.392,"1975": 1.154,"2000": 0.917,"2025": 1.002,"2050": 0.679,"2075": 0.798,"2100": 0.56,"2125": 0.492,"2150": 0.306,"2175": 0.204,"2200": 0.119}}}