{"type": "Feature","bbox": [40.6162,39.4693,41.2771,39.807],"geometry": {"type": "MultiPolygon","coordinates": [[[[41.0243,39.4693,2404.9033],[41.0339,39.488,2320.0703],[41.0402,39.5094,2542.3198],[41.0495,39.5258,2591.8896],[41.0552,39.5443,2785.9868],[41.0774,39.579,2735.3042],[41.0851,39.6026,2556.0342],[41.1013,39.628,2424.3594],[41.1135,39.6365,2526.8315],[41.1561,39.6522,2822.239],[41.1649,39.6567,2753.0239],[41.21,39.6898,2709.2151],[41.2344,39.7001,2794.4636],[41.246,39.7068,2795.8599],[41.2647,39.7207,2741.8159],[41.2734,39.7297,2809.2632],[41.2768,39.7377,2755.7505],[41.2771,39.7459,2664.3501],[41.2749,39.7539,2669.4797],[41.2661,39.7674,2757.2434],[41.2637,39.7754,2708.9495],[41.2629,39.7897,2903.8242],[41.2647,39.807,2654.3838],[41.2315,39.7918,2859.1179],[41.1414,39.7571,2482.6929],[41.12,39.7553,2443.0356],[41.0971,39.7595,2197.2805],[41.0434,39.7443,2572.7649],[40.9893,39.7429,2348.637],[40.9523,39.745,2431.6143],[40.9307,39.7521,2464.2119],[40.9036,39.7576,2297.4065],[40.8669,39.7718,2126.063],[40.8562,39.7468,2268.7969],[40.8462,39.7366,2347.4492],[40.781,39.7103,2580.9148],[40.7481,39.6988,2532.7017],[40.7377,39.6996,2500.8838],[40.7315,39.702,2458.0508],[40.6999,39.7252,2355.3721],[40.6838,39.7315,2264.896],[40.6657,39.7324,2266.9917],[40.6515,39.7307,2274.929],[40.6425,39.7272,2282.759],[40.6318,39.7203,2145.7725],[40.6355,39.7149,2262.4829],[40.6419,39.7111,2335.4888],[40.6718,39.7074,2458.8398],[40.6809,39.704,2446.7085],[40.6894,39.696,2427.7505],[40.6921,39.6852,2453.6987],[40.6897,39.6743,2284.4136],[40.6742,39.6513,2057.2615],[40.6496,39.6262,1666.491],[40.6196,39.5797,1816.9061],[40.6171,39.5709,1952.295],[40.6162,39.5554,2220.8252],[40.6203,39.5282,2406.9043],[40.6232,39.5254,2613.4287],[40.6656,39.5122,2318.4023],[40.687,39.5122,2186.5796],[40.7113,39.5202,2431.0833],[40.7352,39.5248,2472.1726],[40.783,39.543,2443.083],[40.8069,39.5474,2300.3213],[40.8281,39.5546,2101.6514],[40.8417,39.5572,2152.7441],[40.8512,39.5633,2298.8379],[40.8624,39.5656,2106.8674],[40.8694,39.5624,1943.4739],[40.8718,39.5571,1885.5925],[40.8936,39.5564,2017.6641],[40.9094,39.5509,1963.8345],[40.9237,39.5395,2091.2075],[40.9362,39.5209,2087.8481],[40.9493,39.5088,2197.0],[40.9599,39.5022,2143.146],[40.981,39.4937,2174.4316],[41.0049,39.4785,2295.1477],[41.0243,39.4693,2404.9033]]]]}
,"properties": {"GID_2": "TUR.31.2_1","GID_0": "TUR","country": "Turkey","GID_1": "TUR.31_1","province": "Erzurum","NL_NAME_1": "NA","county": "Çat","VARNAME_2": "NA","NL_NAME_2": "NA","TYPE_2": "District","ENGTYPE_2": "District","CC_2": "NA","HASC_2": "TR.EM.CA","name": "Çat.county","area_km2": 1049.2295,"hist_schema_id": "Elevation0-9000","hist_area_km2": {"1575": 0.343,"1600": 0.5227,"1625": 0.5553,"1650": 3.5609,"1675": 4.2307,"1700": 6.044,"1725": 7.269,"1750": 9.2131,"1775": 13.1662,"1800": 14.555,"1825": 22.5914,"1850": 26.0549,"1875": 23.589,"1900": 26.6451,"1925": 25.9916,"1950": 32.4618,"1975": 26.1232,"2000": 22.3669,"2025": 21.0108,"2050": 20.6016,"2075": 19.8166,"2100": 20.11,"2125": 62.3832,"2150": 34.4985,"2175": 32.7521,"2200": 33.7474,"2225": 36.2591,"2250": 37.7093,"2275": 42.225,"2300": 44.784,"2325": 37.7532,"2350": 33.2818,"2375": 32.3025,"2400": 27.6681,"2425": 26.0499,"2450": 25.3309,"2475": 21.8224,"2500": 22.9135,"2525": 24.3958,"2550": 22.114,"2575": 17.1834,"2600": 11.4227,"2625": 9.2027,"2650": 7.9117,"2675": 8.8894,"2700": 7.4208,"2725": 7.0131,"2750": 5.9528,"2775": 4.3539,"2800": 3.4236,"2825": 2.8363,"2850": 2.8194,"2875": 2.4934,"2900": 2.3466,"2925": 2.3141,"2950": 2.0859,"2975": 1.874,"3000": 1.6296,"3025": 1.2059,"3050": 0.9614,"3075": 0.6029,"3100": 0.2281,"3125": 0.1466,"3150": 0.0815,"3175": 0.0163}}}