{"type":"Feature","properties":{"GID_2":"TUR.53.30_1","GID_0":"TUR","country":"Turkey","GID_1":"TUR.53_1","province":"Konya","NL_NAME_1":"NA","county":"Yalıhüyük","VARNAME_2":"NA","NL_NAME_2":"NA","TYPE_2":"District","ENGTYPE_2":"District","CC_2":"NA","HASC_2":"TR.KO.YA","name":"Yalıhüyük.county"},
"geometry":{"type": "MultiPolygon","coordinates": [[[[32.112,37.3349,1196.8333],[32.0866,37.3215,1090.9724],[32.077,37.3183,1090.2928],[32.0618,37.3168,1090.4163],[32.0229,37.3167,1094.5],[32.008,37.3145,1094.5],[31.9904,37.3047,1094.5],[31.9675,37.2842,1403.6248],[31.979,37.2598,1410.3242],[31.9865,37.2528,1116.8458],[31.9971,37.2482,1165.8545],[32.0216,37.2463,1422.1521],[32.0855,37.246,1137.6735],[32.1004,37.2477,1144.2963],[32.109,37.2529,1130.6377],[32.1126,37.2638,1121.8197],[32.112,37.3349,1196.8333]]]]}}