{"type":"Feature","properties":{"GID_2":"TUR.1.11_1","GID_0":"TUR","country":"Turkey","GID_1":"TUR.1_1","province":"Adana","NL_NAME_1":"NA","county":"Tufanbeyli","VARNAME_2":"NA","NL_NAME_2":"NA","TYPE_2":"District","ENGTYPE_2":"District","CC_2":"NA","HASC_2":"TR.AA.TU","name":"Tufanbeyli.county"},
"geometry":{"type": "MultiPolygon","coordinates": [[[[36.374,38.088,2469.8311],[36.3807,38.1132,1958.8704],[36.3911,38.1322,1947.4052],[36.3961,38.1597,2246.7422],[36.4061,38.1788,1725.921],[36.4112,38.2063,1597.0146],[36.4211,38.2254,1591.0537],[36.4273,38.2554,1545.749],[36.4486,38.2786,1554.8994],[36.463,38.2976,1625.051],[36.4767,38.308,1739.3389],[36.4914,38.3163,1962.7607],[36.4734,38.3366,1648.778],[36.4437,38.3832,1503.9012],[36.4407,38.391,1518.1617],[36.4361,38.4185,1614.0011],[36.4221,38.4422,1675.9109],[36.4135,38.4515,1753.3252],[36.4027,38.4594,1943.8567],[36.3855,38.4656,2023.1179],[36.3533,38.4668,1932.3538],[36.3129,38.4653,1730.3859],[36.2714,38.4524,2325.6655],[36.2309,38.4349,2629.1162],[36.2003,38.4289,2525.011],[36.1614,38.4135,2091.1094],[36.1469,38.4022,2001.241],[36.1413,38.3957,2174.8445],[36.1262,38.3724,1797.5436],[36.1114,38.3491,1909.9998],[36.0979,38.3236,2209.8948],[36.0892,38.302,2225.8555],[36.0377,38.2233,2184.2495],[36.0271,38.2031,1970.5011],[36.0493,38.186,1615.4818],[36.0606,38.1744,1610.8921],[36.0898,38.1276,1490.54],[36.0971,38.1039,1570.4727],[36.1077,38.0891,1793.257],[36.1146,38.084,2215.4363],[36.1313,38.0813,1828.0857],[36.1591,38.0827,1488.4548],[36.1699,38.0854,1467.6147],[36.2145,38.1028,1491.6436],[36.2423,38.1056,1574.8778],[36.3246,38.1043,2184.5923],[36.3353,38.1018,2164.0532],[36.374,38.088,2469.8311]]]]}}