{"type": "Feature","bbox": [31.0189,38.8247,31.7107,39.2845],"geometry": {"type": "MultiPolygon","coordinates": [[[[31.0475,38.8828,1234.5188],[31.0776,38.892,1272.897],[31.1042,38.907,1449.6155],[31.1144,38.9108,1229.5994],[31.1385,38.913,1580.8085],[31.1714,38.9121,1577.9531],[31.1862,38.909,1491.0635],[31.2603,38.8793,1640.6895],[31.2943,38.8673,1386.3762],[31.318,38.8655,1426.9187],[31.4327,38.8658,1255.0356],[31.4607,38.8645,1245.208],[31.4898,38.856,1530.8101],[31.5244,38.8519,1361.842],[31.5496,38.8443,1284.6766],[31.5995,38.8404,1130.8546],[31.6129,38.8348,1196.7485],[31.6271,38.8247,1264.9012],[31.6452,38.8409,1195.3081],[31.6678,38.8761,1231.8033],[31.6743,38.8838,1196.3167],[31.6915,38.9131,1144.304],[31.6987,38.9341,1018.4047],[31.7087,38.9537,998.2898],[31.7107,38.985,935.1027],[31.7092,39.0069,921.8957],[31.7067,39.0157,901.3331],[31.6976,39.0323,890.9799],[31.6954,39.044,881.387],[31.6951,39.0686,873.0538],[31.6969,39.0931,893.9176],[31.6846,39.0968,898.1367],[31.6681,39.0982,923.3339],[31.5546,39.0984,891.5111],[31.5351,39.0966,892.2117],[31.5064,39.0877,894.4117],[31.4713,39.0867,906.5836],[31.4531,39.0901,928.8862],[31.3964,39.1121,922.4827],[31.3864,39.1187,875.6788],[31.3809,39.1252,868.8392],[31.3681,39.146,918.7846],[31.3604,39.1696,914.1765],[31.3097,39.2485,845.0093],[31.3062,39.259,835.7278],[31.3053,39.2732,829.4359],[31.28,39.2752,834.1416],[31.2524,39.2841,843.9296],[31.2418,39.2845,844.9246],[31.2313,39.2828,856.1974],[31.2165,39.2748,853.941],[31.1613,39.2314,909.3434],[31.1419,39.2185,903.0917],[31.0487,39.1823,1048.7391],[31.0202,39.1752,1095.5983],[31.0203,39.1118,1216.5613],[31.0233,39.0999,1213.6074],[31.0311,39.0862,1277.0647],[31.0331,39.0755,1073.7133],[31.0311,39.0648,1004.4856],[31.0232,39.0511,1010.2849],[31.0205,39.0423,1010.9788],[31.0189,39.0236,1013.6072],[31.0193,38.9984,1357.2444],[31.0226,38.9833,1356.5571],[31.0307,38.9695,1380.8838],[31.0368,38.9512,1283.421],[31.0478,38.929,1322.0017],[31.0494,38.9105,1193.4788],[31.0475,38.8828,1234.5188]]]]}
,"properties": {"GID_2": "TUR.3.8_1","GID_0": "TUR","country": "Turkey","GID_1": "TUR.3_1","province": "Afyon","NL_NAME_1": "NA","county": "Emirdağ","VARNAME_2": "NA","NL_NAME_2": "NA","TYPE_2": "District","ENGTYPE_2": "District","CC_2": "NA","HASC_2": "TR.AF.EM","name": "Emirdağ.county","area_km2": 1885.013,"hist_schema_id": "Elevation0-9000","hist_area_km2": {"825": 14.694,"850": 38.129,"875": 91.377,"900": 254.179,"925": 281.639,"950": 239.813,"975": 150.154,"1000": 93.897,"1025": 78.499,"1050": 57.812,"1075": 55.66,"1100": 50.682,"1125": 50.787,"1150": 49.11,"1175": 46.347,"1200": 48.929,"1225": 42.187,"1250": 33.76,"1275": 28.12,"1300": 24.262,"1325": 22.713,"1350": 19.283,"1375": 17.88,"1400": 16.513,"1425": 14.221,"1450": 13.166,"1475": 10.708,"1500": 7.623,"1525": 7.145,"1550": 5.726,"1575": 4.801,"1600": 2.706,"1625": 2.244,"1650": 1.832,"1675": 1.65,"1700": 1.551,"1725": 1.336,"1750": 0.924,"1775": 0.561,"1800": 0.495,"1825": 0.38,"1850": 0.347,"1875": 0.281,"1900": 0.248,"1925": 0.231,"1950": 0.149,"1975": 0.083,"2000": 0.099,"2025": 0.066,"2050": 0.017}}}