{"type": "Feature","bbox": [33.528,38.7937,34.7546,39.8084],"geometry": {"type": "MultiPolygon","coordinates": [[[[34.2281,38.8094,1092.5074],[34.2401,38.7995,1119.9989],[34.2626,38.7937,1044.8663],[34.2762,38.8013,1011.3994],[34.294,38.8084,977.8143],[34.303,38.8159,958.206],[34.3058,38.8208,957.4307],[34.3077,38.8317,936.8323],[34.3081,38.8515,923.9041],[34.3109,38.8624,896.8634],[34.3218,38.8742,870.3135],[34.3395,38.8855,932.2395],[34.3654,38.8867,1018.9296],[34.3853,38.8859,1026.5785],[34.3966,38.8838,1035.953],[34.4141,38.8776,1039.5692],[34.428,38.876,1036.8561],[34.4419,38.8775,1052.2311],[34.4595,38.8837,1062.0123],[34.473,38.8867,1081.7043],[34.4731,38.9068,1163.3776],[34.4754,38.9179,1190.0927],[34.4801,38.9255,1176.0275],[34.4994,38.9461,1125.9331],[34.5065,38.9671,1144.8005],[34.5208,38.9906,1182.3687],[34.5297,38.9998,1199.4307],[34.5407,39.0076,1234.8826],[34.5673,39.0195,1214.7075],[34.5739,39.0252,1223.4426],[34.5768,39.0301,1197.1542],[34.5787,39.0383,1174.1799],[34.5782,39.0496,1188.887],[34.5748,39.0601,1240.7515],[34.567,39.0722,1251.7479],[34.5676,39.0791,1168.0408],[34.5718,39.0828,1153.4019],[34.5778,39.0844,1140.0896],[34.6107,39.0846,1151.6021],[34.6219,39.0864,1145.901],[34.6303,39.0907,1135.1294],[34.6362,39.0971,1136.5845],[34.6385,39.1051,1142.5596],[34.6379,39.1133,1147.1903],[34.6273,39.1321,1158.6909],[34.6239,39.1437,1159.7806],[34.6229,39.1589,1178.4498],[34.6253,39.1736,1186.78],[34.6282,39.1786,1189.0908],[34.6346,39.1844,1171.901],[34.666,39.1982,1129.0573],[34.6929,39.2203,1002.6441],[34.6962,39.2269,1013.5636],[34.6965,39.2312,1004.9694],[34.6956,39.2353,1012.2909],[34.6864,39.2506,993.5405],[34.6848,39.2602,1000.1281],[34.6867,39.2699,1022.7007],[34.7053,39.2975,985.4294],[34.7405,39.3274,1026.757],[34.7535,39.347,991.1552],[34.7546,39.3516,981.2178],[34.751,39.3581,954.9351],[34.7434,39.3623,973.8964],[34.7352,39.363,976.1019],[34.7266,39.3609,1008.3677],[34.7157,39.3541,1008.5419],[34.6799,39.3254,1024.7778],[34.6713,39.3205,1027.6833],[34.6618,39.3178,1134.6454],[34.6486,39.3167,1110.8275],[34.6322,39.3178,1155.1619],[34.6223,39.3205,1165.2419],[34.6092,39.3272,1179.707],[34.6089,39.3655,1045.2411],[34.6106,39.3805,1096.809],[34.6138,39.3886,1120.2311],[34.6359,39.4231,1089.8097],[34.643,39.4442,1155.9775],[34.6522,39.4606,1180.2227],[34.6566,39.4866,1071.0435],[34.6256,39.4941,1143.3298],[34.5986,39.5099,1117.1941],[34.581,39.5173,1035.0192],[34.5719,39.5238,1059.9515],[34.5677,39.5325,1014.8517],[34.5445,39.5427,1001.2576],[34.5255,39.5578,975.7649],[34.5218,39.5651,957.2054],[34.5219,39.5705,1019.356],[34.5238,39.5755,1068.9595],[34.5465,39.6088,816.1175],[34.5471,39.6167,922.5521],[34.545,39.6221,980.884],[34.5361,39.6316,909.7424],[34.5192,39.6441,1023.1758],[34.5068,39.6513,884.647],[34.4847,39.6602,756.2869],[34.4685,39.6721,750.9956],[34.4623,39.6792,748.1879],[34.441,39.7148,889.9799],[34.4257,39.7331,1026.1378],[34.3838,39.7459,874.9933],[34.3574,39.7485,801.5353],[34.3069,39.7476,809.0455],[34.296,39.7457,769.6053],[34.2715,39.7379,743.4262],[34.2346,39.7367,699.9399],[34.2212,39.7448,713.523],[34.2002,39.7534,726.3632],[34.1763,39.7681,736.7148],[34.1281,39.787,701.7131],[34.1013,39.803,666.1297],[34.0914,39.8058,671.5035],[34.0689,39.8084,706.7439],[34.0565,39.7969,729.702],[34.0439,39.7881,760.3831],[34.0029,39.7715,785.7087],[33.9917,39.7631,712.1935],[33.9717,39.7533,749.2291],[33.9254,39.7188,789.8392],[33.9108,39.7058,854.8506],[33.9061,39.6983,800.4414],[33.9006,39.6798,808.6168],[33.8923,39.6661,794.141],[33.8868,39.6474,849.4504],[33.8773,39.6311,872.7162],[33.8705,39.61,854.716],[33.8613,39.5936,831.481],[33.8558,39.5633,824.5408],[33.8392,39.538,833.2786],[33.8272,39.5297,843.5732],[33.8125,39.5238,894.1322],[33.8014,39.5147,910.0273],[33.7867,39.4916,924.2173],[33.7788,39.468,981.1561],[33.7602,39.4446,1007.7848],[33.7047,39.4465,1006.0474],[33.6796,39.4438,999.924],[33.662,39.4339,997.6866],[33.6065,39.391,1063.0724],[33.5947,39.3844,1069.5819],[33.5849,39.3811,1050.7],[33.5761,39.3638,1114.0516],[33.5707,39.3449,1174.1024],[33.5613,39.3286,1061.2468],[33.5561,39.3139,1015.941],[33.5458,39.3012,989.3571],[33.5394,39.2843,918.951],[33.5313,39.2706,875.6816],[33.528,39.2548,848.0],[33.5619,39.2002,848.0],[33.5823,39.182,848.0],[33.598,39.1714,848.0],[33.6493,39.1515,848.0],[33.6788,39.1339,848.0],[33.7087,39.122,848.0],[33.7664,39.106,857.733],[33.8196,39.0869,853.6842],[33.8409,39.0765,848.0],[33.9201,39.0473,850.0277],[33.9409,39.0378,883.809],[33.9443,39.0338,869.3726],[33.9444,39.0265,893.328],[33.9401,39.0202,926.4189],[33.9267,39.0081,934.6821],[33.9948,38.9554,979.407],[34.0059,38.9488,984.3459],[34.0301,38.9384,1004.6001],[34.0777,38.9036,1051.303],[34.0944,38.899,1032.4733],[34.1381,38.8971,984.2405],[34.1769,38.8821,945.8218],[34.1853,38.8743,957.8128],[34.2188,38.8204,1097.7264],[34.2281,38.8094,1092.5074]]]]}
,"properties": {"GID_1": "TUR.51_1","GID_0": "TUR","country": "Turkey","province": "Kirsehir","VARNAME_1": "Kırşehir","NL_NAME_1": "NA","TYPE_1": "Il","ENGTYPE_1": "Province","CC_1": "NA","HASC_1": "TR.KH","ISO_1": "TR-40","name": "Kirsehir.province","area_km2": 6776.196,"hist_schema_id": "Elevation0-9000","hist_area_km2": {"675": 5.523,"700": 21.437,"725": 50.029,"750": 74.131,"775": 88.259,"800": 89.743,"825": 77.938,"850": 208.127,"875": 181.695,"900": 190.566,"925": 209.131,"950": 219.37,"975": 233.537,"1000": 233.894,"1025": 249.184,"1050": 272.607,"1075": 283.416,"1100": 298.805,"1125": 919.575,"1150": 536.205,"1175": 445.688,"1200": 359.636,"1225": 298.257,"1250": 249.945,"1275": 192.371,"1300": 155.827,"1325": 131.311,"1350": 102.627,"1375": 86.13,"1400": 68.749,"1425": 53.065,"1450": 39.127,"1475": 32.594,"1500": 26.101,"1525": 23.148,"1550": 19.901,"1575": 15.193,"1600": 11.894,"1625": 8.859,"1650": 5.365,"1675": 2.773,"1700": 1.986,"1725": 1.395,"1750": 0.739,"1775": 0.246,"1800": 0.098}}}