{"type":"Feature","properties":{"id":138674.0,"fillOpacity":1,"fill":"#F0F","name":"Hirfanlı Dam","title":"Hirfanlı Dam","lge_id":null,"pfafstette":77173.0,"lke_type":"N","altitude":856,"objectid":86320,"scalerank":10,"featurecla":"Lake","note":"Hirfanlı Dam","funkyname":0,"min_zoom":6.0,"min_label":7.0},
"geometry":{"type": "Polygon","coordinates": [[[33.766856316021233,39.106695867962827,861.3057],[33.766856316021233,39.106695867962827,861.3057],[33.790049675396233,39.097174383587827,893.7078],[33.814707878521233,39.089117742962827,870.4438],[33.837901237896233,39.095953680462827,885.2951],[33.870371941021233,39.091192938275327,884.6239],[33.881968620708733,39.080511785931577,872.4979],[33.893809441021233,39.094794012494077,921.1649],[33.888438347271233,39.115607000775327,997.8388],[33.859629753521233,39.124273992962827,1043.7644],[33.814219597271233,39.124518133587827,1020.0751],[33.779063347271233,39.138190008587827,993.4371],[33.747569206646233,39.160834051556577,994.9663],[33.716929558208733,39.177496649212827,948.2288],[33.708262566021233,39.192267157025327,949.7591],[33.664927605083733,39.206793524212827,868.3499],[33.622080925396233,39.225592352337827,972.2705],[33.597422722271233,39.247259832806577,974.5845],[33.574473503521233,39.265692449994077,885.6413],[33.558116081646233,39.278815008587827,928.4216],[33.544444206646233,39.289190985150327,946.1108],[33.522471550396233,39.280523992962827,896.023],[33.520762566021233,39.262701727337827,848.0],[33.521250847271233,39.242804266400327,848.0],[33.509043816021233,39.228216864056577,848.0],[33.498057487896233,39.203863836712827,848.0],[33.514414909771233,39.169684149212827,848.0],[33.549204948833733,39.166998602337827,848.0],[33.582530144146233,39.171454168744077,848.0],[33.606333855083733,39.179815985150327,848.0],[33.633677605083733,39.181524969525327,848.0],[33.667246941021233,39.160773016400327,848.0],[33.693980339458733,39.143805242962827,848.0],[33.713999870708733,39.143744207806577,877.6175],[33.752207878521233,39.123053289837827,882.1048],[33.766856316021233,39.106695867962827,861.3057]]]}}