{"type": "Feature","id": "2286","bbox": [33.5245,38.85313,34.73714,39.82573],"geometry": {"type": "Polygon","coordinates": [[[34.73714,39.40026,1011.0307],[34.7113,39.44684,1027.4749],[34.6681,39.47609,1117.99],[34.61735,39.4825,1163.4006],[34.57373,39.50516,1096.3809],[34.43566,39.63611,803.6271],[34.42294,39.65691,804.9522],[34.41395,39.6799,744.6199],[34.39504,39.70073,748.9482],[34.31628,39.7014,717.5154],[34.2705,39.71355,707.4756],[34.21954,39.75763,694.0199],[34.16776,39.79494,679.7849],[34.1135,39.79556,669.8356],[34.09283,39.80961,664.937],[34.0733,39.82573,660.6226],[33.91279,39.70688,869.5823],[33.86763,39.6042,874.4909],[33.7989,39.5204,922.501],[33.63663,39.41871,1036.1655],[33.5245,39.26678,848.0],[33.54496,39.21091,848.0],[33.65751,39.15562,848.0],[33.70919,39.12299,848.0],[33.72541,39.11761,848.0],[33.73926,39.10893,848.0],[33.75559,39.08932,848.0],[33.77606,39.07772,848.0],[33.82877,39.07446,848.0],[33.86143,39.0633,848.0],[33.87528,39.0526,848.0],[33.93739,39.03467,881.3596],[33.93005,39.00108,971.5286],[33.9438,38.98524,971.1322],[33.98524,38.97958,982.5118],[34.00664,38.98077,946.2082],[34.04591,38.96703,1096.9517],[34.06028,38.92706,1135.4976],[34.09966,38.89995,1031.1217],[34.14978,38.9229,996.7867],[34.17066,38.92819,966.6232],[34.21417,38.92274,908.5613],[34.23567,38.92685,863.2491],[34.34626,38.85313,874.0225],[34.38636,38.86161,1023.7223],[34.38253,38.88458,1023.7346],[34.37075,38.92866,1095.1624],[34.39256,38.98232,1062.0979],[34.51327,39.02162,1184.9302],[34.56774,39.04769,1203.5049],[34.62986,39.06945,1141.4369],[34.67171,39.11087,1133.6447],[34.64887,39.14945,1148.1521],[34.61942,39.18993,1198.552],[34.63265,39.25481,1174.0739],[34.62045,39.30644,1125.0776],[34.59906,39.33613,1176.1904],[34.59037,39.37168,1068.934],[34.59523,39.39444,1136.6501],[34.61559,39.40444,1230.446],[34.68019,39.39269,1174.1045],[34.73714,39.40026,1011.0307]]]}
,"properties": {"ISO3166-1-Alpha-3": "TUR","country": "Turkey","fill": "#00F","name": "Kirsehir","area_km2": 6366.003,"hist_schema_id": "Elevation0-9000","hist_area_km2": {"650": 0.391,"675": 12.087,"700": 25.442,"725": 42.0,"750": 46.816,"775": 59.225,"800": 68.592,"825": 68.9,"850": 212.083,"875": 173.647,"900": 176.347,"925": 190.121,"950": 193.318,"975": 197.143,"1000": 205.579,"1025": 227.21,"1050": 235.369,"1075": 244.077,"1100": 258.907,"1125": 894.888,"1150": 530.746,"1175": 428.64,"1200": 346.384,"1225": 298.155,"1250": 250.323,"1275": 192.486,"1300": 155.827,"1325": 131.311,"1350": 102.627,"1375": 86.13,"1400": 68.749,"1425": 53.065,"1450": 39.127,"1475": 32.594,"1500": 26.101,"1525": 23.148,"1550": 19.901,"1575": 15.193,"1600": 11.894,"1625": 8.859,"1650": 5.365,"1675": 2.773,"1700": 1.986,"1725": 1.395,"1750": 0.739,"1775": 0.246,"1800": 0.098}}}