{"type":"Feature","properties":{"GID_2":"TUR.5.7_1","GID_0":"TUR","country":"Turkey","GID_1":"TUR.5_1","province":"Aksaray","NL_NAME_1":"NA","county":"Sarıyahşi","VARNAME_2":"NA","NL_NAME_2":"NA","TYPE_2":"District","ENGTYPE_2":"District","CC_2":"NA","HASC_2":"TR.AK.SA","name":"Sarıyahşi.county"},
"geometry":{"type": "MultiPolygon","coordinates": [[[[34.0103,38.7397,1368.7488],[34.039,38.7511,1206.2451],[34.0684,38.7684,1187.498],[34.0985,38.7798,1049.1497],[34.118,38.7821,1069.8706],[34.1787,38.7832,1042.1791],[34.2401,38.7995,1119.9989],[34.222,38.8157,1104.2755],[34.1853,38.8743,957.8128],[34.1769,38.8821,945.8218],[34.1381,38.8971,984.2405],[34.0944,38.899,1032.4733],[34.0777,38.9036,1051.303],[34.0301,38.9384,1004.6001],[34.0059,38.9488,984.3459],[33.9948,38.9554,979.407],[33.9267,39.0081,934.6821],[33.9134,38.9991,880.3572],[33.9051,38.991,868.2032],[33.8902,38.9678,910.8489],[33.8883,38.9542,942.2581],[33.8903,38.9461,1011.3122],[33.8998,38.9299,1118.3752],[33.9057,38.9114,1124.6396],[33.9151,38.8951,1167.9298],[33.9208,38.8766,1220.9657],[33.9302,38.8601,1224.839],[33.9371,38.8351,1342.7991],[33.943,38.8347,1322.7734],[33.9469,38.8292,1305.5745],[33.9477,38.8185,1248.6622],[33.9447,38.8068,1316.8616],[33.924,38.7807,1282.123],[33.9639,38.7673,1457.512],[33.9948,38.7465,1278.3552],[34.0103,38.7397,1368.7488]]]]}}