{"type": "Feature","bbox": [39.5492,38.8018,39.8951,39.0972],"geometry": {"type": "MultiPolygon","coordinates": [[[[39.893,39.0662,1066.6516],[39.8742,39.0843,1478.8853],[39.8495,39.0972,1567.7737],[39.8312,39.0776,1359.3313],[39.818,39.0675,1224.004],[39.803,39.0597,1315.3267],[39.7642,39.055,1275.9596],[39.7435,39.0487,1410.116],[39.7369,39.0481,1477.1294],[39.7023,39.0565,1493.824],[39.6521,39.0579,1480.668],[39.6177,39.0567,1352.9513],[39.6071,39.0539,1337.4194],[39.5951,39.047,1537.8888],[39.5578,39.0174,1575.9849],[39.5509,39.0073,1266.4441],[39.5492,38.999,1101.1196],[39.5503,38.9771,956.3926],[39.5708,38.975,928.2548],[39.581,38.9721,1033.4614],[39.6075,38.9568,881.9427],[39.6279,38.9476,971.1487],[39.6346,38.942,914.7412],[39.6445,38.9282,953.4766],[39.6602,38.9127,1080.0497],[39.6651,38.9054,1197.3982],[39.6654,38.895,1118.5289],[39.6578,38.8816,1132.8005],[39.6554,38.8737,1159.3245],[39.6516,38.8399,836.5],[39.6303,38.8018,1099.168],[39.7172,38.8019,1235.3389],[39.7276,38.8036,1192.59],[39.7487,38.8108,1192.7988],[39.7725,38.8153,1231.9691],[39.793,38.8272,1185.5752],[39.8397,38.8656,1036.3569],[39.8768,38.9183,922.4351],[39.89,38.9393,1093.715],[39.8932,38.9471,1136.0321],[39.8951,38.9699,1122.2021],[39.8932,38.9928,1128.1682],[39.89,39.0005,1117.6064],[39.8687,39.032,1085.1932],[39.8668,39.0397,990.6373],[39.8679,39.045,978.6841],[39.8734,39.0523,1037.3124],[39.893,39.0662,1066.6516]]]]}
,"properties": {"GID_2": "TUR.76.3_1","GID_0": "TUR","country": "Turkey","GID_1": "TUR.76_1","province": "Tunceli","NL_NAME_1": "NA","county": "Mazgirt","VARNAME_2": "NA","NL_NAME_2": "NA","TYPE_2": "District","ENGTYPE_2": "District","CC_2": "NA","HASC_2": "TR.TC.MA","name": "Mazgirt.county","area_km2": 601.5734,"hist_schema_id": "Elevation0-9000","hist_area_km2": {"825": 3.3522,"850": 14.8598,"875": 8.3378,"900": 19.1787,"925": 17.8905,"950": 20.3299,"975": 22.7348,"1000": 23.0634,"1025": 23.8216,"1050": 23.9009,"1075": 24.5771,"1100": 26.1083,"1125": 26.4853,"1150": 24.8498,"1175": 24.6344,"1200": 23.4123,"1225": 22.5525,"1250": 21.2147,"1275": 19.6474,"1300": 18.2611,"1325": 17.6828,"1350": 17.3036,"1375": 16.0997,"1400": 15.7376,"1425": 13.5787,"1450": 13.1493,"1475": 10.8587,"1500": 10.7593,"1525": 10.0337,"1550": 9.704,"1575": 9.8682,"1600": 8.4674,"1625": 7.8571,"1650": 7.165,"1675": 6.2754,"1700": 4.974,"1725": 3.7388,"1750": 2.9646,"1775": 2.2069,"1800": 1.5811,"1825": 0.6917,"1850": 0.6752,"1875": 0.3458,"1900": 0.2635,"1925": 0.1317,"1950": 0.1317,"1975": 0.0823,"2000": 0.0329}}}