{"type":"Feature","properties":{"GID_2":"TUR.43.6_1","GID_0":"TUR","country":"Turkey","GID_1":"TUR.43_1","province":"Karabük","NL_NAME_1":"NA","county":"Yenice","VARNAME_2":"NA","NL_NAME_2":"NA","TYPE_2":"District","ENGTYPE_2":"District","CC_2":"NA","HASC_2":"TR.KB.YE","name":"Yenice.county"},
"geometry":{"type": "MultiPolygon","coordinates": [[[[32.354,41.2385,240.6819],[32.3197,41.2399,691.4412],[32.2988,41.2366,409.1987],[32.2086,41.2016,421.7512],[32.1805,41.1818,783.7463],[32.1669,41.174,1102.1476],[32.1483,41.1667,946.7133],[32.1341,41.1575,1048.5225],[32.1227,41.1462,1065.7308],[32.1096,41.1251,773.0078],[32.1066,41.1173,872.5591],[32.1025,41.0925,814.1094],[32.0934,41.0761,969.8949],[32.09,41.0585,751.5592],[32.092,41.0184,915.55],[32.1665,41.0181,1175.082],[32.1787,41.016,1225.0984],[32.2005,41.0091,1540.6954],[32.2172,41.0073,1284.7039],[32.2852,41.0083,1150.7167],[32.2803,41.0311,1339.9082],[32.2731,41.0429,912.7935],[32.2702,41.0539,650.8309],[32.2697,41.074,744.497],[32.2734,41.0875,681.7245],[32.2813,41.0955,603.8056],[32.298,41.1054,776.386],[32.3237,41.1312,703.3981],[32.3354,41.1482,436.5349],[32.3556,41.1687,405.4369],[32.3672,41.1849,645.2908],[32.3905,41.1998,180.5179],[32.3923,41.2101,321.9941],[32.3959,41.218,404.4207],[32.4165,41.2384,629.1478],[32.4285,41.2543,571.7532],[32.3956,41.2497,702.2394],[32.3743,41.2425,495.3385],[32.354,41.2385,240.6819]]]]}}