{"type": "Feature","bbox": [28.9236,36.301,29.6843,37.0761],"geometry": {"type": "MultiPolygon","coordinates": [[[[29.0604,36.5407,0.0],[29.0593,36.5421,0.0],[29.0596,36.5388,0.0],[29.0618,36.5401,0.0],[29.0604,36.5407,0.0]]],
[[[29.0471,36.6632,3.6649],[29.0457,36.6646,0.0],[29.0438,36.6613,11.5898],[29.0413,36.6615,0.0],[29.0432,36.659,27.0704],[29.0432,36.6518,0.0],[29.0529,36.6563,0.0],[29.0524,36.6582,0.0],[29.0543,36.661,0.0],[29.0504,36.6601,19.8285],[29.0471,36.6632,3.6649]]],
[[[29.0321,36.6712,6.5744],[29.0285,36.6718,0.0],[29.0279,36.6701,0.0],[29.0299,36.6682,0.0],[29.0329,36.6682,0.0],[29.0329,36.6668,0.0],[29.0365,36.6668,0.0],[29.036,36.6688,0.0],[29.0332,36.6682,0.0],[29.0321,36.6712,6.5744]]],
[[[29.0082,36.6976,0.0],[29.0057,36.699,0.0],[29.004,36.6968,0.0],[29.0093,36.6918,0.0],[29.0121,36.6924,0.0],[29.0138,36.696,0.0],[29.0082,36.6976,0.0]]],
[[[29.0732,36.5551,11.9085],[29.064,36.5543,0.0],[29.0674,36.5524,24.4103],[29.0665,36.5518,0.0],[29.0701,36.5513,0.0],[29.0738,36.5537,0.0],[29.076,36.5535,0.0],[29.0732,36.5551,11.9085]]],
[[[29.1063,36.6526,0.0],[29.1018,36.6515,2.2289],[29.0982,36.6526,0.0],[29.0974,36.6463,0.0],[29.0996,36.646,0.0],[29.0996,36.649,7.6145],[29.1063,36.6526,0.0]]],
[[[29.6768,36.8827,1282.4863],[29.6843,36.919,1246.9854],[29.6769,36.9326,1262.3442],[29.6586,36.9592,1378.5919],[29.6405,36.9774,1654.2111],[29.6307,36.9915,1883.3057],[29.6246,36.9975,1837.838],[29.6169,37.0022,1774.7324],[29.5572,37.0256,1501.6263],[29.5359,37.0282,1293.2278],[29.525,37.0277,1285.7903],[29.5118,37.0242,1413.6982],[29.5023,37.0171,1325.818],[29.4931,37.0031,1151.4045],[29.4842,36.9939,1116.1211],[29.4461,36.9644,1171.3604],[29.4117,36.949,1315.6556],[29.4027,36.948,1241.8365],[29.3967,36.95,1191.0206],[29.3923,36.9566,1127.6558],[29.3923,36.9694,1221.8972],[29.3956,36.9801,1079.5099],[29.4067,36.999,1086.8801],[29.4083,37.0246,1334.4189],[29.4062,37.0357,1262.9531],[29.3954,37.0547,1276.3052],[29.3878,37.0761,1530.646],[29.3763,37.0711,1310.2395],[29.362,37.0622,1243.7614],[29.3462,37.05,1246.0082],[29.3376,37.041,1253.8546],[29.333,37.0271,1565.6411],[29.3333,36.9761,1570.6027],[29.3296,36.9589,1315.8506],[29.3079,36.9359,1387.1566],[29.296,36.9191,1578.3943],[29.2801,36.9032,2055.0925],[29.2706,36.889,2133.3699],[29.262,36.8814,2150.9556],[29.2563,36.8787,1957.4719],[29.2425,36.8767,1819.335],[29.2286,36.8785,1976.515],[29.2142,36.884,1583.6083],[29.201,36.8867,1398.4229],[29.1492,36.8877,1570.4551],[29.1356,36.8848,1209.0096],[29.0911,36.8675,1648.3298],[29.0638,36.8624,1120.5027],[29.046,36.8561,743.4751],[29.0188,36.8509,557.3643],[28.9983,36.839,832.8506],[28.9508,36.8013,356.5522],[28.9431,36.7919,438.9877],[28.9299,36.771,134.5951],[28.9236,36.7515,0.0],[28.9268,36.7524,0.0],[28.9288,36.7551,0.5348],[28.9363,36.7562,2.4947],[28.9412,36.7537,1.9507],[28.9426,36.7504,0.0],[28.9421,36.7457,0.0],[28.9485,36.7412,9.1019],[28.949,36.7368,0.0],[28.9607,36.7315,0.0],[28.9649,36.7224,2.5175],[28.9665,36.7243,0.0],[28.9649,36.7263,4.3675],[28.9654,36.7299,4.9973],[28.971,36.731,0.3891],[28.9746,36.7285,75.0059],[28.9746,36.726,5.503],[28.9774,36.7265,0.0],[28.979,36.7251,0.0],[28.9788,36.7218,0.0],[28.981,36.7193,36.1068],[28.9879,36.7199,1.006],[28.9876,36.7168,0.0],[28.9904,36.7146,0.0],[28.9915,36.711,0.0],[28.9957,36.7101,0.0],[28.996,36.7082,0.0],[29.0004,36.709,0.0],[28.9982,36.7126,62.1781],[28.9988,36.7146,0.0],[29.004,36.7113,0.0],[29.0093,36.7101,0.0],[29.0121,36.7129,17.4622],[29.0204,36.7154,0.0],[29.0213,36.711,0.0],[29.0146,36.7076,0.0],[29.0132,36.7043,0.0],[29.0201,36.7012,0.0],[29.0201,36.7035,0.0],[29.0218,36.7035,0.0],[29.024,36.7068,0.0],[29.028199999999998,36.7035,0.0],[29.0307,36.7054,0.0],[29.0301,36.7076,10.2228],[29.0332,36.7079,0.0],[29.0346,36.7054,29.409],[29.0318,36.7029,0.0],[29.0329,36.7029,0.0],[29.0335,36.6951,0.0],[29.0365,36.6963,0.7638],[29.0424,36.6899,1.1708],[29.046,36.6888,4.3626],[29.0554,36.681,0.2948],[29.0646,36.6793,0.3033],[29.0735,36.6815,0.2023],[29.0826,36.6771,0.2902],[29.0846,36.6787,0.3918],[29.0921,36.6787,0.0],[29.1038,36.6707,3.39],[29.1101,36.6582,1.2804],[29.1101,36.6524,0.0],[29.1165,36.6538,2.8191],[29.1218,36.6479,0.0],[29.1213,36.6351,0.2821],[29.1151,36.6254,2.5509],[29.1124,36.6249,1.6189],[29.1118,36.6232,2.2317],[29.1085,36.6235,1.3564],[29.1057,36.6215,17.5224],[29.1015,36.6235,1.285],[29.0971,36.621,9.6782],[29.0888,36.6204,25.3308],[29.0882,36.6237,0.0],[29.0907,36.6257,3.4933],[29.0932,36.6318,8.7314],[29.0971,36.6299,0.0],[29.1004,36.6312,5.5073],[29.1018,36.6346,0.0],[29.0985,36.6365,1.9761],[29.1018,36.641,0.0],[29.0996,36.6415,3.6252],[29.0968,36.6387,11.4036],[29.0946,36.641,14.4787],[29.0946,36.6435,13.0474],[29.0901,36.6446,0.0],[29.0851,36.6424,7.7776],[29.0843,36.644,0.0],[29.0776,36.6463,0.0],[29.0771,36.6437,51.7507],[29.0746,36.644,0.0],[29.0729,36.6404,0.0],[29.0765,36.639,3.125],[29.0782,36.6321,27.3673],[29.0779,36.6279,27.9769],[29.0735,36.6279,0.0],[29.0763,36.6268,0.0],[29.079,36.6207,26.5301],[29.0721,36.621,0.0],[29.0754,36.6143,0.7158],[29.0679,36.6149,30.4818],[29.0674,36.6168,6.0087],[29.0632,36.6157,2.8711],[29.0613,36.6185,5.3956],[29.0582,36.6151,19.7568],[29.0529,36.6132,10.913],[29.0521,36.6168,32.0464],[29.049,36.6174,0.0],[29.0457,36.6218,4.3943],[29.0401,36.6199,0.9499],[29.0351,36.6138,0.0],[29.036,36.6096,23.787],[29.031,36.6082,0.0],[29.0301,36.6037,4.4089],[29.0285,36.604,0.0],[29.0276,36.6021,3.1443],[29.0299,36.5982,10.8557],[29.0285,36.5968,3.073],[29.0296,36.5915,0.0],[29.028199999999998,36.5893,8.2829],[29.0238,36.5887,13.5151],[29.0224,36.586,0.0],[29.024,36.581,0.0],[29.0287,36.5807,52.0155],[29.0354,36.5776,109.5541],[29.0329,36.5754,0.0],[29.034,36.5713,187.9923],[29.0318,36.5701,44.1326],[29.0329,36.5671,14.4616],[29.0371,36.5665,0.0],[29.0415,36.5682,19.6521],[29.0432,36.5646,0.0],[29.046,36.5651,0.0],[29.0446,36.561,0.0],[29.0468,36.5582,26.9861],[29.0399,36.5563,0.0],[29.0357,36.5529,43.9173],[29.0318,36.5532,5.9533],[29.0257,36.5471,0.0],[29.0176,36.5471,0.0],[29.0163,36.549,0.0],[29.011,36.5479,0.0],[29.0113,36.546,22.5435],[29.0096,36.546,0.0],[29.0085,36.5435,0.0],[29.011,36.544,2.5746],[29.0124,36.5424,6.5692],[29.0149,36.5435,0.0],[29.016,36.5412,0.0],[29.0235,36.5407,55.7707],[29.0263,36.5385,0.0],[29.0307,36.5382,0.0],[29.0346,36.5429,7.2756],[29.0376,36.541,22.0265],[29.0374,36.539,0.0],[29.0421,36.5385,0.0],[29.0482,36.5407,13.3493],[29.0535,36.5388,0.0],[29.0543,36.5401,0.0],[29.051,36.5407,15.6335],[29.0571,36.544,0.0],[29.0515,36.5471,54.7999],[29.0513,36.5563,2.5398],[29.0493,36.5563,40.669],[29.0493,36.5585,13.0251],[29.0601,36.5563,0.0],[29.0607,36.5588,27.2611],[29.0668,36.5565,0.0],[29.079,36.559,42.0905],[29.0812,36.5579,0.0],[29.0863,36.5651,1.9424],[29.0888,36.5649,6.1438],[29.0904,36.5599,0.0],[29.0893,36.5565,3.4404],[29.0935,36.5546,7.9166],[29.0951,36.5501,0.0],[29.0932,36.5482,0.0],[29.0971,36.5451,0.0],[29.106,36.5465,17.0802],[29.1082,36.544,12.9076],[29.1113,36.5438,7.3145],[29.1113,36.5482,12.3923],[29.1043,36.5535,4.0703],[29.1046,36.5551,0.0],[29.1074,36.5554,0.0],[29.1121,36.5546,18.55],[29.1146,36.5518,0.0],[29.111,36.5493,0.0],[29.1165,36.5493,3.0579],[29.1238,36.5449,1.8363],[29.1257,36.5424,2.6873],[29.1274,36.5282,5.8862],[29.1249,36.5249,3.3885],[29.1262,36.5207,0.0],[29.1229,36.519,0.0],[29.1188,36.5043,0.0],[29.1207,36.5001,0.0],[29.1254,36.499,27.895],[29.126,36.4965,38.842],[29.1215,36.4954,174.0633],[29.1196,36.4976,0.0],[29.114,36.4971,0.0],[29.1113,36.4854,12.5509],[29.1007,36.4746,0.0],[29.1024,36.474,2.6945],[29.1038,36.4688,28.6014],[29.1124,36.4674,117.0498],[29.1146,36.4637,12.4976],[29.114,36.4621,12.4976],[29.1249,36.4615,5.7103],[29.1238,36.4576,15.4738],[29.119,36.4543,0.0],[29.1196,36.4507,0.0],[29.1235,36.449,3.5998],[29.121,36.4418,0.0],[29.1251,36.4451,0.0],[29.129,36.4449,0.0],[29.1282,36.4426,0.0],[29.131,36.4413,29.057],[29.131,36.4396,40.2377],[29.1285,36.4368,0.0],[29.1335,36.4279,28.2603],[29.1179,36.4254,0.0],[29.126,36.4207,7.0469],[29.129,36.421,25.6859],[29.1287,36.4179,0.0],[29.1315,36.4157,11.5346],[29.126,36.4135,28.4689],[29.1149,36.4129,11.8945],[29.1107,36.4063,5.564],[29.1029,36.4046,0.0],[29.1026,36.3979,23.4824],[29.0996,36.3921,12.089],[29.1013,36.3871,0.0],[29.1093,36.3857,6.8757],[29.1107,36.3901,11.0596],[29.1149,36.3924,12.7291],[29.1201,36.3907,0.9829],[29.1213,36.3832,0.0],[29.1243,36.3818,55.5438],[29.1179,36.3771,0.0],[29.1188,36.3754,0.0],[29.1296,36.3771,33.6504],[29.1313,36.3754,0.0],[29.1326,36.3771,101.7533],[29.1351,36.3774,121.4523],[29.1363,36.376,0.0],[29.1454,36.3782,0.0],[29.1468,36.3763,0.0],[29.1401,36.3688,5.204],[29.1426,36.3657,0.0],[29.1376,36.3643,0.0],[29.1382,36.3599,0.0],[29.1424,36.3587,0.0],[29.1426,36.3568,0.0],[29.1471,36.3576,84.3509],[29.151,36.354,1.4243],[29.1557,36.3568,0.0],[29.1607,36.3521,0.0],[29.164,36.3529,0.0],[29.1601,36.3474,0.0],[29.164,36.344,3.9171],[29.1649,36.341,0.0],[29.169,36.3407,0.0],[29.1746,36.3449,6.2001],[29.1804,36.3418,0.0],[29.1832,36.3426,14.3114],[29.1821,36.3371,0.0],[29.184,36.3349,0.0],[29.1901,36.3335,0.0],[29.194,36.336,3.2167],[29.1976,36.3351,0.0],[29.2032,36.3315,5.8224],[29.2043,36.329,0.0],[29.209599999999998,36.3271,19.2171],[29.209,36.3251,1.3804],[29.2071,36.3246,0.0],[29.2076,36.3232,0.0],[29.2129,36.3262,2.5112],[29.2165,36.3251,0.0],[29.2263,36.3288,10.672],[29.231,36.3246,0.0],[29.2404,36.3218,5.7479],[29.2446,36.3176,2.333],[29.2493,36.3176,2.0548],[29.2624,36.301,4.2172],[29.288,36.3091,4.3427],[29.2988,36.3188,5.0298],[29.3052,36.3397,20.0589],[29.3144,36.3559,17.5623],[29.3193,36.384,54.5465],[29.3285,36.4019,35.5084],[29.3277,36.41,42.0881],[29.3212,36.4206,35.1396],[29.3192,36.4269,41.235],[29.3214,36.4357,36.3024],[29.3271,36.4423,41.7131],[29.3969,36.4955,258.4297],[29.4294,36.5104,624.3032],[29.5021,36.5652,1984.3296],[29.5135,36.5714,2382.8772],[29.529,36.577,2617.9797],[29.5423,36.5851,2354.7129],[29.5615,36.6006,1814.8638],[29.574,36.6149,1868.9183],[29.5843,36.6327,1525.5865],[29.5868,36.6415,1617.2518],[29.5882,36.7236,2126.3066],[29.5911,36.7355,1921.1272],[29.6001,36.7522,1666.6917],[29.605,36.7791,1224.7073],[29.6207,36.8055,1141.2302],[29.645,36.8306,1388.0248],[29.6736,36.8748,1263.4207],[29.6768,36.8827,1282.4863]]]]}
,"properties": {"GID_2": "TUR.59.4_1","GID_0": "TUR","country": "Turkey","GID_1": "TUR.59_1","province": "Mugla","NL_NAME_1": "NA","county": "Fethiye","VARNAME_2": "NA","NL_NAME_2": "NA","TYPE_2": "District","ENGTYPE_2": "District","CC_2": "NA","HASC_2": "TR.MG.FE","name": "Fethiye.county","area_km2": 2864.735,"hist_schema_id": "Elevation0-9000","hist_area_km2": {"0": 54.667,"25": 41.142,"50": 44.961,"75": 62.321,"100": 75.431,"125": 73.211,"150": 66.175,"175": 68.503,"200": 63.134,"225": 56.704,"250": 54.248,"275": 53.551,"300": 51.41,"325": 52.307,"350": 48.983,"375": 44.048,"400": 40.081,"425": 38.77,"450": 41.6,"475": 39.915,"500": 34.305,"525": 34.424,"550": 35.751,"575": 35.887,"600": 35.987,"625": 33.673,"650": 32.602,"675": 29.423,"700": 27.331,"725": 25.085,"750": 24.357,"775": 22.961,"800": 23.334,"825": 22.126,"850": 22.178,"875": 23.672,"900": 22.628,"925": 22.562,"950": 22.816,"975": 23.835,"1000": 25.449,"1025": 24.125,"1050": 21.489,"1075": 21.886,"1100": 24.3,"1125": 47.498,"1150": 56.66,"1175": 42.552,"1200": 40.958,"1225": 40.613,"1250": 43.437,"1275": 45.486,"1300": 40.737,"1325": 40.565,"1350": 39.497,"1375": 37.337,"1400": 39.174,"1425": 38.085,"1450": 35.728,"1475": 33.385,"1500": 32.264,"1525": 32.721,"1550": 29.311,"1575": 25.786,"1600": 24.498,"1625": 22.007,"1650": 22.193,"1675": 22.652,"1700": 19.954,"1725": 20.193,"1750": 20.04,"1775": 17.986,"1800": 17.63,"1825": 16.814,"1850": 16.596,"1875": 15.731,"1900": 14.649,"1925": 13.29,"1950": 13.241,"1975": 12.169,"2000": 10.27,"2025": 8.675,"2050": 7.691,"2075": 7.25,"2100": 6.232,"2125": 8.253,"2150": 6.792,"2175": 6.521,"2200": 6.199,"2225": 5.553,"2250": 4.297,"2275": 3.379,"2300": 2.598,"2325": 2.157,"2350": 1.274,"2375": 1.02,"2400": 0.595,"2425": 0.238,"2450": 0.136,"2475": 0.17,"2500": 0.187,"2525": 0.136,"2550": 0.153,"2575": 0.051,"2600": 0.102}}}