{"type": "Feature","bbox": [35.852,37.12,36.3024,37.6515],"geometry": {"type": "MultiPolygon","coordinates": [[[[36.001,37.1742,32.9344],[36.0144,37.1822,35.8994],[36.0328,37.1897,37.2396],[36.0626,37.2064,39.1301],[36.1014,37.2114,180.671],[36.1241,37.2181,98.0022],[36.13,37.2174,78.5104],[36.1348,37.2149,75.5494],[36.1478,37.201,93.5991],[36.1641,37.1893,134.9372],[36.1974,37.1762,150.2018],[36.2202,37.1703,98.9795],[36.2287,37.1846,125.9076],[36.2413,37.1973,73.2751],[36.245,37.2077,89.8253],[36.253,37.2215,154.926],[36.2556,37.2307,124.8794],[36.2564,37.2845,137.0],[36.2586,37.2985,137.0],[36.2741,37.3245,137.0],[36.2948,37.3504,137.0],[36.258,37.362,150.9989],[36.2503,37.3668,162.4789],[36.2447,37.3732,233.0273],[36.242,37.3811,288.239],[36.2389,37.403,231.5464],[36.2283,37.4251,298.1358],[36.2252,37.47,470.049],[36.2139,37.4919,508.3686],[36.2121,37.5002,402.4821],[36.2128,37.517,491.3675],[36.2174,37.5271,681.5635],[36.2338,37.5506,645.9969],[36.2578,37.5706,521.0815],[36.2695,37.5823,959.2851],[36.2829,37.6033,1220.2609],[36.2897,37.6243,1215.5857],[36.299,37.6407,1176.2043],[36.3024,37.6512,1182.8265],[36.2267,37.6515,1337.4961],[36.2023,37.6497,1673.1738],[36.1805,37.6428,1257.9799],[36.1538,37.6369,1259.2766],[36.144,37.6317,1282.499],[36.132,37.6216,1425.967],[36.1368,37.6012,1407.5725],[36.1357,37.5767,908.5295],[36.1244,37.5545,656.2184],[36.1184,37.5361,522.6329],[36.109,37.5196,352.8315],[36.1051,37.4718,260.3183],[36.0951,37.4524,219.0432],[36.0926,37.444,221.7915],[36.0917,37.4019,104.0164],[36.0905,37.3901,95.968],[36.0875,37.382,83.0621],[36.0721,37.3593,64.3463],[36.0653,37.3538,61.9858],[36.0446,37.345,54.2446],[36.0305,37.3357,49.1111],[36.0212,37.3269,44.2194],[36.0115,37.313,42.146],[35.9998,37.3044,37.7777],[35.9816,37.2966,38.3818],[35.9583,37.2825,34.037],[35.9279,37.2707,31.6387],[35.913,37.2679,31.1237],[35.8822,37.2675,33.2313],[35.8811,37.2501,32.0811],[35.8831,37.2361,31.2206],[35.8871,37.2287,30.773],[35.9043,37.2083,29.4948],[35.8851,37.1873,28.604],[35.853,37.1391,27.6555],[35.852,37.1313,27.0131],[35.8542,37.1264,28.0391],[35.8606,37.1214,27.2121],[35.8665,37.12,26.2715],[35.8748,37.1217,26.6625],[35.9575,37.1545,31.025],[35.9844,37.1703,32.7595],[36.001,37.1742,32.9344]]]]}
,"properties": {"GID_2": "TUR.64.4_1","GID_0": "TUR","country": "Turkey","GID_1": "TUR.64_1","province": "Osmaniye","NL_NAME_1": "NA","county": "Kadirli","VARNAME_2": "NA","NL_NAME_2": "NA","TYPE_2": "District","ENGTYPE_2": "District","CC_2": "NA","HASC_2": "TR.OS.KA","name": "Kadirli.county","area_km2": 939.7621,"hist_schema_id": "Elevation0-9000","hist_area_km2": {"25": 186.3997,"50": 75.9408,"75": 33.7844,"100": 27.5425,"125": 43.6747,"150": 38.8858,"175": 43.8103,"200": 41.4428,"225": 37.6625,"250": 37.0357,"275": 35.7851,"300": 32.2918,"325": 30.4824,"350": 25.3728,"375": 21.1724,"400": 15.9132,"425": 13.1166,"450": 11.6829,"475": 9.7455,"500": 8.8505,"525": 6.141,"550": 6.022,"575": 5.8024,"600": 5.5837,"625": 4.7752,"650": 4.186,"675": 4.0177,"700": 3.7992,"725": 3.6309,"750": 4.9575,"775": 5.1421,"800": 5.2933,"825": 5.8139,"850": 5.7801,"875": 5.8303,"900": 6.603,"925": 7.325,"950": 8.87,"975": 6.1649,"1000": 5.392,"1025": 5.4252,"1050": 5.8954,"1075": 4.7868,"1100": 4.7867,"1125": 4.4001,"1150": 4.3496,"1175": 3.9969,"1200": 3.1739,"1225": 3.7616,"1250": 3.4425,"1275": 2.989,"1300": 2.4012,"1325": 1.8305,"1350": 1.5952,"1375": 1.0411,"1400": 0.9235,"1425": 0.6716,"1450": 0.4701,"1475": 0.2854,"1500": 0.1847,"1525": 0.2183,"1550": 0.1847,"1575": 0.2686,"1600": 0.2518,"1625": 0.2015,"1650": 0.1679,"1675": 0.1343,"1700": 0.1679,"1725": 0.0168,"1750": 0.0168}}}