{"type":"Feature","properties":{"GID_2":"TUR.9.6_1","GID_0":"TUR","country":"Turkey","GID_1":"TUR.9_1","province":"Ardahan","NL_NAME_1":"NA","county":"Posof","VARNAME_2":"NA","NL_NAME_2":"NA","TYPE_2":"District","ENGTYPE_2":"District","CC_2":"NA","HASC_2":"TR.AR.PO","name":"Posof.county"},
"geometry":{"type": "MultiPolygon","coordinates": [[[[42.5113,41.4669,2558.6072],[42.5208,41.4549,2638.8042],[42.5233,41.4469,2920.4636],[42.523,41.4433,2949.2183],[42.5203,41.44,2732.0688],[42.5136,41.4398,2666.6006],[42.5045,41.4455,2499.1965],[42.4966,41.4452,2511.21],[42.4728,41.4397,2232.8843],[42.4798,41.4212,2129.2505],[42.4848,41.399,2671.0088],[42.4941,41.3826,2498.0481],[42.5008,41.3615,2135.1704],[42.5243,41.322,2007.5983],[42.556399999999996,41.3278,2671.0732],[42.5868,41.3389,2540.5747],[42.6112,41.3505,2547.9839],[42.6243,41.3635,2507.9185],[42.6342,41.3698,2589.8081],[42.6604,41.3793,2619.6628],[42.6705,41.3806,2596.5938],[42.721,41.4151,2454.4204],[42.7578,41.4287,2616.2834],[42.7768,41.4304,2380.0322],[42.812,41.4298,2439.9434],[42.8268,41.4275,2414.3911],[42.8517,41.4196,2314.4885],[42.9097,41.4172,2543.3516],[42.9603,41.4005,2622.8784],[42.9687,41.4016,2472.9675],[42.9896,41.4127,2881.1934],[42.9899,41.4183,2844.8574],[42.9842,41.4268,2781.2495],[42.9735,41.4337,2657.1121],[42.9735,41.4462,2402.8267],[42.9696,41.4515,2476.6221],[42.945,41.4582,2558.623],[42.9313,41.4726,2450.6155],[42.9045,41.4808,2441.6707],[42.9024,41.4847,2415.3547],[42.9033,41.492,2431.3848],[42.9021,41.4991,2568.156],[42.8954,41.5037,2494.3118],[42.8759,41.5028,2194.3342],[42.8662,41.4991,2098.8047],[42.8613,41.484,2018.3887],[42.8562,41.4753,1693.7808],[42.8519,41.4728,1539.6404],[42.8471,41.4726,1504.2319],[42.8358,41.4806,1570.5371],[42.8306,41.4833,1507.641],[42.8227,41.4847,1426.8452],[42.8096,41.4927,1399.575],[42.8099,41.4984,1594.8385],[42.8072,41.5032,1419.6296],[42.7944,41.5123,1268.6667],[42.7935,41.5164,1245.6044],[42.7977,41.5251,1299.5654],[42.812,41.5306,1276.6688],[42.8208,41.5359,1297.5332],[42.8184,41.5577,1316.3335],[42.8205,41.5604,1279.9426],[42.8324,41.565,1140.4441],[42.8388,41.5707,1234.2025],[42.8363,41.5828,1122.4664],[42.8293,41.5879,1189.5067],[42.7933,41.5885,1588.7095],[42.7836,41.5782,1347.7911],[42.7726,41.5828,1394.8596],[42.7629,41.5844,1497.7146],[42.74,41.5942,1723.0162],[42.7083,41.598,1886.9309],[42.6779,41.5973,1999.1106],[42.6215,41.5843,2119.3188],[42.6073,41.5859,2319.9194],[42.6023,41.5838,2453.9631],[42.5969,41.5763,2453.3008],[42.5841,41.5702,2362.8262],[42.5799,41.5661,2450.8276],[42.5781,41.5618,2434.6423],[42.5787,41.5503,2454.7046],[42.5775,41.5444,2387.9143],[42.5652,41.5253,2368.4358],[42.5682,41.5221,2372.283],[42.5695,41.5109,2392.9148],[42.5628,41.5088,2178.95],[42.556399999999996,41.5045,2218.832],[42.5489,41.4935,2161.1699],[42.5358,41.4943,2173.5107],[42.5316,41.4916,2230.9399],[42.5304,41.4863,2237.248],[42.5161,41.4792,2389.624],[42.5101,41.4686,2553.689],[42.5113,41.4669,2558.6072]]]]}}