{"type": "Feature","bbox": [39.6856,39.2889,40.5432,39.5576],"geometry": {"type": "MultiPolygon","coordinates": [[[[40.3909,39.3945,1793.8445],[40.374,39.4031,1789.4218],[40.3504,39.407,1914.4563],[40.3415,39.4103,2112.6711],[40.3339,39.4178,1878.7689],[40.3338,39.4252,1711.2861],[40.3398,39.4305,1662.274],[40.3585,39.4384,1776.2043],[40.4048,39.455,1397.2273],[40.4373,39.4737,1604.8892],[40.5165,39.504,2237.9561],[40.5303,39.5138,2624.949],[40.5385,39.5234,2628.9446],[40.5412,39.5315,2921.1802],[40.5432,39.5478,2447.1538],[40.5042,39.5457,2322.1069],[40.2712,39.5458,1947.1691],[40.2463,39.5479,1861.5967],[40.2246,39.5548,1881.2324],[40.2129,39.5569,1709.6301],[40.1421,39.5576,1651.6602],[40.1222,39.5551,1668.7554],[40.1043,39.5489,1481.9988],[40.0772,39.5434,1630.2428],[40.0594,39.5372,1956.2164],[40.0322,39.5318,2196.1504],[40.0143,39.5254,2278.0884],[39.9864,39.5187,2414.1252],[39.957,39.5253,2314.0891],[39.9093,39.5438,1612.2693],[39.8859,39.5499,1716.0938],[39.8552,39.5447,2057.9087],[39.8341,39.5372,1981.7805],[39.8068,39.5323,2125.0691],[39.7706,39.5182,2257.2898],[39.7286,39.4866,2366.8875],[39.7199,39.4779,2210.8608],[39.7069,39.4595,2093.5688],[39.6856,39.4432,1817.0839],[39.6867,39.413,1985.2266],[39.6975,39.391,1744.3315],[39.7019,39.3638,2764.6482],[39.7081,39.3447,2300.7175],[39.7522,39.3507,2223.9307],[39.7623,39.3576,2215.0146],[39.7879,39.3687,1378.4661],[39.798,39.371,1305.1735],[39.8123,39.371,1917.374],[39.8224,39.3688,1984.9832],[39.8516,39.3567,1667.0966],[39.8606,39.3493,1775.4185],[39.8697,39.3351,2338.4382],[39.8786,39.326,2137.7517],[39.8898,39.3183,2062.5212],[39.8998,39.3148,2167.0728],[39.9173,39.3143,2333.7932],[39.9374,39.3194,2107.6489],[39.943,39.3194,2287.9661],[39.9822,39.3054,1904.7008],[39.9911,39.3045,1955.4102],[39.9965,39.306,1850.4629],[40.0113,39.3194,1727.5409],[40.02,39.3232,1851.1818],[40.0341,39.3252,1495.3411],[40.06,39.325,1627.1672],[40.0774,39.322,1608.186],[40.1217,39.3042,1477.6233],[40.1488,39.2987,1402.355],[40.1667,39.2924,1720.6686],[40.2021,39.2889,1585.0442],[40.214,39.3027,1849.3127],[40.2241,39.3094,1832.942],[40.257,39.3171,2060.8936],[40.284,39.3327,2014.4829],[40.3325,39.3515,2015.2656],[40.3711,39.3775,1835.9629],[40.3908,39.3829,2187.1177],[40.3909,39.3945,1793.8445]]]]}
,"properties": {"GID_2": "TUR.76.8_1","GID_0": "TUR","country": "Turkey","GID_1": "TUR.76_1","province": "Tunceli","NL_NAME_1": "NA","county": "Pülümür","VARNAME_2": "NA","NL_NAME_2": "NA","TYPE_2": "District","ENGTYPE_2": "District","CC_2": "NA","HASC_2": "TR.TC.PU","name": "Pülümür.county","area_km2": 1436.54,"hist_schema_id": "Elevation0-9000","hist_area_km2": {"1200": 0.098,"1225": 0.803,"1250": 2.327,"1275": 2.851,"1300": 3.343,"1325": 4.685,"1350": 5.275,"1375": 6.864,"1400": 9.238,"1425": 9.763,"1450": 11.517,"1475": 13.301,"1500": 15.135,"1525": 17.117,"1550": 19.492,"1575": 20.654,"1600": 23.259,"1625": 24.93,"1650": 26.028,"1675": 30.482,"1700": 31.84,"1725": 34.494,"1750": 35.753,"1775": 37.586,"1800": 40.385,"1825": 41.875,"1850": 44.264,"1875": 44.362,"1900": 45.049,"1925": 47.652,"1950": 46.095,"1975": 46.602,"2000": 46.67,"2025": 45.704,"2050": 46.54,"2075": 44.721,"2100": 43.871,"2125": 42.215,"2150": 37.713,"2175": 35.159,"2200": 31.997,"2225": 29.965,"2250": 24.838,"2275": 24.265,"2300": 20.612,"2325": 17.255,"2350": 16.009,"2375": 15.699,"2400": 14.093,"2425": 12.864,"2450": 11.849,"2475": 11.912,"2500": 12.288,"2525": 10.963,"2550": 9.735,"2575": 8.95,"2600": 8.769,"2625": 8.36,"2650": 7.362,"2675": 6.806,"2700": 6.168,"2725": 6.217,"2750": 5.562,"2775": 4.842,"2800": 3.763,"2825": 3.566,"2850": 3.174,"2875": 2.372,"2900": 1.963,"2925": 2.143,"2950": 1.522,"2975": 1.096,"3000": 0.802,"3025": 0.72,"3050": 0.622,"3075": 0.556,"3100": 0.409,"3125": 0.213,"3150": 0.098,"3175": 0.18,"3200": 0.065,"3225": 0.082,"3250": 0.082,"3275": 0.016}}}