{"type":"Feature","properties":{"GID_2":"TUR.42.6_1","GID_0":"TUR","country":"Turkey","GID_1":"TUR.42_1","province":"K.Maras","NL_NAME_1":"NA","county":"Göksun","VARNAME_2":"NA","NL_NAME_2":"NA","TYPE_2":"District","ENGTYPE_2":"District","CC_2":"NA","HASC_2":"TR.KM.GO","name":"Göksun.county"},
"geometry":{"type": "MultiPolygon","coordinates": [[[[36.3152,37.8856,1493.6228],[36.4261,37.8836,1839.5291],[36.4401,37.8809,1731.7014],[36.4637,37.8717,1871.3611],[36.4766,37.8638,1746.974],[36.4879,37.8477,1848.4463],[36.4995,37.8364,1505.0519],[36.5592,37.7898,1114.4208],[36.5741,37.7812,1099.873],[36.6105,37.7704,1510.8948],[36.6264,37.7866,1655.6592],[36.6313,37.7943,1764.9014],[36.6338,37.8083,1371.4397],[36.6328,37.8282,1122.2585],[36.629,37.8388,980.6027],[36.5852,37.9061,1305.1494],[36.565,37.9264,1811.9177],[36.5601,37.9341,2130.2788],[36.5574,37.9481,1753.9106],[36.5572,37.9595,1623.7125],[36.5597,37.9734,1900.213],[36.5646,37.9804,2006.2136],[36.5745,37.9872,2084.1848],[36.6079,37.9992,1853.1979],[36.6298,38.0009,1821.1924],[36.6554,37.9996,1724.0464],[36.6715,37.9935,1876.9226],[36.6982,37.974,1603.3297],[36.7097,37.9674,1536.9827],[36.7398,37.9559,1374.8003],[36.767,37.9506,1661.7013],[36.7846,37.9442,1974.3948],[36.7986,37.9426,1682.9902],[36.8125,37.9442,2206.9399],[36.8302,37.9506,2360.6003],[36.8573,37.956,1741.7031],[36.8877,37.9671,1960.814],[36.9289,37.9831,1928.5953],[36.9368,38.0107,2158.9473],[36.9515,38.0342,1858.631],[36.9684,38.0494,1726.5182],[36.99,38.0613,1405.323],[37.0048,38.08,1142.1868],[37.0079,38.0877,1220.1565],[37.0117,38.1127,1153.1056],[37.0208,38.1291,1168.0267],[37.0243,38.1397,1171.2496],[37.0243,38.1513,1120.8296],[36.9653,38.151,1151.1445],[36.9505,38.1487,1148.5952],[36.9328,38.1424,1188.0884],[36.922,38.1404,1214.8687],[36.8676,38.1395,1225.4019],[36.8451,38.142,1311.109],[36.8099,38.1563,1163.6726],[36.8014,38.1641,1259.8854],[36.7884,38.185,1394.05],[36.7809,38.2086,1748.1121],[36.7625,38.2369,1658.2949],[36.7464,38.2527,2026.9032],[36.7325,38.2708,1900.1627],[36.7225,38.2772,1675.1285],[36.7013,38.2864,2235.4624],[36.6904,38.2943,2142.3914],[36.6838,38.3012,2093.7742],[36.6809,38.3067,2232.5317],[36.6791,38.3155,2704.4072],[36.6799,38.3773,1804.7185],[36.6791,38.3864,2236.25],[36.6763,38.3951,2399.2007],[36.6631,38.4093,2489.564],[36.6195,38.4427,2058.3936],[36.6072,38.43,1965.7106],[36.585,38.3948,2175.4917],[36.5507,38.3646,2199.7634],[36.5359,38.3439,2684.7568],[36.5091,38.3229,2227.0879],[36.5009,38.3187,2161.2012],[36.4914,38.3163,1962.7607],[36.4682,38.3019,1663.3114],[36.4566,38.2906,1594.8556],[36.4486,38.2786,1554.8994],[36.4273,38.2554,1545.749],[36.4211,38.2254,1591.0537],[36.4112,38.2063,1597.0146],[36.4061,38.1788,1725.921],[36.3961,38.1597,2246.7422],[36.3911,38.1322,1947.4052],[36.3807,38.1132,1958.8704],[36.3733,38.0822,2259.0476],[36.3656,38.0667,2280.1748],[36.36,38.0482,2144.0371],[36.3517,38.0343,1895.2917],[36.3446,38.0133,1869.9204],[36.3354,37.9967,1769.8823],[36.3331,37.9816,1723.0317],[36.3321,37.9287,1681.4353],[36.3296,37.92,1534.0568],[36.3204,37.9036,1743.6173],[36.3152,37.8856,1493.6228]]]]}}