{"type":"Feature","properties":{"GID_2":"TUR.69.1_1","GID_0":"TUR","country":"Turkey","GID_1":"TUR.69_1","province":"Siirt","NL_NAME_1":"NA","county":"Aydınlar","VARNAME_2":"NA","NL_NAME_2":"NA","TYPE_2":"District","ENGTYPE_2":"District","CC_2":"NA","HASC_2":"TR.SI.AY","name":"Aydınlar.county"},
"geometry":{"type": "MultiPolygon","coordinates": [[[[42.137,37.9879,889.2449],[42.1137,37.994,935.2438],[42.0895,37.9982,993.9797],[42.0608,38.0068,1050.8053],[41.9946,38.0079,1188.4841],[42.0002,37.9951,1237.2415],[42.0176,37.977,1324.9297],[42.0224,37.9691,1376.658],[42.0248,37.9509,1220.1815],[42.0211,37.9275,1124.5432],[42.0616,37.9259,533.5527],[42.0718,37.9269,663.166],[42.0806,37.9299,724.1757],[42.0941,37.9459,643.2836],[42.1065,37.965,633.5],[42.1192,37.9761,709.4955],[42.137,37.9879,889.2449]]]]}}