{"type": "Feature","bbox": [36.4186,37.0541,36.6251,37.1855],"geometry": {"type": "MultiPolygon","coordinates": [[[[36.6251,37.1855,971.4908],[36.4515,37.1855,621.5542],[36.4358,37.177,307.5523],[36.4186,37.1728,276.716],[36.4229,37.1543,449.6363],[36.4259,37.1497,512.9152],[36.4326,37.144,576.7562],[36.4451,37.1398,751.4583],[36.4799,37.1368,570.9889],[36.4883,37.1326,555.7852],[36.4942,37.1264,588.6365],[36.4965,37.1186,610.5795],[36.4937,37.1087,629.9238],[36.4897,37.105,670.7056],[36.4733,37.097,900.2124],[36.4599,37.0877,995.8434],[36.4542,37.0806,1045.7473],[36.4532,37.0725,1174.8964],[36.4574,37.0652,1191.7994],[36.4677,37.059,1189.2262],[36.5029,37.0541,975.0256],[36.5138,37.0798,893.2365],[36.5325,37.1075,809.7845],[36.6064,37.166,1179.988],[36.6251,37.1855,971.4908]]]]}
,"properties": {"GID_2": "TUR.64.3_1","GID_0": "TUR","country": "Turkey","GID_1": "TUR.64_1","province": "Osmaniye","NL_NAME_1": "NA","county": "Hasanbeyli","VARNAME_2": "NA","NL_NAME_2": "NA","TYPE_2": "District","ENGTYPE_2": "District","CC_2": "NA","HASC_2": "TR.OS.HA","name": "Hasanbeyli.county","area_km2": 123.43176,"hist_schema_id": "Elevation0-9000","hist_area_km2": {"300": 0.21964,"325": 0.32102,"350": 0.55755,"375": 0.84478,"400": 0.96308,"425": 1.11513,"450": 1.14896,"475": 1.58826,"500": 2.1288299999999998,"525": 9.02201,"550": 6.4877,"575": 4.91702,"600": 5.7959,"625": 5.93141,"650": 8.28101,"675": 9.04178,"700": 7.16615,"725": 5.93294,"750": 5.25716,"775": 5.47679,"800": 5.12219,"825": 4.47973,"850": 4.41196,"875": 3.70224,"900": 3.22869,"925": 2.705,"950": 2.13011,"975": 1.96124,"1000": 1.84292,"1025": 1.21736,"1050": 1.52186,"1075": 1.60628,"1100": 1.3359,"1125": 1.47123,"1150": 1.84353,"1175": 1.16687,"1200": 0.79465,"1225": 0.27039,"1250": 0.18588,"1275": 0.15207,"1300": 0.06758,"1325": 0.0169}}}