{"type": "Feature","bbox": [41.1717,39.0296,41.9527,39.3836],"geometry": {"type": "MultiPolygon","coordinates": [[[[41.2044,39.1636,1814.0583],[41.2262,39.1596,1646.9144],[41.2376,39.1541,1602.4801],[41.2729,39.1135,2041.7637],[41.2757,39.1046,2207.4272],[41.2767,39.0923,2113.9297],[41.2745,39.0296,2408.3259],[41.3076,39.0418,2399.4131],[41.3347,39.0473,2277.8157],[41.3526,39.0536,2115.3357],[41.3796,39.059,2004.1222],[41.4014,39.0661,1917.9752],[41.4221,39.0678,1768.8348],[41.6149,39.0674,1498.686],[41.6313,39.0657,1572.2223],[41.6569,39.0578,1602.3955],[41.6821,39.0558,1711.2056],[41.8954,39.0561,1436.0809],[41.9138,39.0529,1432.5],[41.9184,39.0497,1432.5],[41.9218,39.0441,1432.5],[41.9353,39.0441,1432.5],[41.9446,39.0459,1445.3657],[41.9495,39.0494,1432.5],[41.9526,39.0566,1432.5],[41.9527,39.0673,1489.947],[41.9509,39.0755,1540.1436],[41.9346,39.1015,1486.6033],[41.9135,39.121,1583.2607],[41.8939,39.1338,1699.4856],[41.8727,39.1423,1879.3579],[41.8388,39.1622,2244.3191],[41.8131,39.1605,2343.1926],[41.7836,39.1612,2386.4875],[41.7731,39.1631,2373.0229],[41.7521,39.1703,2354.6355],[41.7201,39.1734,2115.8875],[41.7073,39.1774,1996.182],[41.6832,39.1917,1697.5342],[41.6623,39.2004,1718.7747],[41.6496,39.2093,1763.7041],[41.6413,39.2176,1745.0872],[41.6339,39.2296,1857.6761],[41.6258,39.2386,1883.5762],[41.5605,39.2903,2377.7703],[41.5517,39.2992,2450.5645],[41.5408,39.3157,2531.5942],[41.5243,39.3291,2611.8933],[41.4704,39.3508,2839.0544],[41.4435,39.3666,2778.6069],[41.4134,39.3731,2841.7261],[41.3863,39.3836,2849.1663],[41.3345,39.3814,2655.364],[41.298,39.372,2670.0015],[41.2555,39.3694,2543.0664],[41.2451,39.3669,2473.4609],[41.2099,39.3514,2478.186],[41.191,39.3373,2435.522],[41.1731,39.3089,2068.1021],[41.1717,39.2893,1812.813],[41.1735,39.2811,1841.8647],[41.1846,39.2591,2024.3936],[41.1889,39.2232,2026.5771],[41.1997,39.2008,1870.1299],[41.2044,39.1636,1814.0583]]]]}
,"properties": {"GID_2": "TUR.60.6_1","GID_0": "TUR","country": "Turkey","GID_1": "TUR.60_1","province": "Mus","NL_NAME_1": "NA","county": "Varto","VARNAME_2": "NA","NL_NAME_2": "NA","TYPE_2": "District","ENGTYPE_2": "District","CC_2": "NA","HASC_2": "TR.MS.VA","name": "Varto.county","area_km2": 1453.512,"hist_schema_id": "Elevation0-9000","hist_area_km2": {"1275": 4.461,"1300": 4.789,"1325": 5.546,"1350": 7.47,"1375": 9.395,"1400": 8.704,"1425": 26.66,"1450": 39.352,"1475": 33.448,"1500": 32.935,"1525": 42.596,"1550": 42.291,"1575": 39.952,"1600": 37.6,"1625": 34.67,"1650": 33.702,"1675": 34.44,"1700": 34.01,"1725": 33.005,"1750": 37.637,"1775": 34.551,"1800": 36.824,"1825": 34.521,"1850": 32.512,"1875": 34.597,"1900": 32.938,"1925": 35.353,"1950": 32.824,"1975": 31.228,"2000": 30.159,"2025": 28.615,"2050": 24.902,"2075": 20.676,"2100": 20.298,"2125": 19.69,"2150": 30.38,"2175": 21.023,"2200": 18.013,"2225": 18.247,"2250": 16.489,"2275": 17.148,"2300": 17.344,"2325": 13.132,"2350": 9.792,"2375": 9.067,"2400": 9.608,"2425": 10.903,"2450": 10.856,"2475": 14.189,"2500": 16.903,"2525": 10.862,"2550": 10.254,"2575": 9.237,"2600": 8.498,"2625": 8.712,"2650": 10.499,"2675": 14.467,"2700": 15.484,"2725": 15.828,"2750": 16.173,"2775": 13.891,"2800": 12.579,"2825": 13.037,"2850": 11.775,"2875": 11.233,"2900": 10.102,"2925": 8.56,"2950": 9.364,"2975": 5.559,"3000": 3.443,"3025": 2.312,"3050": 2.246,"3075": 1.722,"3100": 1.377,"3125": 0.475,"3150": 0.279,"3175": 0.098}}}