{"type":"Feature","properties":{"GID_2":"TUR.51.6_1","GID_0":"TUR","country":"Turkey","GID_1":"TUR.51_1","province":"Kirsehir","NL_NAME_1":"NA","county":"Merkez","VARNAME_2":"Kirşehir","NL_NAME_2":"NA","TYPE_2":"District","ENGTYPE_2":"District","CC_2":"NA","HASC_2":"TR.KH.KH","name":"Merkez.county"},
"geometry":{"type": "MultiPolygon","coordinates": [[[[34.2626,38.7937,1044.8663],[34.2762,38.8013,1011.3994],[34.294,38.8084,977.8143],[34.303,38.8159,958.206],[34.3072,38.8261,930.0942],[34.3081,38.8515,923.9041],[34.3109,38.8624,896.8634],[34.3218,38.8742,870.3135],[34.3395,38.8855,932.2395],[34.3122,38.9084,899.5278],[34.2968,38.9317,973.3103],[34.2941,38.9395,1006.9208],[34.2938,38.9478,994.6565],[34.2959,38.9558,1013.6642],[34.3042,38.9695,1016.2349],[34.3116,38.9904,950.099],[34.321,39.0069,990.0853],[34.3232,39.0186,1027.8232],[34.323,39.0489,1082.3479],[34.3212,39.0577,1097.3037],[34.3118,39.0742,1159.0168],[34.3058,39.0926,1186.7144],[34.2947,39.1146,1568.7278],[34.2932,39.1294,1471.9016],[34.2927,39.1713,1363.3983],[34.2803,39.182,1280.3317],[34.2658,39.2018,1256.8169],[34.2515,39.2253,1269.1339],[34.249,39.2339,1263.8914],[34.248,39.2459,1275.9963],[34.2498,39.2761,1173.507],[34.26,39.2955,1154.4888],[34.2682,39.3189,1144.1721],[34.3207,39.4,1149.8511],[34.3234,39.4117,1170.334],[34.3247,39.4358,1209.0355],[34.3274,39.4445,1233.8115],[34.3357,39.4544,1278.0522],[34.3627,39.4765,1275.8379],[34.3777,39.4922,1116.8109],[34.2671,39.4919,1222.6049],[34.2429,39.4931,1206.3596],[34.2322,39.4956,1191.2844],[34.2021,39.5069,1127.7681],[34.1725,39.5192,1121.522],[34.1591,39.5272,1127.041],[34.144,39.5156,1060.1991],[34.1441,39.4206,1299.7454],[34.1433,39.4086,1349.2855],[34.1409,39.4,1349.1995],[34.1221,39.3718,1215.8402],[34.0702,39.3302,1149.8672],[34.0538,39.3124,1173.7068],[34.0407,39.2908,1294.4207],[34.0353,39.2605,1273.8947],[34.0207,39.2371,1435.1414],[33.9827,39.2028,1373.8107],[33.9455,39.144,1053.8672],[33.9304,39.1297,982.2975],[33.9169,39.1219,934.1022],[33.9015,39.1161,933.0365],[33.8744,39.1004,920.5933],[33.8439,39.0943,891.5947],[33.8196,39.0869,853.6842],[33.8409,39.0765,848.0],[33.9201,39.0473,850.0277],[33.9409,39.0378,883.809],[33.9443,39.0338,869.3726],[33.9444,39.0265,893.328],[33.9401,39.0202,926.4189],[33.9267,39.0081,934.6821],[33.9948,38.9554,979.407],[34.0059,38.9488,984.3459],[34.0301,38.9384,1004.6001],[34.0777,38.9036,1051.303],[34.0944,38.899,1032.4733],[34.1381,38.8971,984.2405],[34.1769,38.8821,945.8218],[34.1853,38.8743,957.8128],[34.222,38.8157,1104.2755],[34.2401,38.7995,1119.9989],[34.2626,38.7937,1044.8663]]]]}}