{"type": "Feature","bbox": [41.5732,37.4683,41.9573,37.7402],"geometry": {"type": "MultiPolygon","coordinates": [[[[41.5732,37.5775,1133.6602],[41.5946,37.5596,1045.3955],[41.6055,37.5435,996.5724],[41.614,37.5359,992.2635],[41.6259,37.5318,950.7062],[41.6554,37.5298,961.2783],[41.668,37.5259,972.6253],[41.6893,37.5111,922.1915],[41.7407,37.4683,894.5291],[41.7696,37.4815,860.812],[41.8081,37.4863,783.7364],[41.8332,37.494,541.3701],[41.8872,37.4959,770.9504],[41.902,37.4984,805.0482],[41.9116,37.5027,850.9393],[41.9492,37.5255,963.4473],[41.9469,37.5476,1121.939],[41.9355,37.5692,930.9419],[41.9335,37.5859,760.2803],[41.9367,37.5997,725.5001],[41.9554,37.6289,968.4941],[41.9573,37.6377,1121.4225],[41.9463,37.6579,1049.2079],[41.9242,37.6807,734.3547],[41.9188,37.6936,777.8707],[41.8976,37.7115,838.9771],[41.8913,37.7207,1045.0874],[41.8889,37.7286,1157.7228],[41.8739,37.7402,1127.9463],[41.8572,37.7367,720.9506],[41.8124,37.7196,550.7194],[41.782,37.7135,431.9843],[41.6865,37.6759,1317.7585],[41.5983,37.6081,964.6287],[41.5909,37.5999,987.7126],[41.5839,37.5881,1007.3328],[41.5732,37.5775,1133.6602]]]]}
,"properties": {"GID_2": "TUR.57.1_1","GID_0": "TUR","country": "Turkey","GID_1": "TUR.57_1","province": "Mardin","NL_NAME_1": "NA","county": "Dargeçit","VARNAME_2": "NA","NL_NAME_2": "NA","TYPE_2": "District","ENGTYPE_2": "District","CC_2": "NA","HASC_2": "TR.MR.DA","name": "Dargeçit.county","area_km2": 646.493,"hist_schema_id": "Elevation0-9000","hist_area_km2": {"400": 3.0259,"425": 11.7086,"450": 11.0867,"475": 11.053,"500": 12.817,"525": 14.8322,"550": 17.1823,"575": 17.466,"600": 17.7174,"625": 16.2892,"650": 16.5916,"675": 17.751,"700": 17.8515,"725": 18.3555,"750": 18.8769,"775": 20.2737,"800": 22.2574,"825": 27.4208,"850": 28.7002,"875": 34.792,"900": 34.3696,"925": 30.0958,"950": 27.4037,"975": 27.2843,"1000": 26.2413,"1025": 20.7295,"1050": 19.9552,"1075": 17.4519,"1100": 16.242,"1125": 17.3672,"1150": 13.4361,"1175": 10.3283,"1200": 8.5983,"1225": 6.4822,"1250": 4.7188,"1275": 3.6104,"1300": 2.6533,"1325": 1.78,"1350": 1.1586,"1375": 0.4533,"1400": 0.084}}}