{"type":"Feature","properties":{"GID_2":"TUR.8.12_1","GID_0":"TUR","country":"Turkey","GID_1":"TUR.8_1","province":"Antalya","NL_NAME_1":"NA","county":"Kumluca","VARNAME_2":"NA","NL_NAME_2":"NA","TYPE_2":"District","ENGTYPE_2":"District","CC_2":"NA","HASC_2":"TR.AL.KU","name":"Kumluca.county"},
"geometry":{"type": "MultiPolygon","coordinates": [[[[30.4079,36.1915,5.3039],[30.403199999999998,36.1921,0.0],[30.4026,36.191,5.2693],[30.4043,36.1899,28.7553],[30.4046,36.1857,4.7966],[30.4026,36.1843,4.4683],[30.4026,36.1815,0.0],[30.404,36.181,0.0],[30.4043,36.1768,0.0],[30.4068,36.1754,0.0],[30.4082,36.1757,14.7788],[30.409,36.1796,0.0],[30.4065,36.1829,1.0462],[30.4079,36.1915,5.3039]]],
[[[30.4057,36.2026,0.6636],[30.4018,36.2024,0.0],[30.3993,36.1976,0.0],[30.4029,36.1968,0.0],[30.4063,36.2007,0.0],[30.4057,36.2026,0.6636]]],
[[[30.4735,36.2404,13.9236],[30.4696,36.2393,0.0],[30.4699,36.2368,0.0],[30.474,36.2354,0.0],[30.4782,36.2299,0.0],[30.4796,36.2301,0.0],[30.481,36.2321,0.0],[30.4776,36.234,0.4553],[30.4735,36.2404,13.9236]]],
[[[30.1094,36.5975,2638.5356],[30.0976,36.5791,2545.9211],[30.1091,36.5632,2664.772],[30.1246,36.5371,2386.6265],[30.1302,36.507,1728.469],[30.1391,36.4905,836.1011],[30.1465,36.4696,893.4189],[30.1657,36.449,1261.2251],[30.1705,36.4412,1305.0854],[30.1728,36.4292,773.0144],[30.1722,36.3825,922.0658],[30.1746,36.3674,913.6831],[30.1819,36.357,468.301],[30.2124,36.3301,15.3214],[30.2164,36.3222,10.2921],[30.2179,36.3146,1.1811],[30.2376,36.3163,2.2635],[30.2579,36.316,1.1352],[30.2668,36.3143,0.0],[30.2754,36.3157,2.5471],[30.2882,36.3118,0.0],[30.2951,36.3115,0.5371],[30.3346,36.2935,3.757],[30.3499,36.2815,0.0],[30.3662,36.2729,7.0201],[30.3674,36.2699,6.0097],[30.3701,36.2687,0.0],[30.3715,36.2724,33.1828],[30.3782,36.2721,2.665],[30.3813,36.276,22.7697],[30.3874,36.274,9.6052],[30.3876,36.2779,15.1275],[30.391,36.279,23.5156],[30.3935,36.2785,0.0],[30.396,36.2726,0.0],[30.4082,36.2754,0.0],[30.4138,36.2674,5.1352],[30.4135,36.264,9.0119],[30.4093,36.259,0.0],[30.409,36.256,0.0],[30.404,36.2554,7.5488],[30.3985,36.2482,15.4755],[30.3999,36.2429,0.0],[30.406,36.2421,19.637],[30.4068,36.2407,17.5488],[30.4054,36.2363,2.4331],[30.4015,36.2326,0.0],[30.4046,36.2287,25.3333],[30.4021,36.2163,0.0],[30.403199999999998,36.2093,0.0],[30.4057,36.2093,0.0],[30.4074,36.2118,1.8341],[30.4143,36.2146,0.0],[30.4163,36.2207,57.0798],[30.4204,36.2204,0.0],[30.4221,36.2249,0.0],[30.4212,36.229,18.3254],[30.4274,36.2274,0.0],[30.4351,36.2318,0.0],[30.4346,36.2346,51.6058],[30.4363,36.2363,15.8674],[30.4346,36.2388,20.6135],[30.4351,36.241,2.7345],[30.4376,36.244,2.4409],[30.4435,36.2468,0.0],[30.4449,36.2507,67.9155],[30.4488,36.2524,10.1472],[30.4524,36.2513,-0.157],[30.4504,36.2557,6.6856],[30.4512,36.2576,29.6133],[30.4582,36.2574,32.7573],[30.4604,36.2557,0.0],[30.4604,36.261,0.9584],[30.4638,36.2657,13.7979],[30.4699,36.2707,84.336],[30.4785,36.2721,15.7132],[30.4876,36.279,22.0446],[30.4849,36.2888,1.6619],[30.4885,36.2954,16.2023],[30.4888,36.2993,0.0],[30.4821,36.3018,16.4261],[30.4776,36.2982,16.3963],[30.471,36.2974,0.539],[30.4657,36.3026,9.3998],[30.4649,36.3096,0.5846],[30.4679,36.3149,25.1938],[30.4737,36.3132,0.0],[30.4785,36.3157,23.8188],[30.4876,36.3157,11.2128],[30.4918,36.3213,0.0],[30.4907,36.3238,2.8012],[30.4963,36.3268,0.0],[30.4776,36.3299,566.9769],[30.4642,36.3356,134.3096],[30.4122,36.3751,275.0589],[30.4028,36.3849,424.3818],[30.3989,36.3935,589.939],[30.3974,36.4089,939.5197],[30.3979,36.5104,1581.9138],[30.3946,36.5253,1658.5054],[30.3853,36.5419,1802.7261],[30.3834,36.557,1835.8219],[30.3853,36.5691,1675.5161],[30.3965,36.5913,1881.3116],[30.4007,36.639,1522.1974],[30.4099,36.6556,1154.4446],[30.4135,36.6661,1186.4764],[30.3918,36.667,1074.9364],[30.3811,36.6698,1239.2559],[30.3653,36.6797,1290.257],[30.3563,36.6903,1334.7377],[30.353,36.7058,1098.171],[30.3537,36.7808,1728.8538],[30.3518,36.8075,2149.1372],[30.3025,36.8045,1694.3597],[30.2772,36.797,2224.1992],[30.2617,36.7947,2352.4253],[30.1882,36.7952,1510.2507],[30.189,36.7032,2321.4287],[30.1865,36.6859,2305.9182],[30.1812,36.6794,2186.979],[30.1576,36.6648,2049.5288],[30.1461,36.6537,2118.1472],[30.1378,36.6417,2165.6309],[30.1199,36.6232,2088.9717],[30.1154,36.616,2311.4377],[30.1094,36.5975,2638.5356]]]]}}