{"type":"Feature","properties":{"GID_2":"TUR.46.9_1","GID_0":"TUR","country":"Turkey","GID_1":"TUR.46_1","province":"Kastamonu","NL_NAME_1":"NA","county":"Devrekani","VARNAME_2":"NA","NL_NAME_2":"NA","TYPE_2":"District","ENGTYPE_2":"District","CC_2":"NA","HASC_2":"TR.KS.DE","name":"Devrekani.county"},
"geometry":{"type": "MultiPolygon","coordinates": [[[[33.9004,41.787,1310.2573],[33.8739,41.7761,1225.5593],[33.8305,41.7744,1418.8477],[33.8178,41.7712,1351.1832],[33.8117,41.7662,1369.389],[33.8099,41.7619,1301.1182],[33.8153,41.7477,1438.7107],[33.8149,41.7402,1335.7471],[33.8017,41.7213,1284.1742],[33.794,41.7174,1388.6907],[33.7687,41.7106,1237.5242],[33.7381,41.6903,1141.3507],[33.7558,41.6688,1094.1482],[33.7692,41.6478,1140.7511],[33.7723,41.64,1087.0356],[33.7732,41.6288,1065.875],[33.7718,41.6177,1054.5542],[33.7634,41.6014,1105.4786],[33.7615,41.5939,1123.9412],[33.7632,41.5865,1141.2953],[33.7712,41.5701,1215.1455],[33.7731,41.5481,1173.3033],[33.8041,41.5316,1255.2007],[33.8247,41.5246,1148.3672],[33.8332,41.523,1194.3738],[33.8389,41.5237,1250.7172],[33.8701,41.5306,1301.9893],[33.917,41.5458,1150.5341],[33.9431,41.558,1136.0654],[33.9884,41.591,1251.4126],[34.0197,41.6064,1290.3303],[34.0377,41.6285,1178.2616],[34.0689,41.6562,985.9141],[34.0725,41.6641,1101.2478],[34.0743,41.6924,1158.4163],[34.077,41.7033,1188.7704],[34.0966,41.7302,1558.1062],[34.0625,41.7402,1334.0629],[34.0514,41.7454,1341.686],[34.0325,41.761,1288.3577],[34.0219,41.7779,1531.1047],[34.0119,41.7827,1200.4768],[33.9965,41.7855,908.4088],[33.9004,41.787,1310.2573]]]]}}