{"type": "Feature","bbox": [27.1799,36.9499,27.7535,37.1771],"geometry": {"type": "MultiPolygon","coordinates": [[[[27.3062,36.951,0.0],[27.3062,36.9524,0.0],[27.3035,36.9518,0.0],[27.3046,36.9499,0.0],[27.3062,36.951,0.0]]],
[[[27.4301,36.9971,0.0],[27.4243,36.9968,2.0214],[27.4249,36.9901,2.5851],[27.429,36.9893,39.293],[27.4301,36.9876,5.3848],[27.4357,36.9874,15.4207],[27.4376,36.9843,6.4917],[27.4429,36.9813,3.4819],[27.4457,36.9765,2.1113],[27.4457,36.9699,0.0],[27.4515,36.9701,7.8172],[27.4599,36.9635,0.0],[27.4613,36.966,12.9967],[27.4679,36.9657,19.2813],[27.469,36.9629,0.0],[27.4718,36.9624,16.445],[27.4729,36.9599,0.0],[27.4751,36.9607,10.2962],[27.4765,36.9579,1.0872],[27.479,36.9596,3.7199],[27.4799,36.9626,15.1617],[27.4868,36.9599,0.0],[27.4882,36.9637,12.9236],[27.4926,36.9674,0.0],[27.4915,36.9721,0.0],[27.484,36.9776,0.0],[27.474,36.9804,4.7506],[27.471,36.9799,21.2979],[27.4529,36.9854,38.3348],[27.4301,36.9971,0.0]]],
[[[27.3871,37.0013,2.5737],[27.3846,37.0018,4.0055],[27.3818,36.9957,5.2591],[27.3796,36.9949,10.4003],[27.384,36.9901,0.0],[27.3851,36.9907,14.5326],[27.3871,37.0013,2.5737]]],
[[[27.361,37.0099,0.0],[27.3574,37.0104,2.5832],[27.3568,37.009,2.5832],[27.3596,37.006,0.0],[27.3624,37.0076,3.2115],[27.361,37.0099,0.0]]],
[[[27.2326,36.9843,15.6202],[27.2324,36.9868,4.0361],[27.2307,36.9871,0.0],[27.229,36.9832,0.0],[27.2332,36.9815,0.0],[27.2326,36.9843,15.6202]]],
[[[27.199,36.9929,0.0],[27.1957,36.9935,0.0],[27.1965,36.9915,0.0],[27.199,36.9915,0.0],[27.199,36.9929,0.0]]],
[[[27.2207,37.0126,14.3524],[27.2193,37.0135,14.3524],[27.2168,37.0115,12.3338],[27.2168,37.0062,1.3573],[27.2118,37.0035,20.4363],[27.2104,37.0004,15.3728],[27.2062,36.9982,1.1161],[27.2032,36.9987,0.0],[27.2035,36.9976,0.0],[27.2049,36.9963,0.0],[27.2093,36.9963,0.0],[27.2118,36.999,7.4227],[27.215699999999998,36.9985,0.0],[27.2179,37.0065,1.3573],[27.2243,37.0082,5.0754],[27.2207,37.0126,14.3524]]],
[[[27.1835,37.0049,6.4616],[27.1835,37.0057,3.3541],[27.1799,37.006,1.9274],[27.1804,37.0043,3.7645],[27.1835,37.0049,6.4616]]],
[[[27.2046,37.0501,0.0],[27.2004,37.051,0.0],[27.1982,37.049,0.0],[27.2035,37.046,0.0],[27.2046,37.0501,0.0]]],
[[[27.2143,37.089,0.5777],[27.2085,37.0899,0.0],[27.204,37.0824,0.0],[27.2062,37.0807,2.011],[27.2096,37.0812,2.5217],[27.2138,37.0843,1.316],[27.2143,37.089,0.5777]]],
[[[27.2376,37.0899,1.6826],[27.2357,37.0907,0.0],[27.2321,37.0887,0.0],[27.2363,37.086,1.2688],[27.2412,37.0876,0.6399],[27.2376,37.0899,1.6826]]],
[[[27.2574,37.1329,1.3793],[27.2563,37.1338,0.0],[27.2554,37.1318,0.0],[27.2579,37.131,0.0],[27.2574,37.1329,1.3793]]],
[[[27.591,36.9796,9.0874],[27.5888,36.9801,4.8337],[27.5876,36.9763,27.563],[27.5885,36.9732,1.7801],[27.5918,36.9721,24.3878],[27.5918,36.9685,0.0],[27.5957,36.9701,5.7564],[27.5979,36.9676,2.4328],[27.6021,36.9665,0.0],[27.5979,36.9696,0.8246],[27.5985,36.9715,0.0],[27.5971,36.9726,3.4317],[27.6001,36.9754,0.0],[27.596,36.9785,5.8445],[27.5926,36.9768,29.0771],[27.591,36.9796,9.0874]]],
[[[27.5779,36.9771,0.0],[27.5793,36.9768,0.0],[27.5815,36.9787,0.0],[27.5788,36.9787,0.0],[27.5779,36.9771,0.0]]],
[[[27.6565,36.9793,1.8565],[27.6551,36.9799,1.8565],[27.6574,36.9776,0.0],[27.6574,36.9787,0.0],[27.6565,36.9793,1.8565]]],
[[[27.6166,37.1355,38.2388],[27.5774,37.1336,1.0051],[27.5732,37.1293,1.3676],[27.5715,37.1299,1.1789],[27.5721,37.1276,2.5238],[27.5654,37.1282,7.6805],[27.5607,37.1265,34.0061],[27.559,37.1279,3.717],[27.5471,37.1251,17.7679],[27.5435,37.1285,8.9495],[27.5374,37.1288,0.0],[27.5371,37.1265,10.8974],[27.5357,37.1263,10.8974],[27.5365,37.1243,15.7422],[27.5329,37.1218,0.0],[27.5315,37.1185,6.4295],[27.521,37.1154,2.1727],[27.5121,37.1085,10.7195],[27.509,37.1096,0.0],[27.5032,37.1085,22.1454],[27.501,37.1065,23.9479],[27.5012,37.1035,8.8051],[27.4982,37.1007,0.0],[27.4963,37.1021,0.0],[27.4888,37.1013,1.3164],[27.4907,37.0946,16.4767],[27.4799,37.0913,0.0],[27.4788,37.0879,2.2553],[27.476,37.089,0.0],[27.4743,37.0818,15.0584],[27.4701,37.0807,0.4372],[27.4676,37.0832,7.3984],[27.4646,37.0812,18.5554],[27.4574,37.0826,3.3621],[27.4554,37.0893,29.0716],[27.4596,37.0921,0.0],[27.4593,37.0971,0.0],[27.451,37.0968,16.406],[27.4451,37.0999,15.4016],[27.4438,37.104,4.4053],[27.4446,37.1068,13.7188],[27.4413,37.1082,15.7184],[27.439,37.1129,0.0],[27.4415,37.1146,0.0],[27.4401,37.1168,4.3067],[27.4371,37.1182,3.9021],[27.4301,37.1179,0.4448],[27.4301,37.1196,5.7567],[27.4351,37.1232,0.0],[27.4304,37.1285,1.6258],[27.4226,37.1213,20.252],[27.4215,37.1176,3.6515],[27.4146,37.1171,0.0],[27.4168,37.1201,0.0],[27.4165,37.1229,2.3451],[27.4201,37.1274,6.6181],[27.4179,37.1285,5.2887],[27.4151,37.1265,30.3653],[27.4126,37.1268,27.2126],[27.4104,37.1288,3.6839],[27.4104,37.1312,0.0],[27.4124,37.1312,0.0],[27.4126,37.1326,0.0],[27.4099,37.1346,0.0],[27.4068,37.131,8.6751],[27.4029,37.1321,0.0],[27.3999,37.131,4.1432],[27.3996,37.1274,0.0],[27.3963,37.1243,13.3924],[27.396,37.1193,4.0209],[27.3871,37.1201,3.0247],[27.3843,37.126,2.9491],[27.3799,37.129,0.0],[27.3782,37.1276,3.9554],[27.3762,37.1293,6.63],[27.3765,37.134,16.7239],[27.3818,37.1357,7.1515],[27.3835,37.1371,0.0],[27.3838,37.141,18.3882],[27.3882,37.1421,4.5149],[27.3904,37.1449,0.0],[27.386,37.1463,2.388],[27.3776,37.1418,7.9583],[27.3762,37.1449,13.4991],[27.3779,37.151,0.0],[27.3685,37.1515,11.6131],[27.3649,37.1571,0.0],[27.3615,37.156,3.3461],[27.3632,37.1457,13.6731],[27.361,37.1449,22.6621],[27.3599,37.1415,7.6037],[27.3557,37.1413,9.5753],[27.3563,37.1465,3.4102],[27.351,37.1446,8.715],[27.3499,37.1404,0.0],[27.3515,37.1382,17.5331],[27.3493,37.131,0.5673],[27.3438,37.1307,0.2001],[27.3401,37.1332,12.6342],[27.340699999999998,37.1393,2.9464],[27.344,37.1421,6.7462],[27.3432,37.1501,1.156],[27.3399,37.1515,0.0],[27.3374,37.1507,18.5193],[27.334,37.1563,8.4698],[27.3251,37.1601,8.8197],[27.3229,37.1582,0.0],[27.326,37.1557,59.9156],[27.3249,37.1521,12.3023],[27.3293,37.1499,3.0045],[27.3279,37.144,19.818],[27.3251,37.1424,0.0],[27.3207,37.1446,0.0],[27.3215,37.1415,4.0575],[27.3176,37.1429,1.3826],[27.3204,37.1413,4.0575],[27.3201,37.1396,11.0146],[27.3154,37.1407,0.0],[27.3151,37.1371,3.1816],[27.3121,37.1387,2.4248],[27.3099,37.1321,0.0],[27.3118,37.129,2.8769],[27.3151,37.129,12.464],[27.3179,37.1265,22.0604],[27.3168,37.1232,2.1565],[27.3188,37.1193,2.4644],[27.3157,37.1176,6.8641],[27.3146,37.1193,0.0],[27.3143,37.1162,7.1669],[27.3107,37.1154,46.6829],[27.3104,37.1193,1.8212],[27.3079,37.1201,13.3996],[27.3071,37.1232,5.3355],[27.3051,37.1243,0.0],[27.3029,37.1213,0.0],[27.3074,37.1193,13.3996],[27.3051,37.1151,10.2716],[27.2985,37.1174,3.7412],[27.2968,37.1243,0.0],[27.2901,37.1218,4.8903],[27.2887,37.1246,3.3571],[27.2876,37.1237,41.284],[27.2838,37.1263,8.3665],[27.2829,37.1288,4.7134],[27.2846,37.1296,4.7134],[27.2846,37.1326,0.0],[27.2829,37.1304,4.7134],[27.281,37.1304,6.3916],[27.279,37.1354,6.7022],[27.276,37.1363,10.9427],[27.2771,37.1382,2.3488],[27.2735,37.1407,0.0],[27.2713,37.134,29.9275],[27.2665,37.1349,8.1912],[27.2638,37.1338,0.0],[27.2632,37.1318,4.3824],[27.2651,37.1299,19.4886],[27.2635,37.1285,4.2732],[27.2651,37.1251,9.689],[27.2613,37.126,0.0],[27.2613,37.1246,0.0],[27.2649,37.1218,14.1717],[27.264,37.1201,3.2892],[27.2607,37.1207,1.4266],[27.2582,37.1237,8.7868],[27.256,37.131,0.0],[27.2526,37.1288,0.0],[27.2535,37.1257,0.0],[27.256,37.1249,14.6753],[27.2557,37.1224,0.0],[27.254,37.1218,10.917],[27.2551,37.1179,14.0062],[27.2526,37.1149,0.0],[27.2546,37.1115,0.0],[27.2599,37.1115,0.0],[27.2613,37.1154,2.3795],[27.2665,37.1126,2.07],[27.2693,37.1138,18.3329],[27.2704,37.116,0.0],[27.2687,37.1179,1.4656],[27.2707,37.119,9.705],[27.2771,37.1171,4.6552],[27.2768,37.1193,8.2376],[27.2793,37.1207,7.0507],[27.2851,37.1188,12.0839],[27.2885,37.1204,0.4339],[27.2926,37.1146,0.6532],[27.2932,37.1079,2.7349],[27.2871,37.1029,1.398],[27.279,37.1013,2.1162],[27.274,37.0982,2.5775],[27.2704,37.099,0.0],[27.2643,37.0924,10.4291],[27.2613,37.0918,32.253],[27.2546,37.0946,0.0],[27.2546,37.0874,31.2609],[27.2501,37.081,4.9529],[27.2457,37.0799,3.2837],[27.2388,37.0832,4.9232],[27.2357,37.0765,27.7575],[27.239,37.0704,0.5586],[27.2388,37.0663,1.8252],[27.2321,37.0638,0.0],[27.2293,37.0651,1.07],[27.2315,37.0635,15.9131],[27.2304,37.0604,1.8192],[27.2265,37.0596,0.0],[27.2254,37.0576,1.0377],[27.2299,37.0526,0.0],[27.2324,37.0549,2.6411],[27.2318,37.0574,0.3787],[27.2335,37.0574,7.563],[27.2374,37.0524,5.2981],[27.2363,37.0499,2.5222],[27.2326,37.0482,0.9713],[27.2326,37.0457,0.0],[27.231,37.0457,0.0],[27.2299,37.0396,1.4703],[27.2329,37.0396,2.627],[27.2326,37.0374,0.0],[27.2376,37.0346,5.866],[27.2421,37.0354,0.0],[27.2501,37.0313,1.8353],[27.2496,37.0238,0.3577],[27.2515,37.0226,0.7482],[27.2529,37.0151,0.0],[27.2554,37.0121,2.5437],[27.2557,37.0065,0.188],[27.2588,37.0038,3.8435],[27.2596,37.0004,0.5567],[27.256,36.9893,4.3884],[27.2568,36.9824,3.6968],[27.2549,36.9763,3.3044],[27.2607,36.9726,0.6109],[27.2613,36.9674,0.0],[27.2632,36.9663,9.3078],[27.2635,36.964,1.7856],[27.2732,36.9615,0.0],[27.2787,36.9663,4.1911],[27.2838,36.9621,6.2339],[27.2835,36.9599,0.0],[27.286,36.9576,0.0],[27.2882,36.9593,6.1599],[27.2854,36.9613,6.1173],[27.284,36.9657,2.8271],[27.286,36.9665,0.3781],[27.289,36.9651,0.0],[27.2938,36.9682,0.8567],[27.296,36.966,0.822],[27.2968,36.9601,0.0],[27.304,36.9574,14.2326],[27.3068,36.9615,0.0],[27.3051,36.9635,58.9806],[27.3049,36.9693,1.4842],[27.2999,36.9693,1.9611],[27.3004,36.9726,0.5551],[27.3046,36.9743,4.116],[27.3054,36.9763,6.5665],[27.3093,36.9746,0.0],[27.3113,36.979,3.6335],[27.3157,36.9768,0.0],[27.3193,36.9776,13.9434],[27.3218,36.9826,2.9686],[27.3282,36.9885,0.0],[27.3321,36.9885,0.0],[27.3324,36.9949,0.0],[27.3293,36.9971,9.3967],[27.3304,36.999,2.4538],[27.3351,37.0004,4.496],[27.3374,36.9968,0.0],[27.3404,36.9985,0.8606],[27.3396,37.0029,4.505],[27.3351,37.0015,7.1708],[27.3299,37.0043,3.7702],[27.3299,37.0079,14.8401],[27.3285,37.0082,14.8401],[27.3279,37.011,0.4141],[27.329,37.0129,1.9043],[27.3315,37.0132,0.0],[27.331,37.0146,5.2407],[27.3349,37.0151,0.0],[27.3426,37.0201,0.0],[27.3524,37.0201,0.0],[27.3576,37.0226,1.9158],[27.3613,37.0218,5.2914],[27.364,37.0187,0.0],[27.3665,37.0238,16.1128],[27.3701,37.0215,0.769],[27.374,37.0238,6.2729],[27.3735,37.0268,0.0],[27.3826,37.0265,0.4779],[27.3846,37.0238,0.0],[27.379,37.0199,0.0],[27.3801,37.016,6.0407],[27.3782,37.0146,7.141],[27.3796,37.0126,11.4247],[27.379,37.0065,7.9495],[27.3743,37.0051,0.0],[27.374,37.0001,0.0],[27.3762,36.9987,0.0],[27.3799,37.0007,1.508],[27.3815,37.0051,0.0],[27.3849,37.0079,11.7254],[27.3879,37.006,4.043],[27.3896,37.0065,0.0],[27.3888,37.0107,10.124],[27.3901,37.0151,0.0],[27.3888,37.0185,4.7422],[27.3957,37.0271,5.9749],[27.396,37.0293,1.5712],[27.3993,37.0296,0.4735],[27.4013,37.0318,0.3544],[27.4099,37.0304,1.4211],[27.4018,37.0224,0.0],[27.4001,37.0182,0.0],[27.4046,37.0221,17.8588],[27.4093,37.0232,0.0],[27.4115,37.021,0.0],[27.4099,37.0193,0.0],[27.4101,37.0171,0.0],[27.4126,37.0168,0.0],[27.4138,37.0182,0.0],[27.4121,37.0201,3.0866],[27.4129,37.0215,0.0],[27.4149,37.0226,7.5807],[27.419,37.0218,0.0],[27.4179,37.0282,1.9445],[27.4204,37.0288,19.5227],[27.4224,37.0318,0.0],[27.4251,37.0318,0.0],[27.4257,37.0343,0.0],[27.4243,37.0357,3.7747],[27.429,37.0354,4.9954],[27.4296,37.0337,4.1012],[27.4257,37.0315,0.0],[27.4282,37.0304,0.0],[27.4321,37.0326,2.2637],[27.4376,37.0318,5.5965],[27.4379,37.0296,2.7228],[27.4407,37.0276,1.007],[27.439,37.0254,13.9414],[27.4415,37.0229,3.994],[27.4415,37.0207,5.7489],[27.4504,37.016,2.992],[27.4501,37.0107,0.6006],[27.4538,37.0074,2.8026],[27.4596,37.006,18.9484],[27.4604,37.0038,6.0965],[27.4629,37.0032,0.0],[27.4643,36.9979,4.0371],[27.4729,36.9968,0.7825],[27.4804,36.9935,0.0],[27.4826,36.9901,19.5339],[27.4818,36.9871,0.0],[27.4829,36.9863,2.0621],[27.486,36.9863,0.0],[27.4899,36.9896,1.9534],[27.5001,36.9865,6.1959],[27.5015,36.984,0.8215],[27.5024,36.9868,5.3276],[27.5082,36.9854,0.0],[27.5104,36.9868,1.8336],[27.5085,36.9899,9.8211],[27.5154,36.9949,0.4214],[27.5185,36.9951,1.7623],[27.5221,36.9921,13.2679],[27.5313,36.9918,0.0],[27.5349,36.9882,2.6523],[27.549,36.9874,10.0187],[27.5451,36.9829,0.0],[27.549,36.9837,0.0],[27.5524,36.9821,4.5138],[27.559,36.9854,0.0],[27.5599,36.9813,0.0],[27.5629,36.9793,19.453],[27.5646,36.9746,1.2215],[27.5682,36.976,1.4053],[27.5654,36.9774,3.901],[27.5657,36.9826,10.5658],[27.5696,36.9799,0.0],[27.571,36.9821,19.5314],[27.576,36.9843,1.4402],[27.5713,36.9863,0.0],[27.5668,36.9857,0.0],[27.5624,36.9871,0.0],[27.5624,36.9885,0.0],[27.564,36.9901,3.0908],[27.5704,36.991,3.2194],[27.574,36.9938,21.2547],[27.594,36.9946,6.1767],[27.6001,36.9912,1.1778],[27.606,36.991,12.5796],[27.6096,36.9849,0.0],[27.6162,36.981,7.8747],[27.6224,36.9799,0.0],[27.624,36.981,10.3252],[27.6285,36.9782,0.0],[27.631,36.9804,8.5252],[27.634,36.9779,0.0],[27.6374,36.9776,8.7142],[27.6379,36.9801,28.7486],[27.6424,36.9787,0.0],[27.6476,36.9801,4.1359],[27.6468,36.9824,13.7552],[27.6421,36.9849,2.9506],[27.6435,36.986,0.0],[27.6429,36.991,4.6899],[27.6463,36.9924,19.2367],[27.6474,36.9957,1.6632],[27.6463,36.9965,18.5702],[27.6488,36.9985,3.9829],[27.6526,36.9979,1.3381],[27.6543,36.9957,3.2921],[27.6585,36.9943,6.288],[27.6754,36.9985,0.0],[27.6768,37.0013,2.7243],[27.684,37.0007,0.0],[27.6851,37.0035,0.0],[27.694,37.0024,1.8489],[27.6949,36.9987,0.0],[27.6971,36.9974,5.5462],[27.7018,36.999,21.4719],[27.7029,36.9971,25.2115],[27.7071,36.9963,0.0],[27.7213,37.0026,3.2639],[27.726,37.0026,3.9484],[27.7295,37.0004,0.0],[27.7516,37.0271,380.1074],[27.7535,37.0322,388.3661],[27.753,37.0402,452.7615],[27.7394,37.0633,624.733],[27.7241,37.0821,239.5682],[27.7006,37.0958,209.831],[27.6864,37.1091,147.3745],[27.6823,37.1204,127.8343],[27.6822,37.1408,90.0106],[27.6795,37.1507,96.2748],[27.6716,37.1548,81.5536],[27.6628,37.1539,61.3364],[27.6166,37.1355,38.2388]]],
[[[27.4818,37.1279,19.7127],[27.4821,37.1304,14.5683],[27.4807,37.1307,0.0],[27.4779,37.129,0.0],[27.4765,37.1257,5.1421],[27.4804,37.1249,0.0],[27.4818,37.1279,19.7127]]],
[[[27.5551,37.1335,0.0],[27.5571,37.1335,0.0],[27.5574,37.1342,11.3257],[27.5543,37.1345,12.0324],[27.5551,37.1335,0.0]]],
[[[27.4754,37.1229,2.8972],[27.4749,37.124,0.0],[27.4724,37.1232,18.082],[27.469,37.1188,1.6624],[27.4729,37.1185,0.0],[27.4754,37.1229,2.8972]]],
[[[27.3949,37.1396,0.0],[27.3882,37.1404,9.8296],[27.3854,37.1396,0.0],[27.3851,37.1376,0.0],[27.389,37.1363,0.0],[27.3949,37.1396,0.0]]],
[[[27.3649,37.1743,0.0],[27.3624,37.1751,0.7044],[27.3613,37.174,0.7044],[27.366,37.1674,3.328],[27.3674,37.1624,19.3979],[27.3724,37.1613,0.0],[27.379,37.1632,0.0],[27.3782,37.1676,0.0],[27.3713,37.1693,0.0],[27.3685,37.1738,0.0],[27.3649,37.1743,0.0]]],
[[[27.359,37.1763,0.0],[27.3546,37.1771,0.0],[27.354,37.1724,0.0],[27.3604,37.174,0.0],[27.359,37.1763,0.0]]]]}
,"properties": {"GID_2": "TUR.59.1_1","GID_0": "TUR","country": "Turkey","GID_1": "TUR.59_1","province": "Mugla","NL_NAME_1": "NA","county": "Bodrum","VARNAME_2": "NA","NL_NAME_2": "NA","TYPE_2": "District","ENGTYPE_2": "District","CC_2": "NA","HASC_2": "TR.MG.BO","name": "Bodrum.county","area_km2": 627.9964,"hist_schema_id": "Elevation0-9000","hist_area_km2": {"0": 34.2674,"25": 61.4972,"50": 61.8337,"75": 53.784,"100": 45.7333,"125": 40.202,"150": 37.3426,"175": 36.0735,"200": 33.3163,"225": 34.4502,"250": 32.9779,"275": 29.8316,"300": 26.4818,"325": 21.0672,"350": 18.4273,"375": 14.9245,"400": 12.2511,"425": 8.7816,"450": 7.0219,"475": 4.9234,"500": 3.9421,"525": 2.8422,"550": 1.675,"575": 1.0998,"600": 0.7106,"625": 0.626,"650": 0.5076,"675": 0.3384,"700": 0.1692,"725": 0.2707,"750": 0.22,"775": 0.203,"800": 0.1692,"825": 0.0338}}}