{"type": "Feature","bbox": [41.1223,40.5631,41.992,41.0935],"geometry": {"type": "MultiPolygon","coordinates": [[[[41.5012,41.0872,2632.0498],[41.4783,41.0928,2859.947],[41.424,41.0935,2763.7393],[41.4145,41.0731,2322.4075],[41.4073,41.0651,2227.3955],[41.3994,41.0604,2518.1719],[41.354,41.0436,2644.7637],[41.3437,41.037,2519.0994],[41.3329,41.0269,2754.3882],[41.3196,41.0085,2729.8003],[41.2868,40.9806,3215.8115],[41.272,40.9599,2367.7661],[41.2157,40.915,3172.2153],[41.1967,40.8902,3119.499],[41.1555,40.8568,3225.9194],[41.1494,40.8505,2898.5723],[41.1385,40.8341,3127.3103],[41.1223,40.8201,3181.1499],[41.1223,40.8085,3032.7925],[41.1874,40.783,2734.9333],[41.1991,40.7802,2493.6138],[41.2245,40.779,2856.582],[41.3629,40.7797,2060.614],[41.3812,40.7757,2366.9067],[41.3856,40.7722,2290.0132],[41.3963,40.7579,1749.4768],[41.3977,40.7474,1417.3312],[41.3827,40.7217,832.7517],[41.3439,40.6643,1459.1097],[41.3396,40.6502,1500.9038],[41.34,40.6258,2079.3936],[41.3439,40.6148,2303.1934],[41.3512,40.6034,2234.6301],[41.3626,40.5793,2350.9963],[41.3833,40.5783,2414.8677],[41.4287,40.5631,2363.0806],[41.458,40.5776,2114.9556],[41.4884,40.5837,1775.4771],[41.5186,40.5949,1892.5859],[41.548,40.6123,1343.6017],[41.5668,40.6198,1743.0486],[41.5901,40.634,1957.1667],[41.6117,40.6432,1454.5999],[41.6318,40.6557,1173.4027],[41.6482,40.6617,1130.995],[41.6776,40.6631,919.9828],[41.7142,40.6605,1776.953],[41.7589,40.6486,1507.8027],[41.7889,40.6366,1691.9169],[41.8147,40.6212,1627.3142],[41.8244,40.6182,1676.1595],[41.8346,40.6185,1838.6743],[41.852,40.6242,2093.5396],[41.8758,40.6286,2251.7939],[41.8851,40.6316,2132.5156],[41.9059,40.6422,1702.7458],[41.9233,40.6777,2164.47],[41.9271,40.7138,1893.5607],[41.9301,40.7219,1635.4963],[41.9371,40.7333,1607.1238],[41.9406,40.7438,1826.6898],[41.9441,40.7659,1200.9717],[41.9522,40.7799,1104.9758],[41.9582,40.7983,1059.7427],[41.9684,40.8175,1474.4882],[41.9732,40.8564,1586.72],[41.992,40.8905,1595.47],[41.9426,40.929,2784.2209],[41.925,40.9398,2053.9907],[41.8913,40.9518,2438.4399],[41.8477,40.9538,1405.5248],[41.8305,40.9585,1183.6797],[41.8219,40.964,1151.6501],[41.8125,40.9729,1436.2249],[41.8013,40.9967,1679.9781],[41.7753,41.0101,384.1202],[41.7378,41.0223,1873.369],[41.6942,41.0248,1465.8562],[41.6592,41.0342,1994.3359],[41.6112,41.0354,2775.7363],[41.597,41.0375,2535.6204],[41.5338,41.0619,2133.0942],[41.5193,41.0714,2558.2],[41.5012,41.0872,2632.0498]]]]}
,"properties": {"GID_2": "TUR.10.8_1","GID_0": "TUR","country": "Turkey","GID_1": "TUR.10_1","province": "Artvin","NL_NAME_1": "NA","county": "Yusufeli","VARNAME_2": "NA","NL_NAME_2": "NA","TYPE_2": "District","ENGTYPE_2": "District","CC_2": "NA","HASC_2": "TR.AV.YU","name": "Yusufeli.county","area_km2": 2550.881,"hist_schema_id": "Elevation0-9000","hist_area_km2": {"325": 0.032,"350": 0.448,"375": 0.864,"400": 1.057,"425": 1.217,"450": 1.698,"475": 1.843,"500": 2.676,"525": 2.693,"550": 3.35,"575": 4.57,"600": 5.982,"625": 7.411,"650": 9.0,"675": 10.381,"700": 10.671,"725": 13.479,"750": 15.327,"775": 15.036,"800": 17.123,"825": 18.486,"850": 18.166,"875": 19.675,"900": 20.445,"925": 21.278,"950": 22.274,"975": 21.984,"1000": 24.246,"1025": 24.824,"1050": 24.52,"1075": 25.785,"1100": 26.396,"1125": 27.455,"1150": 27.565,"1175": 27.758,"1200": 28.576,"1225": 28.913,"1250": 30.742,"1275": 31.334,"1300": 31.19,"1325": 32.97,"1350": 32.072,"1375": 34.125,"1400": 35.105,"1425": 35.556,"1450": 35.008,"1475": 38.106,"1500": 39.823,"1525": 39.358,"1550": 39.951,"1575": 40.063,"1600": 40.333,"1625": 39.915,"1650": 39.485,"1675": 40.094,"1700": 41.183,"1725": 39.964,"1750": 39.501,"1775": 37.943,"1800": 38.857,"1825": 37.493,"1850": 35.953,"1875": 35.871,"1900": 37.396,"1925": 35.056,"1950": 33.85,"1975": 35.183,"2000": 34.012,"2025": 32.407,"2050": 32.854,"2075": 32.776,"2100": 32.327,"2125": 31.648,"2150": 29.419,"2175": 29.126,"2200": 27.656,"2225": 26.67,"2250": 24.023,"2275": 24.743,"2300": 23.174,"2325": 23.363,"2350": 21.968,"2375": 21.695,"2400": 22.546,"2425": 20.716,"2450": 21.038,"2475": 20.236,"2500": 19.723,"2525": 18.712,"2550": 18.023,"2575": 17.814,"2600": 16.21,"2625": 15.696,"2650": 16.017,"2675": 13.806,"2700": 14.514,"2725": 14.222,"2750": 12.7,"2775": 13.773,"2800": 12.474,"2825": 11.8,"2850": 11.177,"2875": 11.144,"2900": 10.648,"2925": 10.536,"2950": 10.984,"2975": 9.622,"3000": 10.248,"3025": 9.222,"3050": 9.157,"3075": 8.115,"3100": 7.859,"3125": 7.362,"3150": 6.961,"3175": 5.823,"3200": 5.309,"3225": 5.246,"3250": 4.139,"3275": 3.722,"3300": 2.904,"3325": 2.727,"3350": 1.973,"3375": 2.407,"3400": 1.54,"3425": 1.364,"3450": 0.947,"3475": 0.995,"3500": 0.786,"3525": 0.529,"3550": 0.385,"3575": 0.337,"3600": 0.385,"3625": 0.385,"3650": 0.144,"3675": 0.321,"3700": 0.193,"3725": 0.289,"3750": 0.128,"3775": 0.096,"3800": 0.08,"3825": 0.064,"3875": 0.032}}}