{"type": "Feature","bbox": [29.3458,39.7164,29.7229,39.9246],"geometry": {"type": "MultiPolygon","coordinates": [[[[29.677,39.9055,1115.7595],[29.6562,39.9005,1159.5134],[29.6385,39.8939,1525.3347],[29.6272,39.892,1474.701],[29.5471,39.892,1290.2084],[29.5327,39.8949,1415.2175],[29.4589,39.9239,1366.4564],[29.4521,39.9246,1401.3099],[29.4392,39.9221,1615.7664],[29.4162,39.9127,1695.0316],[29.4068,39.9065,1686.6765],[29.3878,39.8789,1407.4939],[29.382,39.8604,1055.2174],[29.3729,39.844,952.3317],[29.366,39.8229,788.9113],[29.3458,39.7993,630.2443],[29.3672,39.7898,864.0459],[29.4006,39.7779,830.0417],[29.4359,39.7742,1004.7109],[29.4496,39.7698,947.2839],[29.4616,39.7622,864.9399],[29.4775,39.7488,711.2725],[29.4955,39.7256,656.3643],[29.5029,39.7206,662.6004],[29.513,39.7175,691.5117],[29.5324,39.7164,809.7419],[29.6372,39.7165,819.8571],[29.6569,39.7173,904.8732],[29.6713,39.7201,893.793],[29.7229,39.741,1149.5873],[29.7029,39.7761,1144.1765],[29.697,39.8059,1209.995],[29.6867,39.8254,1335.7959],[29.6847,39.8373,1545.2394],[29.6853,39.8555,1477.7513],[29.6929,39.8797,1531.218],[29.6907,39.8862,1377.8441],[29.677,39.9055,1115.7595]]]]}
,"properties": {"GID_2": "TUR.54.4_1","GID_0": "TUR","country": "Turkey","GID_1": "TUR.54_1","province": "Kütahya","NL_NAME_1": "NA","county": "Domaniç","VARNAME_2": "NA","NL_NAME_2": "NA","TYPE_2": "District","ENGTYPE_2": "District","CC_2": "NA","HASC_2": "TR.KU.DO","name": "Domaniç.county","area_km2": 508.7303,"hist_schema_id": "Elevation0-9000","hist_area_km2": {"575": 0.0489,"600": 0.1303,"625": 0.3095,"650": 0.5704,"675": 0.7336,"700": 1.3204,"725": 3.3259,"750": 6.6678,"775": 12.9424,"800": 23.4537,"825": 24.8868,"850": 20.8773,"875": 16.6539,"900": 17.0762,"925": 19.178,"950": 17.8901,"975": 20.5956,"1000": 21.4075,"1025": 19.9079,"1050": 20.3932,"1075": 17.4915,"1100": 15.6504,"1125": 12.5873,"1150": 11.8049,"1175": 13.4004,"1200": 12.5038,"1225": 10.8748,"1250": 10.5324,"1275": 9.6199,"1300": 9.7987,"1325": 9.3097,"1350": 9.6187,"1375": 9.0326,"1400": 9.1461,"1425": 9.0481,"1450": 9.406,"1475": 8.3803,"1500": 8.2173,"1525": 8.4125,"1550": 7.989,"1575": 7.4356,"1600": 6.9312,"1625": 5.8247,"1650": 4.9784,"1675": 4.1323,"1700": 3.2861,"1725": 2.6028,"1750": 2.4562,"1775": 2.3748,"1800": 2.082,"1825": 1.6753,"1850": 1.2036,"1875": 1.0572,"1900": 0.5693,"1925": 0.4066,"1950": 0.2114,"1975": 0.1464,"2000": 0.1138,"2025": 0.0488}}}