{"type":"Feature","properties":{"GID_2":"TUR.73.3_1","GID_0":"TUR","country":"Turkey","GID_1":"TUR.73_1","province":"Tekirdag","NL_NAME_1":"NA","county":"Hayrabolu","VARNAME_2":"NA","NL_NAME_2":"NA","TYPE_2":"District","ENGTYPE_2":"District","CC_2":"NA","HASC_2":"TR.TG.HA","name":"Hayrabolu.county"},
"geometry":{"type": "MultiPolygon","coordinates": [[[[26.892,41.1386,329.394],[26.8967,41.1284,234.5869],[26.9118,41.1052,173.0592],[26.9229,41.0959,146.9815],[27.0127,41.0612,112.4912],[27.0227,41.059,119.2498],[27.0544,41.056399999999996,87.7519],[27.0659,41.051,63.6234],[27.0717,41.0446,65.0242],[27.0737,41.0393,65.3319],[27.075,41.0033,74.4446],[27.0814,40.995,82.1161],[27.0867,40.9927,93.4484],[27.0932,40.9926,96.7277],[27.1038,40.9981,100.4479],[27.1244,41.014,132.61],[27.1359,41.0198,126.0272],[27.1475,41.0221,125.1709],[27.172,41.0237,145.9274],[27.1897,41.0446,210.9103],[27.1992,41.0701,172.2948],[27.2082,41.0775,177.8336],[27.2594,41.0973,101.4999],[27.3143,41.1385,130.9836],[27.328,41.1471,135.5668],[27.3984,41.1742,144.9955],[27.3608,41.1872,148.3073],[27.3456,41.1955,142.7577],[27.338,41.2016,143.8834],[27.3324,41.2088,131.6324],[27.3313,41.2143,104.3233],[27.3326,41.2197,80.4903],[27.3381,41.2261,99.7297],[27.3498,41.2312,118.0435],[27.3933,41.2327,77.3418],[27.4038,41.2345,83.2492],[27.4361,41.2501,120.8559],[27.4103,41.2771,108.3345],[27.3987,41.2941,102.4715],[27.3889,41.3028,92.3805],[27.3774,41.3101,96.3367],[27.314,41.3343,47.2753],[27.2868,41.3396,43.7163],[27.2622,41.3474,51.4997],[27.1205,41.3481,42.2809],[27.1063,41.346,44.7572],[27.0884,41.3397,29.8446],[27.0683,41.336,28.499],[27.0012,41.3365,59.94],[26.9863,41.3342,56.8896],[26.9649,41.3269,82.7645],[26.9533,41.3255,90.0969],[26.9415,41.3254,87.9596],[26.923,41.3289,90.1775],[26.8983,41.343,19.5953],[26.8945,41.3167,73.871],[26.8966,41.294,101.3817],[26.9126,41.2682,109.8088],[26.9364,41.2429,129.5354],[26.9397,41.2314,175.1659],[26.9405,41.2102,166.892],[26.9392,41.1952,201.2799],[26.9347,41.1841,175.8487],[26.9146,41.1637,205.0352],[26.9047,41.1498,227.0752],[26.892,41.1386,329.394]]]]}}