{"type":"Feature","properties":{"GID_2":"TUR.32.10_1","GID_0":"TUR","country":"Turkey","GID_1":"TUR.32_1","province":"Eskisehir","NL_NAME_1":"NA","county":"Mihalıçcık","VARNAME_2":"NA","NL_NAME_2":"NA","TYPE_2":"District","ENGTYPE_2":"District","CC_2":"NA","HASC_2":"TR.ES.MK","name":"Mihalıçcık.county"},
"geometry":{"type": "MultiPolygon","coordinates": [[[[31.696,39.9882,470.2706],[31.617,40.0163,469.2996],[31.6007,40.0179,467.0],[31.5456,40.019,627.3583],[31.5036,40.029,651.7044],[31.3998,40.0303,538.4813],[31.3835,40.0327,545.7599],[31.3617,40.0396,737.9772],[31.3453,40.0413,698.5638],[31.2115,40.0416,719.421],[31.176,40.044,497.7544],[31.1855,40.0118,1404.5734],[31.1867,39.9757,1427.4712],[31.1889,39.964,1447.4191],[31.1936,39.9562,1539.5372],[31.2136,39.9358,1487.0537],[31.2282,39.9125,1306.4001],[31.2363,39.889,1168.147],[31.255,39.867,1012.9322],[31.3128,39.8673,1104.9794],[31.3354,39.8646,1108.6244],[31.3513,39.8562,1068.6133],[31.3652,39.8455,1029.8953],[31.3785,39.8309,1150.8442],[31.3853,39.8098,990.4478],[31.394,39.793,1000.0127],[31.3974,39.772,973.6317],[31.4003,39.7633,914.1365],[31.4193,39.7427,906.8917],[31.4251,39.7321,919.6625],[31.4268,39.7201,841.8421],[31.4266,39.7017,775.769],[31.4212,39.6753,864.2661],[31.4501,39.6802,830.4321],[31.5407,39.6804,1044.416],[31.5634,39.6837,965.9726],[31.5938,39.6954,888.633],[31.6079,39.7048,864.2062],[31.619,39.7163,738.3448],[31.6397,39.7512,776.4642],[31.6462,39.7559,807.9305],[31.6522,39.7573,806.5236],[31.6615,39.7547,864.7844],[31.6689,39.7493,943.2947],[31.6773,39.7403,788.3886],[31.6859,39.7261,756.0413],[31.6953,39.7189,724.1248],[31.7085,39.7156,739.5363],[31.7333,39.7155,789.8348],[31.7975,39.7394,810.2026],[31.8117,39.7466,796.9291],[31.8473,39.7683,920.212],[31.8539,39.777,970.2769],[31.8827,39.8016,841.3999],[31.886,39.8085,830.379],[31.8852,39.813,749.2404],[31.8706,39.8391,685.4228],[31.8597,39.8726,605.9249],[31.8551,39.876,607.0214],[31.8459,39.8781,685.5355],[31.8071,39.8798,625.5297],[31.7972,39.8832,636.2878],[31.7885,39.8884,629.9126],[31.7681,39.9049,556.3088],[31.7617,39.9117,725.9915],[31.7504,39.9284,549.6622],[31.7189,39.9561,836.5746],[31.696,39.9882,470.2706]]]]}}