{"type":"Feature","properties":{"GID_2":"TUR.67.9_1","GID_0":"TUR","country":"Turkey","GID_1":"TUR.67_1","province":"Samsun","NL_NAME_1":"NA","county":"Merkez","VARNAME_2":"SamsunMerkezi\rMerkezi","NL_NAME_2":"NA","TYPE_2":"District","ENGTYPE_2":"District","CC_2":"NA","HASC_2":"TR.SS.SS","name":"Merkez.county"},
"geometry":{"type": "MultiPolygon","coordinates": [[[[36.3782,41.0519,597.0274],[36.3711,41.0626,773.8104],[36.3624,41.081,559.9088],[36.3618,41.0854,484.5745],[36.3652,41.0923,620.906],[36.3781,41.1049,697.9499],[36.3831,41.1124,652.7006],[36.3856,41.1235,625.6252],[36.3849,41.1347,617.8723],[36.3818,41.1426,641.2175],[36.3782,41.1469,666.4976],[36.358,41.1603,694.7975],[36.3559,41.165,446.1352],[36.3557,41.1727,560.8842],[36.3593,41.1801,628.0683],[36.3689,41.187,454.2728],[36.3983,41.193,370.3625],[36.4089,41.199,516.7043],[36.4146,41.2054,418.8685],[36.4258,41.2238,56.4833],[36.4302,41.2454,2.4969],[36.4165,41.2465,3.7965],[36.3963,41.251,1.4787],[36.3865,41.2551,2.8143],[36.3846,41.2635,0.0],[36.3763,41.2699,0.2635],[36.3818,41.2726,0.0],[36.3732,41.2713,3.5439],[36.369,41.2726,0.5781],[36.3679,41.2751,0.0],[36.3499,41.2821,0.3931],[36.3482,41.2857,0.4893],[36.3482,41.296,0.0],[36.3468,41.2951,0.0],[36.3474,41.2874,0.0],[36.344,41.2871,1.7644],[36.3426,41.2901,3.1417],[36.3368,41.2949,1.3103],[36.3379,41.3057,3.9383],[36.3415,41.3085,0.1879],[36.3421,41.3126,0.0],[36.3551,41.309,0.0],[36.3557,41.3104,0.0],[36.3368,41.3151,1.1068],[36.339,41.3187,0.0],[36.3329,41.3229,0.0],[36.3171,41.3274,0.0],[36.3035,41.3276,6.3005],[36.2918,41.331,3.4158],[36.2768,41.3376,0.0],[36.2649,41.3407,0.6478],[36.2624,41.3432,0.5769],[36.2585,41.3435,5.2991],[36.249,41.3485,4.4111],[36.2415,41.3535,3.9168],[36.2321,41.3635,4.1339],[36.2307,41.3676,2.4715],[36.2313,41.3729,2.218],[36.2179,41.381,0.543],[36.1931,41.4029,1.2431],[36.1837,41.3999,29.9668],[36.1512,41.4,89.9106],[36.1355,41.3985,245.9071],[36.1138,41.3912,503.788],[36.0866,41.3859,462.5867],[36.0454,41.3697,693.2321],[36.0361,41.3674,588.2793],[36.026,41.3679,720.6705],[36.0036,41.3758,463.4896],[35.9862,41.3577,781.3127],[35.9829,41.3504,774.4624],[35.9835,41.3424,770.4244],[36.0066,41.3059,1065.6189],[36.0135,41.2849,910.6205],[36.0279,41.2666,743.6194],[36.0631,41.2438,453.7173],[36.0837,41.2351,657.3209],[36.0936,41.2285,591.5879],[36.111,41.2037,600.2209],[36.1324,41.168,763.1504],[36.1449,41.1555,792.8109],[36.1581,41.1472,573.2551],[36.2036,41.1303,723.0641],[36.2136,41.1237,608.2339],[36.2392,41.0843,721.1057],[36.2579,41.0642,854.3011],[36.2775,41.0547,805.3589],[36.2927,41.0512,873.9297],[36.3254,41.0503,1022.3469],[36.3782,41.0519,597.0274]]]]}}