{"type": "Feature","bbox": [26.0626,39.4529,26.6889,39.6984],"geometry": {"type": "MultiPolygon","coordinates": [[[[26.6889,39.6979,714.2617],[26.6473,39.6958,774.9292],[26.4772,39.6958,182.4994],[26.4226,39.6984,172.4154],[26.3975,39.6878,91.1055],[26.3839,39.6853,110.1788],[26.3699,39.6864,117.2336],[26.3463,39.6942,287.3345],[26.3335,39.6945,264.8591],[26.3253,39.6917,334.1788],[26.317,39.6789,334.7261],[26.3098,39.6747,349.1636],[26.2657,39.6707,338.7721],[26.2406,39.663,363.6553],[26.2169,39.6584,402.6509],[26.1953,39.6513,253.0179],[26.159,39.6496,0.1489],[26.1537,39.6354,1.9305],[26.1504,39.631,0.1774],[26.1501,39.6263,0.841],[26.1382,39.6074,0.0],[26.1313,39.6007,1.4675],[26.1254,39.5974,1.017],[26.1204,39.5965,0.2176],[26.1057,39.5854,0.4851],[26.1054,39.5793,0.3822],[26.1029,39.5762,0.0],[26.1007,39.566,0.6882],[26.0937,39.556,0.0],[26.0926,39.5488,0.0],[26.090699999999998,39.5474,0.0],[26.0918,39.5407,7.5298],[26.0882,39.5324,0.9828],[26.0885,39.5276,10.2737],[26.0801,39.5215,3.1174],[26.0835,39.5187,8.2865],[26.0838,39.511,1.1425],[26.0718,39.5054,12.3384],[26.0696,39.5029,0.0],[26.0687,39.4946,3.2736],[26.0654,39.4899,0.0],[26.0646,39.4818,30.1725],[26.0626,39.4793,8.8319],[26.071,39.4718,0.0],[26.081,39.4671,13.3767],[26.0924,39.4657,16.3981],[26.1057,39.4618,3.5835],[26.1118,39.459,9.0969],[26.1168,39.4546,0.0],[26.1265,39.4554,0.0],[26.1313,39.4529,0.0],[26.1435,39.454,3.0831],[26.1479,39.4585,0.6534],[26.1537,39.4582,1.357],[26.1565,39.4565,0.0],[26.1635,39.4596,1.4914],[26.1787,39.4588,1.9757],[26.1796,39.4601,1.9757],[26.1865,39.4613,1.9925],[26.1954,39.4599,0.0],[26.1993,39.4615,0.2903],[26.2046,39.461,0.0],[26.2087,39.464,0.0],[26.2079,39.4654,7.4373],[26.2121,39.4701,0.0],[26.2143,39.4693,0.0],[26.2146,39.4707,2.559],[26.2201,39.4729,2.3034],[26.2299,39.4746,2.5715],[26.236,39.469,0.1614],[26.236,39.4674,0.0],[26.234,39.4671,0.0],[26.2351,39.4651,0.0],[26.2418,39.4637,0.0],[26.2463,39.469,1.3065],[26.2493,39.4701,0.351],[26.2496,39.4743,7.2224],[26.2537,39.4757,19.7244],[26.256,39.4796,0.0],[26.2621,39.4801,0.0],[26.2649,39.4832,0.0],[26.2751,39.4824,2.8072],[26.2899,39.4854,0.0],[26.2935,39.484,11.4537],[26.3135,39.4837,0.0],[26.3149,39.4821,0.0],[26.3254,39.4807,5.5332],[26.3368,39.4851,0.0],[26.3412,39.4849,0.0],[26.344,39.4874,15.3168],[26.354,39.4874,6.6379],[26.3682,39.4804,0.0],[26.3701,39.481,0.0],[26.3685,39.4854,0.3399],[26.3715,39.4921,1.1664],[26.3762,39.4965,1.4494],[26.3935,39.4974,7.3175],[26.3965,39.4996,0.8585],[26.4068,39.5021,1.9939],[26.4179,39.501,2.9023],[26.4215,39.5062,0.7074],[26.4296,39.5104,0.0],[26.4335,39.5107,0.7643],[26.439,39.5137,0.0],[26.4407,39.5165,7.2693],[26.4554,39.5185,0.0],[26.4596,39.5213,1.9139],[26.4707,39.5213,0.4089],[26.4757,39.5249,1.1084],[26.4893,39.5279,3.1875],[26.5071,39.5262,0.0],[26.521,39.5321,5.9201],[26.5368,39.5332,0.0],[26.5493,39.531,0.7604],[26.5571,39.5354,0.0],[26.5676,39.5365,0.0],[26.579,39.5401,0.0],[26.5868,39.5396,0.0],[26.5929,39.5446,1.8225],[26.6015,39.5457,2.6339],[26.6076,39.5438,0.2875],[26.6087,39.5451,0.2611],[26.616,39.546,0.0],[26.6238,39.5518,0.3342],[26.6318,39.5549,0.6341],[26.646,39.5551,0.0],[26.6588,39.5521,1.6338],[26.6649,39.5565,1.4975],[26.6693,39.5576,1.5444],[26.6629,39.5585,4.6198],[26.6655,39.5816,182.5685],[26.6666,39.6507,820.4421],[26.6692,39.6598,855.7893],[26.6889,39.6979,714.2617]]]]}
,"properties": {"GID_2": "TUR.22.1_1","GID_0": "TUR","country": "Turkey","GID_1": "TUR.22_1","province": "Çanakkale","NL_NAME_1": "NA","county": "Ayvacık","VARNAME_2": "NA","NL_NAME_2": "NA","TYPE_2": "District","ENGTYPE_2": "District","CC_2": "NA","HASC_2": "TR.CK.AY","name": "Ayvacık.county","area_km2": 966.7709,"hist_schema_id": "Elevation0-9000","hist_area_km2": {"0": 38.0421,"25": 31.1597,"50": 26.4704,"75": 27.6493,"100": 38.1687,"125": 45.9407,"150": 44.6298,"175": 43.9931,"200": 41.5749,"225": 47.7836,"250": 55.4459,"275": 59.1581,"300": 60.1828,"325": 57.3326,"350": 56.7562,"375": 51.9816,"400": 49.2358,"425": 40.2658,"450": 29.582,"475": 21.6089,"500": 15.2873,"525": 13.4406,"550": 11.3005,"575": 8.7364,"600": 7.5442,"625": 5.5027,"650": 5.0284,"675": 4.4729,"700": 5.2398,"725": 5.2067,"750": 6.2667,"775": 6.0705,"800": 3.476,"825": 1.3711,"850": 0.6203,"875": 0.2285,"900": 0.0163}}}