{"type":"Feature","properties":{"GID_2":"TUR.31.11_1","GID_0":"TUR","country":"Turkey","GID_1":"TUR.31_1","province":"Erzurum","NL_NAME_1":"NA","county":"Narman","VARNAME_2":"NA","NL_NAME_2":"NA","TYPE_2":"District","ENGTYPE_2":"District","CC_2":"NA","HASC_2":"TR.EM.NA","name":"Narman.county"},
"geometry":{"type": "MultiPolygon","coordinates": [[[[42.1348,40.2896,2549.1362],[42.1347,40.3195,2635.1201],[42.1383,40.335,2781.5098],[42.1733,40.3725,2668.7935],[42.1489,40.3805,2279.6929],[42.1214,40.3855,2568.7983],[42.1036,40.3918,2666.4983],[42.0765,40.3972,2410.0144],[42.0549,40.4042,2124.1045],[42.0201,40.4081,1869.2637],[41.9948,40.4158,1678.1367],[41.9601,40.4199,1478.2526],[41.9311,40.4283,1638.6716],[41.8375,40.4299,2374.0322],[41.8097,40.4281,2254.1804],[41.7759,40.4156,2518.0493],[41.7497,40.4001,2234.7944],[41.7395,40.3964,2296.9946],[41.7195,40.3944,1923.7373],[41.6695,40.3948,2324.9458],[41.666,40.3842,2221.1763],[41.6569,40.3678,2317.0767],[41.6517,40.3403,1997.6621],[41.6403,40.3182,2084.9177],[41.6383,40.3031,2274.085],[41.639,40.2881,2334.2507],[41.6421,40.2796,2487.0874],[41.6506,40.2717,2647.0928],[41.6595,40.2683,2687.5317],[41.6826,40.2644,2828.3933],[41.6908,40.2603,2837.8599],[41.6968,40.2542,2832.7593],[41.6991,40.243899999999996,2458.5298],[41.695,40.2345,2223.2627],[41.6684,40.2187,2206.4312],[41.6457,40.1979,2504.7549],[41.6699,40.187,2295.7754],[41.704,40.1751,2316.4197],[41.7234,40.1734,2510.3335],[41.7916,40.1727,2502.3169],[41.8028,40.1707,2493.2397],[41.8206,40.1644,2399.5549],[41.8355,40.162,2427.7195],[41.8668,40.1623,2252.6653],[41.8779,40.1643,2222.459],[41.9025,40.172,2195.6743],[41.9425,40.1749,2476.4905],[41.9607,40.2007,2478.9641],[41.9764,40.2131,2411.2107],[41.9894,40.2183,2445.0427],[42.0166,40.2208,2520.4639],[42.0276,40.2252,2554.6753],[42.0527,40.2509,2520.0713],[42.064,40.2675,2499.7622],[42.0732,40.2747,2496.4612],[42.1059,40.2874,2527.936],[42.1348,40.2896,2549.1362]]]]}}