{"type": "Feature","bbox": [36.4426,36.6554,38.0515,37.5456],"geometry": {"type": "MultiPolygon","coordinates": [[[[37.6945,36.7382,495.8713],[37.7103,36.7446,510.0137],[37.7268,36.7488,510.1658],[37.7337,36.7495,509.9836],[37.767,36.7466,502.5845],[37.7912,36.7486,511.979],[37.8144,36.7592,505.046],[37.8623,36.7741,478.7965],[37.908,36.7857,443.7536],[37.9765,36.8182,392.8715],[37.998,36.8238,368.7578],[38.0106,36.8252,350.9072],[38.0124,36.854,337.3121],[38.0131,36.9165,333.0],[38.0108,36.9362,334.75],[38.0045,36.9456,335.5],[37.9877,36.962,359.911],[37.9801,36.9739,336.0],[37.9716,36.983,337.1266],[37.8965,37.0415,401.1852],[37.8809,37.0574,380.0],[37.8742,37.0785,380.0],[37.865,37.0949,380.0],[37.8626,37.1165,441.3952],[37.8504,37.1418,483.469],[37.8454,37.1687,386.7867],[37.8347,37.1911,385.8438],[37.8303,37.2439,628.4055],[37.8438,37.2645,425.3194],[37.847,37.2727,397.2048],[37.8485,37.2854,418.4812],[37.8484,37.3125,519.9735],[37.861,37.3177,448.8151],[37.8724,37.3298,429.8378],[37.8998,37.353,477.4763],[37.9058,37.3599,397.8685],[37.9263,37.393,647.0417],[37.9368,37.4041,510.3492],[37.9758,37.434,381.6544],[37.9884,37.4391,389.5922],[38.0139,37.4408,501.6972],[38.0515,37.4376,380.5],[38.042,37.4512,492.9709],[38.0303,37.4627,534.7362],[38.0006,37.4861,666.5685],[37.9858,37.4949,598.0789],[37.9554,37.5015,620.7352],[37.9342,37.5087,612.7181],[37.9103,37.513,671.1419],[37.8891,37.5201,688.9412],[37.8502,37.5247,651.0092],[37.8058,37.5421,678.5763],[37.7958,37.5447,713.0264],[37.7777,37.5456,721.5344],[37.7599,37.5433,810.6793],[37.6791,37.512,848.9244],[37.6536,37.5103,995.3113],[37.623,37.5121,826.5522],[37.6236,37.445,558.3206],[37.6216,37.4328,543.6725],[37.6059,37.4068,561.098],[37.5947,37.3975,588.3669],[37.5889,37.3948,585.2304],[37.5555,37.3827,711.3923],[37.5428,37.3802,770.2811],[37.5244,37.3819,789.1259],[37.5083,37.3808,757.4216],[37.4833,37.3728,768.1796],[37.4596,37.3673,838.7374],[37.4307,37.371,790.1516],[37.3916,37.37,867.5471],[37.3629,37.3614,909.5073],[37.3129,37.3576,768.8109],[37.288,37.3498,817.0288],[37.256,37.3465,849.8327],[37.2279,37.3382,989.3334],[37.1959,37.3352,991.6705],[37.1859,37.3329,1092.626],[37.1555,37.3211,743.4363],[37.1174,37.2954,549.0284],[37.0892,37.2826,542.4551],[37.0718,37.2678,541.5337],[37.0631,37.2534,553.1206],[37.0483,37.2347,653.3826],[37.0108,37.2174,883.4468],[36.9822,37.2212,639.9109],[36.976,37.2235,608.1282],[36.9666,37.2307,591.2233],[36.9627,37.238,590.7496],[36.9582,37.2536,591.2457],[36.9496,37.2703,549.824],[36.9447,37.2974,575.548],[36.9342,37.3196,565.7795],[36.9324,37.3364,554.9692],[36.9283,37.3497,542.5898],[36.9185,37.3601,490.8961],[36.9112,37.3648,487.6661],[36.9024,37.367,484.3768],[36.8964,37.3658,483.3694],[36.8644,37.3433,479.5524],[36.8379,37.3315,474.6528],[36.8016,37.3066,476.6714],[36.7806,37.2979,566.5253],[36.7537,37.282,846.9302],[36.7286,37.2761,1266.6967],[36.7163,37.2631,1235.3354],[36.6853,37.2374,1506.5057],[36.6725,37.2189,1285.7563],[36.6643,37.2106,1571.151],[36.6445,37.1956,1690.4346],[36.6251,37.1855,971.4908],[36.6064,37.166,1179.988],[36.5391,37.1136,918.0291],[36.5289,37.1031,774.3677],[36.5138,37.0798,893.2365],[36.5029,37.0541,975.0256],[36.4845,37.033,1357.1099],[36.4776,37.0119,1702.1375],[36.4686,36.9955,1860.3544],[36.4628,36.977,1428.0287],[36.4426,36.9533,1324.959],[36.4551,36.941,1706.6396],[36.4856,36.9248,1134.2205],[36.5188,36.9009,981.4801],[36.5454,36.8893,787.4265],[36.5815,36.8643,393.2933],[36.6024,36.8556,381.5108],[36.6261,36.841,374.6533],[36.6409,36.8371,422.7213],[36.6632,36.8388,369.6421],[36.6685,36.8368,370.0619],[36.6707,36.8427,373.841],[36.6755,36.8456,376.5059],[36.6853,36.8348,432.5305],[36.739,36.8242,619.7836],[36.784,36.8065,848.1672],[36.7821,36.8182,724.7855],[36.7826,36.8295,714.8141],[36.7846,36.8348,700.6494],[36.7921,36.8433,782.3986],[36.8058,36.8526,705.7878],[36.8282,36.8629,680.317],[36.8544,36.8788,748.9197],[36.9,36.8961,657.3586],[36.91,36.9026,709.5358],[36.9217,36.9186,891.3611],[36.9416,36.9392,763.7072],[36.9454,36.9469,827.9778],[36.949,36.9602,946.6566],[36.9584,36.9766,988.8557],[36.9617,36.9872,965.4568],[36.9723,36.9938,976.1399],[37.0133,37.0105,721.6422],[37.1126,37.0106,832.4665],[37.137,37.0089,875.0023],[37.1735,36.9948,921.928],[37.1831,36.9859,961.7648],[37.1981,36.9652,891.7976],[37.2136,36.9394,886.3336],[37.2191,36.9091,794.5676],[37.2279,36.8926,788.1956],[37.2347,36.8718,789.8344],[37.2404,36.8655,766.6113],[37.248,36.8607,740.119],[37.2777,36.8491,731.6671],[37.3033,36.8415,739.0106],[37.3378,36.8259,698.53],[37.3681,36.8148,652.7257],[37.3817,36.8122,640.7996],[37.3817,36.8006,608.8378],[37.4,36.8002,619.7527],[37.4105,36.7983,644.4684],[37.423,36.7921,678.4797],[37.431,36.7859,728.0583],[37.4395,36.7766,745.8026],[37.4536,36.753,597.1227],[37.4588,36.7343,563.8074],[37.4729,36.7108,559.9972],[37.4964,36.6854,525.4303],[37.5085,36.6554,572.6447],[37.521,36.6672,540.5765],[37.5343,36.6763,541.9424],[37.5782,36.6985,540.072],[37.6355,36.7207,506.8638],[37.6551,36.7314,514.8367],[37.674,36.7368,513.6761],[37.6945,36.7382,495.8713]]]]}
,"properties": {"GID_1": "TUR.33_1","GID_0": "TUR","country": "Turkey","province": "Gaziantep","VARNAME_1": "NA","NL_NAME_1": "NA","TYPE_1": "Il","ENGTYPE_1": "Province","CC_1": "NA","HASC_1": "TR.GA","ISO_1": "TR-27","name": "Gaziantep.province","area_km2": 7150.409,"hist_schema_id": "Elevation0-9000","hist_area_km2": {"325": 6.982,"350": 19.393,"375": 74.907,"400": 124.302,"425": 145.471,"450": 204.118,"475": 364.259,"500": 310.817,"525": 418.022,"550": 382.782,"575": 276.427,"600": 288.449,"625": 259.694,"650": 252.902,"675": 243.989,"700": 259.92,"725": 259.853,"750": 244.506,"775": 260.957,"800": 298.061,"825": 306.758,"850": 291.98,"875": 258.342,"900": 241.455,"925": 209.316,"950": 191.838,"975": 173.305,"1000": 139.768,"1025": 111.021,"1050": 90.495,"1075": 73.557,"1100": 59.707,"1125": 45.898,"1150": 33.204,"1175": 26.338,"1200": 22.214,"1225": 19.982,"1250": 19.307,"1275": 18.866,"1300": 17.294,"1325": 16.144,"1350": 12.46,"1375": 11.378,"1400": 8.048,"1425": 6.647,"1450": 5.261,"1475": 4.416,"1500": 3.825,"1525": 3.165,"1550": 3.215,"1575": 2.59,"1600": 2.708,"1625": 2.81,"1650": 2.709,"1675": 2.404,"1700": 2.438,"1725": 2.303,"1750": 2.168,"1775": 1.88,"1800": 1.456,"1825": 0.931,"1850": 1.135,"1875": 0.762,"1900": 0.711,"1925": 0.627,"1950": 0.559,"1975": 0.356,"2000": 0.254,"2025": 0.271,"2050": 0.203,"2075": 0.119}}}