{"type": "Feature","id": "3016","bbox": [36.45186,36.6736,38.0406,37.5367],"geometry": {"type": "Polygon","coordinates": [[[38.03988,37.44598,446.9422],[37.96144,37.50053,651.9672],[37.84361,37.53556,632.7357],[37.7354,37.5367,756.8467],[37.62512,37.51882,859.3896],[37.62295,37.48893,699.5409],[37.6304,37.45963,566.0468],[37.61727,37.41441,542.3386],[37.57479,37.39185,654.7465],[37.51175,37.39304,640.4053],[37.44922,37.38632,793.1815],[37.31476,37.34935,790.0455],[37.19022,37.33147,998.3653],[37.1342,37.30966,552.7112],[37.04325,37.23328,715.3568],[36.96635,37.25323,594.0588],[36.93773,37.34217,519.2665],[36.88956,37.36674,481.6901],[36.84223,37.31545,474.2628],[36.7212,37.27119,1137.4514],[36.67614,37.22961,1138.1289],[36.63738,37.18274,998.0548],[36.58271,37.0966,1333.5604],[36.51305,37.02541,1618.188],[36.47615,36.9973,1962.4888],[36.45186,36.96069,1624.822],[36.51708,36.90904,872.2762],[36.59687,36.88023,411.3766],[36.61402,36.867,392.7584],[36.6226,36.84674,374.5684],[36.63521,36.8378,378.6698],[36.65133,36.83633,414.8526],[36.6595,36.82731,372.8534],[36.65956,36.82724,372.8534],[36.71424,36.86903,504.9047],[36.79687,36.90001,859.7736],[36.86401,36.93616,782.4508],[36.87434,37.0033,851.1829],[36.90533,37.02396,911.8981],[36.94148,37.00847,926.6637],[36.97246,36.95166,776.7851],[37.0396,36.94133,655.3882],[37.11707,36.90001,925.626],[37.1997,36.83288,748.088],[37.24101,36.79156,662.9929],[37.272,36.80705,664.5478],[37.3443,36.77607,733.658],[37.43726,36.73475,595.408],[37.52214,36.6736,534.2119],[37.59339,36.71053,533.5724],[37.65406,36.73213,514.2802],[37.81974,36.76055,507.3284],[37.98004,36.81967,395.7976],[38.00794,36.82576,350.4079],[38.02601,36.83501,326.4562],[38.02582,36.83535,326.4562],[38.02117,36.84416,328.3022],[38.019,36.85801,327.2929],[38.02117,36.87106,347.6149],[38.02934,36.87684,341.4678],[38.0406,36.88044,329.5],[38.03606,36.8887,330.0],[38.01869,36.90416,332.0],[38.01518,36.91346,332.5],[38.01311,36.92366,333.5],[38.01187,36.94917,365.703],[38.00794,36.95707,336.0],[37.98118,36.97676,338.1427],[37.96691,36.9904,337.4161],[37.96392,36.99878,337.2596],[37.96412,37.01402,336.5208],[37.97663,37.03841,342.6947],[37.9788,37.05004,337.0],[37.96753,37.05497,337.0],[37.9543,37.05278,337.0],[37.93084,37.04345,339.7456],[37.92257,37.04193,337.5],[37.91286,37.04709,342.1197],[37.90376,37.05528,370.7847],[37.89384,37.06012,381.5452],[37.88154,37.05497,380.0],[37.86935,37.06513,380.0],[37.86821,37.07758,380.0],[37.87472,37.10681,380.0],[37.87617,37.13081,380.0],[37.87431,37.14001,380.0],[37.8679,37.15179,380.0],[37.85074,37.17334,380.0],[37.84351,37.18662,380.0],[37.84062,37.203,492.5733],[37.84423,37.21923,432.4561],[37.8525,37.22649,380.0],[37.8617,37.22455,404.9174],[37.8679,37.21326,380.0],[37.87472,37.21326,380.0],[37.87421,37.23432,381.6487],[37.86687,37.2493,397.0046],[37.85488,37.25995,505.7157],[37.84062,37.26785,380.0],[37.85219,37.3038,539.8387],[37.85767,37.31286,380.0],[37.86501,37.31767,380.0],[37.87276,37.3209,399.8877],[37.87896,37.32511,470.3096],[37.88557,37.35059,380.0],[37.89632,37.36382,614.0383],[37.93002,37.39077,579.1686],[37.97435,37.43544,380.0],[37.98965,37.44474,461.8083],[38.00598,37.44523,553.5547],[38.02293,37.44345,382.9447],[38.03988,37.44598,446.9422]]]}
,"properties": {"ISO3166-1-Alpha-3": "TUR","country": "Turkey","fill": "#FF0","name": "Gaziantep","area_km2": 7317.957,"hist_schema_id": "Elevation0-9000","hist_area_km2": {"325": 17.593,"350": 35.09,"375": 92.38,"400": 124.389,"425": 145.409,"450": 200.072,"475": 352.006,"500": 305.192,"525": 410.648,"550": 378.067,"575": 288.746,"600": 314.604,"625": 279.564,"650": 273.923,"675": 269.812,"700": 281.01,"725": 271.611,"750": 250.966,"775": 263.39,"800": 309.149,"825": 323.748,"850": 302.178,"875": 271.48,"900": 251.493,"925": 214.886,"950": 191.918,"975": 170.932,"1000": 138.7,"1025": 107.567,"1050": 86.585,"1075": 70.663,"1100": 56.188,"1125": 41.076,"1150": 29.616,"1175": 23.462,"1200": 19.373,"1225": 17.935,"1250": 17.632,"1275": 17.26,"1300": 15.84,"1325": 14.825,"1350": 11.394,"1375": 10.482,"1400": 7.219,"1425": 5.631,"1450": 4.431,"1475": 3.789,"1500": 3.283,"1525": 2.64,"1550": 2.64,"1575": 2.014,"1600": 1.98,"1625": 1.624,"1650": 1.541,"1675": 1.32,"1700": 1.321,"1725": 1.355,"1750": 1.406,"1775": 1.253,"1800": 1.033,"1825": 0.644,"1850": 0.83,"1875": 0.508,"1900": 0.542,"1925": 0.525,"1950": 0.457,"1975": 0.305,"2000": 0.22,"2025": 0.271,"2050": 0.203,"2075": 0.119}}}