{"type":"Feature","properties":{"GID_2":"TUR.44.4_1","GID_0":"TUR","country":"Turkey","GID_1":"TUR.44_1","province":"Karaman","NL_NAME_1":"NA","county":"Kazımkarabekir","VARNAME_2":"NA","NL_NAME_2":"NA","TYPE_2":"District","ENGTYPE_2":"District","CC_2":"NA","HASC_2":"TR.KR.KA","name":"Kazımkarabekir.county"},
"geometry":{"type": "MultiPolygon","coordinates": [[[[32.6291,37.0753,1439.7881],[32.6155,37.0563,1200.3632],[32.5726,37.0225,1465.1365],[32.5642,37.013,1758.9282],[32.5618,37.0049,1914.0083],[32.5622,36.9965,1761.625],[32.5658,36.9885,1776.7081],[32.5724,36.9815,1862.4104],[32.6076,36.9543,1728.0953],[32.6229,36.9462,1739.4016],[32.6335,36.9443,1798.922],[32.677,36.9419,1714.5081],[32.7015,36.9341,1620.9905],[32.7404,36.9295,1470.0502],[32.7581,36.9231,1483.7891],[32.7857,36.9182,1575.1013],[32.8097,36.9109,1638.3698],[32.8164,36.9163,1641.1897],[32.8361,36.9446,1553.9819],[32.8481,36.9534,1441.2047],[32.8782,36.9646,1466.283],[32.9175,36.9686,903.89],[32.9388,36.9752,625.521],[32.9573,36.9789,957.1132],[32.9625,36.9817,1246.0723],[32.9664,36.9885,1378.38],[32.9652,36.9988,1430.7721],[32.9603,37.0059,1413.6338],[32.9455,37.0197,1391.8906],[32.9439,37.0244,1401.5466],[32.9455,37.0289,1422.3859],[32.9544,37.0351,1417.1732],[32.9776,37.0384,1559.7573],[33.0031,37.0473,1491.2742],[33.0075,37.0505,1508.9318],[33.0095,37.0552,1477.1597],[33.0086,37.0601,1666.3549],[33.0034,37.0658,1673.8689],[32.979,37.0763,1629.9581],[32.9714,37.0841,1458.5498],[32.9702,37.0919,1400.798],[32.9807,37.1128,1423.7843],[32.9821,37.1211,1453.1442],[32.9813,37.1352,1797.9602],[32.9713,37.1544,1516.4384],[32.9658,37.1729,1302.9498],[32.9619,37.1801,1230.4989],[32.9508,37.1949,1181.3787],[32.9464,37.1984,1177.974],[32.9214,37.2093,1327.0267],[32.9,37.2138,1609.7764],[32.869,37.2113,1631.0332],[32.8412,37.2124,1356.4811],[32.8306,37.2149,1408.9875],[32.7894,37.2314,1525.3331],[32.776,37.234,1293.1125],[32.7618,37.2332,1250.7463],[32.7373,37.2256,1500.4117],[32.7134,37.2212,1526.4014],[32.6868,37.2085,1298.5725],[32.6836,37.2037,1334.8655],[32.6816,37.1956,1312.0083],[32.6829,37.1686,1509.3547],[32.6859,37.1575,1372.166],[32.6819,37.1477,1240.6892],[32.6757,37.1383,1275.6025],[32.6671,37.1301,1328.1156],[32.6637,37.1194,1332.0405],[32.648,37.0935,1862.9062],[32.6354,37.0781,1494.9703],[32.6291,37.0753,1439.7881]]]]}}