{"type":"Feature","properties":{"GID_1":"TUR.60_1","GID_0":"TUR","country":"Turkey","province":"Mus","VARNAME_1":"Muş","NL_NAME_1":"NA","TYPE_1":"Il","ENGTYPE_1":"Province","CC_1":"NA","HASC_1":"TR.MS","ISO_1":"TR-49","name":"Mus.province"},
"geometry":{"type": "MultiPolygon","coordinates": [[[[42.0562,38.6948,1809.6517],[42.0613,38.7134,1724.6344],[42.054,38.7287,1772.7771],[42.0364,38.7545,1886.1853],[42.005,38.7811,1744.8815],[41.9988,38.7886,1663.0343],[41.9967,38.794,1519.4148],[41.9965,38.805,1550.6792],[42.0021,38.8148,1587.3868],[42.0098,38.8199,1626.3589],[42.0239,38.8231,1711.3224],[42.1188,38.8219,2056.2939],[42.1366,38.8239,2043.8989],[42.1442,38.829,2019.0669],[42.1476,38.8406,2170.3545],[42.1459,38.8566,2109.4321],[42.14,38.8703,1874.8722],[42.3101,38.9356,1931.7502],[42.3169,38.9375,1946.4613],[42.3404,38.9393,2064.3276],[42.3968,38.9388,2213.052],[42.4122,38.9371,2258.9175],[42.441,38.9284,2184.0742],[42.4896,38.9267,2201.7363],[42.5154,38.9295,2219.5347],[42.5289,38.9393,2112.5095],[42.5477,38.9405,2132.2534],[42.5612,38.9434,2097.2275],[42.5986,38.9298,2134.519],[42.6102,38.9277,2217.0322],[42.6844,38.9269,2235.2651],[42.7047,38.9278,2289.8135],[42.7164,38.9296,2357.4609],[42.7382,38.9361,2469.1372],[42.7661,38.9393,2723.8101],[42.7732,38.9442,2811.188],[42.7741,38.9511,2768.1509],[42.766,38.966,2469.2996],[42.7601,38.9928,2274.6367],[42.7501,39.0126,2108.6301],[42.7476,39.0637,1762.8408],[42.7462,39.0721,1737.2637],[42.7362,39.0911,1711.9684],[42.7338,39.0995,1656.5312],[42.7329,39.1446,1609.8829],[42.7299,39.159,1608.9032],[42.6688,39.2542,1999.5994],[42.6567,39.2627,2260.4326],[42.6276,39.2727,2019.5515],[42.6145,39.2864,1844.5748],[42.5769,39.3172,1850.636],[42.5636,39.3361,1590.5859],[42.5572,39.3426,1591.8118],[42.5239,39.369,1504.9143],[42.5129,39.3799,1674.2698],[42.5037,39.4059,1556.4531],[42.4664,39.4637,1749.1212],[42.464,39.4734,1799.2668],[42.4634,39.4861,1911.7227],[42.4498,39.4835,1929.0934],[42.4286,39.4763,1983.2349],[42.3931,39.4726,1938.3676],[42.3718,39.4656,1864.156],[42.3264,39.4594,1823.4718],[42.2391,39.4261,1738.6964],[42.2273,39.4197,1743.4974],[42.2017,39.3992,1758.8711],[42.1963,39.392,1798.8088],[42.1929,39.3815,2002.7996],[42.2004,39.3789,1845.4021],[42.206,39.3738,1689.535],[42.2121,39.3596,1554.4286],[42.2202,39.346,1722.011],[42.2221,39.3379,1711.0825],[42.2216,39.3295,1654.8745],[42.2185,39.3217,1659.0046],[42.1993,39.2995,1600.5229],[42.1856,39.2934,1622.2339],[42.152,39.2702,1621.707],[42.1247,39.2581,1524.5784],[42.0862,39.2293,1645.7706],[42.0743,39.2224,1731.9611],[42.0438,39.2158,1739.1998],[42.0226,39.2088,1761.3923],[41.9871,39.2051,2085.4263],[41.959,39.1967,2218.8911],[41.9268,39.1938,2299.4341],[41.8759,39.1743,2535.0491],[41.8388,39.1622,2244.3191],[41.8131,39.1605,2343.1926],[41.7836,39.1612,2386.4875],[41.7731,39.1631,2373.0229],[41.7521,39.1703,2354.6355],[41.7201,39.1734,2115.8875],[41.7073,39.1774,1996.182],[41.6832,39.1917,1697.5342],[41.6623,39.2004,1718.7747],[41.6496,39.2093,1763.7041],[41.6413,39.2176,1745.0872],[41.6339,39.2296,1857.6761],[41.6258,39.2386,1883.5762],[41.5605,39.2903,2377.7703],[41.5517,39.2992,2450.5645],[41.5408,39.3157,2531.5942],[41.5243,39.3291,2611.8933],[41.4704,39.3508,2839.0544],[41.4435,39.3666,2778.6069],[41.4134,39.3731,2841.7261],[41.3863,39.3836,2849.1663],[41.3345,39.3814,2655.364],[41.298,39.372,2670.0015],[41.2632,39.3702,2555.9751],[41.2451,39.3669,2473.4609],[41.2039,39.3479,2494.9941],[41.1957,39.3419,2268.4424],[41.1874,39.3325,2358.9761],[41.1731,39.3089,2068.1021],[41.1717,39.2893,1812.813],[41.1735,39.2811,1841.8647],[41.1846,39.2591,2024.3936],[41.1889,39.2232,2026.5771],[41.1997,39.2008,1870.1299],[41.2044,39.1636,1814.0583],[41.2262,39.1596,1646.9144],[41.2376,39.1541,1602.4801],[41.2729,39.1135,2041.7637],[41.2757,39.1046,2207.4272],[41.2767,39.0923,2113.9297],[41.276,39.0512,2464.1877],[41.2745,39.0296,2408.3259],[41.2544,39.015,2036.9546],[41.2392,38.9944,1776.7239],[41.2076,38.9668,1704.7612],[41.194,38.9479,1756.5166],[41.1619,38.9207,1806.175],[41.1565,38.9104,1487.8881],[41.1565,38.8994,1618.8513],[41.1582,38.894,1718.514],[41.1669,38.8805,1491.2594],[41.1736,38.8594,1647.7034],[41.1879,38.8359,1422.9667],[41.207,38.8081,1282.3483],[41.2344,38.785,1546.97],[41.2429,38.776,1657.2795],[41.2576,38.7526,1772.7855],[41.2663,38.7256,1769.5795],[41.2795,38.7055,1940.1045],[41.288,38.6973,1905.5732],[41.3008,38.6885,1752.2522],[41.322,38.68,1932.7915],[41.3334,38.6733,1886.601],[41.3648,38.6494,1739.2415],[41.378,38.6363,1778.1182],[41.3914,38.6154,1814.6702],[41.3946,38.6049,1895.5939],[41.3932,38.5939,1836.8057],[41.3821,38.5753,1408.5288],[41.3796,38.5586,1645.3038],[41.3826,38.5447,1824.037],[41.3948,38.532,1643.0531],[41.4053,38.5257,1823.9292],[41.4169,38.5222,2059.3596],[41.4303,38.5309,2165.3354],[41.4602,38.5424,2143.0576],[41.4892,38.5441,2607.7285],[41.5222,38.5419,2118.1565],[41.5342,38.5572,2012.5627],[41.5443,38.5666,1740.1089],[41.5702,38.585,2126.2539],[41.5768,38.5879,2255.4482],[41.6006,38.5925,2002.494],[41.6217,38.5995,2027.4037],[41.6327,38.6013,2225.5405],[41.7675,38.602,1837.9731],[41.7993,38.599,1790.2539],[41.8207,38.5918,1616.7698],[41.832,38.5903,1706.8318],[41.8633,38.5905,1611.0426],[41.8745,38.5926,1560.0221],[41.8975,38.6027,1489.3827],[41.9405,38.6181,1288.0477],[41.9888,38.6534,1278.0852],[42.0208,38.6679,1279.0514],[42.0562,38.6948,1809.6517]]]]}}