{"type":"Feature","properties":{"ISO3166-1-Alpha-3":"TUR","country":"Turkey","fill":"#00F","id":"2310","name":"Mus"},
"geometry":{"type": "Polygon","coordinates": [[[42.62761,39.00243,1940.2612],[42.62368,39.05369,1761.5958],[42.63216,39.10314,1626.2291],[42.64249,39.14206,1633.3456],[42.64167,39.15746,1636.8103],[42.63609,39.17099,1631.1656],[42.64125,39.23543,1886.5989],[42.6058,39.27652,2052.1731],[42.58027,39.29556,1828.3311],[42.56322,39.32323,1576.6696],[42.53273,39.35057,1499.9878],[42.501,39.37323,1743.6659],[42.45915,39.42868,1662.3828],[42.43134,39.49139,1990.6232],[42.41109,39.48586,2099.8918],[42.37357,39.4809,1981.6754],[42.33574,39.47935,1992.2319],[42.1987,39.42615,1771.3044],[42.17813,39.38155,1754.7515],[42.18392,39.33641,1724.017],[42.1557,39.29907,1619.6735],[42.08666,39.26595,1647.6843],[42.06754,39.24864,2023.2163],[42.03726,39.22706,1701.3481],[41.91468,39.21084,2268.8735],[41.87324,39.19223,2667.9099],[41.83448,39.1688,2369.8787],[41.74766,39.17146,2282.4429],[41.6626,39.1988,1718.7747],[41.63904,39.21404,1813.3519],[41.58096,39.27825,2380.9368],[41.48277,39.35302,2802.5654],[41.44556,39.37183,2758.9819],[41.36516,39.38656,2721.9585],[41.20506,39.36566,2463.9751],[41.17726,39.32734,2122.3679],[41.1724,39.30481,1952.7296],[41.1877,39.27517,1735.4296],[41.19359,39.26652,1840.3179],[41.20237,39.24786,1957.2019],[41.20299,39.23267,2007.7295],[41.20103,39.20185,1870.1299],[41.22356,39.17035,1688.7834],[41.24268,39.15513,1570.0287],[41.27028,39.11629,1999.6008],[41.27689,39.0726,2253.8071],[41.2649,39.03219,2379.0349],[41.19504,38.96558,1853.7195],[41.16434,38.88791,1643.9761],[41.18615,38.83052,1543.7441],[41.20723,38.80761,1282.3483],[41.21891,38.80326,1484.0323],[41.2402,38.78929,1539.1726],[41.25302,38.76549,1735.5522],[41.25963,38.73919,1712.6782],[41.3112,38.68774,1976.0847],[41.37838,38.64875,1855.4724],[41.38965,38.60912,1930.1765],[41.37807,38.56886,1487.5575],[41.39006,38.54158,1864.177],[41.42055,38.5346,1938.8032],[41.47533,38.54801,2251.4209],[41.53124,38.55439,2028.2842],[41.54179,38.56757,1714.6527],[41.69588,38.61273,2186.73],[41.86662,38.60279,1335.3239],[41.9368,38.63377,1275.9077],[41.99581,38.68539,1367.2704],[42.03767,38.71343,1657.0741],[42.03137,38.7559,1852.2006],[41.99943,38.79531,1541.8519],[42.01804,38.83158,1662.7321],[42.1063,38.82998,1998.1803],[42.12759,38.84414,2143.2705],[42.13958,38.89068,1690.6567],[42.15963,38.9021,1700.9911],[42.20231,38.90561,1834.5486],[42.24314,38.91824,1788.4988],[42.27476,38.93651,1744.54],[42.31001,38.94569,1836.1345],[42.47341,38.93158,2329.605],[42.55568,38.95643,2036.9531],[42.62761,39.00243,1940.2612]]]}}