{"type": "Feature","bbox": [36.2121,37.3482,36.6105,37.8856],"geometry": {"type": "MultiPolygon","coordinates": [[[[36.3024,37.6512,1182.8265],[36.299,37.6407,1176.2043],[36.2897,37.6243,1215.5857],[36.2829,37.6033,1220.2609],[36.2695,37.5823,959.2851],[36.2578,37.5706,521.0815],[36.2338,37.5506,645.9969],[36.2174,37.5271,681.5635],[36.2128,37.517,491.3675],[36.2121,37.5002,402.4821],[36.2139,37.4919,508.3686],[36.2252,37.47,470.049],[36.2283,37.4251,298.1358],[36.2389,37.403,231.5464],[36.242,37.3811,288.239],[36.2447,37.3732,233.0273],[36.2553,37.3634,141.446],[36.2823,37.354,137.0],[36.2948,37.3504,137.0],[36.3279,37.3484,281.7969],[36.3619,37.3482,137.0],[36.3867,37.3502,165.5555],[36.4344,37.368,173.6796],[36.4499,37.3712,327.8473],[36.4623,37.3715,328.5249],[36.4889,37.368899999999996,860.3105],[36.4839,37.3808,744.2095],[36.4819,37.3922,632.1874],[36.4814,37.4123,957.1674],[36.4839,37.4263,620.6522],[36.4908,37.4361,862.5857],[36.5227,37.4633,502.7693],[36.538,37.4866,457.1646],[36.5415,37.4972,872.0807],[36.5447,37.531,938.2252],[36.5538,37.5475,1310.0698],[36.5606,37.5686,1282.0997],[36.5756,37.5918,1008.5892],[36.5962,37.6119,845.649],[36.601,37.6195,685.1779],[36.6023,37.6305,702.616],[36.5999,37.6386,478.4826],[36.5918,37.6478,558.8019],[36.5641,37.6703,851.4019],[36.5594,37.6778,1090.5398],[36.5582,37.6888,1342.556],[36.5616,37.6993,1418.2435],[36.5906,37.7433,1494.5588],[36.6105,37.7704,1510.8948],[36.5741,37.7812,1099.873],[36.5592,37.7898,1114.4208],[36.4995,37.8364,1505.0519],[36.4879,37.8477,1848.4463],[36.4766,37.8638,1746.974],[36.4637,37.8717,1871.3611],[36.4401,37.8809,1731.7014],[36.4261,37.8836,1839.5291],[36.3152,37.8856,1493.6228],[36.3181,37.8384,1740.2289],[36.3209,37.8268,1839.1624],[36.3369,37.8011,1867.6884],[36.3601,37.7747,1397.3458],[36.3627,37.7589,1606.7898],[36.3599,37.7453,1531.6299],[36.307,37.6642,1200.6722],[36.3024,37.6512,1182.8265]]]]}
,"properties": {"GID_2": "TUR.42.2_1","GID_0": "TUR","country": "Turkey","GID_1": "TUR.42_1","province": "K.Maras","NL_NAME_1": "NA","county": "Andırın","VARNAME_2": "NA","NL_NAME_2": "NA","TYPE_2": "District","ENGTYPE_2": "District","CC_2": "NA","HASC_2": "TR.KM.AN","name": "Andırın.county","area_km2": 1329.535,"hist_schema_id": "Elevation0-9000","hist_area_km2": {"125": 19.547,"150": 15.414,"175": 22.333,"200": 24.62,"225": 19.263,"250": 16.365,"275": 17.611,"300": 12.828,"325": 12.928,"350": 11.48,"375": 10.521,"400": 10.386,"425": 11.125,"450": 11.412,"475": 10.587,"500": 10.787,"525": 11.609,"550": 11.928,"575": 13.206,"600": 14.601,"625": 15.34,"650": 17.274,"675": 18.047,"700": 18.214,"725": 18.769,"750": 19.996,"775": 20.181,"800": 19.963,"825": 19.541,"850": 19.037,"875": 19.489,"900": 17.722,"925": 21.05,"950": 23.975,"975": 21.604,"1000": 18.155,"1025": 16.541,"1050": 17.328,"1075": 16.468,"1100": 20.717,"1125": 22.966,"1150": 24.876,"1175": 19.283,"1200": 17.468,"1225": 16.105,"1250": 42.873,"1275": 36.487,"1300": 25.739,"1325": 24.616,"1350": 24.196,"1375": 23.337,"1400": 24.04,"1425": 24.406,"1450": 22.51,"1475": 18.5,"1500": 17.023,"1525": 16.786,"1550": 15.076,"1575": 14.739,"1600": 15.022,"1625": 15.991,"1650": 16.893,"1675": 17.011,"1700": 14.448,"1725": 14.029,"1750": 14.85,"1775": 13.945,"1800": 10.56,"1825": 9.805,"1850": 9.133,"1875": 8.244,"1900": 8.561,"1925": 9.65,"1950": 7.975,"1975": 6.951,"2000": 5.276,"2025": 5.242,"2050": 5.576,"2075": 4.957,"2100": 4.086,"2125": 4.337,"2150": 3.132,"2175": 1.876,"2200": 1.222,"2225": 1.072,"2250": 0.385,"2275": 0.234,"2300": 0.033,"2325": 0.017,"2350": 0.033}}}