{"type": "Feature","bbox": [38.1237,38.1966,38.7744,38.4924],"geometry": {"type": "MultiPolygon","coordinates": [[[[38.5524,38.2259,1625.2354],[38.5849,38.2177,1651.9355],[38.6345,38.1992,1447.9298],[38.6589,38.1966,1267.688],[38.6865,38.1979,1055.3201],[38.6933,38.1998,1051.0607],[38.7174,38.2114,984.928],[38.7384,38.232,1183.0823],[38.7617,38.2466,1277.9545],[38.7744,38.2688,1614.2955],[38.7436,38.2801,2092.623],[38.7384,38.2858,2160.1633],[38.7328,38.2998,2172.7275],[38.7273,38.3059,2026.4617],[38.6987,38.3199,1485.5249],[38.6878,38.3277,1485.3381],[38.6812,38.3347,1272.3486],[38.6774,38.3429,1068.4026],[38.6762,38.3518,1069.1255],[38.6767,38.3946,705.2838],[38.6515,38.3925,759.3442],[38.6303,38.3857,827.9335],[38.6186,38.3837,842.2477],[38.5356,38.3818,996.2384],[38.5101,38.3741,1264.9143],[38.4947,38.3718,1193.15],[38.3793,38.3708,940.8943],[38.3605,38.372,921.2481],[38.354,38.374,918.2632],[38.3493,38.3775,910.2444],[38.3422,38.3935,889.3015],[38.3362,38.4011,860.6546],[38.2968,38.4325,790.5142],[38.2898,38.4411,774.7573],[38.29,38.4485,764.6567],[38.2935,38.4525,758.8846],[38.3247,38.4661,723.7766],[38.3004,38.474,721.7535],[38.2729,38.4791,740.6149],[38.2517,38.4862,725.6769],[38.2126,38.4924,696.0833],[38.2104,38.4711,732.2441],[38.2051,38.4611,770.1481],[38.1443,38.4122,850.0928],[38.1237,38.3838,865.8897],[38.1383,38.3699,917.8969],[38.1569,38.3559,925.1787],[38.1672,38.3505,943.3467],[38.1827,38.345,934.7512],[38.1981,38.3352,955.8964],[38.3389,38.2254,2046.9301],[38.362,38.2105,1877.4496],[38.3986,38.1996,2030.4103],[38.4495,38.2111,2050.106],[38.4712,38.2182,1806.1851],[38.5062,38.2223,1759.0793],[38.5307,38.23,1666.7797],[38.5458,38.23,1607.561],[38.5524,38.2259,1625.2354]]]]}
,"properties": {"GID_2": "TUR.55.11_1","GID_0": "TUR","country": "Turkey","GID_1": "TUR.55_1","province": "Malatya","NL_NAME_1": "NA","county": "Merkez","VARNAME_2": "MalatyaMerkezi","NL_NAME_2": "NA","TYPE_2": "District","ENGTYPE_2": "District","CC_2": "NA","HASC_2": "TR.ML.ML","name": "Merkez.county","area_km2": 917.0889,"hist_schema_id": "Elevation0-9000","hist_area_km2": {"700": 0.4483,"725": 5.2134,"750": 23.0437,"775": 19.4642,"800": 21.8606,"825": 26.5489,"850": 32.6531,"875": 40.7689,"900": 45.8793,"925": 49.4781,"950": 39.0932,"975": 31.9628,"1000": 28.6229,"1025": 24.8163,"1050": 20.7422,"1075": 19.1637,"1100": 18.2168,"1125": 16.1213,"1150": 15.3072,"1175": 13.6437,"1200": 13.3946,"1225": 12.8463,"1250": 11.9484,"1275": 11.8322,"1300": 10.085,"1325": 10.6843,"1350": 9.7529,"1375": 9.836,"1400": 9.3205,"1425": 8.9379,"1450": 10.2363,"1475": 9.82,"1500": 10.0702,"1525": 9.8873,"1550": 9.754,"1575": 10.3033,"1600": 10.4034,"1625": 10.8698,"1650": 11.9526,"1675": 13.5847,"1700": 15.1838,"1725": 15.9001,"1750": 15.1345,"1775": 12.8032,"1800": 13.1693,"1825": 12.387,"1850": 11.4213,"1875": 10.8719,"1900": 10.5555,"1925": 10.1226,"1950": 8.9572,"1975": 8.8575,"2000": 7.3926,"2025": 7.2098,"2050": 6.2443,"2075": 6.1277,"2100": 5.1952,"2125": 4.5958,"2150": 3.7963,"2175": 3.1803,"2200": 2.7307,"2225": 2.4809,"2250": 2.1312,"2275": 1.4486,"2300": 1.3488,"2325": 1.2821,"2350": 1.1156,"2375": 1.1988,"2400": 1.1988,"2425": 1.0157,"2450": 1.049,"2475": 0.9491,"2500": 0.9491,"2525": 0.4496,"2550": 0.0666}}}