{"type":"Feature","properties":{"GID_2":"TUR.63.18_1","GID_0":"TUR","country":"Turkey","GID_1":"TUR.63_1","province":"Ordu","NL_NAME_1":"NA","county":"Ünye","VARNAME_2":"NA","NL_NAME_2":"NA","TYPE_2":"District","ENGTYPE_2":"District","CC_2":"NA","HASC_2":"TR.OR.UN","name":"Ünye.county"},
"geometry":{"type": "MultiPolygon","coordinates": [[[[37.2083,40.8926,1111.3396],[37.2226,40.898,1113.7021],[37.2341,40.9071,981.5187],[37.2385,40.9141,851.6641],[37.2439,40.9322,623.0884],[37.2517,40.9404,542.063],[37.2599,40.9448,541.3547],[37.2902,40.9557,524.6152],[37.3232,40.9574,601.5525],[37.3446,40.9546,421.3226],[37.3608,40.9454,262.6592],[37.3803,40.9279,383.36],[37.3935,40.9559,180.5987],[37.4387,41.0257,260.5531],[37.4509,41.038,178.6452],[37.4782,41.0568,9.924],[37.4799,41.0621,0.0],[37.4704,41.0643,8.1454],[37.4657,41.0693,0.0],[37.4504,41.0718,8.4489],[37.4468,41.0757,0.0],[37.4429,41.0771,0.0],[37.4318,41.0771,0.0],[37.4218,41.0796,1.2881],[37.4199,41.0807,0.0],[37.4201,41.0835,0.0],[37.4179,41.0865,0.0],[37.4135,41.0874,0.0],[37.4096,41.091,0.5827],[37.4076,41.096,0.0],[37.4024,41.0979,5.7434],[37.3971,41.1035,2.1786],[37.391,41.104,0.0],[37.3879,41.1074,0.0],[37.359,41.1076,5.8427],[37.3546,41.1101,4.5489],[37.3465,41.1107,0.4395],[37.3462,41.1146,0.0],[37.3446,41.1143,0.0],[37.3446,41.1115,1.1921],[37.336,41.1135,2.8627],[37.3379,41.1171,0.0],[37.349,41.116,0.0],[37.3471,41.1174,0.0],[37.3382,41.1182,0.0],[37.3349,41.1149,1.0478],[37.3301,41.114,1.9694],[37.3121,41.1168,2.7924],[37.299,41.1213,3.3586],[37.291,41.126,3.5001],[37.2871,41.1312,3.8774],[37.2874,41.1343,5.2918],[37.2904,41.1351,2.3935],[37.2951,41.141,19.065],[37.2929,41.1457,0.0],[37.286,41.1449,7.3539],[37.2804,41.1468,0.7666],[37.2801,41.1454,14.4392],[37.2657,41.1443,4.8131],[37.2612,41.1463,0.0],[37.2546,41.1465,5.5284],[37.2313,41.1443,1.8386],[37.2274,41.1457,0.0],[37.2093,41.1435,5.3482],[37.1801,41.1449,3.3297],[37.1749,41.1457,0.0],[37.1715,41.1482,0.6498],[37.1693,41.1463,0.6772],[37.1679,41.1476,0.599],[37.1507,41.1479,1.3559],[37.1525,41.1147,35.35],[37.151,41.0996,176.3661],[37.1516,41.0825,247.3845],[37.1556,41.072,173.8869],[37.1718,41.0547,228.6773],[37.1626,41.0278,160.2618],[37.1393,40.9906,373.0894],[37.1323,40.9624,571.8976],[37.1286,40.9586,801.9556],[37.0842,40.9301,725.5293],[37.1216,40.9124,960.8829],[37.1519,40.9013,459.0999],[37.1906,40.897,1040.4728],[37.2083,40.8926,1111.3396]]]]}}