{"type":"Feature","properties":{"GID_2":"TUR.34.16_1","GID_0":"TUR","country":"Turkey","GID_1":"TUR.34_1","province":"Giresun","NL_NAME_1":"NA","county":"Yağlıdere","VARNAME_2":"NA","NL_NAME_2":"NA","TYPE_2":"District","ENGTYPE_2":"District","CC_2":"NA","HASC_2":"TR.GI.YA","name":"Yağlıdere.county"},
"geometry":{"type": "MultiPolygon","coordinates": [[[[38.6666,40.6182,2267.1328],[38.669,40.6261,2265.2314],[38.6739,40.6337,2114.2373],[38.7021,40.6586,1569.972],[38.7182,40.6804,1740.4155],[38.7336,40.6928,1368.0356],[38.7502,40.6987,1192.678],[38.797,40.7007,1608.0093],[38.8033,40.7029,1558.6172],[38.8108,40.708,1537.1592],[38.8144,40.7124,1668.9946],[38.8171,40.7204,1858.0564],[38.8188,40.7594,696.0509],[38.8024,40.7585,897.2254],[38.7888,40.7606,1253.2896],[38.7786,40.7667,864.5315],[38.7673,40.7818,772.1269],[38.758,40.7887,795.973],[38.7485,40.7915,920.5356],[38.7172,40.7942,928.4166],[38.7057,40.7995,920.7803],[38.6987,40.8083,697.1452],[38.6945,40.8356,625.7061],[38.6859,40.8522,765.7138],[38.679,40.8732,397.6652],[38.6704,40.8825,436.6815],[38.655,40.8922,227.3759],[38.6263,40.8853,228.7347],[38.6166,40.8813,217.0622],[38.6002,40.8695,448.2624],[38.5932,40.8594,447.9436],[38.5923,40.8483,628.4387],[38.595,40.8402,830.2477],[38.6148,40.8203,517.9153],[38.6188,40.8129,474.1733],[38.6183,40.805,743.0238],[38.6093,40.7893,955.8057],[38.6071,40.7696,1343.4835],[38.61,40.7564,849.5599],[38.6193,40.7417,724.6624],[38.6215,40.7334,764.9318],[38.6222,40.7184,584.8709],[38.6207,40.7064,922.1276],[38.6175,40.6983,805.4941],[38.5947,40.6638,819.5858],[38.5835,40.6434,869.2681],[38.6202,40.6388,1647.1566],[38.65,40.6224,1854.6393],[38.6666,40.6182,2267.1328]]]]}}