{"type": "Feature","bbox": [28.7404,37.156,29.2144,37.7057],"geometry": {"type": "MultiPolygon","coordinates": [[[[28.7404,37.6001,1340.6882],[28.7591,37.5901,1195.9912],[28.7756,37.5785,1049.0963],[28.7875,37.5677,981.5195],[28.7922,37.5601,939.2249],[28.7941,37.549,856.8733],[28.7925,37.535,639.9091],[28.7814,37.5161,586.1807],[28.7783,37.5054,717.7473],[28.7788,37.492,959.0734],[28.7826,37.4851,980.4809],[28.8092,37.4721,977.6547],[28.8399,37.4616,1002.4227],[28.8669,37.4565,989.4186],[28.8773,37.4503,1021.5724],[28.8941,37.4253,1284.5608],[28.9033,37.3992,1352.5753],[28.9122,37.39,1262.7466],[28.9517,37.3579,1394.8721],[28.9714,37.3299,1439.6843],[28.9796,37.3157,1279.403],[28.9682,37.2947,1378.0337],[28.9462,37.2717,1190.0385],[28.9436,37.2581,910.5947],[28.9457,37.2499,773.9924],[28.9603,37.2267,758.8821],[28.9776,37.2014,957.4449],[28.988,37.191,1163.3119],[29.033,37.156,1196.775],[29.0464,37.1641,1148.1757],[29.0675,37.1727,1116.9376],[29.0916,37.1873,1378.1993],[29.1158,37.1976,1617.5137],[29.1599,37.2314,1689.7843],[29.1653,37.2384,1549.6777],[29.1711,37.2688,1583.8473],[29.18,37.2851,2275.4299],[29.1826,37.2942,2283.6672],[29.1843,37.4102,1365.7773],[29.1873,37.4226,1399.3149],[29.1971,37.4424,1630.8115],[29.2002,37.4698,1313.5583],[29.1989,37.4916,1376.6493],[29.2,37.507,1470.2361],[29.2131,37.5387,1650.6897],[29.2144,37.5582,1426.0621],[29.2128,37.6093,1199.7679],[29.1774,37.6112,1105.1001],[29.1459,37.6202,1139.8826],[29.1095,37.6218,1074.797],[29.0958,37.6243,1139.8265],[29.0855,37.6305,1073.9048],[29.0743,37.6457,1142.3176],[29.0653,37.6529,1089.9231],[28.9872,37.6835,1487.5565],[28.9527,37.7057,1998.9692],[28.9046,37.7022,1711.1333],[28.8796,37.697,1258.8654],[28.8761,37.6875,1163.9692],[28.8636,37.6762,973.5736],[28.8315,37.6617,881.1316],[28.7862,37.6287,934.9308],[28.757,37.6152,1060.7141],[28.7404,37.6001,1340.6882]]]]}
,"properties": {"GID_2": "TUR.25.19_1","GID_0": "TUR","country": "Turkey","GID_1": "TUR.25_1","province": "Denizli","NL_NAME_1": "NA","county": "Tavas","VARNAME_2": "NA","NL_NAME_2": "NA","TYPE_2": "District","ENGTYPE_2": "District","CC_2": "NA","HASC_2": "TR.DN.TA","name": "Tavas.county","area_km2": 1467.726,"hist_schema_id": "Elevation0-9000","hist_area_km2": {"575": 0.37,"600": 2.859,"625": 4.775,"650": 5.682,"675": 5.127,"700": 4.152,"725": 4.187,"750": 5.756,"775": 7.425,"800": 8.533,"825": 9.792,"850": 12.261,"875": 26.678,"900": 188.082,"925": 93.644,"950": 58.445,"975": 46.292,"1000": 46.961,"1025": 59.414,"1050": 65.392,"1075": 60.679,"1100": 53.763,"1125": 60.559,"1150": 53.213,"1175": 54.309,"1200": 51.484,"1225": 46.536,"1250": 41.354,"1275": 33.908,"1300": 31.215,"1325": 26.314,"1350": 23.1,"1375": 23.095,"1400": 21.327,"1425": 18.231,"1450": 14.511,"1475": 13.215,"1500": 12.725,"1525": 12.136,"1550": 10.909,"1575": 10.338,"1600": 9.026,"1625": 8.254,"1650": 7.816,"1675": 8.29,"1700": 7.802,"1725": 7.365,"1750": 7.432,"1775": 6.91,"1800": 6.658,"1825": 5.41,"1850": 5.157,"1875": 5.36,"1900": 4.45,"1925": 4.181,"1950": 4.636,"1975": 4.401,"2000": 5.481,"2025": 5.246,"2050": 4.69,"2075": 3.931,"2100": 3.104,"2125": 2.936,"2150": 2.362,"2175": 1.637,"2200": 1.215,"2225": 0.911,"2250": 1.232,"2275": 0.827,"2300": 0.911,"2325": 0.607,"2350": 0.354,"2375": 0.337,"2400": 0.051}}}