{"type": "Feature","bbox": [28.3974,38.6698,29.0107,39.181399999999996],"geometry": {"type": "MultiPolygon","coordinates": [[[[28.503,39.14,1219.1816],[28.4943,39.125,1249.5922],[28.4817,39.1123,1199.6499],[28.4824,39.0665,1032.3602],[28.4854,39.0552,932.8651],[28.4927,39.0419,1096.8082],[28.4923,39.0315,1013.0271],[28.4705,39.0063,877.0002],[28.4628,38.9737,683.6689],[28.4423,38.9414,838.5832],[28.4376,38.9311,921.7219],[28.4359,38.895,681.1165],[28.4339,38.8833,731.1635],[28.4229,38.8643,596.9921],[28.4141,38.8448,784.9976],[28.4027,38.8321,586.1061],[28.3974,38.8238,588.276],[28.3976,38.8189,683.4384],[28.4003,38.8145,619.3766],[28.4312,38.7878,400.4085],[28.441,38.7736,382.9991],[28.4596,38.7554,277.3625],[28.4632,38.7481,261.8738],[28.4617,38.7379,237.6588],[28.4537,38.7244,288.5542],[28.4478,38.7059,386.6696],[28.4273,38.6816,338.1238],[28.4892,38.6815,552.8306],[28.5,38.6896,495.2041],[28.5094,38.6925,590.2577],[28.5325,38.6938,599.2434],[28.5692,38.693,512.5269],[28.5846,38.6906,417.7386],[28.6323,38.6725,382.3815],[28.6609,38.6698,411.3364],[28.6637,38.6893,573.2031],[28.6728,38.7056,626.9719],[28.6749,38.7163,755.4354],[28.6727,38.7271,761.2566],[28.6625,38.7459,626.432],[28.661,38.7571,546.8573],[28.6619,38.7683,485.3397],[28.6649,38.7762,612.4061],[28.6767,38.7945,513.4637],[28.6873,38.8044,582.4778],[28.6962,38.808,552.2159],[28.7228,38.8132,647.3928],[28.7835,38.8362,588.8781],[28.8023,38.85,716.952],[28.8179,38.8704,924.8237],[28.8318,38.8777,1001.4205],[28.8778,38.8806,1027.7893],[28.9066,38.8892,852.607],[28.9376,38.8911,979.2599],[28.9605,38.8884,976.4844],[28.9782,38.8817,951.7787],[29.0107,38.8733,827.9318],[29.0078,38.8914,839.3008],[29.0074,38.9075,929.1766],[28.995,38.9266,973.4956],[28.9897,38.9569,1034.7059],[28.9746,38.9831,1180.1105],[28.9573,39.0087,1285.9646],[28.937,39.0291,1363.2095],[28.9256,39.0459,1232.9856],[28.9033,39.0649,1604.3799],[28.8861,39.0752,1530.9014],[28.849,39.0878,1262.067],[28.7866,39.0905,1593.7133],[28.7655,39.0977,1296.811],[28.7382,39.1028,1233.8813],[28.7079,39.114,1305.1633],[28.696,39.1207,862.7106],[28.6834,39.1314,917.3414],[28.6622,39.1638,521.9212],[28.6398,39.1762,640.3217],[28.6276,39.1807,686.3136],[28.6098,39.181399999999996,663.2656],[28.5998,39.179,634.319],[28.503,39.14,1219.1816]]]]}
,"properties": {"GID_2": "TUR.56.4_1","GID_0": "TUR","country": "Turkey","GID_1": "TUR.56_1","province": "Manisa","NL_NAME_1": "NA","county": "Demirci","VARNAME_2": "NA","NL_NAME_2": "NA","TYPE_2": "District","ENGTYPE_2": "District","CC_2": "NA","HASC_2": "TR.MN.DE","name": "Demirci.county","area_km2": 1674.961,"hist_schema_id": "Elevation0-9000","hist_area_km2": {"225": 0.976,"250": 6.534,"275": 6.482,"300": 9.77,"325": 11.241,"350": 13.571,"375": 16.694,"400": 19.932,"425": 28.646,"450": 35.643,"475": 42.47,"500": 48.049,"525": 51.747,"550": 56.189,"575": 60.162,"600": 61.227,"625": 58.052,"650": 61.447,"675": 64.426,"700": 61.113,"725": 58.305,"750": 55.749,"775": 46.316,"800": 46.293,"825": 44.739,"850": 46.452,"875": 44.983,"900": 44.685,"925": 47.537,"950": 51.345,"975": 51.111,"1000": 45.552,"1025": 37.586,"1050": 33.298,"1075": 29.373,"1100": 26.141,"1125": 21.936,"1150": 19.349,"1175": 17.322,"1200": 17.205,"1225": 16.661,"1250": 17.795,"1275": 16.938,"1300": 17.712,"1325": 16.443,"1350": 17.166,"1375": 15.865,"1400": 13.084,"1425": 9.481,"1450": 7.703,"1475": 6.008,"1500": 4.954,"1525": 4.247,"1550": 3.819,"1575": 2.996,"1600": 1.597,"1625": 1.794,"1650": 0.774,"1675": 0.197,"1700": 0.082}}}