{"type":"Feature","properties":{"GID_2":"TUR.29.5_1","GID_0":"TUR","country":"Turkey","GID_1":"TUR.29_1","province":"Elazığ","NL_NAME_1":"NA","county":"Karakoçan","VARNAME_2":"NA","NL_NAME_2":"NA","TYPE_2":"District","ENGTYPE_2":"District","CC_2":"NA","HASC_2":"TR.EG.KA","name":"Karakoçan.county"},
"geometry":{"type": "MultiPolygon","coordinates": [[[[40.28,39.2032,1143.4202],[40.2771,39.1978,1356.8356],[40.2546,39.1869,1414.4446],[40.2239,39.176,1248.2378],[40.1935,39.1699,1131.0],[40.1064,39.1363,1272.2085],[40.0966,39.13,1228.766],[40.0835,39.117,1458.0049],[40.0616,39.1071,1395.74],[40.0448,39.1037,1100.7502],[40.0283,39.0945,1042.0015],[40.0098,39.0899,1042.0814],[39.9641,39.0926,983.9011],[39.937,39.0919,1075.1719],[39.9226,39.0884,1285.64],[39.9052,39.0771,1099.2067],[39.893,39.0662,1066.6516],[39.8734,39.0523,1037.3124],[39.8679,39.045,978.6841],[39.8668,39.0397,990.6373],[39.8687,39.032,1085.1932],[39.89,39.0005,1117.6064],[39.8932,38.9928,1128.1682],[39.8946,38.9844,1103.8784],[39.8945,38.9555,1181.6808],[39.89,38.9393,1093.715],[39.8457,38.8727,998.8446],[39.8829,38.8441,1062.1477],[39.8893,38.8374,1147.3262],[39.9006,38.8206,1240.0713],[39.9225,38.8015,1158.1503],[39.9401,38.7915,1078.7413],[39.9616,38.789,1159.2092],[39.9796,38.7907,1145.2628],[40.0006,38.7981,1145.9175],[40.0309,38.8045,1187.3979],[40.088,38.8265,1353.5486],[40.1173,38.8439,1455.4336],[40.1541,38.8575,1470.5753],[40.1896,38.8612,1624.7803],[40.2107,38.8682,1711.2527],[40.2253,38.8704,1742.0389],[40.3203,38.8698,1854.4922],[40.3114,38.9046,1743.1948],[40.2892,38.9391,1642.7401],[40.2854,38.95,1665.2841],[40.2844,39.0324,1711.5771],[40.2859,39.0503,1631.8645],[40.2898,39.0586,1656.348],[40.2965,39.0659,1754.4315],[40.3634,39.1182,1911.2627],[40.3704,39.1252,1903.5593],[40.3825,39.1423,1831.7949],[40.3978,39.1558,1788.1434],[40.3923,39.1681,1787.8979],[40.3875,39.1958,1627.1174],[40.374,39.2188,1177.7372],[40.3655,39.2253,1299.822],[40.354,39.2261,1408.3154],[40.3141,39.211,1145.1669],[40.28,39.2032,1143.4202]]]]}}