{"type":"Feature","properties":{"featurecla":"Reservoir","scalerank":7,"name":"Keban Baraji","name_abb":"Keban Baraji","name_alt":null,"note":null,"delta":"New or modified in version 1.2","dam_name":"Keban","year":1974,"admin":null,"min_zoom":5.7,"min_label":6.7},
"geometry":{"type": "Polygon","coordinates": [[[39.851166725025763,38.6904515558773,964.7537],[39.840569616449017,38.680443175554814,990.6365],[39.835565426287786,38.669551702850953,930.5018],[39.823790861202525,38.663370056181179,936.473],[39.752260378309529,38.645119480299,839.5428],[39.730771797028922,38.6486518498246,853.8663],[39.70133538431574,38.668079882215295,836.0],[39.680729895416533,38.672495344122268,929.0455],[39.602134673472364,38.666313697452495,974.2216],[39.556802597894091,38.673967164757926,841.4913],[39.531487282960768,38.681326267936214,835.5],[39.515885984222791,38.689862827623017,835.5],[39.501462141993358,38.701637392708307,943.2471],[39.4973410442135,38.707819039378052,949.6301],[39.48821575627241,38.73283999018426,1077.3301],[39.486743935636753,38.741376549871063,853.3829],[39.487921392145296,38.750207473685009,1111.4518],[39.492336854052269,38.762570767024556,852.3606],[39.522950723273965,38.79966064704314,835.5],[39.53001546232511,38.805842293712914,937.7882],[39.5373745655034,38.808785934984229,852.1117],[39.569754619487895,38.8114352121284,991.8449],[39.576819358539041,38.81643940228966,896.58],[39.583589733463072,38.823209777213663,835.5],[39.594775570294075,38.830274516264836,926.4113],[39.601251581090992,38.832629429281894,841.0151],[39.618030336337483,38.836161798807467,982.3441],[39.76315185101339,38.8446983584943,974.8908],[39.800536095159117,38.858239108342332,851.5847],[39.775809508480052,38.85647292357956,852.4354],[39.728416884011864,38.859710928977989,837.5],[39.7045733897142,38.858239108342332,858.5422],[39.654825852228953,38.847936363892728,937.9584],[39.630687993804145,38.846758907384213,891.7692],[39.602134673472364,38.850585641036929,846.3792],[39.610965597286338,38.875312227715995,1098.9932],[39.618324700464626,38.907103553446206,851.0431],[39.615675423320425,38.9368343302865,874.3146],[39.594775570294075,38.954201813787279,866.9026],[39.576524994411926,38.954790542041536,836.0],[39.578585543301841,38.94419343346479,868.5314],[39.58859392362433,38.92918086298107,892.7175],[39.594775570294075,38.916523205514409,911.7465],[39.595658662675476,38.890030434072571,925.7612],[39.593598113785561,38.876195320097366,883.9564],[39.587122102988673,38.858239108342332,839.1863],[39.580646092191756,38.8446983584943,856.9894],[39.575053173776269,38.83645616293461,946.6777],[39.557096962021234,38.81967740768809,927.7613],[39.549737858842946,38.817322494671032,928.8778],[39.530309826452253,38.81643940228966,835.5],[39.526483092799538,38.8132013968912,835.5],[39.52412817978248,38.810846483874144,835.5],[39.511470522315818,38.791712815610595,835.5],[39.502345234374729,38.781998799415248,907.1171],[39.491748125798011,38.77787770163539,1111.5909],[39.478501740077064,38.775817152745475,1111.9121],[39.460839892449172,38.775522788618332,1116.192],[39.449948419745311,38.780232614652448,888.126],[39.436113305770107,38.788180446084993,835.5],[39.421689463540673,38.791418451483452,899.6093],[39.409620534328269,38.781704435288106,863.7394],[39.402850159404238,38.781704435288106,873.3773],[39.397551605115865,38.794362092754767,894.246],[39.390192501937577,38.805842293712914,933.2891],[39.380478485742231,38.815261945781117,1016.4889],[39.368115192402712,38.822621048959405,921.7723],[39.346037882867819,38.827919603247778,954.7335],[39.324254937460069,38.830274516264836,862.0592],[39.312480372374807,38.834395614044666,902.5194],[39.303355084433719,38.844109630240013,1071.7626],[39.29599598125543,38.853823646435359,939.6437],[39.290403062839943,38.858239108342332,878.9905],[39.276862312991881,38.865009483266363,848.5656],[39.269797573940707,38.879433325495825,899.678],[39.261849742508161,38.891502254708229,939.6107],[39.24507098726167,38.891796618835343,835.5],[39.240361161227554,38.886498064547,856.072],[39.239183704719039,38.879727689622968,882.4977],[39.234768242812066,38.873840407080309,835.5],[39.221521857091119,38.871191129936136,903.7461],[39.209747292005858,38.873546042953194,874.694],[39.191202351996566,38.88326005914854,864.2776],[39.180605243419819,38.885320608038455,839.8484],[39.094945282424504,38.891796618835343,874.6317],[39.080227076067928,38.903571183920633,918.8824],[39.068746875109781,38.907692281700463,838.8188],[39.046375201447773,38.897978265505117,906.6858],[39.036366821125313,38.902688091539233,967.723],[39.029007717947025,38.912107743607436,922.0862],[39.022237343022994,38.938011786795016,891.0618],[39.013995147463305,38.9377174226679,835.5],[39.006341680157874,38.930652683616728,835.5],[39.005164223649359,38.9265315858369,894.2474],[38.9916234738013,38.92505976520124,878.3788],[38.986619283640067,38.9265315858369,892.6371],[38.978377088080379,38.932713232506643,891.706],[38.972784169664862,38.941544156320617,859.244],[38.96836870775789,38.953024357278736,875.6929],[38.9627757893424,38.960383460457024,897.2893],[38.953944865528427,38.957439819185709,862.5507],[38.951295588384255,38.948020167117505,854.0221],[38.955711050291228,38.938011786795016,835.5],[38.957182870926886,38.929769591235328,835.5],[38.947174490604425,38.9265315858369,841.6342],[38.9209760832897,38.929769591235328,867.906],[38.910967702967213,38.9386005150493,914.2797],[38.90655224106024,38.951552536643078,919.4401],[38.895660768356379,38.9674481995082,921.2386],[38.903019871534667,38.982166405864774,908.2881],[38.916266257255586,39.029559030332962,865.7319],[38.909495882331555,39.029559030332962,933.6465],[38.897426953119151,39.012191546832213,907.0948],[38.895660768356379,39.005126807781039,864.5238],[38.893011491212178,38.999828253492666,835.5],[38.886829844542433,38.998062068729894,835.5],[38.879765105491259,38.997473340475636,908.3629],[38.875349643584286,38.995412791585693,923.4143],[38.874466551202886,38.988348052534548,841.9469],[38.875349643584286,38.979222764593459,835.5],[38.875644007711429,38.97098056903377,835.5],[38.867990540406,38.963915829982625,859.1404],[38.854744154685079,38.94007233568496,849.8752],[38.86063143722771,38.9368343302865,835.5],[38.8688736327874,38.929475227108213,835.5],[38.875349643584286,38.9265315858369,835.5],[38.875349643584286,38.919761210912867,835.5],[38.826779562607555,38.913285200115979,849.0398],[38.818537367047867,38.913873928370236,859.2337],[38.786451677190513,38.919761210912867,853.756],[38.786451677190513,38.9265315858369,835.5],[38.817654274666467,38.923587944565583,835.5],[38.829723203878871,38.928003406472556,835.5],[38.847385051506762,38.94007233568496,877.8254],[38.817065546412209,38.970686204906656,883.5119],[38.809117714979664,38.981872041737631,887.9503],[38.809117714979664,38.99188042206012,930.6376],[38.810295171488178,39.002477530636867,881.3225],[38.806468437835463,39.015135188103528,937.4315],[38.800581155292832,39.0169013728663,835.5],[38.770556014325422,39.037506861765536,858.6464],[38.768789829562621,39.042511051926766,917.0648],[38.766434916545563,39.047515242088,908.5638],[38.764080003528505,39.058995443046143,885.1109],[38.759664541621532,39.070770008131404,907.0344],[38.751127981934729,39.077246018928292,918.5927],[38.749067433044786,39.078129111309693,903.869],[38.7452406993921,39.078717839563978,870.5242],[38.739647780976583,39.078423475436836,836.0],[38.731994313671152,39.077246018928292,894.6568],[38.735821047323867,39.065765817970174,878.2891],[38.7408252374851,39.043982872562424,835.5],[38.745535063519213,39.036329405256993,835.5],[38.745535063519213,39.029559030332962,835.5],[38.727284487637064,39.030442122714362,965.1398],[38.709917004136287,39.033974492239963,968.6522],[38.6999086238138,39.033385763985677,929.0103],[38.704029721593656,39.021905563027559,835.5],[38.7119775530262,39.0169013728663,835.5],[38.743180150502155,39.003949351272524,835.5],[38.755249079714559,39.001594438255466,835.5],[38.768495465435478,38.996295883967093,835.5],[38.770261650198279,38.984521318881832,922.9381],[38.765551824164163,38.97098056903377,835.5],[38.759075813367275,38.960383460457024,835.5],[38.739647780976583,38.9368343302865,876.0333],[38.726401395255664,38.9247654010741,853.1057],[38.7146268301704,38.919761210912867,922.5426],[38.680774955550248,38.919761210912867,903.8591],[38.678125678406076,38.9238823086927,922.937],[38.671355303482045,38.942721612829132,1150.2041],[38.666351113320786,38.946842710608991,1090.422],[38.6616412872867,38.955084906168651,1061.4991],[38.656931461252583,38.972452389669428,1066.7896],[38.651044178709952,38.987170596026004,959.2858],[38.641918890768864,38.98775932428029,915.6733],[38.638975249497548,38.963915829982625,835.5],[38.649277993947152,38.927709042345413,839.75],[38.666645477447929,38.89915572201366,835.5],[38.683424232694449,38.89915572201366,835.5],[38.6999086238138,38.891796618835343,835.5],[38.714038101916117,38.894740260106659,835.5],[38.725223938747121,38.898861357886517,835.5],[38.73523231906961,38.895328988360944,835.5],[38.747301248282014,38.886792428674113,835.5],[38.76113636225719,38.880022053750082,835.5],[38.773205291469594,38.871485494063279,835.5],[38.779092574012225,38.858239108342332,835.5],[38.764374367655648,38.852646189926844,862.007],[38.753188530824644,38.8429321737315,835.5],[38.749656161299072,38.830274516264836,885.304],[38.759075813367275,38.81643940228966,835.5],[38.779975666393625,38.807608478475686,838.3894],[38.787334769571913,38.818205587052432,982.1617],[38.788806590207571,38.83645616293461,952.3783],[38.792633323860287,38.850585641036929,981.7282],[38.800875519419975,38.85647292357956,835.5],[38.810000807361064,38.858533472469475,835.5],[38.830606296260271,38.858239108342332,835.5],[38.841497768964132,38.856178559452417,835.5],[38.84561886674399,38.851763097545444,835.5],[38.848268143888163,38.847053271511328,870.9922],[38.854744154685079,38.844403994367156,835.5],[38.868284904533112,38.842637809604355,862.7816],[38.884474931525375,38.86059402135939,835.5],[38.889184757559462,38.86324329850359,835.5],[38.895366404229236,38.864126390884991,854.9753],[38.905963512805982,38.864420755012105,835.5],[38.915677529001329,38.86648130390202,835.5],[38.922742268052474,38.871191129936136,835.5],[38.92745209408659,38.875900955970252,835.5],[38.930395735357905,38.877961504860167,835.5],[38.940698479807509,38.875017863588852,841.9023],[38.95070686013,38.869424945173336,835.5],[38.9601265121982,38.865303847393506,844.9501],[38.967779979503632,38.867658760410563,860.0714],[38.985147463004409,38.881199510258625,857.1429],[38.996922028089671,38.878550233114424,843.7399],[39.009285321429189,38.869719309300478,835.5],[39.029596446201282,38.864420755012105,847.4207],[39.038133005888085,38.866186939774906,897.8359],[39.042548467795086,38.870013673427621,884.9634],[39.046669565574916,38.874723499461709,864.4787],[39.053439940498947,38.877961504860167,916.8253],[39.064037049075694,38.879727689622968,874.5001],[39.084348173847758,38.877961504860167,835.5],[39.07875525543227,38.8541180105625,835.5],[39.080521440195071,38.835867434680324,838.6486],[39.094945282424504,38.822621048959405,859.0634],[39.10465929861985,38.845875815002813,866.7672],[39.1170225919594,38.860888385486533,837.9817],[39.135273167841547,38.865598211520648,898.8213],[39.16323775991907,38.858239108342332,835.5],[39.173540504368674,38.851763097545444,835.5],[39.197383998666339,38.830274516264836,835.5],[39.210336020260115,38.827625239120664,849.5607],[39.220344400582604,38.828508331502036,872.7065],[39.22417113423532,38.833512521663295,867.7986],[39.218578215819804,38.844403994367156,876.8856],[39.218578215819804,38.850585641036929,835.5],[39.228880960269407,38.850880005164043,862.8521],[39.235062606939181,38.8523518257997,878.0386],[39.240066797100411,38.854706738816759,878.9487],[39.24507098726167,38.858239108342332,835.5],[39.251252633931415,38.8523518257997,835.5],[39.25419627520273,38.846464543257071,835.5],[39.255962459965531,38.840871624841583,924.6831],[39.258906101236846,38.837044891188867,835.5],[39.287753785695742,38.816733766416775,835.5],[39.306298725705034,38.807314114348571,835.5],[39.324254937460069,38.803487380695856,835.5],[39.346332246994962,38.806136657840028,835.5],[39.356046263190308,38.804370473077256,867.6],[39.368115192402712,38.796128277517568,835.5],[39.3728250184368,38.788474810212136,1020.2795],[39.37871230097943,38.767869321312929,835.5],[39.382539034632146,38.762570767024556,835.5],[39.401083974641438,38.764925680041614,835.5],[39.423455648303445,38.775522788618332,989.2877],[39.442589316567023,38.780232614652448,835.5],[39.450831512126712,38.765220044168728,900.6171],[39.453480789270884,38.7619820387703,835.5],[39.46731590324606,38.763748223533071,835.5],[39.471731365153033,38.762570767024556,849.2046],[39.474380642297234,38.754917299719125,835.5],[39.473497549915834,38.749618745430752,838.5128],[39.471731365153033,38.745203283523779,884.9175],[39.471731365153033,38.740787821616806,847.194],[39.477029919441406,38.721065425099,835.5],[39.47820737594995,38.710468316522253,837.1901],[39.477913011822807,38.699871207945506,905.535],[39.4667271749918,38.682209360317614,857.7356],[39.42551619719336,38.658954594274206,855.7308],[39.407265621311211,38.638937833629257,835.5],[39.365465915258511,38.623925263145537,851.2447],[39.354280078427507,38.611856333933133,845.3565],[39.371353197801142,38.5930170297967,840.6411],[39.415802180998043,38.593311393923841,847.7108],[39.543850576300315,38.62657454028971,835.5],[39.586239010607272,38.65012367046026,835.5],[39.587122102988673,38.652772947604433,835.5],[39.598896668073934,38.652184219350175,835.5],[39.6218570699902,38.645119480299,896.1378],[39.687794634467679,38.655127860621491,847.8724],[39.698391743044425,38.648946213951717,846.769],[39.70192411257,38.641292746646315,930.3046],[39.710755036383972,38.639820926010657,917.7039],[39.721646509087833,38.640115290137771,838.0],[39.731654889410322,38.638349105375,838.5],[39.738425264334353,38.633639279340883,841.0672],[39.746667459894013,38.622747806637022,856.485],[39.752260378309529,38.618037980602907,845.2155],[39.78493479642114,38.610090149170333,850.8485],[39.819081035168409,38.618921072984307,839.0],[39.847339991373047,38.640998382519172,874.0276],[39.862058197729652,38.672495344122268,848.1331],[39.860586377093995,38.690745920004417,860.0968],[39.851166725025763,38.6904515558773,964.7537]]]}}