{"type":"Feature","properties":{"featurecla":"Reservoir","scalerank":7,"name":"Saksak Dagi","name_abb":"Saksak Dagi","name_alt":null,"note":null,"delta":"New or modified in version 1.2","dam_name":"Karakaya","year":1987,"admin":null,"min_zoom":5.7,"min_label":6.7},
"geometry":{"type": "Polygon","coordinates": [[[38.380817910003088,38.5103007100727,688.5],[38.39936285001238,38.498231780860323,688.5],[38.418790882403073,38.492933226571949,688.5],[38.445283653844911,38.47615447132543,688.5],[38.479429892592179,38.467323547511484,688.5],[38.505039571652645,38.458492623697538,688.5],[38.5353590767472,38.452899705282022,688.5],[38.574509505655726,38.447012422739391,711.0757],[38.634854151717718,38.430528031620042,688.5],[38.681363683804506,38.412866183992122,688.5],[38.701086080322341,38.402269075415376,688.5],[38.73111122128978,38.404035260178176,688.5],[38.754954715587445,38.409333814466549,719.062],[38.782330579410683,38.419047830661896,749.2175],[38.805585345454091,38.425229477331669,792.9504],[38.822364100700582,38.41021690684795,861.2406],[38.832078116895929,38.400502890652604,955.5161],[38.851211785159478,38.388728325567342,1192.9978],[38.870051089295913,38.368122836668107,1333.5236],[38.889479121686605,38.353698994438673,879.9691],[38.9106733388401,38.349577896658815,981.6901],[38.923919724561017,38.343396249989041,879.2911],[38.921564811543959,38.320141483945662,1046.238],[38.901253686771867,38.288644522342565,705.2913],[38.916560621382729,38.293648712503796,687.5],[38.939521023298994,38.31072183187743,847.298],[39.026358440802824,38.320435848072776,801.8865],[39.0734567011439,38.348106076023157,725.3285],[39.050790663354746,38.348989168404557,958.0385],[39.013700783336162,38.341630065226269,987.9725],[38.996627663962528,38.336920239192153,873.8977],[38.965425066486574,38.344279342370442,1309.5149],[38.939521023298994,38.363118646506877,1264.7126],[38.903314235661782,38.382252314770426,1517.0414],[38.879765105491259,38.388139597313057,746.121],[38.865046899134683,38.424052020823126,1335.0806],[38.847679415633905,38.437592770671188,918.7311],[38.841203404837017,38.465557362748683,868.0613],[38.80116988354709,38.452310977027764,803.6849],[38.760547634002933,38.44112514019676,799.115],[38.724340846365749,38.4414195043239,727.5505],[38.69843680317814,38.442008232578161,735.9093],[38.670472211100645,38.446718058612277,728.6744],[38.621902130123914,38.46114190084171,734.792],[38.580396788198357,38.4711502811642,717.1722],[38.535653440874341,38.486751579902176,739.1569],[38.471776425286777,38.509417617691327,710.2244],[38.445578017972053,38.526490737064961,703.5878],[38.429093626852676,38.536793481514565,729.5101],[38.402306491283696,38.539442758658737,695.984],[38.37669681222323,38.554160965015342,688.5],[38.3690433449178,38.581831192965694,688.5],[38.3690433449178,38.601847953610672,710.4332],[38.386705192545719,38.62834072505251,755.6949],[38.400245942393781,38.652772947604433,688.5],[38.431742903996849,38.673672800630783,780.5617],[38.478546800210808,38.694572653657133,688.5],[38.488260816406125,38.714000686047825,688.5],[38.471482061159634,38.740787821616806,744.4091],[38.467655327506918,38.727835800023,759.5873],[38.447344202734826,38.706641582869537,750.4547],[38.397891029376723,38.688979735241645,705.7932],[38.37757990460463,38.66837424634241,748.4625],[38.359329328722481,38.637760377120713,688.5],[38.336074562679073,38.598021219957957,726.8525],[38.345199850620133,38.56240316057503,690.0184],[38.354619502688365,38.542092035802938,688.5],[38.380817910003088,38.5103007100727,688.5]]]}}