{"type":"Feature","properties":{"featurecla":"Lake Centerline","scalerank":3,"rivernum":65,"dissolve":"65Lake Centerline","name":"Firat7","name_alt":null,"note":null,"min_zoom":3.0,"strokeweig":0.25,"name_en":"Firat","min_label":4.0},
"geometry":{"type": "LineString","coordinates": [[38.471289062500006,38.74079010624412,744.4091],[38.47802734375,38.725458074994116,688.5],[38.47265625,38.707538153119117,688.5],[38.46044921875,38.69245026249412,688.5],[38.446679687500023,38.68622467655662,688.5],[38.422119140625,38.68268463749412,688.5],[38.402441406250006,38.673456121869116,688.5],[38.387109375000023,38.66034577030662,688.5],[38.375585937500006,38.64520905155662,688.5],[38.370361328125,38.63458893436912,688.5],[38.36376953125,38.616327215619116,688.5],[38.348876953125,38.59564850468162,688.5],[38.351318359375,38.58869049686912,688.5],[38.357666015625,38.58258698124412,688.5],[38.361425781250006,38.573260809369117,688.5],[38.364648437500023,38.55646393436912,688.5],[38.37353515625,38.53656647343162,688.5],[38.386621093750023,38.51874420780662,688.5],[38.402929687500006,38.508075262494117,688.5],[38.414160156250006,38.51679108280662,688.5],[38.425537109375,38.51251862186912,688.5],[38.443261718750023,38.494403387494117,688.5],[38.45654296875,38.484979559369116,688.5],[38.468652343750023,38.479266668744117,688.5],[38.481640625000011,38.47601959843162,688.5],[38.539794921875,38.470477606244117,688.5],[38.566650390625,38.46466705936912,688.5],[38.571386718750006,38.46234772343162,688.5],[38.587646484375,38.44989655155662,688.5],[38.594628906250023,38.45026276249412,688.5],[38.6005859375,38.453143621869117,688.5],[38.607812500000023,38.45343659061912,701.3595],[38.68896484375,38.420770574994116,688.5],[38.717675781250023,38.418719793744117,688.5],[38.77890625,38.43695709843162,688.5],[38.810449218750023,38.44037506718162,688.5],[38.834375,38.42609284061912,688.5],[38.826904296875,38.418719793744117,767.9395],[38.852783203125,38.40473053593162,769.6292],[38.8609375,38.398797918744116,688.0],[38.8837890625,38.369012762494116,687.5],[38.885498046875,38.36408112186912,687.5],[38.9111328125,38.360711981244116,817.213],[38.927832031250006,38.35236237186912,774.931],[38.957275390625,38.33051178593162,796.1829],[38.9921875,38.32611725468162,767.1967],[39.073339843750006,38.34796784061912,725.3285]]}}