{"type":"Feature","properties":{"featurecla":"River","scalerank":3,"rivernum":65,"dissolve":"65River","name":"Firat8","name_alt":null,"note":null,"min_zoom":3.0,"strokeweig":0.25,"name_en":"Firat","min_label":4.0},
"geometry":{"type": "LineString","coordinates": [[38.767822265625,38.81281159061912,835.5],[38.743261718750006,38.802997137494117,750.9044],[38.71640625,38.78046295780662,817.2336],[38.6923828125,38.773553778119116,817.2007],[38.677001953125,38.76459381718162,817.8028],[38.666406250000023,38.76251862186912,703.9976],[38.654199218750023,38.76654694218162,737.3878],[38.642333984375,38.78168366093162,688.5],[38.6357421875,38.781756903119117,699.0085],[38.631591796875,38.775751043744116,920.8764],[38.633056640625,38.762469793744117,935.3961],[38.631738281250023,38.752313543744116,935.6954],[38.61865234375,38.748309637494117,688.5],[38.569042968750011,38.75214264530662,703.5013],[38.508886718750006,38.756854559369117,806.9094],[38.483496093750006,38.75311920780662,688.5],[38.471289062500006,38.74079010624412,744.4091]]}}