{"type":"Feature","properties":{"featurecla":"Lake Centerline","scalerank":3,"rivernum":65,"dissolve":"65Lake Centerline","name":"Firat","name_alt":null,"note":null,"min_zoom":3.0,"strokeweig":0.2,"name_en":"Firat","min_label":4.0},
"geometry":{"type": "LineString","coordinates": [[38.812597656250006,38.875018621869117,835.5],[38.77783203125,38.90497467655662,889.4263],[38.775,38.918573309369116,851.7648],[38.773828125000023,38.93646881718162,835.5],[38.7802734375,38.95221588749412,835.5],[38.784765625,38.96698639530662,835.5],[38.786523437500023,38.98126862186912,835.5],[38.783300781250006,38.99237702030662,835.5],[38.780859375,38.99787018436912,835.5],[38.779687500000023,38.999872137494116,835.5],[38.76708984375,39.01886627811912,835.5],[38.764404296875,39.029169012494116,835.5],[38.742431640625,39.06806061405662,835.5],[38.739501953125,39.07843659061912,836.0]]}}