{"type":"Feature","properties":{"featurecla":"River","scalerank":4,"rivernum":120,"dissolve":"120River","name":"Dicle","name_alt":null,"note":null,"min_zoom":4.0,"strokeweig":0.15,"name_en":"Dicle","min_label":5.0},
"geometry":{"type": "LineString","coordinates": [[39.173095703125,38.424432684369116,1594.7727],[39.190673828125,38.421747137494116,1608.8881],[39.212646484375,38.42438385624412,1696.615],[39.240917968750011,38.434442449994116,1404.9642],[39.265625,38.448114324994116,1480.9482],[39.288183593750006,38.467059637494117,1246.8198],[39.3525390625,38.480829168744116,1237.5],[39.402587890625,38.503436590619117,1237.5],[39.463476562500006,38.518915106244116,1237.5],[39.509033203125,38.516864324994117,1237.5],[39.518945312500023,38.503436590619117,1308.0486],[39.52880859375,38.492303778119116,1253.0414],[39.538818359375,38.486346746869117,1363.7888],[39.57861328125,38.484247137494116,1260.0878],[39.600341796875,38.47797272343162,1494.2117],[39.620849609375,38.46295807499412,1326.1139],[39.633056640625,38.448114324994116,1216.5283]]}}