{"type": "Feature","bbox": [33.5624,41.0407,34.1923,41.5649],"geometry": {"type": "MultiPolygon","coordinates": [[[[33.8577,41.0451,2024.8672],[33.8735,41.0418,1891.3173],[33.8881,41.0407,1814.3286],[33.9023,41.0421,1871.9797],[33.9114,41.0458,1634.5975],[33.92,41.0535,1303.8394],[33.94,41.0864,1694.6141],[33.9462,41.0939,1806.4039],[33.9677,41.1115,1935.3337],[33.9836,41.1199,1964.8002],[34.0028,41.1225,2085.9238],[34.0788,41.1233,1708.1576],[34.1078,41.1317,1680.9379],[34.1465,41.1359,1646.1448],[34.1711,41.1466,1713.1174],[34.1751,41.1507,1741.9492],[34.1779,41.1588,1751.1199],[34.1783,41.1768,1578.4601],[34.1761,41.1984,1324.9504],[34.178,41.2327,1524.5833],[34.1815,41.2491,1384.0452],[34.1901,41.2627,1229.6541],[34.1923,41.2708,1224.0316],[34.1917,41.2818,1256.6129],[34.1895,41.2869,1213.5073],[34.1785,41.3015,1403.587],[34.1715,41.3065,1301.303],[34.1586,41.3086,1376.054],[34.1111,41.3094,1077.3501],[34.101,41.3117,946.5835],[34.074,41.322,1158.1619],[34.0595,41.3306,1003.3845],[34.0084,41.3696,980.8733],[33.9996,41.3746,835.8198],[33.9775,41.3832,1014.0511],[33.9614,41.3948,913.2015],[33.9561,41.4022,831.9444],[33.9556,41.4103,719.2285],[33.9598,41.4177,691.1036],[33.9799,41.4374,663.0721],[33.9826,41.4454,663.6458],[33.9815,41.4564,700.8039],[33.9747,41.4662,661.1861],[33.9432,41.4935,649.3568],[33.9346,41.517,727.5353],[33.917,41.5458,1150.5341],[33.8768,41.5321,1316.6738],[33.8332,41.523,1194.3738],[33.8041,41.5316,1255.2007],[33.7731,41.5481,1173.3033],[33.7515,41.5367,1208.3391],[33.74,41.5348,1191.8877],[33.714,41.5433,1134.9327],[33.697,41.5513,1276.1069],[33.6671,41.562,1254.7839],[33.6571,41.5625,1332.5339],[33.6371,41.5564,1380.0618],[33.6272,41.5558,1415.9111],[33.5929,41.5649,1396.6779],[33.5851,41.5571,1382.787],[33.5815,41.55,1411.6721],[33.5819,41.5423,1298.3595],[33.5911,41.5237,1007.4841],[33.5924,41.5098,928.2916],[33.5895,41.4961,885.6115],[33.5799,41.4798,816.8719],[33.5778,41.466,872.8042],[33.5798,41.4522,928.3549],[33.5913,41.4302,973.4543],[33.593,41.4182,1015.205],[33.5926,41.4029,1054.6194],[33.5896,41.3912,1085.4342],[33.5672,41.3567,1230.5544],[33.5624,41.3438,1230.2828],[33.5771,41.3434,1253.3226],[33.5944,41.3405,1252.3383],[33.6248,41.329,1262.9142],[33.6415,41.3175,1266.152],[33.6495,41.3078,1185.7015],[33.6514,41.3024,1222.6023],[33.6532,41.2713,1169.0521],[33.6566,41.2608,1142.7838],[33.6718,41.2373,1057.5342],[33.6903,41.2194,1099.2263],[33.7021,41.2025,1286.1086],[33.7244,41.1797,1200.9738],[33.7676,41.1121,1667.3804],[33.7721,41.0991,1864.6705],[33.7871,41.0875,1766.656],[33.821,41.0973,1745.1671],[33.8314,41.0967,1759.5023],[33.8411,41.0927,1972.5455],[33.8541,41.0826,2185.146],[33.8608,41.0724,1823.8831],[33.8617,41.0584,1823.385],[33.8577,41.0451,2024.8672]]]]}
,"properties": {"GID_2": "TUR.46.15_1","GID_0": "TUR","country": "Turkey","GID_1": "TUR.46_1","province": "Kastamonu","NL_NAME_1": "NA","county": "Merkez","VARNAME_2": "Kastamonu","NL_NAME_2": "NA","TYPE_2": "District","ENGTYPE_2": "District","CC_2": "NA","HASC_2": "TR.KS.KS","name": "Merkez.county","area_km2": 1771.817,"hist_schema_id": "Elevation0-9000","hist_area_km2": {"650": 5.258,"675": 18.19,"700": 27.347,"725": 33.865,"750": 46.771,"775": 50.525,"800": 52.534,"825": 51.412,"850": 51.258,"875": 49.516,"900": 50.998,"925": 55.555,"950": 60.475,"975": 64.109,"1000": 64.183,"1025": 67.699,"1050": 63.609,"1075": 58.724,"1100": 50.633,"1125": 44.664,"1150": 42.406,"1175": 42.328,"1200": 42.013,"1225": 42.135,"1250": 42.953,"1275": 39.437,"1300": 37.819,"1325": 34.797,"1350": 34.387,"1375": 34.455,"1400": 35.129,"1425": 32.454,"1450": 29.716,"1475": 27.55,"1500": 23.725,"1525": 22.022,"1550": 18.161,"1575": 19.295,"1600": 19.504,"1625": 18.753,"1650": 16.282,"1675": 15.118,"1700": 13.603,"1725": 11.018,"1750": 8.991,"1775": 7.491,"1800": 7.65,"1825": 7.267,"1850": 6.469,"1875": 6.421,"1900": 5.926,"1925": 5.862,"1950": 5.894,"1975": 4.952,"2000": 4.824,"2025": 4.76,"2050": 4.106,"2075": 3.243,"2100": 3.323,"2125": 3.083,"2150": 2.988,"2175": 2.78,"2200": 2.508,"2225": 2.253,"2250": 1.821,"2275": 1.598,"2300": 1.502,"2325": 0.959,"2350": 0.895,"2375": 0.687,"2400": 0.559,"2425": 0.24,"2450": 0.112,"2475": 0.048,"2500": 0.096,"2525": 0.048,"2550": 0.064,"2575": 0.016}}}