{"type": "Feature","bbox": [40.5515,37.0636,41.2687,37.4967],"geometry": {"type": "MultiPolygon","coordinates": [[[[41.2687,37.0785,457.5035],[41.2588,37.0924,480.0607],[41.2536,37.1227,550.5047],[41.2226,37.1717,699.8883],[41.2114,37.1824,699.3558],[41.1605,37.2228,801.2844],[41.1472,37.2414,852.8337],[41.1285,37.2601,945.8047],[41.1175,37.2764,1048.2793],[41.107,37.2868,1044.0197],[41.0934,37.2894,1020.6466],[41.0723,37.2966,978.3415],[41.0483,37.3008,988.222],[41.0179,37.3119,1004.1011],[41.0059,37.3186,941.6896],[40.9957,37.3271,1016.7372],[40.99,37.3344,1058.5155],[40.9834,37.3556,1039.1091],[40.9746,37.3694,1062.9736],[40.9684,37.3839,1057.0038],[40.9435,37.3774,1067.7263],[40.9258,37.3707,1083.3577],[40.9068,37.3679,1126.8523],[40.8757,37.3684,1145.9948],[40.8653,37.3715,1145.9562],[40.8577,37.3767,1124.4725],[40.8525,37.384,1116.3033],[40.8503,37.3961,1039.6365],[40.8518,37.4082,1141.3329],[40.8562,37.4162,1121.8772],[40.8687,37.4245,1009.8905],[40.8953,37.4299,1100.6364],[40.9121,37.4383,1119.6708],[40.9122,37.4616,1013.5701],[40.9023,37.4721,1104.9377],[40.8972,37.4849,1067.728],[40.8611,37.4863,1035.4963],[40.8318,37.4946,886.5115],[40.8153,37.4964,1035.3118],[40.672,37.4967,989.5735],[40.662,37.4861,1053.032],[40.6529,37.4723,1012.8054],[40.6433,37.4653,1094.9805],[40.6299,37.4621,1045.3252],[40.5973,37.4616,1068.988],[40.583,37.4597,1076.4519],[40.5647,37.4497,1114.302],[40.5539,37.438,1086.2709],[40.5515,37.4269,1095.4862],[40.5543,37.416,1075.2876],[40.5601,37.4089,1085.0509],[40.583,37.3906,1086.2986],[40.5917,37.3817,1102.172],[40.5955,37.3739,1139.5837],[40.5988,37.3563,1031.9526],[40.7051,37.3567,881.2479],[40.7189,37.3534,865.8611],[40.7382,37.34,845.8683],[40.7538,37.3183,993.5496],[40.7718,37.3001,966.9451],[40.7814,37.2858,790.0798],[40.8003,37.2672,670.3027],[40.8157,37.2441,606.2698],[40.8207,37.2313,602.9504],[40.824,37.2092,606.4561],[40.833,37.1927,566.7216],[40.8396,37.1716,536.6584],[40.8541,37.1481,512.5209],[40.8699,37.1279,490.9443],[40.8904,37.1246,488.308],[40.9211,37.1271,483.394],[40.95,37.1244,487.3498],[40.9724,37.1174,483.7137],[41.0005,37.112,477.8549],[41.0324,37.1074,484.274],[41.0595,37.1054,500.1487],[41.1145,37.0951,495.8967],[41.1324,37.0931,500.226],[41.1697,37.0922,482.3933],[41.2044,37.0793,479.1792],[41.2077,37.0765,481.6481],[41.2119,37.067,469.3504],[41.2184,37.0636,457.4099],[41.2368,37.0649,458.819],[41.2488,37.0691,455.3019],[41.2575,37.075,455.7238],[41.2687,37.0785,457.5035]]]]}
,"properties": {"GID_2": "TUR.57.5_1","GID_0": "TUR","country": "Turkey","GID_1": "TUR.57_1","province": "Mardin","NL_NAME_1": "NA","county": "Merkez","VARNAME_2": "MardinMerkez","NL_NAME_2": "NA","TYPE_2": "District","ENGTYPE_2": "District","CC_2": "NA","HASC_2": "TR.MR.MR","name": "Merkez.county","area_km2": 1242.6552,"hist_schema_id": "Elevation0-9000","hist_area_km2": {"450": 2.7575,"475": 20.7678,"500": 66.1728,"525": 52.5842,"550": 42.5863,"575": 38.5937,"600": 41.1047,"625": 41.066,"650": 35.0486,"675": 32.6289,"700": 28.9089,"725": 27.1987,"750": 25.4378,"775": 26.5982,"800": 27.4725,"825": 29.9673,"850": 34.1159,"875": 38.7869,"900": 40.6519,"925": 41.6404,"950": 48.5955,"975": 48.3926,"1000": 52.0149,"1025": 60.1981,"1050": 73.2191,"1075": 81.4078,"1100": 72.8259,"1125": 58.9351,"1150": 36.9233,"1175": 12.8531,"1200": 2.7458,"1225": 0.4548}}}