{"type":"Feature","properties":{"GID_2":"TUR.36.2_1","GID_0":"TUR","country":"Turkey","GID_1":"TUR.36_1","province":"Hakkari","NL_NAME_1":"NA","county":"Merkez","VARNAME_2":"Hakkari","NL_NAME_2":"NA","TYPE_2":"District","ENGTYPE_2":"District","CC_2":"NA","HASC_2":"TR.HK.HK","name":"Merkez.county"},
"geometry":{"type": "MultiPolygon","coordinates": [[[[43.9696,37.3225,1415.09],[43.9734,37.3317,1549.9268],[43.9779,37.3508,1832.0623],[43.9881,37.37,1467.6727],[43.9931,37.4088,1968.2448],[44.0044,37.4306,2156.8423],[44.0057,37.4418,2502.5996],[44.0046,37.453,2757.625],[43.9934,37.4747,2964.1904],[43.9875,37.4932,3134.8743],[43.9732,37.5167,3431.4333],[43.9279,37.5864,2162.8098],[43.9038,37.6116,2281.4033],[43.8736,37.658,1795.9937],[43.8714,37.6688,1432.3381],[43.8738,37.6798,1825.6643],[43.8799,37.6881,1808.05],[43.8927,37.7004,1725.9944],[43.8459,37.7057,1780.4431],[43.7986,37.7236,1811.759],[43.7846,37.7262,2009.105],[43.7706,37.7254,2459.9021],[43.7495,37.7185,3037.6072],[43.738,37.7165,3073.6399],[43.6758,37.7153,3282.416],[43.6391,37.717,2985.647],[43.6144,37.7246,2617.5308],[43.5825,37.7275,2724.2354],[43.5408,37.7274,2922.9504],[43.5366,37.7206,2831.4741],[43.5284,37.7188,2989.9397],[43.5202,37.7212,3015.2476],[43.5107,37.7274,3082.4756],[43.4957,37.7274,3052.1494],[43.4959,37.7026,2770.8291],[43.4942,37.6875,2803.4092],[43.4907,37.679,2638.0283],[43.4677,37.642,2588.5432],[43.4656,37.6299,2498.1187],[43.4639,37.5829,2280.1523],[43.4366,37.5225,2084.7222],[43.4349,37.5034,1347.3972],[43.435,37.4191,2050.6875],[43.48,37.4067,1229.9663],[43.5001,37.4113,1090.3895],[43.5189,37.4133,1892.6611],[43.5494,37.4138,2173.6768],[43.5627,37.411,2408.1777],[43.5675,37.4071,2553.603],[43.5697,37.4022,2645.6587],[43.5713,37.3763,2048.7209],[43.5734,37.3676,2535.6997],[43.6024,37.3208,1613.024],[43.6084,37.3147,1395.9667],[43.6161,37.3099,1482.4537],[43.642,37.3015,1132.0594],[43.6507,37.302,1092.447],[43.6886,37.3105,1827.969],[43.7332,37.328,1668.8728],[43.7512,37.3313,2121.481],[43.7785,37.3318,3015.0366],[43.8017,37.3304,2754.5154],[43.83,37.3216,1970.5654],[43.8537,37.3169,1820.3187],[43.8714,37.3104,1539.2382],[43.894,37.3077,1861.2614],[43.9214,37.3076,2037.8201],[43.9405,37.3095,1733.8389],[43.9696,37.3225,1415.09]]]]}}