{"type": "Feature","bbox": [41.9258,40.9307,42.3984,41.2566],"geometry": {"type": "MultiPolygon","coordinates": [[[[42.3984,41.0853,2629.7722],[42.3722,41.091,2675.1023],[42.3367,41.0942,2849.8477],[42.3277,41.0978,2892.3003],[42.3207,41.1032,2911.7959],[42.3038,41.1315,2471.9541],[42.3016,41.1616,1968.8173],[42.2983,41.173,1675.5059],[42.2909,41.181,1709.8396],[42.2757,41.1915,1863.1837],[42.2687,41.2081,1668.8208],[42.2628,41.2156,1412.7418],[42.2385,41.2354,1499.8772],[42.2261,41.2424,1579.6158],[42.1924,41.2544,1028.588],[42.1454,41.2566,579.5388],[42.048,41.2188,512.3107],[42.021,41.203,549.8853],[41.9971,41.193,578.3264],[41.9843,41.1842,349.472],[41.9742,41.1737,414.838],[41.9667,41.1618,282.7109],[41.9458,41.141,610.9722],[41.9293,41.1155,1042.1678],[41.926,41.0988,1306.3542],[41.9258,41.0727,1553.0212],[41.9277,41.0528,1853.0422],[41.9395,41.0285,2238.3062],[41.9414,41.0003,2399.8755],[41.9442,40.9893,2344.1025],[41.9545,40.9776,2478.6431],[41.9973,40.9445,1913.7533],[42.0127,40.9307,1977.641],[42.0476,40.9507,2338.8586],[42.0746,40.9562,2573.7017],[42.0993,40.9638,2758.2173],[42.1212,40.9651,2644.2085],[42.2731,40.9653,2557.0811],[42.2852,40.9673,2519.9543],[42.3308,40.9829,2390.5051],[42.3439,41.0005,2370.2466],[42.3647,41.0335,2079.686],[42.3885,41.0589,1995.24],[42.3984,41.0853,2629.7722]]]]}
,"properties": {"GID_2": "TUR.10.1_1","GID_0": "TUR","country": "Turkey","GID_1": "TUR.10_1","province": "Artvin","NL_NAME_1": "NA","county": "Ardanuç","VARNAME_2": "NA","NL_NAME_2": "NA","TYPE_2": "District","ENGTYPE_2": "District","CC_2": "NA","HASC_2": "TR.AV.AD","name": "Ardanuç.county","area_km2": 953.9735,"hist_schema_id": "Elevation0-9000","hist_area_km2": {"275": 0.2075,"300": 0.6065,"325": 0.6385,"350": 0.7982,"375": 1.0536,"400": 1.1972,"425": 1.6122,"450": 1.4048,"475": 2.0275,"500": 2.6343,"525": 3.3366,"550": 3.608,"575": 3.9113,"600": 4.1668,"625": 4.5023,"650": 4.7577,"675": 4.7577,"700": 5.2366,"725": 5.3483,"750": 5.492,"775": 5.1412,"800": 5.7794,"825": 5.4123,"850": 6.2907,"875": 6.3067,"900": 7.5205,"925": 7.0734,"950": 7.2964,"975": 7.6162,"1000": 8.2556,"1025": 8.3033,"1050": 8.2393,"1075": 8.8308,"1100": 8.6718,"1125": 9.0863,"1150": 9.5339,"1175": 9.4688,"1200": 9.8362,"1225": 10.0922,"1250": 9.9,"1275": 10.2995,"1300": 10.7464,"1325": 11.9435,"1350": 11.8637,"1375": 12.5504,"1400": 12.726,"1425": 12.471,"1450": 14.2114,"1475": 13.621,"1500": 13.4769,"1525": 12.9044,"1550": 12.7286,"1575": 12.7298,"1600": 12.8426,"1625": 12.4281,"1650": 12.764099999999999,"1675": 12.5736,"1700": 12.2865,"1725": 12.1919,"1750": 12.0007,"1775": 12.641,"1800": 13.1042,"1825": 13.505,"1850": 13.2981,"1875": 11.9084,"1900": 12.5487,"1925": 12.3427,"1950": 11.2071,"1975": 11.368,"2000": 11.9918,"2025": 12.3918,"2050": 11.4172,"2075": 10.763,"2100": 11.4019,"2125": 10.7634,"2150": 10.8589,"2175": 10.7632,"2200": 10.2029,"2225": 10.4591,"2250": 10.3633,"2275": 10.5712,"2300": 10.2041,"2325": 11.1794,"2350": 11.691,"2375": 11.3878,"2400": 12.108,"2425": 11.7558,"2450": 12.2043,"2475": 12.4287,"2500": 13.1655,"2525": 12.7807,"2550": 12.4602,"2575": 14.3305,"2600": 14.6496,"2625": 12.0431,"2650": 10.6683,"2675": 9.0362,"2700": 8.1716,"2725": 6.6039,"2750": 5.0365,"2775": 4.3315,"2800": 4.0117,"2825": 4.539,"2850": 3.2437,"2875": 3.2114,"2900": 3.0837,"2925": 3.1475,"2950": 2.4124,"2975": 2.1886,"3000": 1.5336,"3025": 0.9424,"3050": 0.2396}}}