{"type": "Feature","bbox": [30.3853,37.8419,30.5216,38.0347],"geometry": {"type": "MultiPolygon","coordinates": [[[[30.5216,38.0047,1740.0145],[30.4812,38.0066,1430.5742],[30.46,38.0136,1467.7902],[30.4329,38.0191,1331.1687],[30.3853,38.0347,1312.7931],[30.3869,37.9369,1152.611],[30.39,37.9245,1122.4761],[30.399,37.9078,999.5294],[30.4009,37.8958,927.9167],[30.399,37.8807,880.4791],[30.388,37.8579,856.6638],[30.3861,37.8419,853.1348],[30.4026,37.8457,872.4703],[30.4296,37.8614,949.0262],[30.448,37.8688,981.2954],[30.4894,37.8964,973.3368],[30.4995,37.8992,930.7858],[30.5213,37.9008,928.0667],[30.5216,38.0047,1740.0145]]]]}
,"properties": {"GID_2": "TUR.39.5_1","GID_0": "TUR","country": "Turkey","GID_1": "TUR.39_1","province": "Isparta","NL_NAME_1": "NA","county": "Gönen","VARNAME_2": "NA","NL_NAME_2": "NA","TYPE_2": "District","ENGTYPE_2": "District","CC_2": "NA","HASC_2": "TR.IP.GO","name": "Gönen.county","area_km2": 180.6756,"hist_schema_id": "Elevation0-9000","hist_area_km2": {"850": 3.1305,"875": 5.2724,"900": 3.3639,"925": 10.7417,"950": 19.3541,"975": 12.026,"1000": 9.5329,"1025": 7.2915,"1050": 6.405,"1075": 5.5015,"1100": 5.5682,"1125": 5.0832,"1150": 4.4808,"1175": 3.6946,"1200": 4.296,"1225": 5.4659,"1250": 5.5493,"1275": 6.0504,"1300": 7.0363,"1325": 6.2506,"1350": 6.3004,"1375": 6.6845,"1400": 5.9323,"1425": 5.3137,"1450": 4.4112,"1475": 3.0576,"1500": 2.5395,"1525": 2.6062,"1550": 2.2053,"1575": 1.3532,"1600": 0.852,"1625": 0.7017,"1650": 0.6182,"1675": 0.284,"1700": 0.284,"1725": 0.1671,"1750": 0.284,"1775": 0.2005,"1800": 0.2172,"1825": 0.2005,"1850": 0.1838,"1875": 0.117,"1900": 0.0668}}}