{"type": "Feature","bbox": [39.3041,36.7059,40.2552,37.1232],"geometry": {"type": "MultiPolygon","coordinates": [[[[40.2552,36.9161,370.9883],[40.1916,36.9402,417.5113],[40.1816,36.9468,422.1431],[40.1762,36.9533,417.0573],[40.1323,37.0234,447.719],[40.1302,37.0379,452.1891],[40.1297,37.0919,435.7775],[40.1274,37.1003,436.969],[40.1204,37.1133,450.1462],[40.118,37.1232,436.5188],[40.0975,37.1201,450.9943],[40.024,37.0922,442.7082],[39.9968,37.0869,442.5393],[39.9755,37.0799,435.4618],[39.94,37.0762,434.9423],[39.9187,37.0692,458.69],[39.8915,37.064,473.697],[39.8136,37.0342,469.2346],[39.7748,37.0296,463.897],[39.7462,37.0213,467.4087],[39.6998,37.0183,478.9111],[39.6484,36.9994,487.1025],[39.6212,36.9941,494.4966],[39.5999,36.9871,521.3186],[39.5645,36.9832,505.8714],[39.5359,36.9745,531.6205],[39.5046,36.9733,535.0419],[39.4824,36.9767,524.5959],[39.4504,36.9903,531.8291],[39.4438,36.9959,554.1529],[39.4289,37.0147,573.3871],[39.396,37.0231,578.6194],[39.3781,37.0297,595.6942],[39.3631,37.0322,624.8663],[39.3402,37.0326,617.5198],[39.3233,37.0287,611.0372],[39.3084,37.0108,634.6928],[39.3041,36.9956,608.7094],[39.3049,36.9373,548.8544],[39.3075,36.9282,555.0693],[39.3158,36.9144,528.077],[39.3254,36.8935,514.6067],[39.3196,36.8776,504.1494],[39.3186,36.869,512.6329],[39.3191,36.8548,501.1643],[39.3234,36.8439,490.3569],[39.3352,36.8328,485.1001],[39.3438,36.8273,478.4214],[39.3714,36.8153,477.7487],[39.4073,36.7913,444.5498],[39.4407,36.7838,442.551],[39.5031,36.7592,426.539],[39.5117,36.7515,413.1126],[39.5261,36.7283,413.9675],[39.5282,36.7201,415.7457],[39.5289,36.7059,414.7387],[39.5457,36.7078,404.8825],[39.5966,36.7196,417.7653],[39.6648,36.7258,411.2558],[39.712,36.7416,437.3523],[39.7227,36.7438,437.7241],[39.8073,36.7495,432.4945],[39.8418,36.7553,427.6898],[39.856,36.7605,424.0466],[39.8905,36.7771,393.1517],[39.9291,36.787,377.3576],[39.9632,36.7984,375.4106],[40.0158,36.824,354.3087],[40.0519,36.8361,352.7125],[40.0728,36.8491,355.911],[40.0801,36.8565,360.5463],[40.087,36.8607,364.6718],[40.1327,36.8718,356.4197],[40.1809,36.8787,386.9088],[40.208,36.8878,391.8504],[40.2383,36.9032,354.3448],[40.2552,36.9161,370.9883]]]]}
,"properties": {"GID_2": "TUR.68.4_1","GID_0": "TUR","country": "Turkey","GID_1": "TUR.68_1","province": "Sanliurfa","NL_NAME_1": "NA","county": "Ceylanpınar","VARNAME_2": "NA","NL_NAME_2": "NA","TYPE_2": "District","ENGTYPE_2": "District","CC_2": "NA","HASC_2": "TR.SU.CE","name": "Ceylanpınar.county","area_km2": 2176.267,"hist_schema_id": "Elevation0-9000","hist_area_km2": {"350": 23.278,"375": 132.497,"400": 218.796,"425": 437.787,"450": 582.987,"475": 377.427,"500": 197.922,"525": 94.785,"550": 52.059,"575": 35.075,"600": 18.422,"625": 4.825,"650": 0.406}}}