{"type":"Feature","properties":{"GID_2":"TUR.58.1_1","GID_0":"TUR","country":"Turkey","GID_1":"TUR.58_1","province":"Mersin","NL_NAME_1":"NA","county":"Anamur","VARNAME_2":"NA","NL_NAME_2":"NA","TYPE_2":"District","ENGTYPE_2":"District","CC_2":"NA","HASC_2":"TR.IC.AN","name":"Anamur.county"},
"geometry":{"type": "MultiPolygon","coordinates": [[[[32.566,36.0999,0.4964],[32.5738,36.0949,7.5276],[32.5771,36.0907,0.0],[32.5804,36.091,40.3966],[32.5932,36.0788,3.3427],[32.6051,36.0754,0.0],[32.6085,36.0762,11.6976],[32.6118,36.0738,2.738],[32.6204,36.0721,154.2704],[32.6293,36.0651,0.0],[32.6424,36.061,10.0312],[32.6479,36.056,10.0519],[32.6529,36.0557,91.019],[32.6574,36.0535,0.0],[32.6668,36.044,15.232],[32.671,36.0446,13.7815],[32.6732,36.0424,0.0],[32.6776,36.0426,18.6422],[32.6793,36.0412,0.0],[32.6793,36.0385,0.0],[32.6829,36.0424,2.3162],[32.6871,36.0426,9.5835],[32.7026,36.0357,4.8731],[32.7079,36.036,4.2597],[32.7082,36.0343,0.0],[32.7113,36.036,12.7686],[32.7201,36.0349,0.0],[32.7271,36.036,35.0166],[32.7307,36.0354,0.0],[32.731,36.0332,0.0],[32.7357,36.031,0.0],[32.741,36.0329,0.0],[32.746,36.0324,57.9637],[32.7479,36.0301,0.0],[32.7532,36.031,33.0031],[32.7549,36.0282,0.0],[32.7571,36.0296,1.9822],[32.7654,36.0279,0.0],[32.771,36.0293,30.2501],[32.779,36.0262,4.1694],[32.791,36.0251,0.0],[32.8029,36.0154,0.0],[32.8054,36.0168,0.0],[32.8051,36.0232,7.5382],[32.8182,36.0376,1.0355],[32.8385,36.0426,0.0],[32.8399,36.0451,1.258],[32.8457,36.0485,0.0],[32.8488,36.0535,0.0],[32.8524,36.0549,0.0],[32.8557,36.0601,0.3208],[32.8688,36.0707,3.7096],[32.8754,36.074,2.9343],[32.8799,36.0735,0.0],[32.8899,36.081,1.0916],[32.8949,36.0799,0.0],[32.9068,36.0865,0.9207],[32.9096,36.0854,0.0],[32.914,36.0874,9.7018],[32.9215,36.0849,0.0],[32.9257,36.0885,0.0],[32.931,36.0882,0.0],[32.9333,36.0915,0.0],[32.9326,36.0928,50.9377],[32.9284,36.0925,136.9712],[32.9083,36.1296,450.6569],[32.9059,36.1381,400.014],[32.9045,36.189,410.0604],[32.9071,36.2063,597.2549],[32.9101,36.2112,665.7755],[32.9166,36.2169,758.5757],[32.9401,36.2272,1307.926],[32.9539,36.2368,1445.6814],[32.9609,36.2435,1330.1047],[32.9727,36.2603,1198.7693],[32.9929,36.2808,1239.5532],[33.0064,36.3017,1306.3433],[33.0095,36.3097,1201.2192],[33.011,36.3244,1233.2686],[33.0104,36.3665,1341.0753],[33.0127,36.381,1361.3115],[33.0221,36.3935,1345.1371],[33.0452,36.4118,1417.5189],[33.0119,36.4216,1354.0039],[32.9821,36.4334,1345.817],[32.9716,36.4397,1348.0637],[32.9594,36.4508,1489.6995],[32.9419,36.4536,1376.4968],[32.926,36.4528,1400.8363],[32.9006,36.4452,1504.6226],[32.866,36.4409,1551.7745],[32.8407,36.4331,1684.113],[32.8165,36.4311,1659.2828],[32.7797,36.4326,1798.4722],[32.7542,36.4403,1769.4802],[32.7424,36.4424,1802.6146],[32.6791,36.4436,1898.4128],[32.6581,36.4461,1884.9352],[32.653,36.434,1914.2451],[32.6478,36.412,1895.7083],[32.6388,36.3956,1927.6221],[32.6358,36.3836,2002.1377],[32.636,36.3165,2235.3682],[32.6378,36.3074,2213.688],[32.6451,36.2935,2170.5032],[32.6468,36.286,2097.2915],[32.6451,36.2786,1507.8604],[32.6372,36.2618,1190.1639],[32.6327,36.2259,437.7834],[32.6225,36.2067,383.1357],[32.6165,36.1882,553.8877],[32.6085,36.1743,295.7672],[32.6035,36.1474,460.3036],[32.6004,36.1391,169.1719],[32.584,36.1141,212.6809],[32.566,36.0999,0.4964]]]]}}