{"type":"Feature","properties":{"GID_2":"TUR.67.12_1","GID_0":"TUR","country":"Turkey","GID_1":"TUR.67_1","province":"Samsun","NL_NAME_1":"NA","county":"Tekkeköy","VARNAME_2":"NA","NL_NAME_2":"NA","TYPE_2":"District","ENGTYPE_2":"District","CC_2":"NA","HASC_2":"TR.SS.TK","name":"Tekkeköy.county"},
"geometry":{"type": "MultiPolygon","coordinates": [[[[36.43,41.0273,406.5094],[36.4551,41.0294,422.2141],[36.4839,41.0376,285.8868],[36.5267,41.0389,540.3705],[36.547,41.0632,320.4684],[36.5538,41.0844,189.5554],[36.5634,41.1007,366.584],[36.5678,41.1166,119.5656],[36.5736,41.1298,60.9165],[36.5737,41.1342,57.9559],[36.5674,41.15,41.8955],[36.5635,41.1749,59.0023],[36.5479,41.201,11.7842],[36.5395,41.21,7.5879],[36.5117,41.233,2.8928],[36.495,41.2532,0.0],[36.4688,41.246,1.1304],[36.4576,41.2457,0.0],[36.4579,41.2496,0.0],[36.4562,41.2504,0.0],[36.4557,41.2454,3.255],[36.4376,41.2443,3.1877],[36.4302,41.2454,2.4969],[36.4258,41.2238,56.4833],[36.4146,41.2054,418.8685],[36.4089,41.199,516.7043],[36.3983,41.193,370.3625],[36.3689,41.187,454.2728],[36.3593,41.1801,628.0683],[36.3557,41.1727,560.8842],[36.3559,41.165,446.1352],[36.358,41.1603,694.7975],[36.3782,41.1469,666.4976],[36.3818,41.1426,641.2175],[36.3849,41.1347,617.8723],[36.3856,41.1235,625.6252],[36.3831,41.1124,652.7006],[36.3781,41.1049,697.9499],[36.3652,41.0923,620.906],[36.3618,41.0854,484.5745],[36.3624,41.081,559.9088],[36.3711,41.0626,773.8104],[36.3782,41.0519,597.0274],[36.3954,41.0492,471.0469],[36.4075,41.0449,429.9031],[36.423,41.0371,338.0957],[36.43,41.0273,406.5094]]]]}}