{"type": "Feature","bbox": [34.0142,41.7302,34.2694,41.9826],"geometry": {"type": "MultiPolygon","coordinates": [[[[34.0469,41.9253,316.2859],[34.0437,41.9022,521.2855],[34.046,41.8825,338.9932],[34.0529,41.8728,377.2018],[34.0846,41.8456,1153.2399],[34.0892,41.835,1331.6252],[34.09,41.8265,1336.4014],[34.0894,41.818,1370.046],[34.0867,41.8098,1306.8342],[34.0757,41.7981,1369.4751],[34.0674,41.7923,1107.1002],[34.0547,41.7865,943.1678],[34.0219,41.7779,1531.1047],[34.0325,41.761,1288.3577],[34.0412,41.7527,1430.3994],[34.0569,41.7424,1342.8916],[34.0966,41.7302,1558.1062],[34.1093,41.7371,1480.7389],[34.1578,41.7498,1908.4028],[34.1821,41.751,1678.8585],[34.2691,41.7507,1444.5103],[34.2694,41.7895,1042.3065],[34.2672,41.805,768.5225],[34.2517,41.8314,433.1406],[34.2288,41.8657,584.7647],[34.2256,41.874,643.7285],[34.224,41.8896,430.9616],[34.2243,41.9249,266.3427],[34.2265,41.9551,0.923],[34.2251,41.954,0.9203],[34.2151,41.9546,2.9689],[34.1751,41.9593,3.0826],[34.1712,41.9604,50.2385],[34.1712,41.964,0.0],[34.1693,41.9613,4.9333],[34.1671,41.9618,33.7204],[34.1679,41.9657,0.558],[34.1735,41.9646,0.0],[34.1704,41.9663,0.0],[34.1629,41.9654,33.1604],[34.1607,41.9674,0.0],[34.1349,41.9701,87.582],[34.1046,41.9785,18.2681],[34.0721,41.9785,28.0171],[34.0563,41.981,0.0],[34.0496,41.9796,10.3556],[34.0468,41.9821,0.0],[34.0438,41.9799,18.1754],[34.036,41.9793,2.3396],[34.0246,41.9799,2.4214],[34.024,41.9826,0.0],[34.0142,41.981,0.1705],[34.041,41.9477,405.6091],[34.0469,41.9253,316.2859]]]]}
,"properties": {"GID_2": "TUR.46.6_1","GID_0": "TUR","country": "Turkey","GID_1": "TUR.46_1","province": "Kastamonu","NL_NAME_1": "NA","county": "Çatalzeytin","VARNAME_2": "NA","NL_NAME_2": "NA","TYPE_2": "District","ENGTYPE_2": "District","CC_2": "NA","HASC_2": "TR.KS.CA","name": "Çatalzeytin.county","area_km2": 390.4357,"hist_schema_id": "Elevation0-9000","hist_area_km2": {"0": 1.5448,"25": 1.4346,"50": 1.4662,"75": 1.9235,"100": 2.3493,"125": 2.7436,"150": 3.8951,"175": 4.3842,"200": 4.7468,"225": 6.2612,"250": 6.9866,"275": 7.3972,"300": 6.9246,"325": 7.2717,"350": 7.4614,"375": 7.6667,"400": 7.1938,"425": 7.4945,"450": 7.0212,"475": 7.0688,"500": 7.0062,"525": 7.0068,"550": 7.2915,"575": 6.597,"600": 7.4814,"625": 6.8502,"650": 6.5663,"675": 6.804,"700": 6.4568,"725": 6.9306,"750": 6.0628,"775": 6.5368,"800": 6.0636,"825": 5.7953,"850": 6.0797,"875": 5.3851,"900": 5.4646,"925": 5.2278,"950": 5.1019,"975": 4.944,"1000": 5.0706,"1025": 3.9335,"1050": 4.3919,"1075": 4.0448,"1100": 4.1713,"1125": 3.9818,"1150": 4.4721,"1175": 4.4408,"1200": 4.4568,"1225": 4.1725,"1250": 4.4888,"1275": 4.6628,"1300": 4.2835,"1325": 4.9951,"1350": 5.4705,"1375": 6.9724,"1400": 6.8145,"1425": 7.3841,"1450": 6.4509,"1475": 6.9887,"1500": 6.9417,"1525": 6.2931,"1550": 6.2774,"1575": 5.3603,"1600": 4.4114,"1625": 4.3641,"1650": 4.0479,"1675": 3.1151,"1700": 2.5143,"1725": 2.6094,"1750": 2.4513,"1775": 1.9295,"1800": 1.8663,"1825": 2.0877,"1850": 1.898,"1875": 1.4393,"1900": 0.949,"1925": 0.7908,"1950": 0.3322,"1975": 0.1423,"2000": 0.0791}}}