{"type": "Feature","bbox": [26.6844,41.4304,27.0008,41.728],"geometry": {"type": "MultiPolygon","coordinates": [[[[26.6998,41.4304,60.4054],[26.7215,41.4319,122.8544],[26.7498,41.4403,137.8824],[26.7729,41.4422,113.811],[26.7999,41.4402,45.6563],[26.8213,41.4331,58.293],[26.8372,41.4306,84.0987],[26.9034,41.4311,60.9767],[26.9193,41.4699,41.5444],[26.9614,41.5058,88.5499],[26.9755,41.5246,54.4114],[26.9971,41.5475,61.8005],[27.0008,41.5649,73.8731],[27.0005,41.6164,114.1728],[26.9974,41.6227,125.7248],[26.9913,41.6276,127.2695],[26.9725,41.6366,133.4833],[26.93,41.652,104.1414],[26.9217,41.6563,102.667],[26.9138,41.6645,130.5224],[26.9096,41.6798,140.0318],[26.8934,41.7086,123.8738],[26.882,41.7177,145.5867],[26.8645,41.7215,158.3392],[26.814,41.7223,135.5707],[26.785,41.728,137.879],[26.765,41.7113,146.6729],[26.7484,41.6855,135.9025],[26.7456,41.6741,122.1447],[26.7452,41.6349,117.263],[26.7431,41.6203,118.9463],[26.7338,41.6038,125.8627],[26.7269,41.5827,106.7965],[26.7186,41.5689,102.916],[26.7117,41.5479,74.5454],[26.6893,41.5133,107.6065],[26.6859,41.5052,107.8324],[26.6844,41.4901,93.8363],[26.6855,41.475,93.4207],[26.6881,41.4663,84.8682],[26.6972,41.4499,67.8162],[26.6998,41.4304,60.4054]]]]}
,"properties": {"GID_2": "TUR.28.2_1","GID_0": "TUR","country": "Turkey","GID_1": "TUR.28_1","province": "Edirne","NL_NAME_1": "NA","county": "Havsa","VARNAME_2": "NA","NL_NAME_2": "NA","TYPE_2": "District","ENGTYPE_2": "District","CC_2": "NA","HASC_2": "TR.ED.HA","name": "Havsa.county","area_km2": 611.776,"hist_schema_id": "Elevation0-9000","hist_area_km2": {"50": 49.3933,"75": 128.6891,"100": 207.1044,"125": 176.8745,"150": 49.1767,"175": 0.5381}}}