{"type":"Feature","properties":{"GID_2":"TUR.54.9_1","GID_0":"TUR","country":"Turkey","GID_1":"TUR.54_1","province":"Kütahya","NL_NAME_1":"NA","county":"Merkez","VARNAME_2":"Kütahya","NL_NAME_2":"NA","TYPE_2":"District","ENGTYPE_2":"District","CC_2":"NA","HASC_2":"TR.KU.KU","name":"Merkez.county"},
"geometry":{"type": "MultiPolygon","coordinates": [[[[30.4533,39.206,1228.7887],[30.446,39.2262,1299.6631],[30.4367,39.2426,1236.1752],[30.4311,39.2612,1221.3184],[30.4148,39.2871,1340.375],[30.4,39.3007,1310.4478],[30.3636,39.3286,1282.6489],[30.3333,39.3468,1353.9189],[30.3171,39.3679,1466.4902],[30.314,39.3855,1523.3464],[30.3146,39.4835,1361.0254],[30.2523,39.5322,1014.348],[30.2441,39.5405,1015.2245],[30.237,39.5524,1055.5712],[30.2321,39.5576,1097.6458],[30.1979,39.5745,945.3978],[30.1515,39.6093,906.3701],[30.1392,39.6214,1072.6023],[30.137,39.6292,986.9994],[30.1395,39.6372,1027.875],[30.1759,39.673,903.0306],[30.187,39.6967,982.0632],[30.1605,39.7035,969.6345],[30.146,39.7049,928.8153],[30.1202,39.7045,923.6921],[30.1096,39.703,927.3585],[30.0809,39.6945,946.8815],[30.0302,39.6925,993.1906],[30.0196,39.6912,1023.2755],[29.9984,39.6841,1016.2448],[29.9872,39.6822,1080.3934],[29.9598,39.6816,1149.5684],[29.9409,39.6841,1178.5564],[29.9194,39.6912,1282.061],[29.881,39.6961,1305.0681],[29.8631,39.7023,1381.0712],[29.8393,39.7068,1367.1121],[29.8182,39.7142,1404.4706],[29.7977,39.7184,1388.9244],[29.7766,39.7068,1367.4768],[29.7635,39.6949,1288.3947],[29.761,39.6898,1316.3649],[29.7599,39.6816,1199.1438],[29.7612,39.6736,1120.4192],[29.7675,39.6607,1256.8835],[29.7659,39.6521,1229.5073],[29.7572,39.636,1143.2318],[29.7399,39.6106,1138.0339],[29.7035,39.5786,1061.1582],[29.6879,39.5554,1096.7563],[29.6838,39.542,1122.4749],[29.6848,39.5251,1065.4548],[29.6895,39.515,1130.9563],[29.7259,39.4596,1159.6562],[29.7317,39.4411,1243.4977],[29.7416,39.4227,1276.0901],[29.7407,39.4147,1372.1361],[29.7337,39.4062,1320.5011],[29.7235,39.3998,1370.8505],[29.7093,39.3953,1425.7397],[29.749,39.3639,1440.0526],[29.76,39.358,1324.2053],[29.7755,39.3525,1257.9761],[29.7886,39.3441,1190.5056],[29.7994,39.3339,1164.6667],[29.8119,39.3152,1168.1727],[29.8309,39.2994,1206.1891],[29.8469,39.2893,1144.0953],[29.8681,39.2809,1193.0588],[29.9042,39.2559,1171.7913],[29.9281,39.246,1118.8845],[29.9641,39.2208,1010.35],[30.0119,39.2019,1054.2664],[30.0216,39.1954,1049.5194],[30.0947,39.1917,1131.1174],[30.1063,39.189,1303.5179],[30.1357,39.1779,1089.0433],[30.1542,39.1656,1078.1791],[30.1727,39.1496,1054.1396],[30.1961,39.1118,1115.0441],[30.2084,39.0993,1121.2092],[30.2246,39.0896,1050.0497],[30.2608,39.0795,1076.1371],[30.2704,39.0882,1102.9908],[30.2818,39.0957,1145.5303],[30.3148,39.1091,1265.0864],[30.3454,39.1199,1150.8815],[30.376,39.1234,1117.1229],[30.3846,39.1263,1119.0184],[30.4059,39.1463,1157.8165],[30.4276,39.1589,1361.9047],[30.4337,39.1643,1363.5519],[30.4463,39.1816,1322.3878],[30.4533,39.206,1228.7887]]]]}}