{"type": "Feature","bbox": [38.5768,37.3582,39.2913,37.7248],"geometry": {"type": "MultiPolygon","coordinates": [[[[38.6834,37.6032,608.2353],[38.6102,37.575,537.0],[38.5904,37.5601,537.0],[38.5768,37.5425,537.0],[38.6135,37.5309,566.5795],[38.6431,37.5134,626.5881],[38.6884,37.4962,590.9854],[38.6962,37.4915,588.2268],[38.7023,37.4855,591.3868],[38.732,37.4391,654.9471],[38.7431,37.4125,697.1584],[38.7772,37.4055,723.2693],[38.8459,37.4037,756.1497],[38.8749,37.3953,769.598],[38.9097,37.3915,719.7045],[38.9435,37.3792,699.2047],[38.9727,37.362,689.6199],[38.9872,37.3585,669.277],[39.0185,37.3582,712.9989],[39.0299,37.3598,713.6414],[39.0585,37.3684,668.4231],[39.1164,37.3706,680.7188],[39.1318,37.3757,687.2925],[39.1423,37.3826,705.2935],[39.1822,37.4152,683.1901],[39.186,37.4331,660.3867],[39.1883,37.4382,654.3173],[39.1941,37.4445,654.1767],[39.2229,37.4583,678.8077],[39.2363,37.4683,659.5248],[39.2505,37.4874,684.3762],[39.2743,37.5126,717.2095],[39.2889,37.5361,728.9206],[39.2913,37.5501,723.062],[39.2907,37.5701,718.2142],[39.2881,37.5784,688.1614],[39.2775,37.5902,714.2791],[39.2629,37.5992,736.0482],[39.2485,37.6024,715.1093],[39.1903,37.6024,655.8354],[39.1718,37.6049,630.7534],[39.1569,37.613,624.9926],[39.122,37.6402,600.4718],[39.1056,37.6477,577.8047],[39.0901,37.6494,571.1148],[39.0188,37.6501,552.134],[39.0095,37.6525,559.7949],[38.9957,37.6589,537.0],[38.962,37.6634,543.7927],[38.9402,37.6758,582.106],[38.922,37.6917,567.9765],[38.9166,37.6992,595.9611],[38.9048,37.7248,537.0],[38.8531,37.7048,551.0386],[38.8307,37.6931,537.0],[38.8288,37.6887,537.0],[38.8293,37.684,543.9817],[38.8382,37.6693,537.0],[38.8399,37.6586,551.0059],[38.8377,37.6506,537.0],[38.8294,37.6424,537.0],[38.8169,37.6382,550.6549],[38.785,37.6357,537.0],[38.7637,37.6289,537.0],[38.7364,37.6237,537.0],[38.6834,37.6032,608.2353]]]]}
,"properties": {"GID_2": "TUR.68.7_1","GID_0": "TUR","country": "Turkey","GID_1": "TUR.68_1","province": "Sanliurfa","NL_NAME_1": "NA","county": "Hilvan","VARNAME_2": "NA","NL_NAME_2": "NA","TYPE_2": "District","ENGTYPE_2": "District","CC_2": "NA","HASC_2": "TR.SU.HI","name": "Hilvan.county","area_km2": 1454.708,"hist_schema_id": "Elevation0-9000","hist_area_km2": {"525": 70.524,"550": 46.282,"575": 115.501,"600": 204.488,"625": 160.589,"650": 148.474,"675": 216.939,"700": 162.813,"725": 117.804,"750": 85.388,"775": 43.705,"800": 35.723,"825": 24.205,"850": 6.229,"875": 7.458,"900": 5.168,"925": 3.232,"950": 0.185}}}