{"type":"Feature","properties":{"GID_2":"TUR.20.8_1","GID_0":"TUR","country":"Turkey","GID_1":"TUR.20_1","province":"Burdur","NL_NAME_1":"NA","county":"Kemer","VARNAME_2":"NA","NL_NAME_2":"NA","TYPE_2":"District","ENGTYPE_2":"District","CC_2":"NA","HASC_2":"TR.BD.KE","name":"Kemer.county"},
"geometry":{"type": "MultiPolygon","coordinates": [[[[30.2497,37.2948,1027.5413],[30.2503,37.3886,1295.5856],[30.2348,37.3999,1287.7307],[30.2242,37.41,1278.4182],[30.1727,37.4918,1276.0631],[30.1641,37.4995,1236.6821],[30.1553,37.5032,1147.2266],[30.1317,37.5076,1090.1423],[30.1106,37.5147,1064.703],[30.0894,37.5147,1010.5146],[30.0684,37.5076,992.9342],[30.0381,37.5007,1013.1569],[30.0116,37.4851,1032.0785],[29.9932,37.4777,1060.6652],[29.9798,37.4697,1135.4502],[29.9832,37.4591,1056.7297],[29.9927,37.4427,1021.6222],[29.9987,37.4243,1146.4828],[30.0053,37.4132,1153.7791],[30.0069,37.4029,1178.1072],[30.0052,37.398,1179.2736],[29.9943,37.3834,1139.777],[29.9904,37.3798,1074.851],[29.978,37.3732,1050.5],[29.9677,37.3638,1050.9949],[29.9648,37.3558,1051.1682],[29.9641,37.3475,1053.0979],[29.9655,37.3363,1077.168],[29.9758,37.3173,1156.0536],[29.9783,37.3092,1203.5886],[29.9794,37.2834,1449.5],[29.9924,37.2805,1456.0452],[30.0004,37.2762,1641.1257],[30.0184,37.2555,1706.6638],[30.0257,37.2507,1863.0856],[30.0367,37.2455,1912.2083],[30.0477,37.2378,1790.6862],[30.068,37.2395,1614.2632],[30.1159,37.2574,1948.0974],[30.1431,37.2627,2125.55],[30.1643,37.2698,1590.7555],[30.1882,37.2742,1336.855],[30.233,37.2913,1174.9657],[30.2497,37.2948,1027.5413]]]]}}