{"type": "Feature","bbox": [32.8621,40.4878,33.3068,40.7274],"geometry": {"type": "MultiPolygon","coordinates": [[[[33.0964,40.4878,1688.3298],[33.1062,40.5042,1573.0012],[33.1087,40.512,1510.8552],[33.1076,40.5257,1543.2896],[33.0979,40.5416,1442.0098],[33.0953,40.5523,1421.8931],[33.0975,40.5631,1358.2212],[33.101,40.5675,1425.7976],[33.1115,40.5739,1366.9094],[33.1255,40.5762,1374.9469],[33.2018,40.5755,1450.0302],[33.2254,40.5772,1547.6973],[33.2892,40.6012,1500.9646],[33.3055,40.6105,1574.9875],[33.3068,40.6649,1754.2963],[33.2897,40.6811,1714.5591],[33.2685,40.6971,1450.8723],[33.2326,40.7123,1457.1672],[33.219,40.7151,1250.8309],[33.2006,40.7156,1427.7599],[33.1858,40.7146,1510.9292],[33.1693,40.7113,1420.8188],[33.1423,40.7236,1557.5598],[33.1197,40.7272,1591.1061],[33.0738,40.7262,1450.7395],[33.0144,40.7274,1259.7458],[32.9952,40.7257,1385.8627],[32.9552,40.7104,1443.5458],[32.9319,40.6963,1561.0591],[32.9101,40.6872,1702.1298],[32.8919,40.6728,1653.8434],[32.8884,40.6679,1663.8411],[32.8803,40.6491,1850.8472],[32.8621,40.632,1959.0747],[32.8727,40.6258,1834.2233],[32.8932,40.6202,1688.4308],[32.9068,40.6131,1823.6781],[32.9288,40.6084,1601.911],[32.9614,40.5957,1692.4642],[32.9708,40.5889,1629.8405],[32.9867,40.5728,1405.2219],[32.9984,40.5566,1538.9238],[33.0701,40.5021,1514.0481],[33.0964,40.4878,1688.3298]]]]}
,"properties": {"GID_2": "TUR.23.10_1","GID_0": "TUR","country": "Turkey","GID_1": "TUR.23_1","province": "Çankiri","NL_NAME_1": "NA","county": "Orta","VARNAME_2": "NA","NL_NAME_2": "NA","TYPE_2": "District","ENGTYPE_2": "District","CC_2": "NA","HASC_2": "TR.CI.OR","name": "Orta.county","area_km2": 557.8084,"hist_schema_id": "Elevation0-9000","hist_area_km2": {"1175": 0.3697,"1200": 0.868,"1225": 4.6475,"1250": 26.7865,"1275": 42.7708,"1300": 35.5133,"1325": 43.96,"1350": 51.2811,"1375": 46.6601,"1400": 42.6504,"1425": 38.1141,"1450": 34.7162,"1475": 27.0263,"1500": 23.9389,"1525": 21.7836,"1550": 17.6172,"1575": 15.9606,"1600": 14.6413,"1625": 13.209,"1650": 13.1119,"1675": 10.9722,"1700": 9.3304,"1725": 6.0326,"1750": 4.0863,"1775": 2.735,"1800": 2.7994,"1825": 2.2845,"1850": 1.6249,"1875": 0.8365,"1900": 0.5148,"1925": 0.3379,"1950": 0.4505,"1975": 0.1287,"2000": 0.0483}}}