{"type": "Feature","bbox": [34.1257,37.3493,35.3127,38.4389],"geometry": {"type": "MultiPolygon","coordinates": [[[[34.9228,37.7072,1626.6368],[34.9374,37.7016,1689.4877],[34.9509,37.6988,1621.0126],[35.0258,37.6989,1275.9683],[35.0399,37.701,1945.5576],[35.0731,37.7136,2881.3752],[35.0897,37.7244,3071.2659],[35.118,37.7468,2733.1526],[35.1266,37.7555,2595.8823],[35.1379,37.7722,2517.6353],[35.1521,37.7849,3183.8848],[35.1811,37.8065,3113.9849],[35.1981,37.8141,3112.9802],[35.2137,37.8321,3427.9075],[35.2166,37.8366,3235.5808],[35.2186,37.8442,3171.1853],[35.2178,37.8494,2989.9219],[35.2092,37.8654,2973.5891],[35.2068,37.877,3086.8845],[35.2063,37.9044,3208.5178],[35.2094,37.919,3171.1843],[35.224,37.9421,2708.249],[35.2303,37.948,2746.1704],[35.2417,37.9536,2569.0015],[35.2658,37.9592,2385.3657],[35.2945,38.002,2302.9326],[35.3076,38.0231,2160.0239],[35.3109,38.0314,2221.6914],[35.3125,38.0503,1962.5729],[35.3127,38.1533,1222.7678],[35.3112,38.169,1086.5618],[35.308,38.1773,1080.995],[35.2796,38.2215,1073.6515],[35.26,38.2399,1071.3917],[35.2488,38.2482,1071.3018],[35.2361,38.2548,1071.0706],[35.2206,38.2574,1071.0651],[35.1423,38.2573,1081.0712],[35.1223,38.259,1109.5819],[35.0881,38.2708,1334.692],[35.0613,38.2839,1488.6665],[35.0453,38.3051,1326.4342],[35.0388,38.3262,1237.9108],[35.0308,38.3401,1307.3378],[35.0241,38.3613,1490.0925],[35.015,38.3777,1449.7957],[35.0096,38.3964,1620.2537],[34.9937,38.4217,1635.2134],[34.984,38.4287,1604.1877],[34.9738,38.4317,1604.1552],[34.9225,38.4323,1540.808],[34.9218,38.4064,1432.1604],[34.9196,38.3982,1502.0901],[34.9037,38.3769,1510.6519],[34.8762,38.3647,1515.3809],[34.8522,38.3604,1521.1854],[34.8311,38.353,1502.0769],[34.8061,38.3507,1537.3265],[34.7852,38.3539,1422.1274],[34.7614,38.3633,1372.2242],[34.7495,38.3693,1355.7209],[34.7142,38.3941,1380.7224],[34.6843,38.4062,1391.5067],[34.6707,38.4087,1381.761],[34.6532,38.407,1341.8171],[34.6023,38.3877,1362.1821],[34.5665,38.3836,1399.5928],[34.5393,38.3757,1294.2219],[34.5278,38.3761,1306.8118],[34.5238,38.3778,1307.9347],[34.5221,38.3808,1302.3735],[34.4881,38.3882,1290.0717],[34.458,38.3997,1285.104],[34.4464,38.4063,1263.6572],[34.4168,38.4278,1206.9678],[34.3944,38.4389,1202.5884],[34.384,38.4172,1190.2339],[34.3791,38.3902,1182.3149],[34.3683,38.3677,1181.0166],[34.3666,38.3523,1212.6969],[34.366,38.3081,1448.3088],[34.3632,38.2909,1468.2955],[34.379,38.2689,1553.2184],[34.3945,38.2426,1647.8557],[34.3968,38.2247,1600.2988],[34.3951,38.1947,1536.7001],[34.3962,38.1769,1617.5867],[34.3931,38.1662,1863.9956],[34.3821,38.157,1951.2654],[34.3663,38.1533,1876.3184],[34.3298,38.135,1862.4558],[34.3222,38.1266,1999.2764],[34.3015,38.0938,1659.2137],[34.283,38.0749,1457.75],[34.2743,38.0613,1334.1428],[34.2684,38.056,1348.8418],[34.2603,38.0533,1461.9028],[34.2546,38.054,1512.642],[34.2116,38.0705,1758.2823],[34.1973,38.0715,1565.9972],[34.1868,38.0701,1467.1995],[34.1569,38.0586,1391.3168],[34.1469,38.052,1363.0291],[34.13,38.0268,1301.1542],[34.1257,38.0138,1273.0651],[34.1392,38.0112,1292.3376],[34.1479,38.0072,1284.4011],[34.1811,37.9833,1246.3125],[34.1997,37.9723,1195.0344],[34.2237,37.942,1252.0801],[34.2385,37.9368,1248.5559],[34.2669,37.915,1148.7571],[34.2843,37.8914,1153.0352],[34.3269,37.8564,1070.9221],[34.3421,37.8356,1059.6777],[34.3609,37.8169,1054.6121],[34.3701,37.8028,1052.917],[34.3909,37.782,1051.2594],[34.4001,37.7678,1050.0333],[34.421,37.7471,1051.176],[34.4534,37.6959,1126.5214],[34.4555,37.6776,1179.3582],[34.4532,37.6476,1200.4562],[34.4501,37.6396,1220.7546],[34.4375,37.6186,1398.244],[34.3996,37.5608,1614.8459],[34.3958,37.5497,1732.3684],[34.3922,37.5287,1660.5315],[34.3812,37.5063,1593.5018],[34.3795,37.4882,1566.8643],[34.38,37.4729,1525.0428],[34.3843,37.454,1739.5853],[34.4027,37.4536,1808.0256],[34.4147,37.4498,1987.2878],[34.4283,37.4409,2115.0837],[34.4693,37.4086,2351.8362],[34.4822,37.3956,2758.0718],[34.5099,37.3493,2857.5439],[34.5798,37.3497,1788.2357],[34.5998,37.3514,2305.1411],[34.6337,37.3635,2380.416],[34.6629,37.3811,2241.1174],[34.6961,37.394,2799.1187],[34.7187,37.3965,2285.6406],[34.7833,37.396,2016.5337],[34.7849,37.4507,1809.7126],[34.7883,37.4652,1735.1826],[34.7966,37.4752,1262.2988],[34.8133,37.488,998.7125],[34.8254,37.4955,940.1803],[34.8439,37.5029,1147.7905],[34.8516,37.5076,1230.9165],[34.8573,37.5139,1259.3372],[34.8608,37.525,1255.5957],[34.8609,37.5612,1771.9711],[34.8585,37.5788,1756.3687],[34.8493,37.5953,1962.1665],[34.8423,37.6164,1769.4988],[34.8183,37.653,2119.5757],[34.816,37.6639,1797.2937],[34.8184,37.6749,1786.5328],[34.822,37.6802,1871.8728],[34.8346,37.6916,1910.4526],[34.852,37.7038,1934.8839],[34.862,37.7084,1858.0073],[34.889,37.7112,1584.5432],[34.9124,37.7097,1584.2358],[34.9228,37.7072,1626.6368]]]]}
,"properties": {"GID_1": "TUR.62_1","GID_0": "TUR","country": "Turkey","province": "Nigde","VARNAME_1": "Niğde","NL_NAME_1": "NA","TYPE_1": "Il","ENGTYPE_1": "Province","CC_1": "NA","HASC_1": "TR.NG","ISO_1": "TR-51","name": "Nigde.province","area_km2": 7184.597,"hist_schema_id": "Elevation0-9000","hist_area_km2": {"875": 0.572,"900": 1.278,"925": 1.934,"950": 2.607,"975": 2.775,"1000": 3.397,"1025": 3.952,"1050": 101.172,"1075": 320.506,"1100": 149.727,"1125": 81.146,"1150": 79.19,"1175": 98.108,"1200": 144.468,"1225": 116.653,"1250": 107.397,"1275": 111.22,"1300": 290.964,"1325": 312.875,"1350": 396.181,"1375": 321.666,"1400": 264.406,"1425": 234.04,"1450": 230.43,"1475": 234.939,"1500": 213.478,"1525": 199.474,"1550": 192.096,"1575": 169.894,"1600": 151.955,"1625": 137.322,"1650": 132.619,"1675": 130.877,"1700": 124.201,"1725": 115.852,"1750": 116.462,"1775": 110.647,"1800": 106.546,"1825": 96.334,"1850": 90.492,"1875": 89.015,"1900": 90.672,"1925": 84.161,"1950": 83.656,"1975": 73.278,"2000": 64.624,"2025": 58.19,"2050": 51.252,"2075": 43.994,"2100": 39.876,"2125": 38.121,"2150": 34.377,"2175": 33.008,"2200": 29.716,"2225": 29.681,"2250": 28.897,"2275": 27.137,"2300": 27.075,"2325": 27.008,"2350": 25.852,"2375": 22.908,"2400": 22.863,"2425": 20.473,"2450": 20.6,"2475": 18.731,"2500": 18.399,"2525": 17.012,"2550": 15.574,"2575": 15.674,"2600": 15.125,"2625": 14.609,"2650": 14.862,"2675": 14.108,"2700": 14.249,"2725": 12.826,"2750": 14.736,"2775": 15.23,"2800": 14.406,"2825": 14.357,"2850": 14.139,"2875": 13.937,"2900": 13.388,"2925": 11.777,"2950": 11.459,"2975": 11.293,"3000": 10.892,"3025": 9.766,"3050": 10.455,"3075": 10.069,"3100": 8.829,"3125": 8.122,"3150": 7.768,"3175": 8.121,"3200": 5.89,"3225": 5.823,"3250": 4.582,"3275": 4.112,"3300": 3.473,"3325": 2.903,"3350": 2.265,"3375": 2.131,"3400": 1.911,"3425": 1.374,"3450": 1.056,"3475": 0.972,"3500": 0.553,"3525": 0.452,"3550": 0.251,"3575": 0.302,"3600": 0.151,"3625": 0.067,"3650": 0.067}}}