{"type": "Feature","id": "3020","bbox": [34.15981,37.35198,35.25886,38.40422],"geometry": {"type": "Polygon","coordinates": [[[34.81031,38.34841,1539.3197],[34.75946,38.35983,1363.5303],[34.71636,38.39282,1374.3872],[34.6897,38.40422,1380.7314],[34.63182,38.40233,1392.91],[34.54717,38.38231,1306.6321],[34.48981,38.38851,1289.9958],[34.15981,38.00225,1252.0151],[34.17314,37.9506,1180.9016],[34.20632,37.90993,1213.2958],[34.25417,37.89495,1136.759],[34.30047,37.87529,1135.269],[34.33871,37.83214,1058.6848],[34.37333,37.78353,1049.9773],[34.41281,37.75315,1050.7539],[34.44547,37.71713,1076.2048],[34.45684,37.66031,1205.9303],[34.43287,37.60856,1330.5919],[34.41054,37.58685,1337.4609],[34.39411,37.56107,1669.3896],[34.38873,37.51593,1648.7036],[34.38915,37.48647,1578.0682],[34.42718,37.44324,2129.374],[34.45199,37.42722,2171.1006],[34.48909,37.39493,2758.9375],[34.51224,37.35198,2756.6616],[34.58748,37.35328,2061.0635],[34.62086,37.36253,2382.7383],[34.65187,37.37826,2761.0029],[34.72153,37.40139,2038.3293],[34.7916,37.38772,1710.116],[34.78985,37.43513,2265.5869],[34.7946,37.4572,2152.5837],[34.81982,37.48856,1128.0916],[34.83563,37.49854,1147.2971],[34.84989,37.51058,1172.408],[34.86519,37.55303,1861.2135],[34.85806,37.57983,1756.3687],[34.83263,37.6299,1552.5017],[34.82778,37.68018,1961.2959],[34.85971,37.71661,1876.6235],[34.91056,37.71356,1601.6012],[34.96193,37.7007,1952.3224],[35.0597,37.71354,2504.8823],[35.19065,37.81811,3128.303],[35.20749,37.87916,3104.4651],[35.21246,37.93081,3034.2075],[35.25886,37.95396,2264.4407],[35.24842,37.9905,2729.2668],[35.22817,38.02476,2619.2625],[35.22279,38.06734,1760.6331],[35.23251,38.10995,1828.8945],[35.20563,38.17661,1150.8528],[35.04399,38.17814,1382.3093],[34.98487,38.22751,1351.0797],[34.91501,38.37939,1499.9133],[34.81031,38.34841,1539.3197]]]}
,"properties": {"ISO3166-1-Alpha-3": "TUR","country": "Turkey","fill": "#0F0","name": "Nigde","area_km2": 6651.612,"hist_schema_id": "Elevation0-9000","hist_area_km2": {"875": 0.622,"900": 1.278,"925": 1.951,"950": 2.674,"975": 2.842,"1000": 3.464,"1025": 4.019,"1050": 110.185,"1075": 243.767,"1100": 128.103,"1125": 67.506,"1150": 74.067,"1175": 98.343,"1200": 126.797,"1225": 107.54,"1250": 96.971,"1275": 95.758,"1300": 271.608,"1325": 290.491,"1350": 354.527,"1375": 281.896,"1400": 239.974,"1425": 213.943,"1450": 205.364,"1475": 203.25,"1500": 186.985,"1525": 189.188,"1550": 180.947,"1575": 157.701,"1600": 143.339,"1625": 136.337,"1650": 133.216,"1675": 131.659,"1700": 125.312,"1725": 116.134,"1750": 116.693,"1775": 110.295,"1800": 106.511,"1825": 96.35,"1850": 92.511,"1875": 89.369,"1900": 89.889,"1925": 82.613,"1950": 81.855,"1975": 72.43,"2000": 63.19,"2025": 57.106,"2050": 50.134,"2075": 43.192,"2100": 38.957,"2125": 37.168,"2150": 32.506,"2175": 30.25,"2200": 27.477,"2225": 26.689,"2250": 26.273,"2275": 24.279,"2300": 24.519,"2325": 23.332,"2350": 22.309,"2375": 19.098,"2400": 19.838,"2425": 18.0,"2450": 17.943,"2475": 16.124,"2500": 15.826,"2525": 14.705,"2550": 13.903,"2575": 14.405,"2600": 13.687,"2625": 13.388,"2650": 13.674,"2675": 13.07,"2700": 13.377,"2725": 11.92,"2750": 13.644,"2775": 14.206,"2800": 13.583,"2825": 13.618,"2850": 13.216,"2875": 13.112,"2900": 12.346,"2925": 11.106,"2950": 10.67,"2975": 10.84,"3000": 10.188,"3025": 9.28,"3050": 9.718,"3075": 9.382,"3100": 7.94,"3125": 7.134,"3150": 6.596,"3175": 7.149,"3200": 5.371,"3225": 5.555,"3250": 4.213,"3275": 3.861,"3300": 3.272,"3325": 2.685,"3350": 2.131,"3375": 2.047,"3400": 1.693,"3425": 0.989,"3450": 0.939,"3475": 0.771,"3500": 0.503,"3525": 0.452,"3550": 0.201,"3575": 0.251,"3600": 0.134,"3625": 0.067,"3650": 0.067}}}