{"type": "Feature","bbox": [30.5412,39.9917,30.8854,40.1719],"geometry": {"type": "MultiPolygon","coordinates": [[[[30.874,40.1403,524.0443],[30.8217,40.1565,563.0179],[30.7717,40.1603,1409.8341],[30.7468,40.1682,1173.0232],[30.7268,40.1719,1156.4028],[30.6703,40.1689,1059.4773],[30.6413,40.1605,1035.9526],[30.6065,40.1566,977.2223],[30.5849,40.1496,911.9786],[30.5714,40.1469,985.1411],[30.5633,40.1386,1048.6046],[30.5589,40.1314,972.1313],[30.5537,40.104,1135.1626],[30.5446,40.0876,969.2657],[30.5412,40.077,861.2238],[30.5642,40.0743,1015.7251],[30.5854,40.0581,515.5656],[30.6115,40.0498,317.5375],[30.6301,40.0318,202.6283],[30.6473,40.0209,330.6518],[30.7075,39.9978,961.3708],[30.7432,39.9917,1192.2512],[30.7523,40.0152,888.4188],[30.7598,40.0238,617.6667],[30.7676,40.0285,558.9042],[30.8162,40.047,724.1471],[30.8669,40.08,316.5138],[30.8706,40.0867,273.404],[30.8748,40.1107,335.3198],[30.8854,40.1298,421.2516],[30.874,40.1403,524.0443]]]]}
,"properties": {"GID_2": "TUR.32.11_1","GID_0": "TUR","country": "Turkey","GID_1": "TUR.32_1","province": "Eskisehir","NL_NAME_1": "NA","county": "Sarıcakaya","VARNAME_2": "NA","NL_NAME_2": "NA","TYPE_2": "District","ENGTYPE_2": "District","CC_2": "NA","HASC_2": "TR.ES.SA","name": "Sarıcakaya.county","area_km2": 377.2782,"hist_schema_id": "Elevation0-9000","hist_area_km2": {"200": 3.6359,"225": 18.5954,"250": 21.4317,"275": 15.3804,"300": 12.9466,"325": 9.4422,"350": 8.4365,"375": 8.144,"400": 7.6572,"425": 7.4465,"450": 7.4138,"475": 7.9657,"500": 7.8848,"525": 7.4629,"550": 8.2416,"575": 7.1709,"600": 7.6247,"625": 7.1865,"650": 6.6996,"675": 7.3646,"700": 7.397,"725": 6.9429,"750": 7.2505,"775": 7.8018,"800": 7.7692,"825": 7.185,"850": 7.0547,"875": 7.6548,"900": 6.1464,"925": 6.6649,"950": 6.6003,"975": 6.551,"1000": 6.3558,"1025": 5.9669,"1050": 5.7727,"1075": 5.0425,"1100": 5.545,"1125": 7.2319,"1150": 7.5068,"1175": 10.3433,"1200": 14.5423,"1225": 11.3969,"1250": 5.6571,"1275": 4.4086,"1300": 3.209,"1325": 2.9819,"1350": 2.4795,"1375": 1.3774,"1400": 1.1181,"1425": 1.1829,"1450": 1.2478,"1475": 0.7292,"1500": 0.0324}}}