{"type":"Feature","properties":{"GID_2":"TUR.33.4_1","GID_0":"TUR","country":"Turkey","GID_1":"TUR.33_1","province":"Gaziantep","NL_NAME_1":"NA","county":"Nizip","VARNAME_2":"NA","NL_NAME_2":"NA","TYPE_2":"District","ENGTYPE_2":"District","CC_2":"NA","HASC_2":"TR.GA.NI","name":"Nizip.county"},
"geometry":{"type": "MultiPolygon","coordinates": [[[[38.0122,36.8998,338.5865],[38.0126,36.928,334.0],[38.0108,36.9362,334.75],[38.0045,36.9456,335.5],[37.9877,36.962,359.911],[37.9801,36.9739,336.0],[37.9716,36.983,337.1266],[37.8965,37.0415,401.1852],[37.8809,37.0574,380.0],[37.8742,37.0785,380.0],[37.865,37.0949,380.0],[37.8626,37.1165,441.3952],[37.8504,37.1418,483.469],[37.8454,37.1687,386.7867],[37.8347,37.1911,385.8438],[37.8303,37.2439,628.4055],[37.7781,37.241,662.4122],[37.7229,37.2212,697.3895],[37.6619,37.2183,829.0223],[37.6333,37.2099,873.3544],[37.5873,37.2008,784.0607],[37.596,37.174,841.0706],[37.6198,37.1487,862.2374],[37.6486,37.1047,681.017],[37.6515,37.0969,718.8785],[37.6508,37.0832,825.899],[37.6414,37.067,788.8143],[37.6352,37.0486,780.1627],[37.6259,37.0322,716.7414],[37.6228,37.0195,678.8165],[37.6219,36.8972,627.8815],[37.6229,36.8806,606.4493],[37.6254,36.8713,595.8705],[37.6343,36.8548,577.4386],[37.639,36.839,563.3955],[37.642,36.8343,554.3375],[37.6484,36.8287,552.5375],[37.6682,36.82,546.3772],[37.6774,36.813,540.5159],[37.7065,36.7704,522.4004],[37.7409,36.7793,526.953],[37.7703,36.7965,499.4713],[37.8163,36.8138,464.9305],[37.8283,36.8204,452.7415],[37.8386,36.8288,450.1196],[37.8441,36.8363,451.3941],[37.8502,36.8688,459.2241],[37.8557,36.8752,461.7565],[37.8639,36.8798,458.1443],[37.8779,36.8822,444.62],[37.9,36.882,424.9196],[37.9144,36.8807,415.1022],[37.932,36.8759,411.1824],[37.9404,36.8753,399.4729],[37.9812,36.8839,396.4825],[38.0122,36.8998,338.5865]]]]}}