{"type": "Feature","bbox": [34.2927,38.876,34.754,39.363],"geometry": {"type": "MultiPolygon","coordinates": [[[[34.2927,39.1713,1363.3983],[34.2932,39.1294,1471.9016],[34.2947,39.1146,1568.7278],[34.3058,39.0926,1186.7144],[34.3118,39.0742,1159.0168],[34.3212,39.0577,1097.3037],[34.3238,39.0338,1046.5005],[34.3232,39.0186,1027.8232],[34.321,39.0069,990.0853],[34.3116,38.9904,950.099],[34.3042,38.9695,1016.2349],[34.2959,38.9558,1013.6642],[34.2938,38.9478,994.6565],[34.2941,38.9395,1006.9208],[34.2968,38.9317,973.3103],[34.3122,38.9084,899.5278],[34.3395,38.8855,932.2395],[34.3654,38.8867,1018.9296],[34.3853,38.8859,1026.5785],[34.3966,38.8838,1035.953],[34.4141,38.8776,1039.5692],[34.428,38.876,1036.8561],[34.4419,38.8775,1052.2311],[34.4595,38.8837,1062.0123],[34.473,38.8867,1081.7043],[34.4731,38.9068,1163.3776],[34.4754,38.9179,1190.0927],[34.4801,38.9255,1176.0275],[34.4994,38.9461,1125.9331],[34.5065,38.9671,1144.8005],[34.5208,38.9906,1182.3687],[34.5297,38.9998,1199.4307],[34.5407,39.0076,1234.8826],[34.5673,39.0195,1214.7075],[34.5739,39.0252,1223.4426],[34.5768,39.0301,1197.1542],[34.5787,39.0383,1174.1799],[34.5782,39.0496,1188.887],[34.5748,39.0601,1240.7515],[34.567,39.0722,1251.7479],[34.5676,39.0791,1168.0408],[34.5718,39.0828,1153.4019],[34.5778,39.0844,1140.0896],[34.6107,39.0846,1151.6021],[34.6219,39.0864,1145.901],[34.6303,39.0907,1135.1294],[34.6362,39.0971,1136.5845],[34.6385,39.1051,1142.5596],[34.6379,39.1133,1147.1903],[34.6273,39.1321,1158.6909],[34.6239,39.1437,1159.7806],[34.6229,39.1589,1178.4498],[34.6253,39.1736,1186.78],[34.6282,39.1786,1189.0908],[34.6346,39.1844,1171.901],[34.666,39.1982,1129.0573],[34.6929,39.2203,1002.6441],[34.6962,39.2269,1013.5636],[34.6965,39.2312,1004.9694],[34.6956,39.2353,1012.2909],[34.6864,39.2506,993.5405],[34.6848,39.2602,1000.1281],[34.6867,39.2699,1022.7007],[34.7053,39.2975,985.4294],[34.7405,39.3274,1026.757],[34.7535,39.347,991.1552],[34.754,39.354,967.4059],[34.751,39.3581,954.9351],[34.7434,39.3623,973.8964],[34.7352,39.363,976.1019],[34.7266,39.3609,1008.3677],[34.7157,39.3541,1008.5419],[34.6799,39.3254,1024.7778],[34.6713,39.3205,1027.6833],[34.6618,39.3178,1134.6454],[34.6486,39.3167,1110.8275],[34.6322,39.3178,1155.1619],[34.6223,39.3205,1165.2419],[34.6092,39.3272,1179.707],[34.5757,39.3283,1146.0175],[34.5653,39.3265,1144.4304],[34.5408,39.3186,1135.947],[34.4936,39.3158,1132.5442],[34.4599,39.304,1124.5984],[34.4269,39.2907,1119.0894],[34.4182,39.2856,1118.9851],[34.3324,39.2198,1126.9457],[34.315,39.2049,1155.0576],[34.2927,39.1713,1363.3983]]]]}
,"properties": {"GID_2": "TUR.51.7_1","GID_0": "TUR","country": "Turkey","GID_1": "TUR.51_1","province": "Kirsehir","NL_NAME_1": "NA","county": "Mucur","VARNAME_2": "NA","NL_NAME_2": "NA","TYPE_2": "District","ENGTYPE_2": "District","CC_2": "NA","HASC_2": "TR.KH.MU","name": "Mucur.county","area_km2": 1152.9489,"hist_schema_id": "Elevation0-9000","hist_area_km2": {"900": 0.297,"925": 2.9028,"950": 13.6021,"975": 31.0931,"1000": 37.4301,"1025": 52.4664,"1050": 61.5524,"1075": 58.4515,"1100": 69.7913,"1125": 482.5493,"1150": 116.7781,"1175": 67.6726,"1200": 51.6553,"1225": 25.1761,"1250": 16.6162,"1275": 13.1284,"1300": 10.7269,"1325": 10.5945,"1350": 8.5868,"1375": 6.6951,"1400": 5.264,"1425": 3.7012,"1450": 2.385,"1475": 1.7435,"1500": 1.0526,"1525": 0.5099,"1550": 0.3126,"1575": 0.0987,"1600": 0.0658,"1625": 0.0329,"1650": 0.0164}}}