{"type":"Feature","properties":{"GID_2":"TUR.7.1_1","GID_0":"TUR","country":"Turkey","GID_1":"TUR.7_1","province":"Ankara","NL_NAME_1":"NA","county":"Akyurt","VARNAME_2":"NA","NL_NAME_2":"NA","TYPE_2":"District","ENGTYPE_2":"District","CC_2":"NA","HASC_2":"TR.AN.AT","name":"Akyurt.county"},
"geometry":{"type": "MultiPolygon","coordinates": [[[[33.1355,39.9816,1138.5486],[33.1549,39.9916,1211.1046],[33.189,40.0037,1235.975],[33.209,40.0054,1322.3077],[33.2825,40.0056,1376.2737],[33.2641,40.0266,1498.6082],[33.2591,40.0417,1699.7203],[33.2585,40.0576,1662.2389],[33.2611,40.0798,1693.751],[33.2729,40.1017,1354.9364],[33.2739,40.1074,1291.8463],[33.2717,40.1156,1277.5083],[33.2695,40.1181,1219.7827],[33.2569,40.1221,1167.575],[33.1667,40.1226,1163.026],[33.1281,40.1328,1097.2104],[33.1105,40.1311,1090.5006],[33.098,40.1229,1071.4402],[33.0887,40.1089,1053.4249],[33.0687,40.0883,1060.655],[33.0515,40.0628,1145.1558],[33.037,40.0393,1170.0791],[33.0278,40.0124,1164.623],[33.0602,40.0173,1153.1622],[33.0786,40.0171,1160.5007],[33.0928,40.0147,1213.8271],[33.1129,40.0028,1242.5188],[33.1355,39.9816,1138.5486]]]]}}