{"type":"Feature","properties":{"GID_2":"TUR.76.5_1","GID_0":"TUR","country":"Turkey","GID_1":"TUR.76_1","province":"Tunceli","NL_NAME_1":"NA","county":"Nazımiye","VARNAME_2":"NA","NL_NAME_2":"NA","TYPE_2":"District","ENGTYPE_2":"District","CC_2":"NA","HASC_2":"TR.TC.NA","name":"Nazımiye.county"},
"geometry":{"type": "MultiPolygon","coordinates": [[[[40.0987,39.3143,1538.5106],[40.0709,39.3237,1715.2273],[40.0452,39.3256,1477.9924],[40.0269,39.3246,1691.1244],[40.0167,39.3222,1909.1904],[40.0069,39.3161,1753.9989],[39.9986,39.3074,1879.2462],[39.9911,39.3045,1955.4102],[39.9822,39.3054,1904.7008],[39.943,39.3194,2287.9661],[39.9374,39.3194,2107.6489],[39.9173,39.3143,2333.7932],[39.8998,39.3148,2167.0728],[39.8898,39.3183,2062.5212],[39.8786,39.326,2137.7517],[39.8697,39.3351,2338.4382],[39.8606,39.3493,1775.4185],[39.8516,39.3567,1667.0966],[39.8224,39.3688,1984.9832],[39.8123,39.371,1917.374],[39.798,39.371,1305.1735],[39.7879,39.3687,1378.4661],[39.7623,39.3576,2215.0146],[39.7522,39.3507,2223.9307],[39.7771,39.3184,1466.6423],[39.8007,39.3046,1264.2822],[39.8287,39.2843,2138.8994],[39.8403,39.2738,1790.0962],[39.8437,39.2666,1836.6661],[39.8329,39.2356,1476.4124],[39.8223,39.2165,1502.6056],[39.8198,39.1864,1682.9229],[39.8169,39.1793,1597.7263],[39.8122,39.1759,1589.272],[39.8062,39.1743,1518.377],[39.7763,39.1742,1418.7262],[39.7675,39.1727,1477.6454],[39.7631,39.169,1589.196],[39.7629,39.1616,1587.562],[39.7703,39.1545,1536.1099],[39.7952,39.1435,1391.9692],[39.8014,39.1376,1425.0055],[39.8134,39.1213,1425.8093],[39.8257,39.1108,1308.5861],[39.8428,39.1001,1490.7832],[39.8691,39.0878,1509.4255],[39.8836,39.0766,1147.6925],[39.893,39.0662,1066.6516],[39.9134,39.0833,1169.2904],[39.9296,39.0907,1183.7664],[39.9641,39.0926,983.9011],[40.0098,39.0899,1042.0814],[40.0173,39.1027,1067.8191],[40.0298,39.1154,1314.2057],[40.0336,39.1258,1273.2192],[40.0419,39.1395,1157.0139],[40.0434,39.1448,1268.1945],[40.0433,39.1557,1325.6425],[40.0416,39.161,1353.2377],[40.0333,39.1746,1636.9136],[40.0308,39.1826,1538.1034],[40.03,39.1938,1679.9841],[40.0318,39.205,1870.3088],[40.0567,39.2445,2022.203],[40.0647,39.268,1817.986],[40.0795,39.2914,1727.3832],[40.0987,39.3143,1538.5106]]]]}}