{"type":"Feature","properties":{"GID_2":"TUR.25.6_1","GID_0":"TUR","country":"Turkey","GID_1":"TUR.25_1","province":"Denizli","NL_NAME_1":"NA","county":"Beyağaç","VARNAME_2":"NA","NL_NAME_2":"NA","TYPE_2":"District","ENGTYPE_2":"District","CC_2":"NA","HASC_2":"TR.DN.BY","name":"Beyağaç.county"},
"geometry":{"type": "MultiPolygon","coordinates": [[[[29.033,37.156,1196.775],[28.988,37.191,1163.3119],[28.9776,37.2014,957.4449],[28.9447,37.2526,814.5542],[28.9437,37.2636,1006.5784],[28.9462,37.2717,1190.0385],[28.9682,37.2947,1378.0337],[28.9796,37.3157,1279.403],[28.9472,37.3192,1418.3726],[28.9365,37.3182,1502.3003],[28.9268,37.3153,1394.2645],[28.9194,37.3106,1373.7026],[28.9064,37.2979,1454.3121],[28.8584,37.2764,877.6056],[28.8355,37.2592,806.4493],[28.8252,37.2462,691.6744],[28.823,37.2377,621.7687],[28.8366,37.2351,676.9964],[28.8577,37.2278,680.4996],[28.8816,37.2235,710.0818],[28.9283,37.2068,767.0852],[28.9458,37.1891,902.7412],[28.9594,37.1818,1122.5414],[28.973,37.1794,1251.0789],[29.003,37.1561,1383.7144],[29.0165,37.1484,1572.4246],[29.033,37.1444,1257.0342],[29.033,37.156,1196.775]]]]}}