{"type":"Feature","properties":{"GID_2":"TUR.67.10_1","GID_0":"TUR","country":"Turkey","GID_1":"TUR.67_1","province":"Samsun","NL_NAME_1":"NA","county":"OndokuzMayıs","VARNAME_2":"NA","NL_NAME_2":"NA","TYPE_2":"District","ENGTYPE_2":"District","CC_2":"NA","HASC_2":"TR.SS.MA","name":"Ondokuz_Mayıs.county"},
"geometry":{"type": "MultiPolygon","coordinates": [[[[36.1931,41.4029,1.2431],[36.1932,41.4028,1.2431],[36.1932,41.4029,1.2431],[36.1931,41.4029,1.2431]]],
[[[35.9865,41.3965,318.0336],[36.0036,41.3758,463.4896],[36.026,41.3679,720.6705],[36.0361,41.3674,588.2793],[36.0454,41.3697,693.2321],[36.0866,41.3859,462.5867],[36.1138,41.3912,503.788],[36.1355,41.3985,245.9071],[36.1512,41.4,89.9106],[36.1837,41.3999,29.9668],[36.1929,41.4032,1.2431],[36.1632,41.4346,0.5933],[36.1512,41.4435,2.6409],[36.1307,41.4626,1.4833],[36.1296,41.4668,0.0],[36.1235,41.4743,0.7185],[36.1196,41.484,2.0982],[36.1185,41.5038,2.2634],[36.1207,41.5124,0.4983],[36.1276,41.5249,0.9701],[36.0279,41.551,8.2898],[35.9679,41.5518,66.7502],[35.9544,41.5482,44.9043],[35.9402,41.5323,92.1905],[35.9363,41.5246,111.6372],[35.9349,41.5097,65.8323],[35.936,41.504,86.88],[35.9402,41.4965,107.7214],[35.9605,41.4826,116.2597],[35.9761,41.4599,136.0809],[35.9797,41.4484,171.6452],[35.981,41.4103,285.1362],[35.9865,41.3965,318.0336]]]]}}