{"type": "Feature","bbox": [40.2427,39.1611,42.5705,40.9829],"geometry": {"type": "MultiPolygon","coordinates": [[[[41.9268,39.1938,2299.4341],[41.959,39.1967,2218.8911],[41.9871,39.2051,2085.4263],[42.0226,39.2088,1761.3923],[42.0438,39.2158,1739.1998],[42.071,39.2211,1696.3844],[42.0804,39.2256,1665.2646],[42.1247,39.2581,1524.5784],[42.152,39.2702,1621.707],[42.1856,39.2934,1622.2339],[42.1993,39.2995,1600.5229],[42.2185,39.3217,1659.0046],[42.2216,39.3295,1654.8745],[42.2221,39.3379,1711.0825],[42.2202,39.346,1722.011],[42.2121,39.3596,1554.4286],[42.206,39.3738,1689.535],[42.2004,39.3789,1845.4021],[42.1929,39.3815,2002.7996],[42.1978,39.3945,1752.9459],[42.2137,39.4099,1783.728],[42.2391,39.4261,1738.6964],[42.3264,39.4594,1823.4718],[42.3718,39.4656,1864.156],[42.3931,39.4726,1938.3676],[42.4286,39.4763,1983.2349],[42.4498,39.4835,1929.0934],[42.4715,39.4886,1907.0117],[42.476,39.4915,1891.0801],[42.4911,39.51,1847.3481],[42.5193,39.5544,1711.6453],[42.5226,39.5626,1850.8712],[42.5243,39.5779,1867.8855],[42.5236,39.5995,1950.1344],[42.5213,39.6104,1995.0996],[42.5124,39.6268,2100.7996],[42.5098,39.6358,2119.0564],[42.5079,39.7243,2160.6704],[42.5062,39.7297,2191.792],[42.4918,39.7529,2469.0625],[42.4806,39.7623,2670.3982],[42.4479,39.7749,2373.5127],[42.3903,39.7798,2825.5117],[42.3425,39.7979,2331.249],[42.3152,39.8029,2247.8596],[42.2852,39.8141,2166.54],[42.2733,39.8228,2248.0657],[42.27,39.8273,2215.625],[42.2573,39.8503,2370.6228],[42.2552,39.8612,2294.2715],[42.2569,39.8692,2390.7859],[42.2624,39.8756,2352.0259],[42.2705,39.8802,2181.5237],[42.2777,39.882,2106.3325],[42.3046,39.8828,2317.9348],[42.3319,39.8815,2132.7781],[42.3458,39.8784,2069.8396],[42.3604,39.8727,2108.6858],[42.3744,39.8705,2210.2068],[42.3926,39.8706,2415.8647],[42.4062,39.8734,2340.1697],[42.4332,39.884,2489.3794],[42.4625,39.9014,2198.5913],[42.5081,39.9191,2614.916],[42.5376,39.9363,2540.8921],[42.5664,39.9476,2432.2717],[42.5517,39.9741,1932.6862],[42.5292,39.997,2387.2798],[42.5033,40.0369,2129.7402],[42.4476,40.0812,2065.8901],[42.4365,40.0879,1841.514],[42.4122,40.0983,1624.4653],[42.3756,40.126,1660.7535],[42.3584,40.1357,1704.9521],[42.3161,40.1409,1874.7595],[42.2949,40.148,2085.4082],[42.2559,40.1523,1975.666],[42.2381,40.1586,1918.0565],[42.2178,40.1621,1731.6055],[42.2056,40.1666,2017.2915],[42.197,40.1742,1976.864],[42.1878,40.188,1981.8308],[42.1674,40.209,2011.5265],[42.1405,40.2507,2312.3276],[42.1373,40.2605,2455.9834],[42.1382,40.2658,2345.918],[42.1461,40.2793,2393.1189],[42.1498,40.2896,2324.8977],[42.1635,40.2922,2380.8169],[42.1846,40.2995,2373.5068],[42.2085,40.3039,2307.8726],[42.2297,40.311,2370.9023],[42.2618,40.314,2252.9231],[42.2718,40.3163,2134.333],[42.5092,40.4077,2714.4268],[42.5214,40.4162,2632.4648],[42.5385,40.4442,2290.5469],[42.5394,40.4554,2115.1204],[42.5383,40.4642,2343.4958],[42.5433,40.4834,2428.0093],[42.5542,40.5061,2085.3188],[42.5571,40.5584,2709.2737],[42.5598,40.5676,2546.3716],[42.5663,40.5786,2710.4209],[42.5703,40.5902,2795.1797],[42.5705,40.6054,2719.8169],[42.5679,40.6143,2650.335],[42.5481,40.6407,2192.9133],[42.5385,40.661,2158.0735],[42.5234,40.6843,1884.5898],[42.5008,40.7072,2022.9127],[42.4917,40.7214,1996.0898],[42.4576,40.7516,2176.2095],[42.4448,40.7701,2403.6494],[42.4148,40.7962,2205.9717],[42.3996,40.8164,2539.3677],[42.3847,40.8258,2299.292],[42.379,40.8345,2330.5293],[42.3647,40.861,2238.7651],[42.358,40.8821,2343.5859],[42.3348,40.9192,2149.7454],[42.3329,40.9245,2131.7144],[42.3308,40.9349,2104.7158],[42.3308,40.9829,2390.5051],[42.2852,40.9673,2519.9543],[42.2731,40.9653,2557.0811],[42.1212,40.9651,2644.2085],[42.0993,40.9638,2758.2173],[42.0746,40.9562,2573.7017],[42.0476,40.9507,2338.8586],[42.0127,40.9307,1977.641],[42.0025,40.9156,1722.6663],[41.992,40.8905,1595.47],[41.9732,40.8564,1586.72],[41.9684,40.8175,1474.4882],[41.9582,40.7983,1059.7427],[41.9522,40.7799,1104.9758],[41.9441,40.7659,1200.9717],[41.9406,40.7438,1826.6898],[41.9371,40.7333,1607.1238],[41.9301,40.7219,1635.4963],[41.9271,40.7138,1893.5607],[41.9233,40.6777,2164.47],[41.9144,40.6611,1832.4755],[41.909,40.6465,1683.9954],[41.9037,40.6405,1756.2349],[41.8851,40.6316,2132.5156],[41.852,40.6242,2093.5396],[41.8346,40.6185,1838.6743],[41.8211,40.6188,1685.6229],[41.8147,40.6212,1627.3142],[41.7889,40.6366,1691.9169],[41.7589,40.6486,1507.8027],[41.7142,40.6605,1776.953],[41.6962,40.6626,1017.7003],[41.659,40.6628,1058.0824],[41.638,40.6588,1371.665],[41.6117,40.6432,1454.5999],[41.5901,40.634,1957.1667],[41.5668,40.6198,1743.0486],[41.548,40.6123,1343.6017],[41.5186,40.5949,1892.5859],[41.4884,40.5837,1775.4771],[41.458,40.5776,2114.9556],[41.4287,40.5631,2363.0806],[41.3833,40.5783,2414.8677],[41.3626,40.5793,2350.9963],[41.3512,40.6034,2234.6301],[41.3415,40.62,2403.293],[41.3393,40.6319,1904.4547],[41.3396,40.6502,1500.9038],[41.3439,40.6643,1459.1097],[41.397,40.7447,1329.3309],[41.3979,40.7528,1648.9521],[41.3963,40.7579,1749.4768],[41.3856,40.7722,2290.0132],[41.378,40.7772,2337.2192],[41.3629,40.7797,2060.614],[41.2245,40.779,2856.582],[41.1991,40.7802,2493.6138],[41.1874,40.783,2734.9333],[41.1223,40.8085,3032.7925],[41.1041,40.7961,2890.4719],[41.0776,40.7844,3209.9941],[41.0413,40.7596,3296.7412],[41.023,40.7525,3362.7573],[40.9962,40.7364,3410.1985],[40.9477,40.7178,3025.0144],[40.9237,40.7031,3235.7288],[40.9027,40.6945,2967.9902],[40.8759,40.6783,3218.5566],[40.8548,40.6697,3144.4709],[40.8279,40.6537,3231.4172],[40.6204,40.5737,2837.0154],[40.59,40.5676,2865.5078],[40.5152,40.5389,2939.5518],[40.4985,40.5353,2725.0884],[40.502,40.5248,2711.3452],[40.5238,40.4901,2415.0605],[40.5269,40.482,2538.0613],[40.5302,40.449,2098.4421],[40.5398,40.4295,1752.7377],[40.5423,40.4206,1638.8436],[40.5442,40.3705,1616.6852],[40.5466,40.3617,1676.3633],[40.5561,40.3421,1882.5785],[40.558,40.3152,2327.8257],[40.5599,40.3066,2488.0776],[40.563,40.3016,2464.3843],[40.5696,40.296,2224.9551],[40.5783,40.2924,2054.7983],[40.5881,40.2908,2092.7444],[40.5885,40.2768,2131.7798],[40.5926,40.2664,2368.9971],[40.6042,40.2574,2551.9719],[40.6378,40.2457,2291.3577],[40.6689,40.2427,1895.9072],[40.7062,40.2332,2228.5696],[40.7298,40.2311,2424.1152],[40.7678,40.2329,2534.3723],[40.7818,40.2307,2593.187],[40.7924,40.2243,2442.4524],[40.796,40.2198,2272.6431],[40.7984,40.209,2138.8557],[40.7959,40.1981,1994.3474],[40.7795,40.1725,2275.7375],[40.7662,40.1558,2107.5298],[40.7591,40.151,2167.6301],[40.7397,40.1426,2694.9146],[40.7063,40.1357,2418.5024],[40.6461,40.1126,2357.2271],[40.6219,40.098,2220.4004],[40.5984,40.0878,2356.7837],[40.589,40.0803,2284.5796],[40.5791,40.0696,2270.7744],[40.5407,40.0542,2216.1069],[40.5113,40.0369,2438.0557],[40.4843,40.0264,2292.1025],[40.4696,40.0235,2506.4021],[40.4533,40.0228,2545.4521],[40.3751,40.0239,2848.3499],[40.3636,40.0258,2928.2151],[40.3421,40.0329,2626.9736],[40.3029,40.0361,2539.5981],[40.2864,40.0391,2269.7334],[40.2759,40.0248,2590.3928],[40.2603,39.9989,2268.082],[40.2541,39.9688,1945.5803],[40.2448,39.9526,1850.7029],[40.2427,39.9391,1630.1356],[40.2448,39.931,1552.7795],[40.2495,39.9241,1492.8969],[40.2653,39.9068,1828.2598],[40.4804,39.9069,2241.2808],[40.4985,39.9031,2045.7944],[40.5099,39.894,2075.7458],[40.54,39.8449,1961.616],[40.5409,39.8368,1967.0386],[40.5395,39.8286,1786.0393],[40.5302,39.8127,1638.0107],[40.5281,39.8047,1727.0297],[40.5301,39.7911,1857.3435],[40.5356,39.7837,1949.3579],[40.5513,39.7681,2036.5769],[40.5634,39.7513,1990.2119],[40.5817,39.737,2100.2715],[40.6151,39.7238,2019.1425],[40.6318,39.7203,2145.7725],[40.6355,39.7149,2262.4829],[40.6419,39.7111,2335.4888],[40.6718,39.7074,2458.8398],[40.6809,39.704,2446.7085],[40.6894,39.696,2427.7505],[40.6915,39.6907,2367.2998],[40.6915,39.6797,2366.2153],[40.6868,39.6697,2239.4727],[40.6742,39.6513,2057.2615],[40.6496,39.6262,1666.491],[40.6196,39.5797,1816.9061],[40.6171,39.5709,1952.295],[40.6162,39.5554,2220.8252],[40.6203,39.5282,2406.9043],[40.6232,39.5254,2613.4287],[40.6656,39.5122,2318.4023],[40.687,39.5122,2186.5796],[40.7113,39.5202,2431.0833],[40.7352,39.5248,2472.1726],[40.783,39.543,2443.083],[40.8069,39.5474,2300.3213],[40.8281,39.5546,2101.6514],[40.8417,39.5572,2152.7441],[40.8565,39.5653,2198.2917],[40.8652,39.565,2039.0074],[40.8694,39.5624,1943.4739],[40.8718,39.5571,1885.5925],[40.8936,39.5564,2017.6641],[40.9094,39.5509,1963.8345],[40.9237,39.5395,2091.2075],[40.9362,39.5209,2087.8481],[40.9493,39.5088,2197.0],[40.9599,39.5022,2143.146],[40.981,39.4937,2174.4316],[41.0049,39.4785,2295.1477],[41.0295,39.466,2411.3569],[41.0528,39.4637,2135.6255],[41.1109,39.464,2072.8965],[41.1219,39.4625,2141.4172],[41.131,39.4588,2082.3838],[41.1396,39.4511,1989.4922],[41.1616,39.4158,2335.2666],[41.1817,39.3953,2411.1084],[41.1936,39.3784,2447.5315],[41.2187,39.3553,2483.908],[41.2451,39.3669,2473.4609],[41.2555,39.3694,2543.0664],[41.298,39.372,2670.0015],[41.3345,39.3814,2655.364],[41.3863,39.3836,2849.1663],[41.4134,39.3731,2841.7261],[41.4435,39.3666,2778.6069],[41.4704,39.3508,2839.0544],[41.5159,39.3335,2670.2974],[41.5243,39.3291,2611.8933],[41.5408,39.3157,2531.5942],[41.5517,39.2992,2450.5645],[41.5605,39.2903,2377.7703],[41.6258,39.2386,1883.5762],[41.6339,39.2296,1857.6761],[41.6413,39.2176,1745.0872],[41.6496,39.2093,1763.7041],[41.6623,39.2004,1718.7747],[41.6832,39.1917,1697.5342],[41.7133,39.1749,2068.7908],[41.7521,39.1703,2354.6355],[41.7731,39.1631,2373.0229],[41.7836,39.1612,2386.4875],[41.828,39.1611,2177.4937],[41.8388,39.1622,2244.3191],[41.8759,39.1743,2535.0491],[41.9268,39.1938,2299.4341]]]]}
,"properties": {"GID_1": "TUR.31_1","GID_0": "TUR","country": "Turkey","province": "Erzurum","VARNAME_1": "NA","NL_NAME_1": "NA","TYPE_1": "Il","ENGTYPE_1": "Province","CC_1": "NA","HASC_1": "TR.EM","ISO_1": "TR-25","name": "Erzurum.province","area_km2": 24325.98,"hist_schema_id": "Elevation0-9000","hist_area_km2": {"775": 1.08,"800": 1.37,"825": 1.69,"850": 2.38,"875": 3.23,"900": 3.92,"925": 5.77,"950": 6.45,"975": 8.58,"1000": 16.69,"1025": 17.14,"1050": 17.11,"1075": 19.52,"1100": 24.59,"1125": 29.69,"1150": 35.75,"1175": 41.61,"1200": 47.51,"1225": 54.2,"1250": 61.21,"1275": 67.77,"1300": 71.65,"1325": 76.56,"1350": 77.58,"1375": 79.4,"1400": 83.58,"1425": 90.82,"1450": 97.39,"1475": 102.01,"1500": 113.69,"1525": 161.39,"1550": 213.62,"1575": 256.09,"1600": 311.26,"1625": 373.78,"1650": 452.56,"1675": 458.46,"1700": 454.97,"1725": 457.56,"1750": 629.72,"1775": 548.85,"1800": 529.84,"1825": 543.58,"1850": 551.74,"1875": 545.13,"1900": 532.26,"1925": 520.88,"1950": 526.94,"1975": 545.34,"2000": 567.17,"2025": 592.99,"2050": 590.63,"2075": 624.75,"2100": 622.93,"2125": 667.97,"2150": 620.12,"2175": 608.38,"2200": 610.7,"2225": 607.78,"2250": 604.38,"2275": 595.95,"2300": 561.07,"2325": 525.09,"2350": 503.35,"2375": 462.93,"2400": 444.02,"2425": 412.11,"2450": 389.33,"2475": 383.4,"2500": 360.94,"2525": 328.02,"2550": 298.85,"2575": 261.52,"2600": 235.46,"2625": 215.48,"2650": 197.66,"2675": 178.22,"2700": 166.83,"2725": 155.09,"2750": 145.38,"2775": 127.78,"2800": 112.23,"2825": 99.53,"2850": 88.74,"2875": 77.55,"2900": 67.81,"2925": 59.56,"2950": 52.91,"2975": 42.75,"3000": 37.07,"3025": 31.05,"3050": 25.79,"3075": 19.62,"3100": 15.31,"3125": 12.87,"3150": 9.41,"3175": 7.75,"3200": 6.27,"3225": 5.15,"3250": 4.13,"3275": 3.47,"3300": 2.39,"3325": 1.85,"3350": 1.03,"3375": 0.48,"3400": 0.45,"3425": 0.31}}}