{"type":"Feature","properties":{"featurecla":"River","scalerank":3,"rivernum":65,"dissolve":"65River","name":"Firat2","name_alt":null,"note":null,"min_zoom":3.0,"strokeweig":0.15,"name_en":"Firat","min_label":4.0},
"geometry":{"type": "LineString","coordinates": [[41.455468750000023,40.180194403119117,2033.9222],[41.445214843750023,40.172235418744116,2015.2352],[41.417578125,40.11871979374412,1929.1345],[41.366308593750006,40.074335028119116,1794.717],[41.354882812500023,40.06037018436912,1775.0444],[41.328222656250006,40.01630280155662,1755.9167]]}}