{"type":"Feature","properties":{"ISO3166-1-Alpha-3":"TUR","country":"Turkey","fill":"#F00","id":"2299","name":"Erzurum"},
"geometry":{"type": "Polygon","coordinates": [[[42.53697,40.59918,2343.6401],[42.50679,40.63985,1922.0521],[42.46669,40.67064,1817.6882],[42.43723,40.70343,1934.4172],[42.41625,40.74229,1868.6649],[42.38762,40.76976,2261.6851],[42.35155,40.78906,2483.2993],[42.29915,40.84805,2351.251],[42.27921,40.92492,2247.4146],[42.22081,40.92076,2280.3884],[42.16118,40.91089,2434.9363],[42.09235,40.91668,2182.2698],[42.02444,40.9119,2008.524],[41.98961,40.8983,1380.2686],[41.95892,40.87748,2048.8083],[41.946,40.83854,1512.4338],[41.95261,40.79562,976.2083],[41.92719,40.75508,1381.5266],[41.8874,40.72439,1883.9683],[41.86797,40.6847,1286.6788],[41.86642,40.63972,2034.9014],[41.82084,40.58763,2071.9409],[41.73474,40.62359,2025.0735],[41.65661,40.64124,1359.1459],[41.57879,40.62429,2427.9629],[41.49352,40.58181,1914.4895],[41.40133,40.55556,2638.1404],[41.33343,40.60104,2335.1243],[41.34696,40.68641,777.7375],[41.3727,40.72209,1157.2206],[41.36526,40.7547,1142.8383],[41.32929,40.76454,1769.9185],[41.20547,40.77919,2342.2322],[41.12744,40.81291,3075.042],[41.05086,40.77836,3304.4321],[40.94441,40.70896,3276.4309],[40.90162,40.69827,3011.9897],[40.85749,40.69798,3063.9817],[40.82193,40.68659,2615.7915],[40.79175,40.62915,2685.3481],[40.73212,40.61584,2657.8992],[40.6914,40.61225,2812.2314],[40.6514,40.60411,2964.4214],[40.48945,40.54213,2936.2583],[40.52149,40.48153,2702.8765],[40.5497,40.34573,1842.8711],[40.57471,40.28382,2259.0776],[40.63662,40.2579,2453.1111],[40.70246,40.24651,1942.8231],[40.73109,40.23705,2354.7075],[40.79733,40.23225,2599.7659],[40.79981,40.21171,2128.2168],[40.77625,40.1761,2210.9814],[40.74783,40.14918,2549.2666],[40.62308,40.11536,1947.1138],[40.56706,40.09453,2181.6001],[40.525,40.06321,2359.8828],[40.48097,40.0366,2189.6665],[40.44469,40.03216,2267.3679],[40.2814,40.04717,2169.2759],[40.25039,39.99392,2363.0869],[40.24223,39.93658,1606.7145],[40.29535,39.91583,1680.3022],[40.46692,39.91346,2557.6953],[40.53296,39.84532,1922.9703],[40.5312,39.8177,1683.8708],[40.53502,39.79021,1865.3199],[40.54929,39.76959,2018.3016],[40.56717,39.75189,1979.9467],[40.60561,39.73031,2112.6233],[40.64778,39.7168,2383.5105],[40.68003,39.68766,2341.4219],[40.65708,39.64613,1872.5414],[40.62225,39.59438,1695.2578],[40.61884,39.53245,2178.6216],[40.70793,39.52229,2545.5701],[40.79733,39.55208,2481.3113],[40.82669,39.5689,2146.6362],[40.85501,39.581,1873.6577],[40.88622,39.56655,1972.2137],[40.98306,39.49663,2087.3916],[41.05778,39.46883,2277.3965],[41.11835,39.46374,1957.4597],[41.16289,39.42299,2337.3938],[41.20506,39.36566,2463.9751],[41.36516,39.38656,2721.9585],[41.44556,39.37183,2758.9819],[41.48277,39.35302,2802.5654],[41.58096,39.27825,2380.9368],[41.63904,39.21404,1813.3519],[41.6626,39.1988,1718.7747],[41.74766,39.17146,2282.4429],[41.83448,39.1688,2369.8787],[41.87324,39.19223,2667.9099],[41.91468,39.21084,2268.8735],[42.03726,39.22706,1701.3481],[42.06754,39.24864,2023.2163],[42.08666,39.26595,1647.6843],[42.1557,39.29907,1619.6735],[42.18392,39.33641,1724.017],[42.17813,39.38155,1754.7515],[42.1987,39.42615,1771.3044],[42.33574,39.47935,1992.2319],[42.37357,39.4809,1981.6754],[42.41109,39.48586,2099.8918],[42.43134,39.49139,1990.6232],[42.46318,39.53154,1787.484],[42.47289,39.57862,1812.0576],[42.47103,39.71414,2461.1567],[42.48147,39.74062,2263.5508],[42.49491,39.74814,2363.76],[42.3529,39.79209,2405.0813],[42.27156,39.86935,2133.9214],[42.3067,39.88067,2332.1777],[42.38163,39.87064,2172.1038],[42.41791,39.88015,2325.3542],[42.44002,39.90359,2183.364],[42.46338,39.91167,2265.1914],[42.47651,39.91322,2295.6648],[42.50297,39.91278,2648.0696],[42.53604,39.92738,2717.8889],[42.56374,39.95185,2322.2432],[42.5347,39.9881,2106.5264],[42.50999,40.02828,2252.8105],[42.48457,40.05885,1915.323],[42.44571,40.07179,1974.78],[42.42525,40.07626,1990.8628],[42.4085,40.08678,1696.4517],[42.39517,40.10753,1508.3973],[42.37874,40.12497,1587.2542],[42.34907,40.14109,1760.972],[42.31652,40.14957,1995.4546],[42.23094,40.16049,1919.5211],[42.20645,40.18122,2111.7776],[42.18557,40.20842,1938.0117],[42.15043,40.24054,2236.5627],[42.18123,40.29444,2500.1226],[42.32685,40.33188,2107.1821],[42.39062,40.35955,2769.8591],[42.42287,40.37986,2527.0767],[42.45677,40.3972,2410.3765],[42.49883,40.41133,2616.5122],[42.53821,40.43071,2412.6963],[42.51413,40.53052,2700.0391],[42.53056,40.56432,3039.4792],[42.53697,40.59918,2343.6401]]]}}