{"type":"Feature","properties":{"GID_2":"TUR.65.11_1","GID_0":"TUR","country":"Turkey","GID_1":"TUR.65_1","province":"Rize","NL_NAME_1":"NA","county":"Merkez","VARNAME_2":"Rize","NL_NAME_2":"NA","TYPE_2":"District","ENGTYPE_2":"District","CC_2":"NA","HASC_2":"TR.RI.RI","name":"Merkez.county"},
"geometry":{"type": "MultiPolygon","coordinates": [[[[40.7095,40.8961,1886.2803],[40.6585,40.8969,1136.6379],[40.6507,40.8984,1263.1152],[40.6206,40.9096,1150.3198],[40.6128,40.9143,1165.7135],[40.6067,40.9204,1203.373],[40.591,40.9464,458.3375],[40.5887,40.9676,690.9163],[40.5907,40.9858,312.3908],[40.5931,40.9911,206.9623],[40.604,41.0055,147.8155],[40.6083,41.0087,198.7625],[40.6173,41.0101,375.2709],[40.6315,41.0057,376.2506],[40.6379,41.0075,532.8406],[40.6547,41.0164,316.296],[40.6624,41.0249,219.249],[40.6648,41.0331,250.9287],[40.6624,41.0468,296.8348],[40.6435,41.0671,0.0],[40.6318,41.0607,0.0],[40.6188,41.0571,0.0],[40.6118,41.0518,8.2177],[40.6032,41.0479,3.9134],[40.5743,41.046,0.0],[40.5685,41.0401,6.759],[40.5596,41.0365,0.749],[40.5582,41.034,3.2645],[40.546,41.0276,3.9547],[40.5254,41.0274,0.612],[40.5151,41.0296,3.3939],[40.5121,41.0332,3.6616],[40.5132,41.0387,0.9851],[40.5085,41.0376,0.9008],[40.5088,41.0401,0.0],[40.5196,41.0393,0.0],[40.5107,41.0412,0.0],[40.4979,41.0412,1.0083],[40.4876,41.0371,2.091],[40.4821,41.0379,0.0],[40.4782,41.0351,4.1411],[40.4762,41.0354,4.2426],[40.4695,41.0243,161.3702],[40.4705,41.0102,201.843],[40.4729,41.0021,141.2047],[40.4926,40.9795,360.9176],[40.5023,40.9554,555.9095],[40.5265,40.9302,327.8351],[40.5419,40.9071,625.8732],[40.5563,40.8836,802.6963],[40.5629,40.8609,908.4087],[40.589,40.8609,854.4175],[40.6031,40.8588,965.8668],[40.6776,40.8297,2319.0618],[40.7014,40.824,2280.644],[40.7214,40.8644,1766.8555],[40.7208,40.8722,1455.7814],[40.7132,40.8857,1934.2672],[40.7095,40.8961,1886.2803]]]]}}