{"type":"Feature","properties":{"GID_2":"TUR.26.7_1","GID_0":"TUR","country":"Turkey","GID_1":"TUR.26_1","province":"Diyarbakir","NL_NAME_1":"NA","county":"Ergani","VARNAME_2":"NA","NL_NAME_2":"NA","TYPE_2":"District","ENGTYPE_2":"District","CC_2":"NA","HASC_2":"TR.DY.ER","name":"Ergani.county"},
"geometry":{"type": "MultiPolygon","coordinates": [[[[39.5799,37.8919,1086.4144],[39.5988,37.8772,1153.5825],[39.6262,37.8646,1080.1165],[39.6558,37.8436,1067.8031],[39.6679,37.8375,1067.7134],[39.6856,37.8348,1075.8423],[39.7616,37.8334,1243.4309],[39.7745,37.8573,1138.7252],[39.7987,37.8942,981.219],[39.8042,37.9128,916.2872],[39.8136,37.9291,891.9019],[39.8215,37.9527,861.9838],[39.8727,38.0315,772.1172],[39.8805,38.055,765.0916],[39.8952,38.0784,767.1509],[39.9196,38.1035,803.623],[39.9351,38.1267,804.1375],[39.9481,38.1478,773.3486],[39.955,38.1688,906.9697],[39.9644,38.1851,928.8671],[39.9677,38.1957,927.6049],[39.9674,38.2511,978.5059],[39.9687,38.267,940.5021],[39.9735,38.2788,915.7012],[39.983,38.2888,898.366],[39.9795,38.2993,923.9608],[39.9704,38.316,1070.5497],[39.9679,38.3489,1031.8203],[39.9652,38.3574,876.562],[39.9616,38.3618,790.5],[39.9514,38.3682,790.5],[39.9246,38.3731,866.34],[39.891,38.3855,914.5848],[39.8744,38.397,1035.2366],[39.8566,38.4152,1062.9124],[39.8181,38.4329,905.2128],[39.805,38.4191,955.8754],[39.7689,38.3901,880.7907],[39.7546,38.3795,902.117],[39.7415,38.373,975.4713],[39.7141,38.3701,1027.7637],[39.5793,38.3703,1212.0507],[39.5639,38.3681,1322.7098],[39.5461,38.3617,1442.4738],[39.5177,38.3555,1563.0979],[39.5192,38.3312,1243.7501],[39.53,38.3084,1025.7018],[39.5349,38.2794,912.2062],[39.5496,38.2772,1067.9977],[39.5583,38.2742,1014.3866],[39.5708,38.2604,832.826],[39.5758,38.2508,805.9909],[39.5757,38.2371,888.4072],[39.5659,38.2189,954.2642],[39.565,38.2138,971.4413],[39.5661,38.2086,867.5126],[39.5691,38.2042,836.2638],[39.5817,38.1964,817.7425],[39.6208,38.1825,862.3002],[39.6306,38.1757,959.8558],[39.6362,38.1656,903.8282],[39.6377,38.1394,870.8143],[39.642,38.1294,821.7047],[39.6623,38.1186,813.088],[39.684,38.1106,814.4883],[39.7111,38.0954,787.6826],[39.7291,38.0887,783.7728],[39.7359,38.0841,775.8064],[39.7397,38.0776,774.8958],[39.737,38.0704,776.574],[39.728,38.0671,783.8213],[39.6615,38.0683,788.8336],[39.6418,38.0668,798.5284],[39.6283,38.0615,804.3712],[39.6153,38.0514,804.1499],[39.6105,38.0438,789.9767],[39.6096,38.0385,808.9646],[39.6118,38.031,808.181],[39.6196,38.018,801.9355],[39.6202,38.0081,794.7896],[39.6165,38.0017,785.5599],[39.5996,37.9956,778.3043],[39.5954,37.9923,760.2485],[39.5928,37.9876,793.3196],[39.5911,37.9765,918.8967],[39.5918,37.9554,1022.125],[39.594,37.9438,1077.0073],[39.5998,37.9304,1108.9742],[39.5998,37.926,1115.2012],[39.5895,37.9055,1133.0348],[39.5799,37.8919,1086.4144]]]]}}