{"type":"Feature","properties":{"GID_2":"TUR.43.5_1","GID_0":"TUR","country":"Turkey","GID_1":"TUR.43_1","province":"Karabük","NL_NAME_1":"NA","county":"Safranbolu","VARNAME_2":"NA","NL_NAME_2":"NA","TYPE_2":"District","ENGTYPE_2":"District","CC_2":"NA","HASC_2":"TR.KB.SA","name":"Safranbolu.county"},
"geometry":{"type": "MultiPolygon","coordinates": [[[[32.4285,41.2543,571.7532],[32.4165,41.2384,629.1478],[32.3959,41.218,404.4207],[32.3923,41.2101,321.9941],[32.3905,41.1998,180.5179],[32.4184,41.1851,1043.3663],[32.4249,41.1836,805.2219],[32.4352,41.184,583.97],[32.4648,41.195,879.6802],[32.4875,41.2097,629.8828],[32.5245,41.2391,802.0142],[32.5423,41.2491,672.3842],[32.5601,41.2518,1017.5746],[32.6079,41.2511,640.8026],[32.6177,41.2481,626.2036],[32.6268,41.2407,583.3495],[32.6302,41.2331,474.2803],[32.6331,41.2087,307.2412],[32.6375,41.2016,279.766],[32.6445,41.1962,406.7042],[32.6772,41.1837,559.1741],[32.7164,41.1798,1070.9752],[32.7501,41.1679,825.4628],[32.7675,41.1568,596.1006],[32.7839,41.1403,426.191],[32.8125,41.1556,645.4817],[32.8265,41.1577,672.1526],[32.8666,41.1596,607.9668],[32.8971,41.1702,841.1895],[32.9147,41.1807,723.9413],[32.9276,41.1952,442.3586],[32.9201,41.2056,407.3394],[32.9173,41.2146,508.1896],[32.9158,41.2592,891.2758],[32.9138,41.2755,968.8947],[32.8906,41.2761,950.9865],[32.8817,41.2792,962.9556],[32.8709,41.2858,890.9933],[32.8477,41.3058,842.3888],[32.8387,41.3201,1003.9301],[32.8307,41.3289,1021.5703],[32.7794,41.369,990.7654],[32.7727,41.3754,928.1132],[32.7681,41.3827,984.5227],[32.766,41.3932,1013.277],[32.7657,41.4066,773.3336],[32.7668,41.4173,588.3425],[32.7694,41.425,513.4849],[32.7797,41.4362,606.2368],[32.8209,41.4686,657.5913],[32.826,41.4751,511.3139],[32.8358,41.4934,507.047],[32.8354,41.498,554.5175],[32.8315,41.5041,681.0529],[32.8114,41.5255,1095.9772],[32.8033,41.5286,1096.842],[32.7936,41.5272,1057.3544],[32.7802,41.5183,1089.3323],[32.7696,41.5067,1042.615],[32.764,41.497,891.9042],[32.7556,41.4892,862.946],[32.7081,41.4705,584.0116],[32.6979,41.464,420.5912],[32.6795,41.4366,532.8766],[32.6743,41.4179,880.6027],[32.6651,41.4016,1332.9158],[32.6605,41.3857,1491.4347],[32.6567,41.3779,1534.8293],[32.6452,41.3664,1517.9026],[32.6179,41.3454,1330.526],[32.6033,41.3363,1517.2656],[32.5273,41.3075,1452.6243],[32.4919,41.2923,1211.5889],[32.4673,41.2782,1050.8105],[32.4487,41.2716,597.3107],[32.4311,41.2632,799.7675],[32.4273,41.2587,644.4011],[32.4285,41.2543,571.7532]]]]}}