{"type":"Feature","properties":{"GID_2":"TUR.29.1_1","GID_0":"TUR","country":"Turkey","GID_1":"TUR.29_1","province":"Elazığ","NL_NAME_1":"NA","county":"Ağın","VARNAME_2":"NA","NL_NAME_2":"NA","TYPE_2":"District","ENGTYPE_2":"District","CC_2":"NA","HASC_2":"TR.EG.AG","name":"Ağın.county"},
"geometry":{"type": "MultiPolygon","coordinates": [[[[38.8209,38.8738,835.5],[38.7841,38.885,835.5],[38.7741,38.8917,835.5],[38.7694,38.8988,931.2858],[38.7682,38.9069,911.2187],[38.7696,38.915,835.5],[38.7792,38.9311,835.5],[38.7825,38.9424,835.5],[38.7838,38.9665,835.5],[38.783,38.9875,835.5],[38.7797,38.9988,835.5],[38.7587,39.022,835.5],[38.7532,39.0348,835.5],[38.7326,39.0337,942.5718],[38.721,39.0308,983.9791],[38.7035,39.0209,835.5],[38.6819,39.0046,1013.4285],[38.6674,39.0091,974.4692],[38.6518,39.0117,1128.7478],[38.6279,39.0124,1265.3328],[38.6132,39.0108,1124.6748],[38.6025,39.0047,835.5],[38.5901,38.9877,1272.0812],[38.5873,38.9725,1227.2823],[38.5895,38.9573,1193.6803],[38.6144,38.9174,1060.4252],[38.6215,38.8965,1010.8947],[38.6294,38.8826,1045.502],[38.6323,38.8703,1124.9543],[38.6328,38.8486,1150.4126],[38.7348,38.8483,1017.7596],[38.7589,38.8495,835.5],[38.7703,38.8521,844.5642],[38.797,38.8621,835.5],[38.8209,38.8738,835.5]]]]}}