{"type":"Feature","properties":{"GID_2":"TUR.41.15_1","GID_0":"TUR","country":"Turkey","GID_1":"TUR.41_1","province":"Izmir","NL_NAME_1":"NA","county":"Karşıyaka","VARNAME_2":"NA","NL_NAME_2":"NA","TYPE_2":"District","ENGTYPE_2":"District","CC_2":"NA","HASC_2":"TR.IZ.KA","name":"Karşıyaka.county"},
"geometry":{"type": "MultiPolygon","coordinates": [[[[27.1613,38.545,688.1022],[27.1471,38.5461,692.1272],[27.1167,38.5557,551.3026],[27.0976,38.5507,478.4281],[27.0874,38.544,246.8307],[27.0739,38.5316,325.355],[27.0742,38.5095,179.9972],[27.077,38.4993,101.7425],[27.0771,38.4671,0.2926],[27.0821,38.4649,0.0904],[27.0938,38.4532,0.0],[27.1118,38.4487,0.0],[27.1126,38.4504,1.7175],[27.1185,38.4526,0.0],[27.1193,38.4546,5.6562],[27.1254,38.4568,0.4522],[27.1279,38.4607,8.8269],[27.1324,38.4593,0.0],[27.1318,38.4629,0.4996],[27.134,38.461,0.0],[27.136,38.4626,0.0],[27.1349,38.4649,1.1567],[27.149,38.4643,0.0],[27.159,38.4668,0.459],[27.1637,38.4618,0.6995],[27.171,38.4484,0.2186],[27.1816,38.444,3.7853],[27.1935,38.4436,8.0621],[27.1988,38.4464,9.5894],[27.2034,38.4531,15.4087],[27.2059,38.4605,26.8768],[27.2052,38.4679,34.64],[27.2002,38.4736,74.5128],[27.1851,38.4817,85.6446],[27.1863,38.4826,128.7187],[27.1612,38.4834,229.3046],[27.1545,38.4862,251.5271],[27.1527,38.4926,158.1183],[27.1531,38.5073,252.5865],[27.1555,38.5186,348.2426],[27.1612,38.5292,453.1082],[27.1636,38.5394,657.2373],[27.1613,38.545,688.1022]]]]}}