{"type":"Feature","properties":{"GID_2":"TUR.31.13_1","GID_0":"TUR","country":"Turkey","GID_1":"TUR.31_1","province":"Erzurum","NL_NAME_1":"NA","county":"Olur","VARNAME_2":"NA","NL_NAME_2":"NA","TYPE_2":"District","ENGTYPE_2":"District","CC_2":"NA","HASC_2":"TR.EM.OR","name":"Olur.county"},
"geometry":{"type": "MultiPolygon","coordinates": [[[[42.3308,40.9349,2104.7158],[42.3308,40.9829,2390.5051],[42.2852,40.9673,2519.9543],[42.2731,40.9653,2557.0811],[42.1101,40.9648,2729.1094],[42.0893,40.9616,2707.272],[42.0746,40.9562,2573.7017],[42.0476,40.9507,2338.8586],[42.038,40.9463,2082.7681],[42.0127,40.9307,1977.641],[42.0025,40.9156,1722.6663],[41.992,40.8905,1595.47],[41.9755,40.8616,1647.9673],[41.9715,40.8475,1246.7139],[41.9684,40.8175,1474.4882],[41.9582,40.7983,1059.7427],[41.9522,40.7799,1104.9758],[41.9441,40.7659,1200.9717],[41.9406,40.7438,1826.6898],[41.9692,40.741,1348.5798],[42.0018,40.7227,1296.7383],[42.0285,40.712,1639.5195],[42.0386,40.7098,1654.5613],[42.0561,40.7105,2008.4397],[42.077,40.7176,1831.2253],[42.0918,40.7199,1829.3269],[42.1808,40.7204,1040.7996],[42.1818,40.7345,1069.8774],[42.184,40.7427,1131.679],[42.2003,40.7685,1446.8602],[42.2257,40.7905,1520.3425],[42.254,40.8101,1918.2678],[42.2842,40.8218,1748.6414],[42.2946,40.8242,1820.6917],[42.3847,40.8258,2299.292],[42.3647,40.861,2238.7651],[42.358,40.8821,2343.5859],[42.3348,40.9192,2149.7454],[42.3308,40.9349,2104.7158]]]]}}