{"type": "Feature","bbox": [28.0317,39.5195,28.5212,39.8692],"geometry": {"type": "MultiPolygon","coordinates": [[[[28.2429,39.5234,648.3263],[28.2454,39.5423,488.8204],[28.2597,39.5658,328.7159],[28.2677,39.5743,661.6865],[28.2829,39.585,676.8823],[28.3097,39.5964,767.514],[28.3407,39.618,493.9855],[28.3587,39.6277,500.6946],[28.3736,39.6464,675.6862],[28.3822,39.6608,938.7298],[28.3909,39.6695,1125.8318],[28.4456,39.7111,1002.823],[28.4942,39.7323,895.0786],[28.5212,39.7663,918.4092],[28.4786,39.7807,689.8094],[28.4426,39.8059,714.6669],[28.4216,39.8145,549.4832],[28.3948,39.8305,662.8463],[28.3738,39.8392,790.8394],[28.3379,39.8643,1149.6316],[28.3258,39.8682,1088.8882],[28.3032,39.8692,704.123],[28.292,39.8562,771.6089],[28.2848,39.8356,715.2402],[28.2792,39.8294,669.4477],[28.2564,39.8186,411.3312],[28.2268,39.8016,303.0023],[28.1695,39.7796,202.6958],[28.1392,39.7735,188.8105],[28.1215,39.7669,347.8156],[28.0573,39.7518,507.5045],[28.0495,39.7478,358.3399],[28.0394,39.7358,332.4995],[28.0338,39.726,332.8247],[28.0317,39.711,272.7378],[28.0335,39.6898,231.5056],[28.0355,39.684,225.0475],[28.0602,39.6443,101.9213],[28.0621,39.6323,90.7546],[28.0625,39.6048,95.5103],[28.0646,39.5936,108.6566],[28.0693,39.586,117.6454],[28.0887,39.5654,149.0195],[28.0952,39.5429,238.2125],[28.114,39.5272,181.8242],[28.1313,39.5208,263.3629],[28.1516,39.5195,274.6224],[28.2101,39.52,295.0094],[28.2429,39.5234,648.3263]]]]}
,"properties": {"GID_2": "TUR.12.13_1","GID_0": "TUR","country": "Turkey","GID_1": "TUR.12_1","province": "Balikesir","NL_NAME_1": "NA","county": "Kepsut","VARNAME_2": "NA","NL_NAME_2": "NA","TYPE_2": "District","ENGTYPE_2": "District","CC_2": "NA","HASC_2": "TR.BK.KE","name": "Kepsut.county","area_km2": 886.4291,"hist_schema_id": "Elevation0-9000","hist_area_km2": {"50": 1.5316,"75": 28.3494,"100": 45.5933,"125": 48.0558,"150": 44.3164,"175": 37.3734,"200": 34.7284,"225": 33.0808,"250": 33.0646,"275": 33.7001,"300": 31.2509,"325": 29.6019,"350": 29.8789,"375": 27.5132,"400": 27.3834,"425": 24.0378,"450": 21.9802,"475": 20.8705,"500": 21.0168,"525": 21.3869,"550": 20.113,"575": 19.3109,"600": 20.27,"625": 21.4105,"650": 21.8646,"675": 21.6359,"700": 22.2204,"725": 21.2907,"750": 18.648,"775": 15.9587,"800": 12.2085,"825": 9.2263,"850": 8.1506,"875": 6.4057,"900": 5.8683,"925": 5.7875,"950": 5.5761,"975": 5.1523,"1000": 5.6907,"1025": 5.0547,"1050": 4.4513,"1075": 3.4561,"1100": 2.8532,"1125": 2.9186,"1150": 2.0865,"1175": 1.1407,"1200": 1.1892,"1225": 0.6518,"1250": 0.6843,"1275": 0.2931,"1300": 0.1465}}}