{"type":"Feature","properties":{"GID_2":"TUR.30.4_1","GID_0":"TUR","country":"Turkey","GID_1":"TUR.30_1","province":"Erzincan","NL_NAME_1":"NA","county":"Kemaliye","VARNAME_2":"NA","NL_NAME_2":"NA","TYPE_2":"District","ENGTYPE_2":"District","CC_2":"NA","HASC_2":"TR.EN.KL","name":"Kemaliye.county"},
"geometry":{"type": "MultiPolygon","coordinates": [[[[38.7532,39.0348,835.5],[38.7508,39.0544,835.5],[38.7417,39.0709,852.0184],[38.7355,39.0893,938.5886],[38.7278,39.1029,1141.0262],[38.7262,39.1131,963.032],[38.7291,39.1204,859.9465],[38.741,39.1388,838.0],[38.7627,39.1618,1026.293],[38.7715,39.1803,962.3266],[38.7762,39.1837,1065.8206],[38.7825,39.1855,1219.7131],[38.8271,39.1888,1847.124],[38.8936,39.2135,2292.8262],[38.9142,39.2243,2728.335],[38.9264,39.2501,1663.7393],[38.9138,39.254,2004.7739],[38.9022,39.2554,2034.8295],[38.8495,39.2559,2078.446],[38.8268,39.2598,2429.2637],[38.7929,39.28,2853.9434],[38.7549,39.2929,2650.0327],[38.7458,39.2978,2974.8408],[38.6779,39.3505,2502.4224],[38.6627,39.3587,2406.2727],[38.6522,39.3604,2524.479],[38.6416,39.36,2512.5447],[38.6141,39.3511,1697.8883],[38.5998,39.3493,1715.7231],[38.5663,39.349,2105.0859],[38.5482,39.3507,2174.4507],[38.5147,39.3631,2087.9087],[38.4856,39.3806,1879.8906],[38.4526,39.394,1468.5969],[38.4224,39.4053,1542.3818],[38.3964,39.4112,915.287],[38.3935,39.3787,1062.5865],[38.3926,39.1968,1738.4987],[38.39,39.1874,1748.927],[38.3755,39.1639,2096.5994],[38.3545,39.1398,1744.4666],[38.4061,39.1199,1437.2804],[38.4163,39.1175,1489.542],[38.5048,39.1166,1467.6621],[38.5234,39.1149,1415.021],[38.617,39.0795,1186.248],[38.6353,39.0686,944.4456],[38.6565,39.0507,967.9351],[38.6619,39.0432,1113.9829],[38.6819,39.0046,1013.4285],[38.7035,39.0209,835.5],[38.721,39.0308,983.9791],[38.7326,39.0337,942.5718],[38.7532,39.0348,835.5]]]]}}