{"type":"Feature","properties":{"GID_2":"TUR.11.17_1","GID_0":"TUR","country":"Turkey","GID_1":"TUR.11_1","province":"Aydin","NL_NAME_1":"NA","county":"Yenipazar","VARNAME_2":"NA","NL_NAME_2":"NA","TYPE_2":"District","ENGTYPE_2":"District","CC_2":"NA","HASC_2":"TR.AY.YP","name":"Yenipazar.county"},
"geometry":{"type": "MultiPolygon","coordinates": [[[[28.2818,37.8458,53.2963],[28.252,37.8432,50.7225],[28.2288,37.8453,48.9007],[28.2175,37.8506,48.5026],[28.2015,37.8643,47.7089],[28.1843,37.8674,53.2845],[28.1689,37.8673,53.7599],[28.1537,37.8653,46.2888],[28.1442,37.8617,43.9875],[28.1335,37.8552,43.3553],[28.126,37.8378,41.8351],[28.1319,37.8251,41.6751],[28.1329,37.8099,50.0219],[28.1301,37.7981,126.6532],[28.1222,37.7843,278.5821],[28.1196,37.7756,335.83],[28.1175,37.7341,342.1612],[28.125,37.7296,416.6413],[28.1644,37.7181,618.8485],[28.1763,37.7162,638.7078],[28.1999,37.7156,784.7398],[28.2343,37.7303,1087.312],[28.264,37.7603,839.5793],[28.2817,37.789,426.8479],[28.2839,37.8039,355.1565],[28.2818,37.8458,53.2963]]]]}}