{"type":"Feature","properties":{"ISO3166-1-Alpha-3":"TUR","country":"Turkey","fill":"#00F","id":"2239","name":"Çanakkale"},
"geometry":{"type": "MultiPolygon","coordinates": [[[[26.04005,39.84504,0.0],[26.00424,39.8452,0.0],[25.98601,39.84223,0.0],[25.97804,39.83417,22.5259],[25.98365,39.82209,42.6772],[25.99708,39.81415,0.0],[26.02654,39.80341,0.0],[26.05909,39.78608,0.0],[26.07496,39.7849,0.0],[26.08172,39.79999,0.9801],[26.08302,39.83495,0.0],[26.07716,39.84467,0.0],[26.06056,39.83759,100.6763],[26.05551,39.84272,96.2652],[26.05112,39.84406,79.4067],[26.04623,39.84406,23.1505],[26.04005,39.84504,0.0]]],
[[[25.96306,40.15713,9.5346],[25.97185,40.17276,1.6424],[25.96754,40.18061,3.7339],[25.9673,40.19326,73.5353],[25.96925,40.206,46.9574],[25.97185,40.21434,84.5816],[25.97185,40.22114,0.0],[25.95786,40.22309,11.9475],[25.95004,40.22964,0.0],[25.94467,40.23701,72.3356],[25.93824,40.24164,0.0],[25.92595,40.24282,0.0],[25.91334,40.24128,0.0],[25.82691,40.21662,0.0],[25.75904,40.20673,0.0],[25.719,40.1872,0.0],[25.68621,40.16083,0.0],[25.66326,40.13239,0.0],[25.66326,40.12617,0.0],[25.70436,40.1153,0.0],[25.70932,40.10993,0.0],[25.7212,40.1048,0.0],[25.74529,40.09829,107.3521],[25.76596,40.09715,0.0],[25.85629,40.10786,15.8675],[25.9004,40.12275,36.5121],[25.96778,40.13076,0.6357],[25.99024,40.13691,19.7785],[26.01222,40.14606,0.3746],[26.01222,40.16657,0.0],[26.00587,40.16657,0.0],[25.99098,40.15746,0.0],[25.97291,40.15323,0.0],[25.96306,40.15713,9.5346]]],
[[[27.3034,40.45844,0.0],[27.28696,40.46821,22.1186],[27.27149,40.46784,17.6716],[27.23756,40.45185,93.418],[27.21534,40.4477,0.0],[27.17701,40.4488,0.0],[27.14308,40.45392,0.0],[27.09636,40.4523,0.0],[27.06577,40.43354,0.0],[27.04127,40.40961,0.0],[27.01336,40.39248,0.0],[26.99147,40.38862,0.0],[26.93442,40.39248,0.0],[26.90821,40.40371,26.7213],[26.89723,40.40615,0.0],[26.86305,40.39989,0.0],[26.7767,40.4055,0.0],[26.73561,40.40355,0.0],[26.71461,40.39061,0.0],[26.6076,40.29043,0.0],[26.59498,40.28262,0.1485],[26.58139,40.277,1.0849],[26.57252,40.27456,0.3495],[26.56365,40.27017,0.0666],[26.51938,40.22517,0.0],[26.50074,40.21296,0.0],[26.46754,40.206,0.0],[26.44142,40.1966,0.0],[26.42758,40.19448,5.07],[26.41489,40.19489,14.6328],[26.40797,40.19367,0.0],[26.40284,40.18745,0.0],[26.39633,40.17276,0.0],[26.40301,40.1579,0.0],[26.40349,40.13898,2.5718],[26.39959,40.12084,0.0],[26.39324,40.10822,0.0],[26.38901,40.10517,0.0],[26.3838,40.10415,0.0],[26.37281,40.10448,0.0835],[26.3694,40.10293,0.5488],[26.36948,40.09919,1.7568],[26.37037,40.09471,3.8555],[26.36964,40.09081,5.5217],[26.36622,40.08462,1.0062],[26.365,40.07176,17.7077],[26.36215,40.06346,39.6294],[26.3532,40.05215,5.9146],[26.31105,40.01948,0.0],[26.3003,40.01439,0.0],[26.26694,40.00308,0.0],[26.25115,39.99486,46.2788],[26.19776,40.00886,0.0],[26.18865,40.00178,0.4336],[26.16765,39.97358,0.0],[26.16358,39.96454,0.0],[26.16163,39.9562,0.0],[26.1526,39.94261,0.0],[26.14991,39.93378,0.0],[26.15065,39.92471,0.0],[26.15602,39.9051,0.3314],[26.15675,39.89899,0.0],[26.14186,39.84903,0.0],[26.1364,39.83759,0.0],[26.1517,39.83515,4.9982],[26.15496,39.82616,0.0],[26.14991,39.79999,0.0],[26.14991,39.77611,0.0],[26.14674,39.77021,0.0],[26.1421,39.76789,0.0],[26.13787,39.76455,0.0],[26.1364,39.75568,0.0],[26.14064,39.74274,0.0],[26.15935,39.71491,1.7365],[26.16358,39.70417,10.7193],[26.15675,39.64924,0.0],[26.1482,39.62604,0.0],[26.11069,39.59789,0.0],[26.09498,39.54857,33.2068],[26.07,39.49628,0.0],[26.07423,39.47451,106.9737],[26.11297,39.45917,9.0969],[26.15284,39.45921,23.3908],[26.23178,39.47451,1.8185],[26.24252,39.4676,5.9414],[26.24928,39.46564,0.0],[26.25229,39.47077,0.0],[26.25392,39.47285,0.0],[26.26295,39.48135,0.0],[26.27361,39.48241,9.4451],[26.28663,39.48762,15.4294],[26.29737,39.48871,90.4037],[26.35011,39.48135,0.0],[26.36215,39.48135,0.0],[26.36997,39.48579,0.0],[26.41391,39.50532,27.6443],[26.42416,39.50519,0.0],[26.43426,39.51398,27.7464],[26.4568,39.52119,7.0108],[26.66724,39.55085,0.0],[26.66445,39.63143,639.1851],[26.6967,39.71019,432.2852],[26.7368,39.71659,642.1993],[26.82744,39.70781,1625.5275],[26.87002,39.71882,1379.2805],[26.90733,39.74334,1334.4766],[26.97968,39.76605,1313.2638],[27.02205,39.79292,752.2767],[27.06846,39.79274,499.5307],[27.09946,39.78972,510.4714],[27.12716,39.80134,297.8338],[27.20075,39.79178,257.2504],[27.27423,39.77266,236.2329],[27.31712,39.78605,299.2665],[27.35691,39.80765,231.4965],[27.39939,39.82157,257.0464],[27.43877,39.84447,416.1953],[27.46027,39.88206,399.5209],[27.47815,39.92307,457.9839],[27.4828,39.96348,570.7062],[27.46616,39.97436,408.7283],[27.44869,39.99593,282.7454],[27.45892,40.01267,481.5114],[27.46606,40.01993,457.1482],[27.47722,40.04316,761.5571],[27.48166,40.06965,725.5005],[27.49499,40.10195,412.3116],[27.50089,40.1213,321.7932],[27.49654,40.12781,300.5023],[27.47887,40.12993,346.6736],[27.4396,40.14274,560.0651],[27.42079,40.173,399.8038],[27.43195,40.18029,536.6387],[27.44724,40.18473,470.3431],[27.5169,40.24049,239.2313],[27.56486,40.26276,195.8492],[27.57664,40.30653,0.4289],[27.5722,40.31563,0.0],[27.57218,40.31567,0.0],[27.56202,40.31049,0.0],[27.55128,40.30882,0.0],[27.52329,40.30878,0.0],[27.45232,40.32201,0.0],[27.39291,40.34211,0.0],[27.33758,40.37031,0.0],[27.29444,40.40615,25.8099],[27.30177,40.409,32.2868],[27.30323,40.41096,42.6123],[27.30356,40.41047,42.6123],[27.30812,40.40615,13.8779],[27.31495,40.40615,0.0],[27.32862,40.41356,7.2014],[27.31373,40.44408,85.1752],[27.3034,40.45844,0.0]]],
[[[26.93244,40.71488,158.5499],[26.78641,40.72583,316.6844],[26.78754,40.72304,293.5284],[26.78114,40.66439,14.0963],[26.78052,40.65937,5.9621],[26.78053,40.65937,5.9621],[26.79038,40.66059,6.3244],[26.79835,40.65156,0.0],[26.82895,40.602,0.0],[26.81666,40.58096,0.0],[26.78826,40.56293,0.0],[26.7562,40.55484,0.0],[26.73276,40.56379,0.0],[26.71827,40.5515,0.0],[26.69728,40.52643,0.0],[26.68377,40.51533,0.0],[26.66977,40.51081,0.0],[26.62289,40.51533,0.0],[26.59555,40.5104,0.0],[26.56446,40.49946,0.0],[26.5359,40.4855,0.0],[26.49171,40.45653,0.0],[26.43279,40.43985,0.0],[26.38575,40.40986,0.0],[26.33611,40.38532,0.0],[26.32114,40.36518,39.5151],[26.30144,40.36469,0.0],[26.25017,40.34951,0.0],[26.23878,40.34154,0.0],[26.23219,40.34003,0.0],[26.21909,40.33145,0.0],[26.20997,40.32193,0.0],[26.21469,40.31737,0.0],[26.22739,40.31533,0.0],[26.23178,40.31013,0.0],[26.22853,40.30345,0.0],[26.21811,40.29686,0.0],[26.24789,40.27912,1.1489],[26.26694,40.25776,0.0],[26.27198,40.23041,0.0],[26.25978,40.19448,0.0],[26.21469,40.14606,0.0],[26.20924,40.13642,0.0],[26.20143,40.1153,0.0],[26.1902,40.09422,0.0],[26.17384,40.08462,0.0],[26.16798,40.07917,0.0],[26.16,40.06721,0.0],[26.15748,40.05532,0.0],[26.167,40.04987,0.0],[26.17758,40.05073,16.1833],[26.23064,40.06489,58.0101],[26.24293,40.07079,82.5374],[26.27312,40.0926,144.6573],[26.313,40.11005,48.0418],[26.32797,40.11872,197.5597],[26.37582,40.15351,39.1672],[26.36134,40.16258,116.6409],[26.34881,40.18134,11.1447],[26.34555,40.19977,49.398],[26.35914,40.20816,25.3022],[26.37989,40.21133,24.6986],[26.40366,40.21943,57.2225],[26.42652,40.23029,7.0426],[26.44467,40.24164,88.516],[26.47088,40.26586,134.0391],[26.47584,40.2696,90.4023],[26.47608,40.27338,54.8428],[26.49724,40.28994,144.5917],[26.51043,40.29816,75.0268],[26.53972,40.3037,63.8655],[26.54672,40.30756,65.4184],[26.60157,40.34614,70.3984],[26.61671,40.35952,9.4707],[26.62289,40.37572,26.4948],[26.62485,40.39248,41.5263],[26.63152,40.40005,30.3148],[26.66383,40.41356,18.8506],[26.67433,40.42569,28.986],[26.68336,40.45547,29.1538],[26.69459,40.46137,65.4623],[26.70834,40.46573,64.769],[26.74073,40.48745,106.0639],[26.75945,40.49616,45.8027],[26.82106,40.50312,5.2097],[26.83863,40.51227,37.3777],[26.85369,40.52314,49.8069],[26.91163,40.55073,12.4241],[26.94988,40.55956,16.3218],[26.96354,40.56102,30.7328],[26.93193,40.63581,29.1997],[26.93244,40.71488,158.5499]]]]}}