{"type":"Feature","properties":{"GID_1":"TUR.22_1","GID_0":"TUR","country":"Turkey","province":"Çanakkale","VARNAME_1":"NA","NL_NAME_1":"NA","TYPE_1":"Il","ENGTYPE_1":"Province","CC_1":"NA","HASC_1":"TR.CK","ISO_1":"NA","name":"Çanakkale.province"},
"geometry":{"type": "MultiPolygon","coordinates": [[[[26.6666,39.6507,820.4421],[26.6692,39.6598,855.7893],[26.6889,39.6979,714.2617],[26.698,39.705,501.6758],[26.724,39.7158,639.6777],[26.7496,39.7193,833.4994],[26.7887,39.7191,853.6138],[26.8077,39.7175,914.5476],[26.8317,39.7099,1580.8734],[26.8453,39.7101,1634.7375],[26.8576,39.7158,1530.1682],[26.8899,39.741,1346.8591],[26.9044,39.7502,1091.8441],[26.9534,39.7687,1297.9122],[26.9803,39.7822,1069.4636],[27.0317,39.7984,700.1635],[27.0664,39.8023,458.5986],[27.0849,39.8084,357.8935],[27.0996,39.8113,370.6236],[27.1501,39.8114,268.4765],[27.1637,39.8085,263.8391],[27.2107,39.7901,245.2053],[27.2384,39.7848,269.2753],[27.2643,39.7708,273.8029],[27.2986,39.7801,215.7267],[27.4126,39.824,355.118],[27.4234,39.8299,428.4019],[27.4277,39.8338,310.4721],[27.4371,39.8476,393.3846],[27.4558,39.8663,295.063],[27.4653,39.8802,281.6184],[27.4726,39.8876,348.8149],[27.4797,39.9126,498.4761],[27.4896,39.9289,579.0018],[27.4926,39.9398,533.0776],[27.4924,39.9538,544.2881],[27.4877,39.964,541.8838],[27.4784,39.9711,448.3929],[27.4565,39.9809,103.1414],[27.4503,39.9897,224.3751],[27.4516,39.9998,362.1689],[27.4596,40.0132,468.5087],[27.465699999999998,40.0317,596.7026],[27.4743,40.0455,651.8084],[27.4799,40.064,727.4354],[27.4894,40.0804,542.3033],[27.4966,40.1014,444.5904],[27.505,40.115,259.9612],[27.5071,40.1259,357.4118],[27.5038,40.1391,409.6154],[27.4683,40.1947,382.2422],[27.4792,40.2078,359.3735],[27.5073,40.2302,299.2974],[27.5213,40.2388,254.5169],[27.5455,40.2486,210.7399],[27.5753,40.2712,71.5501],[27.5805,40.278,42.8068],[27.583,40.2861,14.0765],[27.5833,40.2973,1.8961],[27.5807,40.3119,0.8058],[27.5765,40.3118,0.288],[27.5765,40.3093,0.6258],[27.5743,40.3112,0.0624],[27.569,40.3076,1.2912],[27.5576,40.304,0.0],[27.5393,40.301,0.367],[27.4932,40.3071,0.0],[27.4301,40.3246,0.5681],[27.3665,40.3507,0.8866],[27.3599,40.3549,0.1048],[27.3563,40.3537,0.2849],[27.3565,40.356,0.2826],[27.3388,40.3638,0.1115],[27.3193,40.3765,0.475],[27.3088,40.3718,0.6977],[27.3115,40.3749,0.499],[27.314,40.3754,0.3296],[27.3157,40.3787,0.166],[27.3143,40.3785,0.5792],[27.3113,40.3854,0.2395],[27.309,40.384,0.3675],[27.3093,40.3876,0.2983],[27.3046,40.3963,1.1465],[27.3049,40.401,7.9307],[27.3118,40.4051,0.0],[27.3121,40.4082,2.2223],[27.3143,40.4096,3.4654],[27.324,40.4087,0.0],[27.3337,40.4113,1.5351],[27.3263,40.414,0.0],[27.326,40.419,0.0],[27.3207,40.4235,22.2175],[27.3213,40.426,7.4989],[27.319,40.4282,18.1335],[27.3199,40.4338,0.0],[27.3179,40.4371,0.0],[27.3188,40.4396,3.1308],[27.3168,40.4396,10.9403],[27.316,40.4451,0.0],[27.314,40.4474,0.0],[27.3115,40.4463,59.6205],[27.3101,40.4499,1.2888],[27.3065,40.4499,24.3287],[27.3049,40.4535,33.5056],[27.2985,40.4549,10.2799],[27.2976,40.4588,0.0],[27.2957,40.4585,24.1942],[27.2929,40.4621,0.0],[27.2899,40.4626,0.3272],[27.291,40.4657,0.0],[27.286,40.4701,8.8606],[27.2865,40.4751,17.6722],[27.2757,40.4724,2.3807],[27.2707,40.4693,23.6847],[27.2701,40.4643,0.0],[27.2638,40.461,18.0999],[27.2621,40.4615,18.0999],[27.2604,40.4576,16.4482],[27.2551,40.4593,0.0],[27.246,40.4546,58.806],[27.2435,40.4554,46.7809],[27.2404,40.4526,36.756],[27.239,40.4535,8.6642],[27.2301,40.4479,33.206],[27.2268,40.449,0.0],[27.219,40.4446,67.4046],[27.2107,40.4429,20.681],[27.2076,40.4407,0.0],[27.2093,40.4379,5.1174],[27.2051,40.4343,1.4009],[27.1985,40.4346,14.2713],[27.1901,40.4326,10.3845],[27.1732,40.4426,0.0],[27.1674,40.4429,5.1479],[27.1574,40.4504,0.0],[27.1554,40.4504,18.1522],[27.1551,40.4521,0.0],[27.1493,40.4479,33.9707],[27.1415,40.4493,4.3076],[27.1413,40.4471,6.4354],[27.1413,40.4487,6.4354],[27.1362,40.4496,0.0],[27.1299,40.4493,4.6825],[27.129,40.4474,8.2624],[27.1271,40.4474,13.7841],[27.1221,40.4501,3.0087],[27.1213,40.4526,0.0],[27.1215,40.4485,13.335],[27.1151,40.4449,11.9011],[27.106,40.4418,60.3092],[27.0899,40.4421,1.5517],[27.089,40.4385,19.8068],[27.0851,40.4357,26.957],[27.0779,40.4346,0.0],[27.0788,40.4299,1.292],[27.0737,40.4274,5.2599],[27.0604,40.4282,11.6215],[27.0599,40.4274,0.0],[27.0665,40.4235,0.0],[27.0665,40.4215,0.2223],[27.0649,40.4215,0.2223],[27.0643,40.4151,1.1278],[27.0585,40.411,14.2329],[27.0554,40.4107,0.0],[27.0529,40.4054,30.4405],[27.0493,40.4049,1.4503],[27.044,40.401,8.4371],[27.0399,40.3921,3.5419],[27.0332,40.3896,5.8147],[27.0229,40.3896,1.0845],[27.0187,40.3918,2.3635],[27.0163,40.3885,5.2251],[27.0104,40.3899,9.1071],[27.0099,40.3885,40.9638],[27.0076,40.3896,0.0],[26.9996,40.3871,0.0],[26.9965,40.3879,0.0],[26.996,40.3863,1.229],[26.9926,40.3868,15.971],[26.9918,40.3846,8.0479],[26.981,40.3868,5.0279],[26.9801,40.3857,0.0],[26.9707,40.3857,0.0],[26.9693,40.3838,0.0],[26.9643,40.3854,29.1107],[26.9601,40.3835,7.4209],[26.9532,40.3838,0.0],[26.9501,40.386,0.0],[26.9463,40.386,5.8435],[26.9415,40.3887,1.0718],[26.9382,40.3882,5.3341],[26.9313,40.3915,1.8296],[26.9132,40.4065,0.0],[26.9082,40.4049,12.7229],[26.9051,40.406,0.0],[26.894,40.4001,8.9704],[26.8932,40.3982,8.3573],[26.8851,40.3963,11.2836],[26.874,40.3982,0.5441],[26.8674,40.3968,3.5453],[26.8563,40.3999,7.1118],[26.8515,40.399,0.0],[26.8401,40.401,0.0],[26.8349,40.3988,2.9877],[26.8263,40.399,0.0],[26.8218,40.396,0.3062],[26.8176,40.3957,0.0],[26.8129,40.3982,5.267],[26.8051,40.3988,3.9988],[26.7968,40.4015,17.3344],[26.794,40.4038,0.0],[26.7813,40.406,0.0],[26.7765,40.406,0.0],[26.766,40.4024,0.0],[26.7565,40.404,0.0],[26.746,40.4004,0.2525],[26.7371,40.3954,0.0],[26.7379,40.3949,0.0],[26.7407,40.396,0.0748],[26.7382,40.3915,0.5502],[26.7357,40.3924,0.0],[26.7357,40.3943,0.0],[26.734,40.3935,0.0456],[26.7363,40.391,0.0777],[26.7346,40.3887,0.6808],[26.724,40.3851,0.1812],[26.719,40.3812,1.1671],[26.7146,40.3807,0.0],[26.7121,40.3757,1.214],[26.7057,40.3732,0.0],[26.7015,40.3693,0.2648],[26.6899,40.3657,0.0],[26.689,40.3615,0.0],[26.6932,40.3557,1.7493],[26.6932,40.3529,4.9775],[26.6874,40.3488,0.0],[26.6763,40.3446,0.3625],[26.671,40.3387,1.4407],[26.6638,40.3368,0.1388],[26.6579,40.3299,4.3159],[26.6526,40.329,0.0],[26.6446,40.3193,0.0],[26.6382,40.3163,0.0],[26.6346,40.3071,0.6461],[26.629,40.3049,0.0],[26.6249,40.2968,10.218],[26.6168,40.2954,0.6234],[26.6149,40.2904,11.4188],[26.6101,40.2874,0.0],[26.6096,40.284,0.0],[26.6065,40.2813,0.9493],[26.5857,40.284,0.0],[26.581,40.2813,0.2648],[26.5726,40.2801,0.048],[26.566,40.2738,0.0],[26.5621,40.2665,0.0463],[26.5651,40.2696,0.055],[26.5718,40.2713,0.1159],[26.5657,40.2687,0.1087],[26.5635,40.2654,0.2921],[26.5568,40.2637,0.1435],[26.5588,40.2568,6.7914],[26.5496,40.2535,0.0],[26.5446,40.2426,3.8936],[26.541,40.2399,0.0],[26.5424,40.2393,1.2797],[26.5413,40.234,0.0],[26.5368,40.2324,0.0],[26.5346,40.2287,26.4118],[26.5301,40.2274,0.0],[26.5246,40.2176,0.0],[26.5157,40.2168,0.2031],[26.5138,40.2149,1.0564],[26.5018,40.2118,0.3789],[26.4868,40.204,0.0],[26.4826,40.2001,1.2113],[26.4732,40.2024,0.0],[26.4662,40.1971,0.0],[26.4538,40.1993,0.0],[26.449,40.194,0.0],[26.4421,40.1937,12.5241],[26.4349,40.1957,0.0],[26.4299,40.1943,2.9897],[26.4151,40.201,0.0],[26.403199999999998,40.1968,0.0],[26.4043,40.1949,0.0],[26.4079,40.194,1.6429],[26.4085,40.1893,8.5523],[26.4054,40.1876,0.2899],[26.4068,40.1799,13.2124],[26.4029,40.1738,0.118],[26.4029,40.1685,0.0],[26.4046,40.1651,11.4874],[26.4029,40.1629,0.0],[26.4076,40.1593,1.204],[26.4088,40.1549,2.6877],[26.3996,40.1515,0.0],[26.3974,40.1457,0.0],[26.3999,40.1437,3.5169],[26.3976,40.1426,0.0],[26.4001,40.1407,3.0945],[26.401,40.1365,0.0],[26.4046,40.1343,4.2433],[26.4074,40.1296,0.3532],[26.4099,40.1201,0.0],[26.409,40.1174,0.0],[26.399,40.1096,0.0],[26.3996,40.1071,0.0],[26.3957,40.104,0.0],[26.384,40.1015,2.0762],[26.3788,40.1046,0.0],[26.3746,40.1032,0.5266],[26.371,40.1046,0.0682],[26.366,40.1001,0.0],[26.361,40.0932,0.6497],[26.3657,40.0826,0.5376],[26.3582,40.0757,0.0],[26.3582,40.0707,0.0],[26.356,40.0676,0.0],[26.356,40.0574,0.0],[26.3487,40.0513,0.0],[26.3482,40.0462,0.0],[26.339,40.0443,0.0],[26.3349,40.0293,12.0755],[26.3285,40.0262,0.4439],[26.326,40.0213,38.2705],[26.3221,40.0201,0.0],[26.3213,40.0174,0.0],[26.3113,40.0176,0.0],[26.3082,40.0154,24.9541],[26.2968,40.0137,0.0],[26.2924,40.0082,1.6833],[26.2865,40.0046,0.0],[26.279,40.0054,10.2654],[26.2715,40.001,0.0],[26.261,40.0004,5.1321],[26.2574,40.0018,5.6675],[26.2526,39.999,0.0],[26.241,40.001,0.0],[26.2368,39.999,0.2067],[26.2257,40.0043,0.0],[26.2126,40.0054,0.3372],[26.1982,40.0099,0.0],[26.1963,40.006,1.2058],[26.1868,40.001,0.0],[26.184,39.9949,11.5854],[26.1787,39.9912,3.1907],[26.1707,39.9674,0.0],[26.1663,39.9615,17.3484],[26.1668,39.9549,12.1779],[26.1624,39.9415,0.212],[26.1638,39.939,6.7361],[26.1568,39.9201,0.3292],[26.1526,39.916,2.9939],[26.1499,39.9157,0.0],[26.1504,39.9079,0.1134],[26.1612,39.8954,0.6301],[26.1582,39.889,6.3816],[26.1593,39.8829,2.3348],[26.1543,39.879,0.0],[26.1551,39.876,8.0006],[26.1524,39.874,0.0],[26.1513,39.8696,1.8385],[26.1474,39.8704,6.157],[26.1451,39.8688,0.0],[26.1432,39.8615,2.4855],[26.1457,39.8601,0.0],[26.1468,39.8568,16.0579],[26.1429,39.8507,2.3439],[26.144,39.8468,4.0278],[26.1413,39.8429,0.7747],[26.1371,39.841,0.5083],[26.1593,39.8268,1.0359],[26.1638,39.8179,0.6133],[26.1624,39.8101,0.1311],[26.1563,39.8049,0.0],[26.1568,39.8021,0.0],[26.1537,39.7954,0.0],[26.1565,39.7893,0.0],[26.156,39.7857,0.0],[26.1588,39.7815,2.9107],[26.1585,39.7765,2.4788],[26.1557,39.771,2.4797],[26.1485,39.7637,1.7315],[26.1413,39.7599,6.8065],[26.1399,39.7571,0.0],[26.1429,39.7515,10.6856],[26.1421,39.7471,0.0],[26.1513,39.7363,16.7684],[26.1524,39.7296,0.5066],[26.1588,39.7185,0.3703],[26.1568,39.7126,0.0],[26.1593,39.7035,23.0128],[26.1588,39.7001,0.0],[26.1615,39.6935,14.378],[26.1618,39.6874,3.3167],[26.1646,39.6821,0.2973],[26.1624,39.6732,0.6272],[26.1635,39.6593,5.9112],[26.1601,39.6563,0.6862],[26.1593,39.6485,2.0914],[26.1504,39.631,0.1774],[26.1501,39.6263,0.841],[26.1424,39.6126,0.29],[26.1313,39.6007,1.4675],[26.1254,39.5974,1.017],[26.1204,39.5965,0.2176],[26.1057,39.5854,0.4851],[26.1054,39.5793,0.3822],[26.1029,39.5762,0.0],[26.1007,39.566,0.6882],[26.0937,39.556,0.0],[26.0926,39.5488,0.0],[26.090699999999998,39.5474,0.0],[26.0918,39.5407,7.5298],[26.0882,39.5324,0.9828],[26.0885,39.5276,10.2737],[26.0801,39.5215,3.1174],[26.0835,39.5187,8.2865],[26.0838,39.511,1.1425],[26.0718,39.5054,12.3384],[26.0696,39.5029,0.0],[26.0687,39.4946,3.2736],[26.0654,39.4899,0.0],[26.0646,39.4818,30.1725],[26.0626,39.4793,8.8319],[26.071,39.4718,0.0],[26.081,39.4671,13.3767],[26.0924,39.4657,16.3981],[26.1057,39.4618,3.5835],[26.1118,39.459,9.0969],[26.1168,39.4546,0.0],[26.1265,39.4554,0.0],[26.1313,39.4529,0.0],[26.1435,39.454,3.0831],[26.1479,39.4585,0.6534],[26.1537,39.4582,1.357],[26.1565,39.4565,0.0],[26.1635,39.4596,1.4914],[26.1787,39.4588,1.9757],[26.1796,39.4601,1.9757],[26.1865,39.4613,1.9925],[26.1954,39.4599,0.0],[26.1993,39.4615,0.2903],[26.2046,39.461,0.0],[26.2087,39.464,0.0],[26.2079,39.4654,7.4373],[26.2121,39.4701,0.0],[26.2143,39.4693,0.0],[26.2146,39.4707,2.559],[26.2201,39.4729,2.3034],[26.2299,39.4746,2.5715],[26.236,39.469,0.1614],[26.236,39.4674,0.0],[26.234,39.4671,0.0],[26.2351,39.4651,0.0],[26.2418,39.4637,0.0],[26.2463,39.469,1.3065],[26.2493,39.4701,0.351],[26.2496,39.4743,7.2224],[26.2537,39.4757,19.7244],[26.256,39.4796,0.0],[26.2621,39.4801,0.0],[26.2649,39.4832,0.0],[26.2751,39.4824,2.8072],[26.2899,39.4854,0.0],[26.2935,39.484,11.4537],[26.3135,39.4837,0.0],[26.3149,39.4821,0.0],[26.3254,39.4807,5.5332],[26.3368,39.4851,0.0],[26.3412,39.4849,0.0],[26.344,39.4874,15.3168],[26.354,39.4874,6.6379],[26.3682,39.4804,0.0],[26.3701,39.481,0.0],[26.3685,39.4854,0.3399],[26.3715,39.4921,1.1664],[26.3762,39.4965,1.4494],[26.3935,39.4974,7.3175],[26.3965,39.4996,0.8585],[26.4068,39.5021,1.9939],[26.4179,39.501,2.9023],[26.4215,39.5062,0.7074],[26.4296,39.5104,0.0],[26.4335,39.5107,0.7643],[26.439,39.5137,0.0],[26.4407,39.5165,7.2693],[26.4554,39.5185,0.0],[26.4596,39.5213,1.9139],[26.4707,39.5213,0.4089],[26.4757,39.5249,1.1084],[26.4893,39.5279,3.1875],[26.5071,39.5262,0.0],[26.521,39.5321,5.9201],[26.5368,39.5332,0.0],[26.5493,39.531,0.7604],[26.5571,39.5354,0.0],[26.5676,39.5365,0.0],[26.579,39.5401,0.0],[26.5868,39.5396,0.0],[26.5929,39.5446,1.8225],[26.6015,39.5457,2.6339],[26.6076,39.5438,0.2875],[26.6087,39.5451,0.2611],[26.616,39.546,0.0],[26.6238,39.5518,0.3342],[26.6318,39.5549,0.6341],[26.646,39.5551,0.0],[26.6579,39.5518,0.0],[26.6649,39.5565,1.4975],[26.6693,39.5576,1.5444],[26.6629,39.5585,4.6198],[26.6655,39.5816,182.5685],[26.6666,39.6507,820.4421]]],
[[[26.0561,39.8468,19.5945],[26.0507,39.8474,0.0],[26.0451,39.8446,3.4742],[26.0401,39.8443,0.0],[26.0382,39.8415,4.6818],[26.0237,39.8446,0.8643],[26.0026,39.844,0.0],[25.9979,39.8454,0.0],[25.9976,39.8432,3.9481],[25.9935,39.8415,3.6056],[25.9829,39.8418,1.0485],[25.9726,39.839,0.0],[25.9632,39.8399,0.0],[25.9621,39.8371,0.0],[25.9676,39.8318,0.0],[25.9699,39.8249,0.0],[25.974,39.8218,0.0],[25.9824,39.8199,26.9233],[25.9837,39.8168,0.0],[25.9904,39.8215,0.0],[25.9937,39.8215,0.9265],[25.9974,39.8187,0.0],[26.0038,39.8174,3.3803],[26.0051,39.8146,2.3908],[26.0035,39.8121,0.8003],[26.0074,39.8126,3.1156],[26.0151,39.8082,0.0],[26.021,39.8079,0.0],[26.0235,39.804,2.2592],[26.0326,39.8018,0.0],[26.0362,39.7982,0.0],[26.0457,39.7968,0.3917],[26.0451,39.7926,1.096],[26.0485,39.7926,1.7583],[26.0515,39.7865,0.0],[26.059,39.7885,0.0],[26.0607,39.7904,2.5936],[26.0613,39.7888,2.5936],[26.0604,39.7871,1.0941],[26.0618,39.7871,1.0941],[26.0635,39.7904,0.0],[26.0668,39.7896,0.0],[26.0676,39.7921,4.1126],[26.074,39.7924,0.7936],[26.0737,39.794,4.8904],[26.0771,39.7957,4.5728],[26.0793,39.7949,0.0],[26.0793,39.7974,4.6748],[26.081,39.7971,0.0],[26.0838,39.8013,0.0],[26.0788,39.8021,11.7653],[26.0779,39.8043,2.501],[26.0807,39.8063,0.0],[26.0737,39.8129,0.4368],[26.0774,39.8154,0.0],[26.0743,39.8185,4.9494],[26.0746,39.8213,0.7255],[26.0779,39.8224,8.9154],[26.0804,39.821,0.2369],[26.0799,39.8246,0.0],[26.0774,39.8257,0.6499],[26.0779,39.8288,0.0],[26.0749,39.8307,0.0],[26.0765,39.8329,4.9274],[26.074,39.8354,0.0],[26.0757,39.8365,0.0],[26.071,39.8379,0.0],[26.0715,39.8401,0.0],[26.0701,39.8413,0.0],[26.0604,39.8415,3.6282],[26.0561,39.8468,19.5945]]],
[[[26.0871,39.9199,0.0],[26.0851,39.9204,5.723],[26.0812,39.9182,1.185],[26.086,39.9171,5.3457],[26.0879,39.9182,0.0],[26.0871,39.9199,0.0]]],
[[[26.0537,39.931,0.0],[26.0513,39.9315,0.0],[26.0501,39.9299,0.6376],[26.0526,39.9293,0.0],[26.0537,39.931,0.0]]],
[[[26.064,39.9401,6.7315],[26.0604,39.9407,0.0],[26.0574,39.9385,0.9656],[26.0582,39.9338,0.0],[26.0701,39.9313,3.3602],[26.0799,39.9374,0.0],[26.0785,39.9385,0.5899],[26.0729,39.9362,3.2891],[26.064,39.9401,6.7315]]],
[[[25.7574,40.0974,1.3212],[25.7585,40.0993,2.0244],[25.7674,40.0999,0.0],[25.7726,40.0988,9.0499],[25.7738,40.0971,2.5082],[25.7801,40.0974,3.5101],[25.7801,40.099,20.7306],[25.7832,40.099,11.4919],[25.7849,40.0962,2.5538],[25.7893,40.0971,28.8216],[25.7929,40.0957,0.0],[25.796,40.1001,0.7824],[25.7951,40.1024,3.2818],[25.7985,40.1043,4.3479],[25.8074,40.1049,1.4635],[25.8168,40.1029,2.495],[25.819,40.1004,0.0],[25.8274,40.1012,1.0552],[25.8312,40.1001,0.0],[25.834,40.1015,4.9863],[25.8388,40.0996,0.0],[25.8479,40.1021,12.1792],[25.849,40.104,17.8786],[25.8532,40.1029,0.0],[25.8543,40.1057,12.1137],[25.859,40.1087,0.0],[25.8676,40.1104,0.0],[25.8724,40.1096,0.0],[25.8799,40.114,10.0255],[25.8949,40.1154,0.0],[25.8996,40.119,12.5609],[25.9135,40.1196,0.0],[25.9199,40.1237,0.0],[25.9254,40.1232,0.0],[25.9285,40.1257,8.621],[25.9371,40.1265,0.0],[25.9429,40.1293,4.4299],[25.9499,40.1237,0.0],[25.9626,40.1235,0.0],[25.969,40.126,6.0332],[25.9735,40.1249,0.0],[25.9754,40.1282,0.0],[25.9813,40.1312,0.4312],[25.9937,40.1315,0.0],[25.9965,40.1338,14.7625],[25.9949,40.1379,17.8315],[25.9979,40.1399,21.374],[26.0004,40.1393,0.0],[26.0115,40.1457,0.3746],[26.014,40.1488,1.5218],[26.0151,40.1538,0.0],[26.0129,40.1571,4.588],[26.0137,40.1637,0.0],[26.0082,40.1618,0.0],[26.0057,40.1543,1.6634],[25.9907,40.1538,0.0],[25.9918,40.1507,9.1387],[25.9896,40.1499,0.0],[25.9885,40.1443,0.353],[25.9749,40.1446,0.626],[25.9662,40.1499,0.0],[25.966,40.1518,0.0],[25.9704,40.154,0.0],[25.9654,40.1579,-0.486],[25.9668,40.1613,0.0],[25.9649,40.1643,0.0],[25.9668,40.1674,1.1211],[25.9687,40.1674,0.146],[25.974,40.1724,0.0],[25.9735,40.1757,1.5688],[25.9701,40.1776,0.5462],[25.9685,40.1815,0.1192],[25.9732,40.184,0.5986],[25.9757,40.1882,0.0],[25.9768,40.1971,0.0],[25.9737,40.2001,27.2195],[25.9737,40.2104,31.185],[25.9771,40.2163,0.0],[25.9721,40.2199,0.9445],[25.9721,40.2224,0.0],[25.9707,40.2229,0.0],[25.9618,40.2218,34.2444],[25.9599,40.2243,0.0],[25.9532,40.2229,2.8336],[25.9504,40.2243,0.8357],[25.9454,40.2318,3.298],[25.9493,40.2371,0.0],[25.9446,40.2412,0.0],[25.9404,40.239,0.0],[25.9399,40.2363,2.1015],[25.9301,40.241,0.0],[25.919,40.2396,0.0],[25.9143,40.2357,9.0282],[25.9054,40.2371,0.0],[25.9037,40.2346,24.3426],[25.904,40.2368,4.7507],[25.8985,40.2365,0.0],[25.8929,40.2343,0.0],[25.894,40.2315,6.4515],[25.8913,40.2299,1.6525],[25.886,40.2318,1.4921],[25.8729,40.2285,0.0],[25.8649,40.2221,0.0],[25.8493,40.2182,0.0],[25.8485,40.2154,19.5222],[25.8429,40.2113,1.6975],[25.8296,40.2126,1.2199],[25.824,40.2149,0.0],[25.8149,40.2124,0.0],[25.8107,40.2124,1.0102],[25.8093,40.2137,1.0102],[25.7976,40.2115,9.6502],[25.7924,40.2132,0.4409],[25.7921,40.2115,3.0969],[25.7874,40.2113,0.0],[25.7743,40.2043,5.3384],[25.7682,40.2029,0.0],[25.7657,40.1996,0.0],[25.7563,40.1971,0.0],[25.754,40.194,15.6718],[25.7499,40.1935,1.3619],[25.7493,40.1915,1.5882],[25.7415,40.1901,8.6353],[25.7374,40.1871,1.7947],[25.7332,40.1871,0.0],[25.731,40.1843,1.4689],[25.7257,40.1843,0.0],[25.7215,40.1824,0.0],[25.7162,40.1774,0.0],[25.7049,40.1735,8.3779],[25.6993,40.1699,0.0],[25.6996,40.1676,0.0],[25.6907,40.1604,9.2664],[25.6821,40.1571,0.0],[25.6785,40.1579,0.0],[25.6771,40.1557,0.0],[25.6707,40.1538,0.0],[25.6699,40.1496,14.6776],[25.6676,40.1479,10.8554],[25.6699,40.1413,12.9867],[25.6651,40.1243,0.0],[25.6671,40.1232,0.0],[25.671,40.1249,12.4283],[25.6774,40.124,5.6317],[25.7068,40.116,3.8657],[25.7071,40.1126,0.0],[25.7101,40.1124,0.8466],[25.7115,40.1101,0.0],[25.719,40.1093,1.0582],[25.7254,40.1063,2.1467],[25.7313,40.0926,0.0],[25.7357,40.0932,0.0],[25.739,40.0907,3.381],[25.7512,40.0968,0.0],[25.756,40.0971,1.3212],[25.7582,40.0949,0.0],[25.7574,40.0974,1.3212]]],
[[[26.4557,40.2396,0.0],[26.4615,40.2418,0.0],[26.4662,40.2468,0.0],[26.4699,40.2471,0.0],[26.474,40.2529,1.0897],[26.4799,40.2546,5.7226],[26.4818,40.2588,24.6008],[26.4893,40.2629,0.2669],[26.4943,40.2699,0.1851],[26.4932,40.2771,1.722],[26.506,40.2835,0.0],[26.5099,40.2882,0.0],[26.519,40.2929,1.6503],[26.5237,40.2924,1.0071],[26.5293,40.2954,0.0],[26.536,40.2957,0.6929],[26.5446,40.2993,1.3777],[26.5501,40.2999,0.0],[26.554,40.3046,1.2965],[26.561,40.3043,0.0],[26.5637,40.3074,3.4014],[26.5674,40.3071,0.8496],[26.5743,40.3199,0.6547],[26.5868,40.319,0.1489],[26.5912,40.3213,0.0],[26.5943,40.3243,0.0],[26.5938,40.3288,0.4193],[26.6026,40.334,0.4889],[26.6085,40.3413,1.029],[26.6196,40.3482,0.08],[26.6312,40.3624,0.0],[26.6324,40.3651,0.0],[26.6285,40.3726,0.0],[26.6262,40.3838,0.0],[26.6274,40.386,8.9897],[26.6304,40.3862,0.0],[26.6326,40.3901,0.0],[26.6393,40.3901,0.0],[26.6388,40.3968,4.0284],[26.6413,40.4032,1.2009],[26.6524,40.4043,3.5697],[26.6554,40.4068,0.0],[26.6621,40.4074,1.9179],[26.6757,40.4032,0.0],[26.6829,40.4096,6.8738],[26.6824,40.4115,0.0],[26.6796,40.4121,9.5479],[26.6799,40.416,0.3704],[26.6824,40.4176,4.4233],[26.686,40.4165,0.0],[26.6879,40.419,12.3294],[26.7001,40.4199,3.4994],[26.6957,40.4285,2.9588],[26.6932,40.4426,0.0],[26.6935,40.4493,0.1309],[26.6993,40.4543,0.5214],[26.7149,40.4565,0.0],[26.726,40.4632,0.0],[26.7318,40.4721,3.0505],[26.7407,40.4774,4.3183],[26.764,40.4837,0.0],[26.7768,40.4851,0.0],[26.7924,40.4929,0.2074],[26.821,40.4987,0.0],[26.8268,40.5029,0.6095],[26.8343,40.504,0.0],[26.8496,40.5104,0.0],[26.8543,40.5104,0.0],[26.9001,40.5363,0.8383],[26.9054,40.5363,0.0],[26.9101,40.5396,1.5008],[26.9221,40.5412,0.0],[26.9329,40.5449,0.0],[26.9632,40.5501,0.0],[26.9699,40.554,8.7837],[26.9963,40.5557,7.3596],[26.999,40.5593,0.0],[27.0004,40.5685,10.9292],[27.0054,40.5696,0.2391],[27.0071,40.5737,3.3168],[27.0294,40.5907,11.5669],[27.0286,40.6995,77.311],[27.0311,40.7158,95.1001],[27.0399,40.7327,64.5],[27.0426,40.7481,103.1585],[27.0415,40.7602,116.8971],[27.0249,40.7911,88.8521],[27.0154,40.7982,93.7577],[27.009,40.8005,101.0582],[26.9984,40.802,104.5211],[26.9767,40.801,166.1904],[26.9637,40.7973,192.6799],[26.9098,40.776,387.9346],[26.8987,40.7697,420.8563],[26.8715,40.7502,396.9086],[26.8586,40.7448,295.441],[26.8236,40.743,230.5571],[26.7838,40.7462,214.2646],[26.76,40.7051,336.6484],[26.7593,40.6914,217.0451],[26.7611,40.686,163.6603],[26.7749,40.6684,25.9397],[26.7935,40.6565,0.0],[26.796,40.6571,1.2971],[26.8049,40.6543,0.1825],[26.8049,40.6521,0.0],[26.8104,40.6476,0.0483],[26.8188,40.6471,0.3496],[26.8182,40.6435,0.0],[26.8207,40.6399,0.0],[26.8229,40.6396,0.2448],[26.8251,40.6351,0.5934],[26.8229,40.6338,0.0],[26.8315,40.621,0.2003],[26.834,40.6132,0.2502],[26.8343,40.6063,0.1601],[26.8374,40.6037,0.1965],[26.8365,40.5982,0.0],[26.8388,40.5951,0.1476],[26.839,40.5868,0.1521],[26.8349,40.5812,1.0503],[26.8165,40.571,0.0],[26.814,40.5676,0.8649],[26.8046,40.5624,0.0],[26.799,40.5568,17.6993],[26.776,40.5488,0.0],[26.7696,40.5451,15.1975],[26.7626,40.5446,1.1328],[26.7576,40.546,0.0],[26.7546,40.5449,1.1185],[26.7488,40.5462,0.5125],[26.7443,40.5499,0.6701],[26.7482,40.5546,0.0],[26.7474,40.559,0.0],[26.7435,40.554,1.2302],[26.736,40.5513,2.5121],[26.7354,40.5465,1.1579],[26.7337,40.5449,0.1901],[26.7276,40.5443,0.0],[26.7188,40.5385,26.3006],[26.7132,40.5276,0.0],[26.711,40.5168,23.9874],[26.7079,40.5124,0.0],[26.7038,40.5104,26.4759],[26.6965,40.5104,1.7569],[26.6968,40.5085,2.6434],[26.6946,40.5071,0.0],[26.6926,40.509,0.0],[26.6849,40.5093,0.0],[26.6821,40.5088,0.0],[26.681,40.5068,14.8434],[26.6787,40.5074,1.9096],[26.679,40.5088,0.0],[26.6765,40.5088,0.0],[26.671,40.5074,0.0],[26.6604,40.5082,1.4266],[26.6599,40.5062,19.8816],[26.6515,40.5082,0.0],[26.6449,40.5068,11.3975],[26.6349,40.5104,2.5002],[26.6321,40.5085,2.7536],[26.6254,40.5085,4.2728],[26.6154,40.5032,19.4467],[26.6057,40.5029,2.8372],[26.5982,40.4993,4.3603],[26.589,40.4974,0.0],[26.5857,40.4935,1.4395],[26.5757,40.4901,9.1906],[26.5732,40.4865,34.7493],[26.5693,40.4857,0.0],[26.5663,40.4826,0.0],[26.5613,40.4807,0.0],[26.5582,40.4821,0.0],[26.5487,40.4799,4.6575],[26.5465,40.4762,10.3476],[26.5432,40.4757,0.0],[26.5346,40.4693,18.4182],[26.5313,40.469,0.0],[26.5251,40.4629,0.0],[26.5099,40.4588,0.0],[26.511,40.4562,20.9788],[26.504,40.4554,9.6683],[26.5004,40.451,3.3713],[26.4949,40.4499,7.3362],[26.4926,40.4474,3.8823],[26.484,40.4449,19.7542],[26.4557,40.4415,9.3563],[26.4554,40.4399,71.1389],[26.4504,40.439,0.0],[26.4371,40.4324,0.0],[26.4338,40.429,0.0],[26.4335,40.426,1.6338],[26.4287,40.4254,16.6017],[26.4285,40.4229,0.0],[26.4257,40.4218,0.0],[26.4235,40.4182,7.5652],[26.4146,40.4157,0.0],[26.4126,40.4113,30.8445],[26.3982,40.4104,32.8624],[26.3957,40.4087,1.0365],[26.3957,40.4051,34.4433],[26.3865,40.3993,15.9692],[26.3793,40.3979,9.411],[26.3746,40.3943,0.0],[26.3637,40.3907,0.0],[26.364,40.3865,1.7033],[26.3618,40.3843,12.6569],[26.3451,40.3787,22.6733],[26.341,40.3743,1.3929],[26.3376,40.3737,0.0],[26.3318,40.3638,0.0],[26.3229,40.3632,4.4697],[26.3221,40.3657,0.0],[26.3235,40.3685,4.0074],[26.3207,40.369,0.0],[26.3085,40.366,0.0],[26.3007,40.3601,2.7448],[26.2957,40.3521,0.0],[26.2857,40.349,0.0],[26.2626,40.3462,8.5516],[26.2612,40.3443,0.0],[26.2562,40.3429,3.0829],[26.2562,40.3404,21.9354],[26.2532,40.3404,0.0],[26.249,40.3376,0.0],[26.2471,40.3343,3.0051],[26.2379,40.3315,7.0733],[26.234,40.3271,0.0],[26.2185,40.3196,0.0],[26.2154,40.3154,0.0],[26.221,40.3171,6.1544],[26.2243,40.3168,0.0],[26.2237,40.3157,0.0],[26.2335,40.3165,0.0],[26.236,40.3162,0.0],[26.2351,40.3149,0.0],[26.2399,40.3154,0.3532],[26.2426,40.3138,1.9556],[26.2421,40.3126,0.2802],[26.2468,40.3071,0.3176],[26.2465,40.2996,0.698],[26.2412,40.2979,0.0],[26.2415,40.294,8.7275],[26.2388,40.2929,0.0],[26.2382,40.291,7.7578],[26.2293,40.2904,4.1948],[26.2293,40.2887,0.0],[26.234,40.2851,0.0],[26.2454,40.281,0.0],[26.2499,40.276,0.0],[26.2554,40.2738,0.0],[26.2562,40.2718,0.0],[26.276,40.2576,0.6707],[26.2787,40.2537,0.4534],[26.2821,40.2429,3.9857],[26.2757,40.2382,0.0],[26.2785,40.2157,3.3142],[26.2718,40.2085,5.9424],[26.2676,40.2079,0.0],[26.2671,40.206,0.0],[26.271,40.1996,0.1711],[26.2701,40.1935,0.0],[26.2657,40.1912,0.0],[26.2665,40.1899,8.0258],[26.261,40.1835,0.0],[26.2618,40.1815,0.0],[26.2588,40.1779,3.3488],[26.2518,40.1732,3.7319],[26.2521,40.1701,3.5614],[26.2496,40.1646,0.9339],[26.2351,40.1549,0.0],[26.2343,40.1501,0.0],[26.2299,40.1443,0.0],[26.2299,40.1413,17.5852],[26.2232,40.1326,0.0],[26.2215,40.1271,4.9161],[26.2124,40.1165,2.5349],[26.2118,40.1087,12.204],[26.2096,40.1037,4.1754],[26.2046,40.0976,23.719],[26.201,40.0957,0.0],[26.1987,40.0915,24.52],[26.1926,40.0879,13.6992],[26.1887,40.0824,4.7867],[26.1868,40.0818,6.3716],[26.1774,40.0638,0.0],[26.1671,40.0557,0.0],[26.1657,40.0537,19.7253],[26.1663,40.0513,2.9753],[26.174,40.0426,0.0],[26.1826,40.0435,0.0],[26.1876,40.0407,2.4642],[26.1938,40.0432,0.0],[26.199,40.0501,0.6747],[26.2046,40.0515,0.0],[26.2051,40.0532,0.1396],[26.2138,40.0518,0.0],[26.2171,40.0474,0.0],[26.219,40.0474,0.0],[26.2279,40.0518,0.0],[26.231,40.0565,0.0],[26.2304,40.0593,11.6611],[26.2399,40.0601,0.0],[26.2471,40.0638,9.2948],[26.2504,40.0685,0.0],[26.2671,40.0737,0.0],[26.2843,40.0818,1.6485],[26.2974,40.0849,0.0],[26.299,40.0871,9.372],[26.3082,40.0915,0.0],[26.3118,40.0949,0.0],[26.3132,40.1004,10.6181],[26.3293,40.1065,2.2966],[26.3399,40.116,4.9259],[26.341,40.1188,27.45],[26.346,40.1215,0.0],[26.3468,40.1254,0.0],[26.3504,40.1265,0.0],[26.3554,40.1315,0.4644],[26.3651,40.1346,0.0],[26.3818,40.144,0.0],[26.381,40.149,0.0],[26.3776,40.1524,0.0],[26.3774,40.1576,0.0],[26.3726,40.1646,29.3053],[26.3721,40.1693,0.0],[26.3674,40.1721,0.0],[26.3604,40.1838,0.4974],[26.3579,40.1921,54.6314],[26.3621,40.1963,0.0],[26.3585,40.1993,16.0837],[26.3582,40.2032,2.1142],[26.3632,40.2049,0.8441],[26.3674,40.2021,13.6104],[26.3749,40.2032,0.0],[26.3807,40.2085,0.0],[26.3862,40.2088,0.0],[26.3904,40.2129,0.637],[26.3993,40.2165,1.8826],[26.4068,40.2165,0.0],[26.424,40.2204,0.0],[26.4268,40.2238,0.0],[26.4263,40.2271,12.5555],[26.4282,40.2276,0.0733],[26.4271,40.2285,0.0733],[26.4282,40.2293,0.5836],[26.4329,40.2304,0.0],[26.4357,40.2287,0.0],[26.4382,40.2321,5.6844],[26.4457,40.2335,0.0],[26.4557,40.2396,0.0]]],
[[[26.714,40.3879,0.0],[26.7085,40.3868,0.1041],[26.7054,40.3832,0.045],[26.7096,40.3835,0.0],[26.7154,40.3812,0.2059],[26.716,40.3824,0.0],[26.7126,40.3854,0.0],[26.714,40.3879,0.0]]]]}}