{"type":"Feature","properties":{"GID_2":"TUR.39.2_1","GID_0":"TUR","country":"Turkey","GID_1":"TUR.39_1","province":"Isparta","NL_NAME_1":"NA","county":"Atabey","VARNAME_2":"NA","NL_NAME_2":"NA","TYPE_2":"District","ENGTYPE_2":"District","CC_2":"NA","HASC_2":"TR.IP.AT","name":"Atabey.county"},
"geometry":{"type": "MultiPolygon","coordinates": [[[[30.6986,38.003,1735.5551],[30.6683,38.0046,1776.736],[30.5216,38.0047,1740.0145],[30.5213,37.9008,928.0667],[30.6285,37.9005,931.0221],[30.6439,37.9037,938.9765],[30.6917,37.9215,946.2117],[30.7079,37.9231,973.4683],[30.7393,37.9232,1230.9365],[30.7286,37.9454,1123.0988],[30.7049,37.9824,1597.4911],[30.6986,38.003,1735.5551]]]]}}