{"type": "Feature","bbox": [38.7262,38.7492,40.5432,39.5576],"geometry": {"type": "MultiPolygon","coordinates": [[[[39.5948,38.7875,1131.7227],[39.6303,38.8018,1099.168],[39.7172,38.8019,1235.3389],[39.7276,38.8036,1192.59],[39.7487,38.8108,1192.7988],[39.7725,38.8153,1231.9691],[39.793,38.8272,1185.5752],[39.8397,38.8656,1036.3569],[39.8768,38.9183,922.4351],[39.89,38.9393,1093.715],[39.8932,38.9471,1136.0321],[39.8951,38.9699,1122.2021],[39.8932,38.9928,1128.1682],[39.89,39.0005,1117.6064],[39.8687,39.032,1085.1932],[39.8668,39.0397,990.6373],[39.8693,39.0476,1036.7015],[39.8811,39.0586,1023.2378],[39.893,39.0662,1066.6516],[39.9134,39.0833,1169.2904],[39.9296,39.0907,1183.7664],[39.9641,39.0926,983.9011],[40.0098,39.0899,1042.0814],[40.0173,39.1027,1067.8191],[40.0298,39.1154,1314.2057],[40.0336,39.1258,1273.2192],[40.0419,39.1395,1157.0139],[40.0434,39.1448,1268.1945],[40.0433,39.1557,1325.6425],[40.0416,39.161,1353.2377],[40.0333,39.1746,1636.9136],[40.0308,39.1826,1538.1034],[40.03,39.1938,1679.9841],[40.0318,39.205,1870.3088],[40.0567,39.2445,2022.203],[40.0647,39.268,1817.986],[40.0795,39.2914,1727.3832],[40.0987,39.3143,1538.5106],[40.1217,39.3042,1477.6233],[40.1488,39.2987,1402.355],[40.1667,39.2924,1720.6686],[40.2021,39.2889,1585.0442],[40.214,39.3027,1849.3127],[40.2241,39.3094,1832.942],[40.257,39.3171,2060.8936],[40.284,39.3327,2014.4829],[40.3325,39.3515,2015.2656],[40.3711,39.3775,1835.9629],[40.3908,39.3829,2187.1177],[40.3909,39.3945,1793.8445],[40.374,39.4031,1789.4218],[40.3471,39.4079,2065.4546],[40.337,39.4136,2209.6851],[40.3331,39.4203,1809.7358],[40.3353,39.4275,1770.2953],[40.3585,39.4384,1776.2043],[40.4048,39.455,1397.2273],[40.4373,39.4737,1604.8892],[40.5165,39.504,2237.9561],[40.5303,39.5138,2624.949],[40.5385,39.5234,2628.9446],[40.5412,39.5315,2921.1802],[40.5432,39.5478,2447.1538],[40.5042,39.5457,2322.1069],[40.2712,39.5458,1947.1691],[40.2463,39.5479,1861.5967],[40.2246,39.5548,1881.2324],[40.2129,39.5569,1709.6301],[40.1421,39.5576,1651.6602],[40.1222,39.5551,1668.7554],[40.1043,39.5489,1481.9988],[40.0772,39.5434,1630.2428],[40.0594,39.5372,1956.2164],[40.0322,39.5318,2196.1504],[40.0143,39.5254,2278.0884],[39.9864,39.5187,2414.1252],[39.957,39.5253,2314.0891],[39.9093,39.5438,1612.2693],[39.8859,39.5499,1716.0938],[39.8552,39.5447,2057.9087],[39.8341,39.5372,1981.7805],[39.8068,39.5323,2125.0691],[39.7706,39.5182,2257.2898],[39.7286,39.4866,2366.8875],[39.7199,39.4779,2210.8608],[39.7069,39.4595,2093.5688],[39.6977,39.4517,1908.6106],[39.6856,39.4432,1817.0839],[39.6652,39.4415,2081.1841],[39.6283,39.4413,2653.4902],[39.6152,39.4459,2778.7778],[39.6109,39.4535,2979.5884],[39.6088,39.4792,2587.1965],[39.6053,39.4841,2502.3047],[39.596,39.488,2708.3745],[39.5738,39.4878,2841.7209],[39.5488,39.4797,2351.1169],[39.5368,39.4774,2387.6504],[39.4944,39.4763,2664.9019],[39.4653,39.4785,1930.661],[39.4358,39.487,2692.5024],[39.3929,39.4908,2584.3584],[39.3666,39.4895,2416.3406],[39.3563,39.4912,2427.4912],[39.3349,39.4983,2314.7434],[39.3154,39.4999,2549.4294],[39.2998,39.4985,2652.7812],[39.2746,39.4906,2899.3984],[39.24,39.4864,2431.0942],[39.2146,39.4787,2808.002],[39.1536,39.4758,2955.9062],[39.1252,39.4674,3236.1201],[39.0977,39.4617,3046.2241],[39.081,39.4512,3065.9863],[39.0469,39.4255,2631.4727],[39.0141,39.4103,2809.2659],[38.9661,39.3757,2917.4197],[38.8757,39.3409,2765.6121],[38.8487,39.3358,2738.103],[38.8339,39.3294,2948.9124],[38.8199,39.3179,2586.1765],[38.7929,39.28,2853.9434],[38.8205,39.263,2430.9155],[38.8339,39.2576,2422.8276],[38.8495,39.2559,2078.446],[38.9022,39.2554,2034.8295],[38.9138,39.254,2004.7739],[38.9264,39.2501,1663.7393],[38.9142,39.2243,2728.335],[38.8936,39.2135,2292.8262],[38.8271,39.1888,1847.124],[38.7825,39.1855,1219.7131],[38.7735,39.1821,1023.6134],[38.7689,39.1761,1276.3186],[38.7627,39.1618,1026.293],[38.741,39.1388,838.0],[38.7269,39.1157,920.2463],[38.7262,39.1078,1177.1685],[38.7278,39.1029,1141.0262],[38.7355,39.0893,938.5886],[38.7417,39.0709,852.0184],[38.7508,39.0544,835.5],[38.7532,39.0348,835.5],[38.7558,39.027,835.5],[38.7627,39.0173,835.5],[38.7781,39.0014,835.5],[38.7819,38.9933,835.5],[38.7837,38.9786,835.5],[38.7825,38.9424,835.5],[38.7792,38.9311,835.5],[38.7696,38.915,835.5],[38.7682,38.9069,911.2187],[38.7706,38.8961,937.1128],[38.7787,38.888,837.7549],[38.7841,38.885,835.5],[38.8209,38.8738,835.5],[38.8564,38.8721,835.5],[38.8717,38.8743,835.5],[38.8929,38.8815,835.5],[38.942,38.8938,835.5],[39.0274,38.8957,844.8085],[39.0485,38.8931,835.5],[39.0697,38.886,835.5],[39.0969,38.8806,835.5],[39.1147,38.8743,835.5],[39.1419,38.869,835.5],[39.1897,38.8508,835.5],[39.2169,38.8456,872.6478],[39.2647,38.8276,871.3282],[39.2919,38.8221,835.5],[39.3246,38.8039,835.5],[39.4117,38.7701,862.3037],[39.442,38.7639,1112.714],[39.4597,38.7573,835.5],[39.4906,38.7492,1147.8146],[39.5196,38.7645,1081.7086],[39.5499,38.7756,1023.0981],[39.5739,38.7798,1019.8652],[39.5948,38.7875,1131.7227]]]]}
,"properties": {"GID_1": "TUR.76_1","GID_0": "TUR","country": "Turkey","province": "Tunceli","VARNAME_1": "NA","NL_NAME_1": "NA","TYPE_1": "Il","ENGTYPE_1": "Province","CC_1": "NA","HASC_1": "TR.TC","ISO_1": "TR-62","name": "Tunceli.province","area_km2": 8039.798,"hist_schema_id": "Elevation0-9000","hist_area_km2": {"825": 242.369,"850": 87.366,"875": 77.837,"900": 104.381,"925": 99.234,"950": 100.921,"975": 106.662,"1000": 108.742,"1025": 107.444,"1050": 109.806,"1075": 113.094,"1100": 116.59,"1125": 120.994,"1150": 122.228,"1175": 122.601,"1200": 123.745,"1225": 125.734,"1250": 137.185,"1275": 157.573,"1300": 161.851,"1325": 159.968,"1350": 159.329,"1375": 150.431,"1400": 151.824,"1425": 148.852,"1450": 152.702,"1475": 148.798,"1500": 148.469,"1525": 147.871,"1550": 143.853,"1575": 140.846,"1600": 143.064,"1625": 142.577,"1650": 143.779,"1675": 143.601,"1700": 139.858,"1725": 142.075,"1750": 139.951,"1775": 138.077,"1800": 138.067,"1825": 132.433,"1850": 131.591,"1875": 126.379,"1900": 124.104,"1925": 120.887,"1950": 114.978,"1975": 111.952,"2000": 109.554,"2025": 103.067,"2050": 98.089,"2075": 93.345,"2100": 88.028,"2125": 83.268,"2150": 75.497,"2175": 69.217,"2200": 62.839,"2225": 60.067,"2250": 53.69,"2275": 50.737,"2300": 45.788,"2325": 42.429,"2350": 40.329,"2375": 39.164,"2400": 36.998,"2425": 35.177,"2450": 34.112,"2475": 34.485,"2500": 34.959,"2525": 31.714,"2550": 30.305,"2575": 30.272,"2600": 31.073,"2625": 30.893,"2650": 29.877,"2675": 28.96,"2700": 29.009,"2725": 28.237,"2750": 26.88,"2775": 26.355,"2800": 24.44,"2825": 23.557,"2850": 22.212,"2875": 20.181,"2900": 16.512,"2925": 15.823,"2950": 13.137,"2975": 11.302,"3000": 9.942,"3025": 8.746,"3050": 7.009,"3075": 5.715,"3100": 4.831,"3125": 3.422,"3150": 2.096,"3175": 1.719,"3200": 0.786,"3225": 0.688,"3250": 0.262,"3275": 0.18,"3300": 0.082}}}