{"type": "Feature","id": "3045","bbox": [38.71674,38.76327,40.55477,39.58435],"geometry": {"type": "Polygon","coordinates": [[[40.55477,39.54896,2417.6868],[40.47291,39.55087,2071.8098],[40.39188,39.56105,1880.7914],[40.24274,39.56482,2072.1326],[40.22352,39.57314,1923.9011],[40.1859,39.58296,1655.2744],[40.17546,39.58435,1408.2587],[40.17205,39.58115,1363.6223],[40.13991,39.57373,1482.6169],[40.10177,39.56007,1425.5626],[40.08131,39.55697,1360.3827],[39.9887,39.53239,2072.406],[39.91036,39.54779,1646.8656],[39.85641,39.57154,1588.0228],[39.8191,39.56257,1912.6642],[39.77414,39.51854,2125.4756],[39.70376,39.5009,3013.6924],[39.55131,39.48278,2535.4648],[39.47235,39.48219,2070.6633],[39.39577,39.49687,2595.7212],[39.31887,39.50079,2540.4121],[39.27918,39.48402,2719.0693],[39.23712,39.47589,2557.2424],[39.18462,39.48351,2835.687],[39.13211,39.47483,3029.249],[39.03331,39.4462,2779.5554],[39.00602,39.42932,2540.397],[38.98783,39.4024,3106.9885],[38.96272,39.39243,3225.4409],[38.93419,39.39356,2672.3936],[38.91941,39.37793,2672.5146],[38.90804,39.36078,2750.9832],[38.89616,39.35584,2845.1072],[38.83683,39.33874,2703.8882],[38.82102,39.30721,2394.429],[38.83384,39.27654,2039.4468],[38.84769,39.25776,2095.2849],[38.8203,39.24489,2365.7808],[38.79374,39.24065,1738.9985],[38.76996,39.22965,1702.9648],[38.7556,39.1726,1197.7756],[38.73348,39.16402,1280.2587],[38.72811,39.16345,1048.2738],[38.72036,39.15787,989.9164],[38.71674,39.13441,1289.7412],[38.72077,39.11105,1168.4771],[38.72914,39.1064,1290.9413],[38.7372,39.09963,935.006],[38.74568,39.03777,835.5],[38.78433,38.99307,835.5],[38.78526,38.96419,835.5],[38.77058,38.93742,835.5],[38.76976,38.90961,920.1394],[38.81306,38.87716,835.5],[38.84138,38.87654,835.5],[38.91983,38.89287,835.5],[38.99879,38.89747,859.369],[39.04137,38.883,835.5],[39.05119,38.88396,835.5],[39.07082,38.88807,835.5],[39.08085,38.88716,835.5],[39.11217,38.87236,835.5],[39.14369,38.87055,835.5],[39.18431,38.86114,835.5],[39.22544,38.85796,835.5],[39.27133,38.84101,835.5],[39.31432,38.81753,835.5],[39.35866,38.80706,863.8787],[39.37809,38.79577,835.5],[39.40052,38.77412,835.5],[39.4092,38.775149999999996,835.5],[39.42667,38.7789,915.919],[39.45085,38.76947,835.5],[39.47555,38.76327,835.5],[39.50635,38.77996,835.5],[39.53178,38.80606,926.8723],[39.56682,38.81135,978.4351],[39.60237,38.80934,985.4733],[39.69952,38.81432,1172.9878],[39.79285,38.84326,1059.6215],[39.85362,38.89577,954.0914],[39.88018,38.93861,1041.7379],[39.89444,38.98542,1017.3723],[39.8899,39.02072,964.3988],[39.87915,39.05927,976.2563],[39.89227,39.07488,959.7902],[39.91108,39.08591,1051.7793],[39.96142,39.09462,1007.4576],[40.01506,39.09736,1007.8071],[40.0319,39.12808,1254.1616],[40.03996,39.16159,1394.7983],[40.01888,39.23696,1972.4674],[40.02477,39.26329,2514.186],[40.03583,39.28861,1936.5649],[40.04162,39.33801,1841.1636],[40.05629,39.35788,1842.2863],[40.10528,39.3701,1920.2966],[40.17567,39.36708,1835.9719],[40.18962,39.37178,1736.1677],[40.19913,39.3884,1597.4744],[40.20771,39.40798,1899.9622],[40.25277,39.42178,2211.7461],[40.30165,39.42106,1525.1021],[40.34837,39.44702,1534.5137],[40.37638,39.49188,1880.7249],[40.39229,39.50219,2081.6384],[40.43932,39.49557,2137.8857],[40.46526,39.49439,2052.7747],[40.51549,39.51273,2669.0405],[40.55477,39.54896,2417.6868]]]}
,"properties": {"ISO3166-1-Alpha-3": "TUR","country": "Turkey","fill": "#F00","name": "Tunceli","area_km2": 7895.437,"hist_schema_id": "Elevation0-9000","hist_area_km2": {"825": 218.46,"850": 84.549,"875": 73.87,"900": 96.618,"925": 93.286,"950": 96.917,"975": 101.009,"1000": 101.521,"1025": 101.71,"1050": 105.077,"1075": 108.134,"1100": 111.911,"1125": 117.189,"1150": 118.572,"1175": 119.868,"1200": 121.87,"1225": 125.165,"1250": 135.816,"1275": 156.583,"1300": 160.996,"1325": 159.444,"1350": 161.179,"1375": 151.938,"1400": 150.892,"1425": 147.329,"1450": 150.638,"1475": 146.029,"1500": 145.487,"1525": 144.117,"1550": 139.641,"1575": 136.993,"1600": 137.948,"1625": 138.266,"1650": 137.563,"1675": 138.025,"1700": 133.805,"1725": 135.368,"1750": 133.947,"1775": 131.238,"1800": 131.409,"1825": 124.857,"1850": 124.473,"1875": 119.671,"1900": 117.066,"1925": 113.39,"1950": 108.383,"1975": 107.106,"2000": 104.298,"2025": 98.321,"2050": 93.018,"2075": 89.483,"2100": 83.757,"2125": 80.8,"2150": 74.145,"2175": 67.488,"2200": 61.815,"2225": 61.108,"2250": 55.698,"2275": 53.026,"2300": 48.715,"2325": 44.899,"2350": 43.094,"2375": 41.552,"2400": 40.058,"2425": 37.909,"2450": 35.861,"2475": 36.202,"2500": 36.529,"2525": 33.383,"2550": 31.958,"2575": 32.203,"2600": 33.316,"2625": 33.054,"2650": 31.875,"2675": 31.481,"2700": 31.661,"2725": 31.283,"2750": 29.779,"2775": 29.696,"2800": 27.388,"2825": 27.061,"2850": 26.29,"2875": 23.816,"2900": 21.064,"2925": 19.245,"2950": 16.477,"2975": 14.593,"3000": 12.758,"3025": 11.922,"3050": 9.531,"3075": 8.155,"3100": 7.254,"3125": 5.371,"3150": 3.962,"3175": 3.242,"3200": 1.785,"3225": 1.277,"3250": 0.655,"3275": 0.475,"3300": 0.229,"3325": 0.082}}}