{"type":"Feature","properties":{"GID_2":"TUR.76.7_1","GID_0":"TUR","country":"Turkey","GID_1":"TUR.76_1","province":"Tunceli","NL_NAME_1":"NA","county":"Pertek","VARNAME_2":"NA","NL_NAME_2":"NA","TYPE_2":"District","ENGTYPE_2":"District","CC_2":"NA","HASC_2":"TR.TC.PE","name":"Pertek.county"},
"geometry":{"type": "MultiPolygon","coordinates": [[[[39.6303,38.8018,1099.168],[39.6516,38.8399,836.5],[39.6554,38.8737,1159.3245],[39.6578,38.8816,1132.8005],[39.6654,38.895,1118.5289],[39.6662,38.9002,1141.9141],[39.6638,38.908,1171.8657],[39.6445,38.9282,953.4766],[39.6346,38.942,914.7412],[39.6226,38.9506,961.1924],[39.6075,38.9568,881.9427],[39.5872,38.9691,1017.7704],[39.5708,38.975,928.2548],[39.5503,38.9771,956.3926],[39.4724,38.9756,1349.1305],[39.4451,38.9785,1487.1091],[39.4275,38.989,1522.5497],[39.4047,39.0154,1536.653],[39.3904,39.0215,1638.4635],[39.344,39.0228,1687.6359],[39.325,39.0205,1520.7322],[39.2886,39.0059,1366.2786],[39.2753,38.996,1195.4183],[39.2618,38.9816,1217.3419],[39.2567,38.9785,1265.834],[39.2354,38.9755,1492.0908],[39.2084,38.9775,1353.385],[39.1714,38.9908,1227.7302],[39.1455,39.0045,1177.7542],[39.1324,39.0212,1271.2542],[39.1162,39.047,1364.4783],[39.1054,39.0735,1504.4843],[39.0799,39.0549,1470.6125],[39.0734,39.0478,1608.3926],[39.069,39.0366,1284.4834],[39.0681,39.0005,1213.179],[39.0654,38.989,986.403],[39.0504,38.9657,912.2781],[39.0301,38.9455,843.4532],[39.0244,38.9352,898.3801],[39.0231,38.9153,873.1532],[39.0274,38.8957,844.8085],[39.0485,38.8931,835.5],[39.0697,38.886,835.5],[39.0969,38.8806,835.5],[39.1147,38.8743,835.5],[39.1419,38.869,835.5],[39.1897,38.8508,835.5],[39.2169,38.8456,872.6478],[39.2647,38.8276,871.3282],[39.2919,38.8221,835.5],[39.3246,38.8039,835.5],[39.4117,38.7701,862.3037],[39.442,38.7639,1112.714],[39.4597,38.7573,835.5],[39.4906,38.7492,1147.8146],[39.5196,38.7645,1081.7086],[39.5499,38.7756,1023.0981],[39.5803,38.7816,1106.0297],[39.6303,38.8018,1099.168]]]]}}