{"type":"Feature","properties":{"GID_2":"TUR.34.12_1","GID_0":"TUR","country":"Turkey","GID_1":"TUR.34_1","province":"Giresun","NL_NAME_1":"NA","county":"Merkez","VARNAME_2":"Giresun","NL_NAME_2":"NA","TYPE_2":"District","ENGTYPE_2":"District","CC_2":"NA","HASC_2":"TR.GI.GI","name":"Merkez.county"},
"geometry":{"type": "MultiPolygon","coordinates": [[[[38.306399999999996,40.6999,1348.3925],[38.3361,40.7,1691.391],[38.3503,40.7023,1467.2498],[38.3925,40.7263,1034.5305],[38.4033,40.7386,1058.2292],[38.418,40.7514,712.8686],[38.4593,40.7832,190.2935],[38.479,40.7955,460.6321],[38.5071,40.8198,662.1949],[38.5131,40.8261,507.1817],[38.5165,40.8336,562.6967],[38.5169,40.8388,661.226],[38.5144,40.846,611.3322],[38.5099,40.8495,583.8074],[38.4856,40.8552,428.7426],[38.4713,40.8633,315.03],[38.4376,40.8897,23.1337],[38.414,40.9154,20.2487],[38.4065,40.9143,3.258],[38.401,40.9154,6.7823],[38.3943,40.9196,13.7722],[38.3926,40.9238,0.0],[38.3896,40.9243,2.6439],[38.3815,40.9229,0.489],[38.376,40.9207,0.0],[38.3776,40.9201,0.0],[38.3818,40.9224,0.489],[38.3849,40.9218,2.1278],[38.3829,40.9179,3.8914],[38.3799,40.9168,0.5189],[38.3779,40.9185,0.0],[38.3785,40.9149,8.2781],[38.3765,40.914,2.4312],[38.3774,40.9168,0.3224],[38.3763,40.9165,0.3224],[38.3757,40.9135,7.5721],[38.3688,40.9096,4.338],[38.3543,40.9096,4.0275],[38.3404,40.8851,78.7282],[38.3355,40.8693,364.4359],[38.3315,40.8615,223.8766],[38.2987,40.8322,315.5391],[38.2949,40.827,440.5915],[38.2921,40.8185,579.3041],[38.2916,40.725,741.9556],[38.2951,40.7127,930.4411],[38.306399999999996,40.6999,1348.3925]]]]}}