{"type":"Feature","properties":{"GID_2":"TUR.26.9_1","GID_0":"TUR","country":"Turkey","GID_1":"TUR.26_1","province":"Diyarbakir","NL_NAME_1":"NA","county":"Hazro","VARNAME_2":"NA","NL_NAME_2":"NA","TYPE_2":"District","ENGTYPE_2":"District","CC_2":"NA","HASC_2":"TR.DY.HR","name":"Hazro.county"},
"geometry":{"type": "MultiPolygon","coordinates": [[[[40.6378,38.2289,848.3432],[40.6559,38.206,830.1408],[40.6702,38.1825,778.5634],[40.6771,38.1614,779.3433],[40.6884,38.1486,739.995],[40.7047,38.158,739.4077],[40.7501,38.1755,816.4198],[40.7739,38.1903,851.4676],[40.7832,38.1938,793.4432],[40.7976,38.1953,801.6745],[40.8121,38.1946,828.0468],[40.8225,38.1926,794.2762],[40.8465,38.1841,825.8326],[40.8571,38.1836,831.5315],[40.8674,38.1855,854.7675],[40.8778,38.1918,861.0707],[40.8907,38.21,1079.219],[40.9047,38.2229,1342.3827],[40.9313,38.2427,1362.1812],[40.9548,38.2561,1119.0227],[40.9588,38.2629,1075.772],[40.9598,38.2763,918.472],[40.9567,38.2873,938.7594],[40.951,38.2945,1086.0864],[40.9249,38.3147,970.8849],[40.9127,38.3206,964.9037],[40.8826,38.3269,1044.3979],[40.8468,38.347,784.0787],[40.7729,38.3454,1135.5889],[40.7616,38.3427,1183.8896],[40.7138,38.325,946.2608],[40.6527,38.3222,1160.9539],[40.6205,38.3132,1108.7703],[40.6377,38.2919,1172.7712],[40.6426,38.2812,1059.6936],[40.6442,38.2685,1020.6871],[40.6437,38.2522,973.3376],[40.6416,38.2393,854.1692],[40.6378,38.2289,848.3432]]]]}}