{"type": "Feature","bbox": [34.3192,36.9887,34.8135,37.3331],"geometry": {"type": "MultiPolygon","coordinates": [[[[34.3192,37.222,2924.2114],[34.3303,37.2091,2324.6138],[34.3374,37.1881,2012.4098],[34.3536,37.162,2187.447],[34.3885,37.1323,2046.2572],[34.4068,37.1209,2019.5133],[34.4141,37.1186,2123.4011],[34.4299,37.1168,1730.915],[34.5451,37.1179,900.8945],[34.5634,37.1162,620.4689],[34.5717,37.1112,574.4625],[34.5747,37.1034,943.2239],[34.5735,37.0672,1056.3956],[34.59,37.07,948.9935],[34.6138,37.069,984.9052],[34.6254,37.0637,757.0217],[34.6299,37.0598,812.0403],[34.6388,37.0455,753.1956],[34.6452,37.0386,922.6088],[34.6616,37.0276,698.8899],[34.6719,37.0258,626.5391],[34.6786,37.0265,594.4406],[34.6955,37.0328,559.0422],[34.7056,37.0346,584.8309],[34.7233,37.0334,536.6328],[34.7504,37.0206,164.9193],[34.77,36.9936,264.0529],[34.7747,36.9903,234.7395],[34.7806,36.9887,256.2039],[34.7899,36.989,222.6227],[34.7958,36.9917,222.1609],[34.799,36.9962,221.0732],[34.7997,37.0012,230.2719],[34.7982,37.009,315.8278],[34.7775,37.0401,308.8703],[34.7758,37.0465,247.912],[34.7814,37.0542,266.699],[34.8054,37.0651,437.0961],[34.8113,37.0712,484.3449],[34.8135,37.0765,447.0218],[34.8131,37.0903,431.3696],[34.8037,37.1065,544.3248],[34.7969,37.1233,498.6508],[34.7904,37.1284,417.5245],[34.7716,37.1372,649.7468],[34.6926,37.1671,933.2526],[34.6692,37.1813,918.6631],[34.6476,37.1902,1104.0186],[34.6371,37.1967,1185.4689],[34.6238,37.2086,1341.7963],[34.6147,37.223,1743.4611],[34.5942,37.2438,2160.8669],[34.5812,37.2623,1382.9314],[34.5358,37.2997,1744.5837],[34.5141,37.3331,2747.0303],[34.5035,37.3244,2875.3928],[34.4952,37.3138,2846.0508],[34.4859,37.3069,2913.7217],[34.4106,37.2779,2830.7983],[34.3809,37.2604,2845.7854],[34.3328,37.2419,2971.1858],[34.324,37.2345,2937.875],[34.3192,37.222,2924.2114]]]]}
,"properties": {"GID_2": "TUR.58.4_1","GID_0": "TUR","country": "Turkey","GID_1": "TUR.58_1","province": "Mersin","NL_NAME_1": "NA","county": "Çamlıyayla","VARNAME_2": "NA","NL_NAME_2": "NA","TYPE_2": "District","ENGTYPE_2": "District","CC_2": "NA","HASC_2": "TR.IC.CA","name": "Çamlıyayla.county","area_km2": 698.8223,"hist_schema_id": "Elevation0-9000","hist_area_km2": {"125": 0.5078,"150": 1.4388,"175": 1.3034,"200": 2.8268,"225": 4.4349,"250": 4.4347,"275": 5.0773,"300": 4.315,"325": 5.3468,"350": 4.8049,"375": 5.4809,"400": 5.0578,"425": 5.6495,"450": 5.8695,"475": 5.3958,"500": 5.5986,"525": 6.7655,"550": 8.0515,"575": 9.1001,"600": 8.1531,"625": 8.0007,"650": 7.9154,"675": 7.3905,"700": 7.4411,"725": 7.6773,"750": 7.8126,"775": 7.254,"800": 8.3355,"825": 9.0284,"850": 8.6563,"875": 9.8561,"900": 10.279,"925": 11.2088,"950": 12.1216,"975": 10.6673,"1000": 10.7683,"1025": 10.1252,"1050": 10.5133,"1075": 10.7323,"1100": 11.0361,"1125": 10.3928,"1150": 10.4265,"1175": 8.4994,"1200": 8.2115,"1225": 8.0256,"1250": 8.3463,"1275": 8.7856,"1300": 8.1091,"1325": 7.7374,"1350": 7.6697,"1375": 5.7604,"1400": 5.6756,"1425": 5.6078,"1450": 6.3006,"1475": 6.081,"1500": 6.2669,"1525": 6.6045,"1550": 6.7563,"1575": 6.7895,"1600": 5.8434,"1625": 6.0294,"1650": 6.6883,"1675": 6.232,"1700": 5.7927,"1725": 6.1133,"1750": 6.3329,"1775": 7.211,"1800": 6.5524,"1825": 7.1096,"1850": 6.6371,"1875": 6.8395,"1900": 6.164,"1925": 7.5661,"1950": 6.5523,"1975": 6.3831,"2000": 5.7413,"2025": 6.3493,"2050": 6.1127,"2075": 6.484,"2100": 5.758,"2125": 5.6224,"2150": 5.4371,"2175": 5.0993,"2200": 5.0821,"2225": 4.9472,"2250": 5.3353,"2275": 4.5588,"2300": 4.7949,"2325": 4.8457,"2350": 4.9804,"2375": 5.2672,"2400": 3.9331,"2425": 3.4095,"2450": 2.9705,"2475": 2.751,"2500": 2.7676,"2525": 2.5312,"2550": 2.4129,"2575": 4.387,"2600": 2.5648,"2625": 1.8224,"2650": 1.3667,"2675": 1.0968,"2700": 1.2824,"2725": 1.5862,"2750": 2.3122,"2775": 2.4973,"2800": 2.6997,"2825": 3.4926,"2850": 3.3743,"2875": 4.0492,"2900": 4.8421,"2925": 6.6474,"2950": 5.2978,"2975": 4.0998,"3000": 3.7961,"3025": 1.3497,"3050": 0.4894,"3075": 0.0506}}}