{"type":"Feature","properties":{"GID_2":"TUR.7.9_1","GID_0":"TUR","country":"Turkey","GID_1":"TUR.7_1","province":"Ankara","NL_NAME_1":"NA","county":"Elmadağ","VARNAME_2":"NA","NL_NAME_2":"NA","TYPE_2":"District","ENGTYPE_2":"District","CC_2":"NA","HASC_2":"TR.AN.EL","name":"Elmadağ.county"},
"geometry":{"type": "MultiPolygon","coordinates": [[[[33.1355,39.9816,1138.5486],[33.1211,39.9689,1089.205],[33.1064,39.9602,1117.4331],[33.1216,39.9315,1241.0402],[33.1241,39.9065,1430.0496],[33.1227,39.8523,1585.8674],[33.1202,39.8433,1525.7288],[33.1112,39.8268,1470.4467],[33.1079,39.8139,1451.4233],[33.1334,39.7994,1210.3844],[33.1908,39.7556,924.1794],[33.1995,39.751,892.4144],[33.2327,39.7386,985.5906],[33.2493,39.7371,1022.6727],[33.2693,39.7387,1195.1948],[33.3163,39.7573,1160.2413],[33.3249,39.7589,1159.8579],[33.3361,39.7577,1303.5782],[33.3563,39.7511,1139.9335],[33.3746,39.7691,976.3807],[33.4341,39.814,829.0515],[33.4701,39.8283,674.7274],[33.4999,39.8362,715.7502],[33.5059,39.8449,729.3666],[33.5155,39.8515,761.694],[33.5609,39.8684,803.9922],[33.5824,39.8785,815.1159],[33.5717,39.8857,885.0206],[33.5544,39.8937,1029.892],[33.5247,39.9149,1110.0903],[33.513,39.9214,1090.6932],[33.3028,40.0027,1477.8141],[33.2825,40.0056,1376.2737],[33.1969,40.0048,1288.2916],[33.1821,40.0019,1208.0582],[33.1549,39.9916,1211.1046],[33.1355,39.9816,1138.5486]]]]}}