{"type":"Feature","properties":{"GID_2":"TUR.47.15_1","GID_0":"TUR","country":"Turkey","GID_1":"TUR.47_1","province":"Kayseri","NL_NAME_1":"NA","county":"Yahyalı","VARNAME_2":"NA","NL_NAME_2":"NA","TYPE_2":"District","ENGTYPE_2":"District","CC_2":"NA","HASC_2":"TR.KY.YA","name":"Yahyalı.county"},
"geometry":{"type": "MultiPolygon","coordinates": [[[[35.5897,37.9459,2052.8005],[35.605,37.9489,1668.2158],[35.621,37.9558,1747.6567],[35.6272,37.9612,1717.8961],[35.6394,37.9786,2008.6833],[35.6448,37.9972,1750.8425],[35.6539,38.0137,1746.5983],[35.6608,38.0348,1938.4248],[35.681,38.0597,1902.8978],[35.6618,38.081,1762.6982],[35.6576,38.0943,1512.1163],[35.6578,38.1056,1496.7473],[35.6597,38.1138,1470.5159],[35.6697,38.13,1525.187],[35.6723,38.1381,1584.2747],[35.6732,38.1493,1726.5226],[35.672,38.1576,1701.34],[35.6697,38.1628,1497.0836],[35.6639,38.169,1431.9486],[35.6445,38.1778,1528.7979],[35.6347,38.1842,1389.4719],[35.6297,38.1912,1368.6449],[35.6281,38.197,1364.7062],[35.6283,38.2678,1285.2697],[35.6251,38.2793,1290.799],[35.6216,38.2837,1290.6415],[35.6118,38.2905,1296.542],[35.5818,38.3015,1383.2695],[35.5577,38.3056,1694.8923],[35.5365,38.3128,1854.8414],[35.5062,38.319,1784.2942],[35.3924,38.3629,1085.2209],[35.3796,38.3709,1077.8108],[35.3662,38.3892,1099.9204],[35.348,38.4034,1091.5314],[35.3382,38.4071,1086.7373],[35.3144,38.4116,1073.3381],[35.286,38.4232,1073.2712],[35.2823,38.4,1072.3207],[35.2826,38.3889,1071.7524],[35.2846,38.3813,1071.6654],[35.2897,38.3753,1071.8329],[35.3137,38.3609,1071.7308],[35.3253,38.3498,1071.7166],[35.3414,38.3237,1073.4607],[35.3434,38.3069,1072.8281],[35.3413,38.2958,1073.208],[35.3384,38.2905,1073.074],[35.3265,38.2794,1072.5128],[35.3148,38.2724,1072.2592],[35.29,38.262,1072.0934],[35.26,38.2399,1071.3917],[35.2796,38.2215,1073.6515],[35.308,38.1773,1080.995],[35.3112,38.169,1086.5618],[35.3127,38.1533,1222.7678],[35.3125,38.0503,1962.5729],[35.3109,38.0314,2221.6914],[35.3076,38.0231,2160.0239],[35.2945,38.002,2302.9326],[35.2658,37.9592,2385.3657],[35.302,37.9448,2497.6453],[35.3368,37.941,2273.2031],[35.3621,37.9333,1982.7996],[35.3968,37.9293,1831.0875],[35.4182,37.9221,1828.9683],[35.4372,37.9196,1943.1982],[35.4721,37.9212,1174.1171],[35.4973,37.9292,1051.958],[35.5319,37.9332,1105.802],[35.5569,37.9411,1444.7446],[35.5897,37.9459,2052.8005]]]]}}