{"type":"Feature","properties":{"GID_2":"TUR.39.10_1","GID_0":"TUR","country":"Turkey","GID_1":"TUR.39_1","province":"Isparta","NL_NAME_1":"NA","county":"Sütçüler","VARNAME_2":"NA","NL_NAME_2":"NA","TYPE_2":"District","ENGTYPE_2":"District","CC_2":"NA","HASC_2":"TR.IP.SU","name":"Sütçüler.county"},
"geometry":{"type": "MultiPolygon","coordinates": [[[[31.3233,37.4244,2184.9238],[31.3414,37.4442,1708.2092],[31.35,37.4674,1482.2671],[31.358,37.4813,1427.1449],[31.3614,37.4997,1455.926],[31.3625,37.5348,1485.6399],[31.3658,37.5499,1479.1917],[31.3444,37.5505,1958.4331],[31.3328,37.5526,1917.026],[31.303,37.5697,1388.3568],[31.2792,37.5799,1586.4408],[31.252,37.6008,1831.9752],[31.2329,37.625,1675.373],[31.2252,37.6297,1856.4109],[31.1739,37.65,1277.8594],[31.1347,37.6799,1565.8721],[31.1151,37.6998,1247.6281],[31.0915,37.7017,1417.3777],[31.0468,37.7018,1624.5203],[31.0327,37.6995,1180.0847],[31.0206,37.6934,1316.1538],[30.9047,37.603,1053.073],[30.8987,37.5961,991.1069],[30.8614,37.5378,690.4168],[30.8521,37.5308,618.7513],[30.8348,37.5236,612.4623],[30.8275,37.5186,503.8013],[30.816,37.5028,496.4178],[30.8058,37.4923,313.2711],[30.8106,37.4793,485.2567],[30.8266,37.4639,381.8144],[30.8459,37.4508,304.8507],[30.873,37.4393,270.4951],[30.8898,37.4261,273.8396],[30.9079,37.3982,583.0831],[30.9159,37.3725,895.2529],[30.9291,37.3743,1007.0106],[30.9427,37.3719,1154.1095],[30.9541,37.3653,1322.0059],[30.9774,37.3476,1668.5486],[30.9864,37.3435,1818.5853],[30.9933,37.3426,1629.6799],[31.0032,37.3441,1259.8693],[31.0471,37.3615,1419.702],[31.0743,37.3668,1261.5977],[31.096,37.3738,1323.6543],[31.1308,37.3776,1722.5272],[31.1525,37.3844,1681.5114],[31.1797,37.3897,1388.4541],[31.2043,37.4009,862.2271],[31.2197,37.4152,1063.1417],[31.2313,37.4205,851.8422],[31.2466,37.4224,993.238],[31.2994,37.4224,1470.2113],[31.3233,37.4244,2184.9238]]]]}}