{"type": "Feature","bbox": [27.6971,37.457,27.9219,37.6403],"geometry": {"type": "MultiPolygon","coordinates": [[[[27.7692,37.6403,512.9088],[27.7564,37.6144,376.3124],[27.7489,37.6049,391.9851],[27.7254,37.5867,481.8942],[27.7041,37.5748,592.6249],[27.6989,37.5687,656.6206],[27.6971,37.5611,732.6845],[27.6977,37.5502,731.7715],[27.7002,37.5422,707.1793],[27.7106,37.5233,571.5413],[27.7123,37.4946,668.5894],[27.7259,37.492,648.9406],[27.747,37.4847,734.3854],[27.7708,37.4802,1191.5569],[27.7923,37.4731,845.7153],[27.8424,37.4694,432.4024],[27.885,37.457,559.1274],[27.8956,37.4819,589.9401],[27.9043,37.4956,584.4861],[27.9102,37.5141,412.5754],[27.9186,37.5278,402.9952],[27.9214,37.5355,344.0598],[27.9219,37.5438,291.7108],[27.9199,37.552,227.3048],[27.9057,37.5755,76.9494],[27.8908,37.5942,75.0148],[27.8831,37.5984,84.8031],[27.8435,37.6084,156.414],[27.818,37.6045,343.6046],[27.8093,37.6068,373.9279],[27.7909,37.6195,451.2842],[27.7692,37.6403,512.9088]]]]}
,"properties": {"GID_2": "TUR.11.8_1","GID_0": "TUR","country": "Turkey","GID_1": "TUR.11_1","province": "Aydin","NL_NAME_1": "NA","county": "Karpuzlu","VARNAME_2": "NA","NL_NAME_2": "NA","TYPE_2": "District","ENGTYPE_2": "District","CC_2": "NA","HASC_2": "TR.AY.KP","name": "Karpuzlu.county","area_km2": 258.948,"hist_schema_id": "Elevation0-9000","hist_area_km2": {"75": 20.2651,"100": 23.262,"125": 9.5136,"150": 8.9418,"175": 7.3962,"200": 5.6988,"225": 5.1441,"250": 5.9007,"275": 5.6821,"300": 6.3207,"325": 8.8077,"350": 9.1935,"375": 8.942,"400": 8.2032,"425": 9.1953,"450": 9.3472,"475": 10.3392,"500": 11.9369,"525": 11.1139,"550": 10.5939,"575": 8.7278,"600": 9.1149,"625": 7.5504,"650": 4.7923,"675": 3.9349,"700": 3.0941,"725": 2.7243,"750": 2.5898,"775": 2.3881,"800": 1.665,"825": 1.8333,"850": 1.9007,"875": 1.7324,"900": 1.8334,"925": 1.4129,"950": 1.0261,"975": 1.0765,"1000": 1.0261,"1025": 1.2616,"1050": 0.757,"1075": 0.8915,"1100": 0.7233,"1125": 0.286,"1150": 0.4374,"1175": 0.1682,"1200": 0.1851,"1225": 0.0168}}}