{"type":"Feature","properties":{"GID_2":"TUR.49.9_1","GID_0":"TUR","country":"Turkey","GID_1":"TUR.49_1","province":"Kinkkale","NL_NAME_1":"NA","county":"Yahşihan","VARNAME_2":"NA","NL_NAME_2":"NA","TYPE_2":"District","ENGTYPE_2":"District","CC_2":"NA","HASC_2":"TR.KK.YA","name":"Yahşihan.county"},
"geometry":{"type": "MultiPolygon","coordinates": [[[[33.3204,39.595,944.2676],[33.3469,39.6002,920.5767],[33.3947,39.6184,787.409],[33.4313,39.6233,768.3135],[33.4414,39.6432,809.7543],[33.4666,39.6827,750.0784],[33.4688,39.6972,720.0],[33.4685,39.7453,704.5386],[33.4718,39.7596,698.5148],[33.4773,39.7668,693.5098],[33.487,39.7753,790.9445],[33.5181,39.7959,765.1062],[33.5061,39.8043,732.6066],[33.5014,39.811,715.8408],[33.4993,39.8219,737.2094],[33.4999,39.8362,715.7502],[33.4701,39.8283,674.7274],[33.4341,39.814,829.0515],[33.3746,39.7691,976.3807],[33.3563,39.7511,1139.9335],[33.336,39.7102,1249.5229],[33.3315,39.6744,1103.6421],[33.3199,39.6488,1048.7355],[33.3181,39.6229,1022.3525],[33.3204,39.595,944.2676]]]]}}