{"type": "Feature","bbox": [36.9679,39.519,37.7043,40.2229],"geometry": {"type": "MultiPolygon","coordinates": [[[[37.4342,40.1534,2250.0857],[37.4089,40.1554,1591.6575],[37.3843,40.1631,1345.2228],[37.349,40.1672,1060.9082],[37.3205,40.1756,1401.73],[37.2664,40.1777,1588.9609],[37.2304,40.1872,1621.6083],[37.1688,40.1902,1791.3066],[37.135,40.2022,1719.1692],[37.091,40.2204,1714.542],[37.0775,40.2229,1850.5104],[37.0668,40.2226,1722.019],[37.0568,40.2204,1662.2246],[36.997,40.197,1819.4956],[36.9679,40.1822,2040.6702],[36.9775,40.1712,1793.9283],[37.0093,40.1435,2000.8417],[37.0234,40.1206,1700.6772],[37.0252,40.1131,1657.6063],[37.0421,40.0971,1625.3092],[37.0776,40.0685,1528.9869],[37.084,40.0619,1545.6259],[37.0954,40.0453,1614.7594],[37.127,40.0181,1775.9731],[37.1299,40.0132,1919.5392],[37.1306,40.0052,1892.5649],[37.1205,39.9874,1819.7312],[37.1193,39.9797,1688.2255],[37.1212,39.9724,1644.5415],[37.1249,39.9686,1626.532],[37.1518,39.953,1691.2255],[37.172,39.9363,2049.426],[37.2057,39.885,1575.5129],[37.2086,39.8712,1508.4094],[37.2066,39.8544,1435.9106],[37.1822,39.8175,1274.8896],[37.1788,39.8098,1269.6355],[37.1776,39.7929,1269.2812],[37.182,39.7794,1332.7654],[37.1927,39.7691,1471.5221],[37.206,39.7608,1398.2102],[37.288,39.7295,1517.799],[37.3046,39.7182,1618.6091],[37.3196,39.7056,1516.2191],[37.3255,39.6986,1619.3967],[37.3774,39.6166,1547.9258],[37.3982,39.5959,1657.1846],[37.4096,39.5793,1660.4199],[37.4432,39.5495,1752.4009],[37.447,39.5417,1854.7329],[37.4519,39.519,1903.1473],[37.4792,39.5339,1889.7451],[37.5125,39.5418,1803.696],[37.5142,39.5455,1808.1833],[37.5178,39.548,1853.6475],[37.533,39.555,1930.5762],[37.5494,39.5589,2076.2385],[37.5711,39.5603,1930.9828],[37.5848,39.563,1894.4258],[37.612,39.5733,1973.2906],[37.6444,39.5922,1902.2368],[37.6748,39.6031,1748.3804],[37.6962,39.6078,1697.0922],[37.7022,39.6136,1688.9607],[37.7043,39.6238,1971.7061],[37.7023,39.6375,1770.6177],[37.6857,39.6632,1704.437],[37.6743,39.6722,1878.973],[37.6544,39.6805,1520.5295],[37.647,39.6884,1456.2056],[37.6459,39.6937,1451.381],[37.6485,39.7014,1603.4958],[37.6633,39.7157,1430.0729],[37.667,39.7226,1450.9873],[37.6655,39.7292,1374.1],[37.6566,39.7449,1368.9147],[37.6503,39.7509,1387.2068],[37.6423,39.7556,1355.3861],[37.5997,39.7712,1321.0703],[37.5901,39.7761,1320.9778],[37.5674,39.7927,1494.6838],[37.5566,39.805,1480.6487],[37.5532,39.8199,1344.6956],[37.5528,39.8758,1299.0664],[37.5503,39.8845,1298.7065],[37.5422,39.8983,1454.6808],[37.5392,39.9099,1524.5272],[37.5387,40.0034,1748.311],[37.5396,40.0156,1896.9329],[37.5421,40.0244,1756.6102],[37.5578,40.0502,1735.6567],[37.5757,40.0748,1927.4386],[37.5857,40.0813,1909.321],[37.6071,40.0905,2061.291],[37.6395,40.1101,1753.5558],[37.6426,40.115,1689.8441],[37.6444,40.1235,1644.7107],[37.643,40.1481,1400.4528],[37.6013,40.1333,1419.6958],[37.5843,40.1309,1532.9917],[37.5705,40.1325,1468.2058],[37.5453,40.1403,1708.897],[37.4883,40.143,1874.3269],[37.4593,40.1513,2325.9792],[37.4342,40.1534,2250.0857]]]]}
,"properties": {"GID_2": "TUR.72.8_1","GID_0": "TUR","country": "Turkey","GID_1": "TUR.72_1","province": "Sivas","NL_NAME_1": "NA","county": "Hafik","VARNAME_2": "NA","NL_NAME_2": "NA","TYPE_2": "District","ENGTYPE_2": "District","CC_2": "NA","HASC_2": "TR.SV.HA","name": "Hafik.county","area_km2": 2369.647,"hist_schema_id": "Elevation0-9000","hist_area_km2": {"1050": 0.356,"1075": 1.361,"1100": 1.799,"1125": 2.058,"1150": 2.447,"1175": 2.966,"1200": 3.743,"1225": 4.311,"1250": 4.943,"1275": 90.2,"1300": 147.658,"1325": 88.953,"1350": 56.532,"1375": 66.601,"1400": 82.262,"1425": 98.015,"1450": 106.3,"1475": 110.68,"1500": 119.04,"1525": 114.24,"1550": 105.267,"1575": 97.9,"1600": 97.034,"1625": 100.859,"1650": 95.77,"1675": 87.075,"1700": 76.886,"1725": 71.521,"1750": 65.61,"1775": 59.132,"1800": 52.293,"1825": 48.414,"1850": 40.971,"1875": 39.206,"1900": 33.962,"1925": 29.334,"1950": 27.239,"1975": 24.4,"2000": 19.641,"2025": 15.449,"2050": 12.981,"2075": 10.206,"2100": 8.986,"2125": 6.905,"2150": 6.272,"2175": 5.328,"2200": 4.678,"2225": 4.337,"2250": 3.103,"2275": 3.024,"2300": 1.904,"2325": 1.839,"2350": 1.579,"2375": 1.223,"2400": 1.109,"2425": 1.043,"2450": 0.864,"2475": 0.456,"2500": 0.342,"2525": 0.277,"2550": 0.375,"2575": 0.163,"2600": 0.13,"2625": 0.065}}}