{"type":"Feature","properties":{"GID_1":"TUR.57_1","GID_0":"TUR","country":"Turkey","province":"Mardin","VARNAME_1":"NA","NL_NAME_1":"NA","TYPE_1":"Il","ENGTYPE_1":"Province","CC_1":"NA","HASC_1":"TR.MR","ISO_1":"TR-47","name":"Mardin.province"},
"geometry":{"type": "MultiPolygon","coordinates": [[[[40.8543,37.1075,472.1392],[40.8581,37.1084,473.3958],[40.8705,37.118,483.4733],[40.8859,37.1243,487.046],[40.9211,37.1271,483.394],[40.95,37.1244,487.3498],[40.9724,37.1174,483.7137],[41.0005,37.112,477.8549],[41.0324,37.1074,484.274],[41.0595,37.1054,500.1487],[41.1145,37.0951,495.8967],[41.1324,37.0931,500.226],[41.1697,37.0922,482.3933],[41.2044,37.0793,479.1792],[41.2077,37.0765,481.6481],[41.2119,37.067,469.3504],[41.2184,37.0636,457.4099],[41.2368,37.0649,458.819],[41.2488,37.0691,455.3019],[41.2575,37.075,455.7238],[41.2711,37.0792,463.688],[41.5009,37.0795,436.1231],[41.5581,37.0852,461.0148],[41.5897,37.0924,480.233],[41.6265,37.1051,503.0327],[41.6574,37.1124,534.2224],[41.6869,37.1145,537.1781],[41.7284,37.1135,547.2296],[41.7586,37.1175,574.5923],[41.8692,37.139,623.9591],[41.8752,37.1657,650.0317],[41.8864,37.1882,652.3859],[41.888,37.2093,662.5234],[41.8857,37.2242,708.878],[41.8755,37.2438,774.2627],[41.8707,37.2709,842.437],[41.8621,37.2876,826.9408],[41.8575,37.3016,802.1653],[41.8512,37.3065,793.7895],[41.8422,37.307,788.5364],[41.8231,37.3001,831.6722],[41.7995,37.2949,842.2455],[41.7855,37.2894,846.4481],[41.7723,37.2882,845.183],[41.7632,37.2913,890.1151],[41.7564,37.2967,877.0862],[41.7427,37.3234,808.9189],[41.739,37.3371,798.8521],[41.7378,37.3574,746.3569],[41.7381,37.4432,746.1366],[41.7407,37.4683,894.5291],[41.7696,37.4815,860.812],[41.8081,37.4863,783.7364],[41.8332,37.494,541.3701],[41.8872,37.4959,770.9504],[41.902,37.4984,805.0482],[41.9116,37.5027,850.9393],[41.9492,37.5255,963.4473],[41.9469,37.5476,1121.939],[41.9355,37.5692,930.9419],[41.9335,37.5859,760.2803],[41.9367,37.5997,725.5001],[41.9461,37.613,644.2056],[41.9573,37.6331,1031.677],[41.9556,37.642,1237.7886],[41.9463,37.6579,1049.2079],[41.9242,37.6807,734.3547],[41.9188,37.6936,777.8707],[41.8976,37.7115,838.9771],[41.8913,37.7207,1045.0874],[41.8889,37.7286,1157.7228],[41.8739,37.7402,1127.9463],[41.8572,37.7367,720.9506],[41.8124,37.7196,550.7194],[41.782,37.7135,431.9843],[41.6865,37.6759,1317.7585],[41.5983,37.6081,964.6287],[41.5909,37.5999,987.7126],[41.5839,37.5881,1007.3328],[41.5732,37.5775,1133.6602],[41.5485,37.5755,1216.9681],[41.5229,37.568,1224.5649],[41.4883,37.5638,1217.4431],[41.4667,37.557,1170.7814],[41.4461,37.5544,1138.3301],[41.2288,37.5544,1060.5747],[41.189,37.5568,1091.7344],[41.1704,37.5787,1341.5753],[41.1334,37.6375,1025.5656],[41.0865,37.6768,845.0894],[41.0729,37.6954,843.6921],[41.0543,37.7139,763.6501],[41.0497,37.7239,721.0628],[41.0518,37.7396,636.5194],[41.0245,37.7409,605.0636],[41.0005,37.7401,617.3277],[40.9639,37.7306,648.4514],[40.8955,37.7285,677.5294],[40.8842,37.7266,653.8364],[40.8663,37.7204,624.386],[40.851,37.7181,646.6911],[40.7902,37.7181,685.5496],[40.775,37.7212,679.0406],[40.7459,37.7335,655.3643],[40.738,37.74,632.9078],[40.7277,37.7539,649.9597],[40.7158,37.7616,664.5018],[40.7006,37.7643,631.7352],[40.6638,37.7646,624.0739],[40.6476,37.7663,627.4901],[40.6344,37.771,653.0054],[40.602,37.7877,604.2901],[40.577,37.7718,625.9252],[40.5612,37.7591,640.9461],[40.5549,37.7521,652.8082],[40.543,37.7334,678.8817],[40.5381,37.7201,693.6073],[40.5371,37.6869,727.9219],[40.5351,37.6752,743.4993],[40.531,37.6677,752.7234],[40.5161,37.6504,775.7277],[40.4912,37.6483,778.51],[40.4367,37.6482,748.5999],[40.4182,37.6459,767.4761],[40.3849,37.633,862.4998],[40.3587,37.6173,812.2527],[40.337,37.608,830.8574],[40.2957,37.5774,944.066],[40.2804,37.5692,913.076],[40.2617,37.5666,918.7297],[40.2066,37.5669,892.101],[40.1901,37.5761,843.4788],[40.172,37.5805,859.1991],[40.1433,37.5797,880.9691],[40.1329,37.5815,888.3116],[40.112,37.5884,896.3559],[40.0945,37.5891,903.501],[40.0845,37.587,909.8711],[40.0577,37.5764,943.8805],[40.0315,37.5608,990.1555],[40.0173,37.5563,1002.6184],[39.9927,37.555,1062.6759],[39.8814,37.5563,1428.1031],[39.8798,37.5439,1366.599],[39.8836,37.529,1286.5759],[39.8897,37.5262,1264.0659],[39.9031,37.5081,1141.1052],[39.9095,37.4868,1044.9349],[39.9178,37.4729,1012.8364],[39.9233,37.4543,940.3583],[39.9326,37.4379,874.5404],[39.9405,37.4144,823.4259],[40.0532,37.2402,485.148],[40.0661,37.219,475.3195],[40.0752,37.1931,473.3488],[40.1149,37.1309,446.9703],[40.1204,37.1133,450.1462],[40.1274,37.1003,436.969],[40.1297,37.0919,435.7775],[40.1302,37.0379,452.1891],[40.1323,37.0234,447.719],[40.1778,36.9509,415.8761],[40.1916,36.9402,417.5113],[40.2552,36.9161,370.9883],[40.2602,36.92,368.9903],[40.2784,36.9261,379.3016],[40.3259,36.952,405.8755],[40.3696,36.9674,395.4304],[40.386,36.9747,402.2865],[40.3975,36.9813,402.0872],[40.4191,36.9992,407.262],[40.4381,37.0088,428.335],[40.4618,37.0149,438.866],[40.5326,37.0238,462.7578],[40.5463,37.0267,472.1411],[40.5824,37.0412,486.7491],[40.6022,37.0541,474.3512],[40.6352,37.0629,471.0393],[40.6748,37.0784,487.907],[40.6884,37.0876,490.3229],[40.7078,37.0977,499.8391],[40.7208,37.1011,491.1506],[40.7406,37.1024,492.6214],[40.7527,37.1059,498.7675],[40.7817,37.1206,501.0972],[40.8225,37.1197,494.1361],[40.8282,37.1161,497.0948],[40.8341,37.1094,491.9637],[40.8505,37.1066,468.893],[40.8543,37.1075,472.1392]]]]}}