{"type":"Feature","properties":{"ISO3166-1-Alpha-3":"TUR","country":"Turkey","fill":"#00F","id":"3041","name":"Mardin"},
"geometry":{"type": "Polygon","coordinates": [[[41.36774,37.51851,1041.3076],[41.26025,37.57223,955.3771],[41.18997,37.68796,884.45],[41.11969,37.75821,498.5662],[41.10068,37.76573,550.765],[41.07525,37.76493,613.4767],[41.01179,37.74142,665.0203],[40.66205,37.74839,639.1636],[40.55156,37.72987,684.657],[40.53916,37.70731,720.335],[40.49203,37.65698,762.0369],[40.41224,37.65243,753.4722],[40.30093,37.58422,871.6794],[40.25184,37.56934,885.1399],[40.14259,37.50869,977.1893],[40.09784,37.4758,831.4977],[39.99997,37.3757,724.2073],[40.01382,37.25752,501.923],[40.04224,37.23266,486.077],[40.07407,37.21119,473.2134],[40.12492,37.16967,451.2641],[40.13722,37.14864,461.4972],[40.1275,37.06895,450.9045],[40.21794,36.94172,359.996],[40.26093,36.92299,369.0369],[40.26141,36.92278,369.0369],[40.39374,36.99402,403.6675],[40.41389,37.00402,413.4404],[40.43519,37.01061,425.0742],[40.45699,37.01412,436.0606],[40.47983,37.01516,451.9062],[40.52572,37.02588,459.6926],[40.65946,37.08526,476.6624],[40.70897,37.10048,500.5705],[40.89645,37.1227,486.2524],[41.13509,37.08425,480.2662],[41.17974,37.06962,464.0447],[41.20134,37.06497,461.9156],[41.47977,37.07557,436.4084],[41.89637,37.15428,632.6261],[41.89629,37.15453,632.6261],[41.87603,37.21682,698.2208],[41.81402,37.25814,948.6231],[41.69826,37.28708,859.4572],[41.68183,37.32842,838.1253],[41.72307,37.3656,786.7909],[41.81815,37.40692,735.3737],[41.89256,37.43585,796.2103],[41.90497,37.50197,824.4269],[41.87603,37.58877,463.2537],[41.81691,37.71382,425.75],[41.63222,37.60944,1134.1106],[41.5206,37.54332,1074.5724],[41.36774,37.51851,1041.3076]]]}}