{"type":"Feature","properties":{"GID_2":"TUR.65.7_1","GID_0":"TUR","country":"Turkey","GID_1":"TUR.65_1","province":"Rize","NL_NAME_1":"NA","county":"Hemşin","VARNAME_2":"NA","NL_NAME_2":"NA","TYPE_2":"District","ENGTYPE_2":"District","CC_2":"NA","HASC_2":"TR.RI.HE","name":"Hemşin.county"},
"geometry":{"type": "MultiPolygon","coordinates": [[[[40.9202,41.1109,466.9124],[40.8927,41.0976,144.7693],[40.8814,41.0947,254.6787],[40.8537,41.094,424.873],[40.8293,41.0985,409.5003],[40.8302,41.0757,539.5204],[40.829,41.0571,812.6724],[40.8264,41.0484,940.5707],[40.8171,41.0318,1048.7158],[40.8153,41.0136,625.8984],[40.8181,41.0018,942.4136],[40.8262,40.988,922.6208],[40.8288,40.9794,1147.8765],[40.8311,40.9144,1495.2913],[40.8548,40.8687,2215.2732],[40.8757,40.8852,2356.9775],[40.8847,40.8945,2175.7393],[40.8937,40.918,1368.3795],[40.9025,40.9347,1633.0005],[40.9068,40.9706,1322.8152],[40.9165,40.9901,1055.8928],[40.9195,41.0023,1005.1423],[40.9202,41.1109,466.9124]]]]}}