{"type":"Feature","properties":{"GID_2":"TUR.81.6_1","GID_0":"TUR","country":"Turkey","GID_1":"TUR.81_1","province":"Zinguldak","NL_NAME_1":"NA","county":"Merkez","VARNAME_2":"Zonguldak","NL_NAME_2":"NA","TYPE_2":"District","ENGTYPE_2":"District","CC_2":"NA","HASC_2":"TR.ZO.ZO","name":"Merkez.county"},
"geometry":{"type": "MultiPolygon","coordinates": [[[[31.9767,41.5443,0.0],[31.9668,41.5426,0.0],[31.9538,41.5351,4.5483],[31.9443,41.5354,17.5174],[31.9415,41.5324,31.7229],[31.9354,41.5335,0.0],[31.9354,41.5312,17.8399],[31.9329,41.5307,0.0],[31.9296,41.5321,0.0],[31.9124,41.5232,58.7979],[31.9096,41.5235,3.2275],[31.9082,41.521,6.9895],[31.9021,41.5204,22.2276],[31.8996,41.5232,0.0],[31.8943,41.5238,0.0],[31.894,41.5224,0.0],[31.8982,41.5224,0.0],[31.8999,41.5207,0.0],[31.896,41.5196,0.6167],[31.8946,41.5215,0.0],[31.8937,41.5185,35.786],[31.8768,41.5132,2.9278],[31.8726,41.5101,17.5598],[31.8679,41.5104,19.634],[31.8671,41.5085,0.0],[31.8604,41.5051,10.7664],[31.8465,41.4999,0.0],[31.8438,41.5004,0.0],[31.8435,41.4988,0.0],[31.8457,41.499,0.0],[31.8449,41.4976,0.9507],[31.8301,41.491,0.0],[31.8304,41.486,2.472],[31.8274,41.4832,12.2269],[31.8171,41.4796,0.0],[31.8143,41.4762,27.4592],[31.801,41.474,0.0],[31.8021,41.471,0.0],[31.7974,41.4704,0.9075],[31.7971,41.4696,0.0],[31.8001,41.4679,29.515],[31.796,41.4654,67.6988],[31.7921,41.4682,0.0],[31.7862,41.4651,0.0],[31.7854,41.4604,0.0],[31.779,41.4593,0.0],[31.7793,41.4582,0.0],[31.7865,41.4588,0.0],[31.7874,41.456,14.3334],[31.786,41.4562,0.0],[31.7854,41.4543,0.0],[31.7818,41.4568,0.5934],[31.7779,41.4543,0.9604],[31.7657,41.4565,5.1791],[31.7543,41.4551,12.2729],[31.7515,41.449,0.0],[31.7524,41.4443,5.7253],[31.7482,41.4399,6.6677],[31.7321,41.4371,0.0],[31.7213,41.4307,0.0],[31.7201,41.4251,1.3376999999999999],[31.7162,41.426,0.0],[31.7132,41.4235,55.874],[31.7054,41.4232,0.0],[31.7021,41.4188,0.0],[31.6996,41.4196,0.0],[31.6943,41.4171,0.0],[31.6863,41.4113,33.8709],[31.6832,41.411,0.0],[31.6821,41.4087,23.1388],[31.6799,41.4113,0.0],[31.6732,41.4101,0.0],[31.6689,41.4071,0.0],[31.6697,41.3403,513.1049],[31.6705,41.3315,558.193],[31.6752,41.3209,668.0829],[31.6816,41.3151,640.4324],[31.7009,41.3061,394.6743],[31.7079,41.3011,378.9512],[31.7198,41.286,539.028],[31.7263,41.2804,426.7758],[31.7581,41.2666,517.3556],[31.7687,41.2641,377.4113],[31.8,41.2632,642.8586],[31.8153,41.2652,569.1567],[31.8248,41.2688,743.578],[31.8459,41.282,715.2571],[31.8581,41.2873,829.2186],[31.8819,41.2956,773.0937],[31.9091,41.2988,552.6989],[31.9617,41.2974,343.3301],[31.9693,41.2959,310.0807],[32.0168,41.2779,356.2485],[32.0402,41.2768,134.6348],[32.0573,41.2994,333.2607],[32.06,41.3074,243.4757],[32.0631,41.3279,54.3578],[32.0317,41.3352,215.5658],[32.0168,41.3438,120.8617],[32.0029,41.3572,240.9972],[31.9874,41.3835,292.4695],[31.9849,41.4074,397.8992],[31.987,41.431399999999996,416.4057],[31.9929,41.442,389.6192],[32.0067,41.4552,220.9076],[32.0139,41.465,106.4805],[32.0168,41.4818,412.4968],[32.0162,41.496,506.9586],[32.0131,41.507,381.5573],[32.0082,41.5139,265.7589],[31.9929,41.5305,88.849],[31.9767,41.5443,0.0]]]]}}