{"type":"Feature","properties":{"id":136598.0,"fillOpacity":1,"fill":"#F0F","name":"Altınkaya-Dam","title":"Altınkaya-Dam","lge_id":null,"pfafstette":1513.0,"lke_type":"N","altitude":171,"objectid":84392,"scalerank":11,"featurecla":"Lake","note":"Altınkaya-Dam","funkyname":0,"min_zoom":6.7,"min_label":7.7},
"geometry":{"type": "Polygon","coordinates": [[[35.533213737896233,41.273504949994077,234.8989],[35.533213737896233,41.273504949994077,234.8989],[35.531260612896233,41.290777899212827,178.0],[35.539805534771233,41.304693914837827,178.0],[35.564463737896233,41.308661199994077,185.9537],[35.587901237896233,41.324286199994077,178.0],[35.613291862896233,41.339911199994077,301.6186],[35.632823112896233,41.349676824994077,178.0],[35.650401237896233,41.355536199994077,178.0],[35.669932487896233,41.359442449994077,178.0],[35.710948112896233,41.363348699994077,255.2978],[35.730357292583733,41.369696356244077,232.0891],[35.713145378521233,41.378180242962827,609.3146],[35.683604362896233,41.386786199994077,926.0165],[35.656260612896233,41.380926824994077,570.8312],[35.626963737896233,41.375067449994077,810.9863],[35.588633659771233,41.356756903119077,434.3302],[35.558604362896233,41.336004949994077,216.2423],[35.533213737896233,41.326239324994077,294.429],[35.511729362896233,41.320379949994077,252.2866],[35.490244987896233,41.326239324994077,534.3665],[35.455088737896233,41.334051824994077,421.5295],[35.431651237896233,41.328192449994077,272.9326],[35.417979362896233,41.314520574994077,486.7774],[35.426768425396233,41.300543524212827,369.4299],[35.462901237896233,41.302801824994077,437.6668],[35.501719597271233,41.284186102337827,283.3897],[35.521372917583733,41.275274969525327,178.0],[35.533213737896233,41.273504949994077,234.8989]]]}}