{"type": "Feature","id": 136741.0,"bbox": [35.195811394146233,41.233954168744077,35.361094597271233,41.300848699994077],"geometry": {"type": "Polygon","coordinates": [[[35.335948112896233,41.242254949994077,179.5],[35.336436394146233,41.233954168744077,223.2408],[35.361094597271233,41.257330633587827,277.7268],[35.349619987896233,41.267645574994077,518.5468],[35.328135612896233,41.271551824994077,727.3397],[35.306651237896233,41.271551824994077,446.2944],[35.269541862896233,41.281317449994077,710.1409],[35.246104362896233,41.298895574994077,587.8914],[35.224619987896233,41.300848699994077,347.9919],[35.205088737896233,41.300848699994077,202.6529],[35.195811394146233,41.293463446087827,180.0],[35.236338737896233,41.273504949994077,383.6186],[35.294932487896233,41.246161199994077,179.5],[35.335948112896233,41.242254949994077,179.5]]]}
,"properties": {"fillOpacity": 1,"fill": "#F0F","name": "405","title": "405","lge_id": null,"pfafstette": 1593.0,"lke_type": "N","altitude": 206,"objectid": 85183,"scalerank": 12,"featurecla": "Lake","note": "_untitled_85183","funkyname": 0,"min_zoom": 7.0,"min_label": 8.0,"area_km2": 35.88768,"hist_schema_id": "Elevation0-9000","hist_area_km2": {"175": 1.96083,"200": 0.73327,"225": 1.19545,"250": 1.86491,"275": 1.9764,"300": 2.23134,"325": 1.89654,"350": 1.99207,"375": 2.15137,"400": 2.08752,"425": 1.68914,"450": 1.75284,"475": 1.48192,"500": 1.46594,"525": 1.51372,"550": 1.4659,"575": 1.30657,"600": 1.13125,"625": 1.09938,"650": 0.86037,"675": 0.86036,"700": 0.70103,"725": 0.60541,"750": 0.49389,"775": 0.3983,"800": 0.17526,"825": 0.0478,"850": 0.07967,"875": 0.06374,"900": 0.11154,"925": 0.27088,"950": 0.22308}}}