{"type": "Feature","bbox": [34.8921,40.843,37.1525,41.7351],"geometry": {"type": "MultiPolygon","coordinates": [[[[36.4012,40.8951,781.3497],[36.4275,40.8796,428.3229],[36.454,40.8677,415.8818],[36.4724,40.8644,614.1359],[36.4882,40.8643,558.5377],[36.5066,40.8676,310.4487],[36.5512,40.8849,707.9447],[36.5782,40.8904,340.5537],[36.5997,40.8975,581.3851],[36.6187,40.8994,229.2908],[36.6461,40.8995,188.2888],[36.6651,40.8976,165.375],[36.6776,40.8929,169.4383],[36.6999,40.8809,320.4747],[36.6967,40.8464,248.7433],[36.7346,40.8625,734.0102],[36.7585,40.8668,981.859],[36.7798,40.8738,933.9337],[36.8186,40.8784,1137.6234],[36.8484,40.895,1072.0209],[36.8701,40.9042,963.3308],[36.8933,40.9189,812.2197],[36.9045,40.9242,756.725],[36.9135,40.9444,780.017],[36.9357,40.9675,755.3079],[36.9576,41.0027,547.4381],[36.9808,41.0257,690.1245],[36.9918,41.0421,616.9924],[37.0057,41.0538,629.8151],[37.0167,41.0599,272.7103],[37.1198,41.0987,165.0641],[37.1525,41.1147,35.35],[37.1507,41.1479,1.3559],[37.1349,41.1493,3.4704],[37.0776,41.1649,1.6422],[37.0501,41.1754,1.8104],[37.0482,41.1779,2.3804],[37.0318,41.1874,10.8862],[37.0321,41.189,1.7774],[37.0271,41.1937,2.2506],[37.0251,41.199,2.3021],[37.0271,41.2004,0.3976],[37.029,41.1987,0.0],[37.0335,41.199,0.0],[37.0271,41.2007,0.3395],[37.0254,41.2101,0.7],[37.0171,41.2137,1.9771],[37.0176,41.2143,0.3104],[37.024,41.2126,0.2474],[37.0249,41.2132,0.2474],[37.0238,41.221,0.7604],[37.0257,41.2507,0.0],[37.024,41.2571,0.0],[37.0171,41.2679,1.1312],[37.0082,41.2771,0.0],[36.9996,41.2804,3.1351],[36.9951,41.2843,1.0855],[36.9357,41.3079,0.0],[36.8899,41.3299,1.4672],[36.881,41.3326,1.4853],[36.8757,41.3368,1.4473],[36.8654,41.3387,4.3262],[36.8613,41.3413,1.5334],[36.8074,41.3532,0.8342],[36.7985,41.3529,1.8982],[36.7554,41.3613,0.8691],[36.7485,41.3607,1.9095],[36.7379,41.3638,0.0],[36.699,41.364,1.7149],[36.6754,41.3732,0.2883],[36.6618,41.3812,0.2832],[36.6607,41.3812,0.0],[36.6626,41.3768,0.0],[36.6615,41.3649,0.5],[36.6579,41.3649,1.1482],[36.6579,41.3743,0.284],[36.6546,41.3812,0.4699],[36.6518,41.3835,0.0],[36.6396,41.3796,0.0],[36.6207,41.3674,0.0],[36.6174,41.3618,0.0],[36.6188,41.359,0.2706],[36.6149,41.3599,0.0],[36.6149,41.3587,0.7554],[36.6174,41.3554,0.0726],[36.6207,41.354,0.4799],[36.6168,41.3543,0.0726],[36.6143,41.3493,0.6701],[36.6138,41.3518,0.6195],[36.6118,41.3512,1.5035],[36.6079,41.3451,0.5717],[36.6074,41.3351,7.4479],[36.5946,41.3257,1.4804],[36.5876,41.3163,1.0168],[36.5815,41.3129,0.4091],[36.5757,41.3035,2.6859],[36.574,41.2965,2.0095],[36.5679,41.2885,3.3454],[36.5326,41.2679,4.6136],[36.5015,41.2543,1.4759],[36.481,41.2501,0.1124],[36.4774,41.2474,0.3955],[36.4688,41.246,1.1304],[36.4576,41.2457,0.0],[36.4574,41.2504,0.0],[36.456,41.2499,0.0],[36.4557,41.2454,3.255],[36.4376,41.2443,3.1877],[36.4165,41.2465,3.7965],[36.3963,41.251,1.4787],[36.3865,41.2551,2.8143],[36.3846,41.2635,0.0],[36.3763,41.2699,0.2635],[36.3818,41.2726,0.0],[36.3732,41.2713,3.5439],[36.369,41.2726,0.5781],[36.3679,41.2751,0.0],[36.3499,41.2821,0.3931],[36.3482,41.2857,0.4893],[36.3482,41.296,0.0],[36.3468,41.2951,0.0],[36.3476,41.2885,0.0],[36.3465,41.2865,1.4268],[36.344,41.2871,1.7644],[36.3426,41.2901,3.1417],[36.3368,41.2949,1.3103],[36.3376,41.3049,1.6694],[36.3415,41.3085,0.1879],[36.3421,41.3126,0.0],[36.3551,41.309,0.0],[36.3557,41.3104,0.0],[36.3368,41.3151,1.1068],[36.339,41.3187,0.0],[36.3329,41.3229,0.0],[36.3171,41.3274,0.0],[36.3035,41.3276,6.3005],[36.2663,41.3401,6.6826],[36.2415,41.3535,3.9168],[36.2321,41.3635,4.1339],[36.2307,41.3676,2.4715],[36.2313,41.3729,2.218],[36.2179,41.381,0.543],[36.1987,41.3971,3.995],[36.1632,41.4346,0.5933],[36.1512,41.4435,2.6409],[36.1307,41.4626,1.4833],[36.1199,41.4829,1.7453],[36.1185,41.5038,2.2634],[36.1207,41.5124,0.4983],[36.1257,41.5201,0.0386],[36.1296,41.5307,0.0],[36.1315,41.5579,0.0],[36.1235,41.5807,0.3592],[36.1149,41.6263,0.0],[36.0915,41.6479,0.1826],[36.0782,41.6685,0.0],[36.0576,41.6862,0.0],[36.0343,41.6985,0.0],[36.0079,41.7093,0.0],[36.0029,41.7099,-0.1044],[36.0004,41.7126,0.2028],[35.9943,41.7151,0.7654],[35.9888,41.7215,0.0],[35.9868,41.7218,0.0],[35.9871,41.7235,0.0],[35.976,41.7279,0.0],[35.9776,41.7243,0.0],[35.9754,41.7282,0.0],[35.9643,41.7318,0.2355],[35.9637,41.7332,0.1642],[35.9579,41.7337,0.0],[35.959,41.7296,-0.0116],[35.9549,41.7351,0.118],[35.9415,41.7287,1.1619],[35.9301,41.7246,1.149],[35.9293,41.7254,1.149],[35.9271,41.7235,0.8235],[35.8729,41.7035,1.2739],[35.8713,41.7032,0.6912],[35.871,41.7046,0.0],[35.8668,41.7012,1.4196],[35.8451,41.6932,1.5066],[35.7751,41.6729,0.864],[35.7693,41.6693,1.3878],[35.7649,41.6696,1.7411],[35.7635,41.6679,1.8118],[35.7604,41.6688,0.0],[35.7588,41.6668,1.7261],[35.7465,41.6635,1.921],[35.6949,41.6524,0.0],[35.6779,41.6479,0.1805],[35.6768,41.6463,1.7403],[35.6732,41.6468,1.4121],[35.6688,41.6443,1.4468],[35.6576,41.6432,0.0],[35.6538,41.6407,0.852],[35.6515,41.6415,0.5822],[35.6343,41.6385,0.6407],[35.6343,41.6368,2.2937],[35.6318,41.6379,0.5126],[35.6118,41.6343,2.7812],[35.5654,41.631,1.6082],[35.5115,41.6362,2.1295],[35.5099,41.6393,0.0],[35.5088,41.6371,0.0],[35.5065,41.6374,0.0],[35.504,41.6382,1.5646],[35.5037,41.641,0.0],[35.4988,41.6418,1.5601],[35.4871,41.618,426.892],[35.4853,41.6057,468.997],[35.4851,41.5868,370.7869],[35.4726,41.5742,281.0186],[35.46,41.5529,495.1164],[35.4562,41.5427,448.1039],[35.4534,41.5234,747.4672],[35.4504,41.5157,895.3607],[35.4357,41.4923,1270.0793],[35.4176,41.4698,1185.1603],[35.4227,41.4583,1302.5782],[35.4273,41.4392,1111.5864],[35.4373,41.4199,1186.8992],[35.4425,41.393,1166.4965],[35.4529,41.3711,741.7369],[35.4523,41.3575,543.6117],[35.4427,41.3387,420.4917],[35.441,41.3255,398.8902],[35.4285,41.3088,358.3499],[35.4204,41.2943,279.7325],[35.4055,41.2755,385.001],[35.3814,41.2638,336.3447],[35.3481,41.2515,200.5656],[35.3303,41.2491,206.6292],[35.2973,41.2503,238.5561],[35.2692,41.2589,334.4174],[35.2308,41.2635,179.5],[35.2204,41.2697,214.483],[35.205,41.29,429.0328],[35.1739,41.3179,185.0245],[35.1643,41.3324,411.4254],[35.1445,41.3531,382.1075],[35.1356,41.3672,198.8991],[35.1232,41.375,182.7437],[35.113,41.3759,431.2098],[35.1037,41.3735,595.2787],[34.9371,41.3076,315.0],[34.9183,41.2858,437.6753],[34.9076,41.2694,425.9025],[34.8921,41.2537,343.905],[34.9221,41.2303,1303.1926],[34.9406,41.202,1314.8792],[34.9462,41.1835,1239.3792],[34.9571,41.1615,1209.8499],[34.9603,41.1135,1631.6221],[34.9753,41.0874,1386.0898],[34.9868,41.0782,1416.4475],[35.0038,41.0746,1356.504],[35.0254,41.0756,1281.842],[35.0533,41.0845,1258.8616],[35.0932,41.0905,1067.5208],[35.1188,41.0848,1162.2258],[35.1472,41.076,1042.5175],[35.2088,41.0731,1173.9534],[35.2836,41.0453,1426.65],[35.329,41.038,1470.0793],[35.3539,41.03,1382.7555],[35.3886,41.026,1451.9],[35.4137,41.0183,1521.4617],[35.4788,41.0144,913.7773],[35.491,41.0095,1169.3379],[35.5122,40.9966,1077.9701],[35.5333,40.988,986.168],[35.5572,40.9734,967.3159],[35.5783,40.9648,959.5302],[35.6145,40.9399,706.0022],[35.6439,40.9268,686.6547],[35.6595,40.9129,617.4847],[35.6657,40.8946,760.9091],[35.695,40.879,840.439],[35.7143,40.8763,999.6786],[35.7304,40.8764,1048.8293],[35.7604,40.8801,1032.5302],[35.8078,40.8657,916.7013],[35.8406,40.8643,1194.9658],[35.8726,40.8674,1528.3928],[35.8941,40.8746,1395.604],[35.906,40.8761,1508.1533],[35.9553,40.8756,1217.8955],[35.9851,40.8693,1390.0851],[36.0073,40.8562,1445.5701],[36.0373,40.8449,1859.9697],[36.0472,40.843,1619.381],[36.061,40.8431,1565.5189],[36.1009,40.8564,1150.6733],[36.1278,40.8725,1099.8846],[36.1522,40.8828,1139.4974],[36.1763,40.9004,1107.8867],[36.1849,40.9094,1153.9766],[36.1885,40.9174,1124.2131],[36.19,40.9315,924.7088],[36.1895,40.9576,717.2919],[36.2001,40.964,799.6452],[36.2029,40.9707,891.3027],[36.2039,40.98,932.1694],[36.22,40.9809,977.4436],[36.2598,40.9793,948.7245],[36.311,40.9602,822.3628],[36.3724,40.9521,983.1374],[36.3693,40.9285,1121.1842],[36.3727,40.9121,796.7856],[36.3833,40.9024,778.7015],[36.4012,40.8951,781.3497]]],
[[[36.6599,41.3799,0.0],[36.6579,41.3807,0.2222],[36.6557,41.3793,1.049],[36.6587,41.3746,0.284],[36.6613,41.3751,0.5361],[36.6599,41.3799,0.0]]]]}
,"properties": {"GID_1": "TUR.67_1","GID_0": "TUR","country": "Turkey","province": "Samsun","VARNAME_1": "NA","NL_NAME_1": "NA","TYPE_1": "Il","ENGTYPE_1": "Province","CC_1": "NA","HASC_1": "TR.SS","ISO_1": "TR-55","name": "Samsun.province","area_km2": 9509.82,"hist_schema_id": "Elevation0-9000","hist_area_km2": {"0": 1118.051,"25": 507.786,"50": 189.697,"75": 155.061,"100": 143.677,"125": 132.492,"150": 117.959,"175": 221.218,"200": 133.06,"225": 132.435,"250": 135.178,"275": 142.578,"300": 142.895,"325": 153.665,"350": 143.884,"375": 146.826,"400": 153.57,"425": 150.859,"450": 150.58,"475": 156.517,"500": 161.844,"525": 172.166,"550": 182.131,"575": 195.79,"600": 207.293,"625": 224.687,"650": 235.673,"675": 243.75,"700": 250.848,"725": 254.962,"750": 268.022,"775": 269.331,"800": 247.784,"825": 221.724,"850": 206.497,"875": 233.057,"900": 212.644,"925": 199.552,"950": 179.091,"975": 150.787,"1000": 131.277,"1025": 109.44,"1050": 90.752,"1075": 78.47,"1100": 63.875,"1125": 52.751,"1150": 43.565,"1175": 38.733,"1200": 34.338,"1225": 28.177,"1250": 25.699,"1275": 22.013,"1300": 19.446,"1325": 16.464,"1350": 14.454,"1375": 13.688,"1400": 12.479,"1425": 10.353,"1450": 8.901,"1475": 8.247,"1500": 6.696,"1525": 5.065,"1550": 5.401,"1575": 4.409,"1600": 4.169,"1625": 4.185,"1650": 2.843,"1675": 2.812,"1700": 2.14,"1725": 1.741,"1750": 1.15,"1775": 0.367}}}