{"type": "Feature","id": "2296","bbox": [34.88803,40.84738,37.15174,41.73627],"geometry": {"type": "Polygon","coordinates": [[[37.15174,41.14679,3.5009],[37.13551,41.14663,2.9256],[37.11573,41.15314,3.2465],[37.07748,41.17084,0.0],[37.05641,41.17451,0.0],[37.03972,41.18155,3.6411],[37.03386,41.1988,0.0],[37.03191,41.24282,0.0],[37.01531,41.2746,0.0],[36.98487,41.2945,0.0],[36.83668,41.35078,0.0],[36.75807,41.36628,0.0],[36.67172,41.36628,0.9647],[36.65016,41.36929,0.9265],[36.63356,41.37409,0.0],[36.61988,41.37507,0.0],[36.6067,41.36628,0.0],[36.60865,41.36494,0.0],[36.6019,41.34374,0.0],[36.59986,41.3415,0.0],[36.59669,41.33527,0.0],[36.58253,41.31708,0.0],[36.57936,41.30732,2.4374],[36.57081,41.29792,0.1629],[36.51791,41.26264,0.3646],[36.47608,41.24494,1.5411],[36.45102,41.24042,9.7386],[36.43247,41.24624,0.0],[36.42384,41.2517,0.0],[36.40504,41.25361,0.0],[36.39503,41.25642,0.0],[36.39015,41.26032,0.0],[36.38014,41.27216,0.0],[36.37452,41.277,0.0],[36.36329,41.28107,0.0],[36.35222,41.28364,0.0],[36.34376,41.28872,1.7644],[36.34051,41.30052,0.0],[36.33985,41.31094,2.5587],[36.33725,41.31855,0.0],[36.33188,41.32319,0.4032],[36.3034,41.32852,6.3005],[36.25327,41.34882,0.0],[36.23683,41.35887,0.5454],[36.20476,41.40648,0.0],[36.17888,41.41999,0.0],[36.13445,41.4619,0.0],[36.12379,41.47915,0.0],[36.11997,41.49433,0.3489],[36.12078,41.52704,1.831],[36.12233,41.53181,0.6684],[36.13103,41.54824,0.6619],[36.13445,41.55817,0.0],[36.13445,41.59907,0.0],[36.12045,41.62775,0.0],[36.04493,41.70148,0.0],[36.0381,41.70148,0.0],[36.0381,41.68781,-0.4873],[35.97788,41.72968,0.0],[35.97291,41.72858,0.0],[35.96241,41.72199,1.064],[35.94793,41.71003,0.4116],[35.93434,41.69212,2.2441],[35.92482,41.67023,5.799],[35.9227,41.64623,8.3221],[35.91529,41.64623,6.1477],[35.91163,41.66279,6.651],[35.93051,41.69383,3.8384],[35.92897,41.70893,2.5349],[35.93898,41.7121,1.3609],[35.94679,41.71723,0.5188],[35.95248,41.72329,0.6091],[35.9568,41.72944,0.2479],[35.9568,41.73627,0.3002],[35.93483,41.73241,0.0],[35.89381,41.70746,3.3891],[35.87013,41.70148,2.3606],[35.8462,41.69872,0.0],[35.74057,41.66498,0.0],[35.67872,41.65693,0.0],[35.64088,41.63931,0.1784],[35.6198,41.63264,5.2818],[35.57667,41.62971,3.0544],[35.53012,41.63426,0.0],[35.50012,41.6416,0.9952],[35.50009,41.64154,0.9952],[35.46081,41.57423,633.204],[35.45596,41.52362,781.8279],[35.47228,41.47548,1038.4318],[35.47446,41.44641,1459.4457],[35.47094,41.41714,1176.1349],[35.47632,41.39396,1090.6418],[35.48954,41.3735,1030.4414],[35.49688,41.34438,714.0579],[35.50484,41.28453,247.9614],[35.4851,41.2728,178.0],[35.43384,41.28327,178.0],[35.41389,41.27678,230.5202],[35.41327,41.27567,230.5202],[35.38309,41.26017,179.5],[35.33989,41.25448,288.9648],[35.29627,41.25826,329.2446],[35.26537,41.2712,502.2911],[35.24811,41.28575,576.9568],[35.23974,41.28921,665.946],[35.19437,41.29342,180.0],[35.18486,41.29903,359.0556],[35.19582,41.31104,228.2761],[35.16285,41.32347,246.7345],[35.14724,41.33218,180.0],[35.14063,41.34146,180.0],[35.13856,41.35908,397.4221],[35.13277,41.37706,180.5],[35.12409,41.39184,180.5],[35.11334,41.3998,180.5],[35.10238,41.38528,181.1887],[35.07675,41.37432,184.673],[35.02394,41.35882,347.6374],[34.99128,41.33484,315.0],[34.97919,41.33091,315.0],[34.95376,41.32983,315.0],[34.94384,41.326,315.0],[34.93454,41.31787,315.0],[34.94177,41.29986,315.0],[34.92669,41.288,430.4169],[34.90395,41.27908,315.0],[34.88803,41.26981,315.0],[34.9395,41.20028,1374.0178],[34.95242,41.16317,1018.9708],[34.95903,41.12475,1610.6395],[34.97485,41.08741,1386.0898],[35.05164,41.09418,1122.7552],[35.08926,41.08692,1202.469],[35.40004,41.0207,1626.1151],[35.46112,41.02938,974.2549],[35.49409,41.01504,1023.4486],[35.63879,40.93104,704.3906],[35.673,40.88598,804.7042],[35.70607,40.87882,893.4797],[35.78234,40.88314,1003.1996],[35.82079,40.87725,1266.2019],[35.95319,40.87585,1311.5431],[36.03142,40.84738,1675.7563],[36.07349,40.85485,1276.2213],[36.10946,40.87856,1109.6938],[36.15483,40.90143,1147.5123],[36.18552,40.94215,730.3405],[36.20309,40.98776,905.8677],[36.24288,41.00695,805.2921],[36.27916,40.99688,707.2982],[36.30707,40.9738,939.6248],[36.31957,40.95042,850.1595],[36.33549,40.92921,848.2263],[36.44308,40.87037,310.6494],[36.55263,40.89022,367.321],[36.58684,40.90254,179.9816],[36.59366,40.91006,186.2418],[36.59997,40.90681,196.4653],[36.65288,40.90562,164.0],[36.6872,40.8866,183.5294],[36.70518,40.86249,250.5797],[36.72637,40.86738,409.8181],[36.74601,40.87497,572.6451],[36.789,40.87756,1021.2836],[36.82838,40.88784,942.0969],[36.86579,40.90383,1032.8359],[36.88067,40.91241,857.8306],[36.92026,40.94577,864.0098],[36.99912,40.97967,519.3653],[37.04232,41.04176,303.2297],[37.09844,41.08661,128.2544],[37.15136,41.14085,10.1607],[37.15174,41.14679,3.5009]]]}
,"properties": {"ISO3166-1-Alpha-3": "TUR","country": "Turkey","fill": "#00F","name": "Samsun","area_km2": 9456.382,"hist_schema_id": "Elevation0-9000","hist_area_km2": {"0": 1156.199,"25": 506.413,"50": 188.515,"75": 154.342,"100": 142.607,"125": 131.805,"150": 117.528,"175": 213.841,"200": 133.036,"225": 131.361,"250": 134.568,"275": 142.207,"300": 143.56,"325": 159.794,"350": 143.85,"375": 147.878,"400": 154.944,"425": 151.324,"450": 151.108,"475": 157.142,"500": 162.709,"525": 174.135,"550": 183.958,"575": 198.113,"600": 209.903,"625": 227.027,"650": 237.036,"675": 245.065,"700": 251.923,"725": 255.302,"750": 267.898,"775": 269.27,"800": 247.1,"825": 219.918,"850": 203.202,"875": 229.155,"900": 207.973,"925": 195.218,"950": 174.294,"975": 146.359,"1000": 127.636,"1025": 105.704,"1050": 86.718,"1075": 74.291,"1100": 58.326,"1125": 47.249,"1150": 38.546,"1175": 33.17,"1200": 28.711,"1225": 23.541,"1250": 21.134,"1275": 18.119,"1300": 15.963,"1325": 13.902,"1350": 12.894,"1375": 11.488,"1400": 10.691,"1425": 9.363,"1450": 7.51,"1475": 6.679,"1500": 5.208,"1525": 4.489,"1550": 4.696,"1575": 4.12,"1600": 3.993,"1625": 4.024,"1650": 2.635,"1675": 2.763,"1700": 2.14,"1725": 1.677,"1750": 1.086,"1775": 0.335}}}