{"type":"Feature","properties":{"GID_2":"TUR.41.3_1","GID_0":"TUR","country":"Turkey","GID_1":"TUR.41_1","province":"Izmir","NL_NAME_1":"NA","county":"Bayındır","VARNAME_2":"NA","NL_NAME_2":"NA","TYPE_2":"District","ENGTYPE_2":"District","CC_2":"NA","HASC_2":"TR.IZ.BD","name":"Bayındır.county"},
"geometry":{"type": "MultiPolygon","coordinates": [[[[27.4728,38.2801,521.3654],[27.4835,38.267,447.1818],[27.4873,38.2599,524.0392],[27.4885,38.2516,444.8285],[27.487,38.2433,491.3627],[27.4826,38.2361,397.5812],[27.4612,38.2157,299.7041],[27.4475,38.1953,196.785],[27.4457,38.1876,117.1011],[27.4481,38.1799,50.5019],[27.4686,38.1596,16.1844],[27.4813,38.1386,17.4057],[27.5044,38.1446,20.3573],[27.5252,38.1467,20.6305],[27.7283,38.1457,49.173],[27.7439,38.1468,51.4507],[27.7538,38.1506,53.5213],[27.7575,38.1552,57.7612],[27.7655,38.1923,413.9761],[27.7719,38.2052,563.8558],[27.7766,38.2243,691.7009],[27.7876,38.2465,526.4135],[27.7892,38.2935,578.3431],[27.7912,38.3057,619.1284],[27.8066,38.3321,630.7432],[27.8213,38.3508,696.087],[27.807,38.3686,978.5534],[27.7849,38.404,647.2154],[27.7662,38.4227,561.2386],[27.7549,38.4387,378.7046],[27.7427,38.4469,490.081],[27.7183,38.4542,187.0549],[27.711,38.4271,300.8209],[27.689,38.4042,477.1724],[27.6737,38.3807,724.062],[27.6709,38.373,966.3683],[27.6682,38.3545,961.269],[27.6624,38.346,958.9855],[27.6413,38.3356,1210.5604],[27.6077,38.3238,865.0026],[27.5621,38.3179,658.3095],[27.5319,38.3061,815.8814],[27.5025,38.2888,764.8079],[27.4728,38.2801,521.3654]]]]}}