{"type": "Feature","bbox": [37.6118,40.9268,37.8771,41.1368],"geometry": {"type": "MultiPolygon","coordinates": [[[[37.6751,40.9268,777.1911],[37.6992,40.9356,755.1716],[37.7129,40.9478,694.6685],[37.7231,40.9536,573.2604],[37.7497,40.9593,195.6965],[37.7977,40.9771,253.6566],[37.8369,40.9814,229.978],[37.8647,40.9896,342.1334],[37.8763,40.9894,0.0],[37.8771,40.9965,0.0],[37.8726,40.9996,19.5348],[37.8737,41.0024,8.4023],[37.8713,41.0049,21.4358],[37.8713,41.0101,10.0267],[37.8657,41.0157,0.0],[37.864,41.0149,11.2138],[37.8493,41.0176,1.5635],[37.851,41.0196,0.0],[37.8574,41.0193,0.0],[37.8576,41.0204,0.0],[37.8504,41.0204,0.0],[37.8479,41.0176,3.8844],[37.8438,41.0179,3.6742],[37.8082,41.0257,0.0],[37.8026,41.0293,8.6243],[37.8035,41.0357,11.8133],[37.8001,41.0388,0.0],[37.8004,41.041,0.0],[37.7851,41.051,48.8264],[37.7821,41.0582,0.0],[37.7768,41.0621,6.1586],[37.7724,41.0715,10.4092],[37.7743,41.0788,14.9109],[37.7765,41.0818,3.9216],[37.7785,41.081,0.0],[37.7788,41.0846,1.8442],[37.7815,41.0876,0.0],[37.781,41.0965,7.5716],[37.784,41.0982,2.2527],[37.7849,41.1026,26.6059],[37.7876,41.1063,0.0],[37.789,41.1113,0.0],[37.7871,41.1168,6.7059],[37.7782,41.1151,11.5214],[37.7765,41.1132,10.3151],[37.7718,41.1135,19.9082],[37.7663,41.1151,10.1039],[37.7646,41.1162,0.0],[37.7665,41.1165,0.0],[37.7654,41.1176,0.0],[37.7513,41.1199,2.4657],[37.7449,41.1174,4.601],[37.7401,41.1179,2.2294],[37.7324,41.1143,7.392],[37.7299,41.1151,9.5721],[37.7285,41.1179,1.858],[37.7257,41.1154,104.1536],[37.7207,41.1154,20.4154],[37.7168,41.1129,31.4337],[37.7046,41.114,1.4777],[37.7004,41.1176,0.0],[37.6965,41.1188,16.6487],[37.6951,41.1251,1.4172],[37.6835,41.1301,5.3812],[37.6826,41.1368,0.0],[37.6813,41.1335,2.2259],[37.676,41.1287,11.0905],[37.6724,41.129,0.0],[37.6718,41.1265,0.0],[37.6613,41.1224,0.0],[37.6587,41.119,0.0],[37.6532,41.116,0.0],[37.6543,41.1099,54.9297],[37.651,41.1085,0.4562],[37.6476,41.1026,20.3294],[37.6424,41.099,0.0],[37.6418,41.0962,2.3798],[37.6385,41.0943,0.8209],[37.6346,41.0868,0.3712],[37.6246,41.079,0.0],[37.6204,41.0726,15.768],[37.6162,41.0696,0.0],[37.6118,41.0536,0.4935],[37.6406,41.0297,195.0855],[37.6583,41.0022,267.1696],[37.6609,40.9907,345.2499],[37.6625,40.9515,660.9888],[37.6652,40.9434,769.8417],[37.6751,40.9268,777.1911]]]]}
,"properties": {"GID_2": "TUR.63.16_1","GID_0": "TUR","country": "Turkey","GID_1": "TUR.63_1","province": "Ordu","NL_NAME_1": "NA","county": "Perşembe","VARNAME_2": "NA","NL_NAME_2": "NA","TYPE_2": "District","ENGTYPE_2": "District","CC_2": "NA","HASC_2": "TR.OR.PE","name": "Perşembe.county","area_km2": 256.5366,"hist_schema_id": "Elevation0-9000","hist_area_km2": {"0": 6.6991,"25": 9.1608,"50": 9.1769,"75": 10.7439,"100": 12.5668,"125": 13.3665,"150": 13.7349,"175": 14.8544,"200": 13.9602,"225": 12.6969,"250": 12.5065,"275": 11.6753,"300": 11.4197,"325": 10.8922,"350": 10.5404,"375": 10.2052,"400": 9.3411,"425": 8.4777,"450": 7.8705,"475": 7.999,"500": 6.0958,"525": 5.8886,"550": 4.2243,"575": 4.4325,"600": 3.5687,"625": 4.1289,"650": 3.0567,"675": 2.1609,"700": 1.5209,"725": 1.0729,"750": 0.8969,"775": 0.4644,"800": 0.4004,"825": 0.2562,"850": 0.3203,"875": 0.1281,"900": 0.032}}}