{"type": "Feature","bbox": [43.7406,39.6704,44.3426,40.0509],"geometry": {"type": "MultiPolygon","coordinates": [[[[43.826,40.0509,943.9296],[43.8187,40.0431,962.7402],[43.804,40.0197,1005.6407],[43.8008,40.0026,1028.2036],[43.8011,39.9338,1173.425],[43.8035,39.9196,1194.4653],[43.8122,39.9036,1200.2198],[43.8123,39.8931,1262.4836],[43.7983,39.8701,1425.4141],[43.7756,39.8475,1889.8124],[43.7526,39.8121,2342.875],[43.7406,39.7995,2450.3069],[43.7437,39.7932,2375.1897],[43.7474,39.7897,2247.5571],[43.7685,39.7792,2328.0564],[43.8443,39.7505,2550.4094],[43.8768,39.7318,2351.9453],[43.9933,39.6865,2380.4622],[44.0065,39.6853,2032.9554],[44.0305,39.6925,1898.5869],[44.0494,39.6944,1685.3987],[44.1598,39.6942,1867.2882],[44.1777,39.6909,2089.6631],[44.2222,39.6736,2586.458],[44.2506,39.6704,2889.6118],[44.2507,39.7541,3240.6445],[44.2517,39.7662,2874.0376],[44.2542,39.7749,2500.3521],[44.2992,39.8447,1203.2898],[44.3083,39.8541,1168.146],[44.335,39.8763,1047.814],[44.3389,39.8815,980.6473],[44.3426,39.8933,828.5613],[44.3426,39.902,822.2352],[44.341,39.9074,822.4899],[44.337,39.9121,822.7108],[44.325,39.915,823.4773],[44.3128,39.9132,824.3861],[44.303,39.9097,823.9965],[44.2921,39.9102,824.1143],[44.2874,39.9131,824.0934],[44.2826,39.9195,825.1629],[44.2811,39.9331,826.386],[44.282,39.9439,828.8968],[44.2533,39.9588,832.4277],[44.223,39.9701,842.1372],[44.196,39.9751,840.9261],[44.1706,39.9853,844.6501],[44.1641,39.9908,846.019],[44.1613,39.9987,846.0568],[44.1609,40.0327,848.0774],[44.1527,40.0303,846.5476],[44.1283,40.0281,848.3716],[44.1174,40.0341,849.6851],[44.0971,40.033,852.2946],[44.0761,40.0353,856.5374],[44.0567,40.0334,856.0551],[44.0326,40.0287,859.2616],[44.0029,40.031,869.119],[43.9694,40.0188,873.1515],[43.9504,40.0206,878.0753],[43.9055,40.0185,890.3951],[43.8786,40.0274,889.4311],[43.8618,40.0378,902.1414],[43.8426,40.0435,921.6827],[43.826,40.0509,943.9296]]]]}
,"properties": {"GID_2": "TUR.38.3_1","GID_0": "TUR","country": "Turkey","GID_1": "TUR.38_1","province": "Iğdır","NL_NAME_1": "NA","county": "Merkez","VARNAME_2": "Iğdir","NL_NAME_2": "NA","TYPE_2": "District","ENGTYPE_2": "District","CC_2": "NA","HASC_2": "TR.IG.IG","name": "Merkez.county","area_km2": 1450.542,"hist_schema_id": "Elevation0-9000","hist_area_km2": {"825": 14.959,"850": 243.557,"875": 123.426,"900": 49.968,"925": 48.818,"950": 37.881,"975": 35.803,"1000": 29.174,"1025": 28.447,"1050": 30.99,"1075": 27.983,"1100": 23.949,"1125": 20.647,"1150": 18.517,"1175": 16.729,"1200": 15.997,"1225": 13.833,"1250": 11.751,"1275": 11.866,"1300": 10.157,"1325": 9.62,"1350": 10.093,"1375": 9.686,"1400": 10.272,"1425": 10.256,"1450": 10.387,"1475": 9.915,"1500": 9.574,"1525": 11.547,"1550": 11.302,"1575": 12.053,"1600": 13.861,"1625": 14.074,"1650": 19.471,"1675": 17.484,"1700": 15.544,"1725": 13.066,"1750": 13.832,"1775": 14.19,"1800": 14.174,"1825": 12.773,"1850": 11.748,"1875": 11.374,"1900": 10.771,"1925": 11.569,"1950": 11.21,"1975": 11.471,"2000": 11.358,"2025": 11.26,"2050": 12.32,"2075": 14.112,"2100": 11.44,"2125": 11.831,"2150": 11.31,"2175": 10.511,"2200": 10.544,"2225": 9.338,"2250": 9.632,"2275": 9.013,"2300": 7.921,"2325": 7.84,"2350": 7.53,"2375": 7.644,"2400": 7.335,"2425": 7.189,"2450": 6.798,"2475": 6.537,"2500": 7.026,"2525": 6.456,"2550": 6.44,"2575": 5.576,"2600": 5.69,"2625": 5.657,"2650": 5.217,"2675": 4.272,"2700": 4.484,"2725": 4.288,"2750": 3.946,"2775": 3.571,"2800": 3.31,"2825": 3.017,"2850": 3.18,"2875": 3.131,"2900": 2.626,"2925": 2.854,"2950": 2.348,"2975": 2.658,"3000": 2.463,"3025": 2.218,"3050": 2.185,"3075": 1.924,"3100": 2.088,"3125": 1.99,"3150": 1.5,"3175": 1.468,"3200": 1.402,"3225": 1.223,"3250": 1.19,"3275": 1.239,"3300": 1.305,"3325": 1.093,"3350": 1.109,"3375": 0.864,"3400": 0.881,"3425": 0.701,"3450": 0.571,"3475": 0.147}}}