{"type": "Feature","bbox": [43.4875,40.6673,43.7501,40.9862],"geometry": {"type": "MultiPolygon","coordinates": [[[[43.599,40.9858,2256.3962],[43.5972,40.9862,2267.9966],[43.5914,40.9677,2109.7393],[43.5882,40.963,2125.0232],[43.5815,40.9574,2143.2366],[43.5727,40.9537,2251.0183],[43.5433,40.9477,2347.1123],[43.5272,40.9405,2322.2034],[43.5207,40.935,2296.6216],[43.5139,40.9069,2112.6045],[43.5061,40.893,2056.186],[43.5001,40.8745,1945.115],[43.4889,40.8523,1807.3757],[43.4875,40.8307,1760.498],[43.4906,40.8075,1691.8184],[43.508,40.8114,1698.9614],[43.5292,40.8126,1679.4922],[43.6111,40.8132,1650.8174],[43.6296,40.8101,1609.7087],[43.6348,40.806,1569.9333],[43.6372,40.8007,1553.5421],[43.6392,40.7731,1509.7588],[43.6435,40.7624,1549.6671],[43.6551,40.7479,1512.0266],[43.6748,40.74,1495.7195],[43.6803,40.7342,1486.8652],[43.6822,40.7264,1475.322],[43.6836,40.7029,1539.9982],[43.6889,40.692,1514.918],[43.6985,40.6831,1513.8689],[43.7104,40.6761,1483.7023],[43.7404,40.6705,1444.0],[43.7406,40.6673,1444.0],[43.7501,40.6806,1451.5969],[43.7444,40.6882,1446.6244],[43.7419,40.6983,1453.4351],[43.7363,40.7079,1464.5554],[43.7468,40.7259,1468.6259],[43.7487,40.7359,1485.3073],[43.7426,40.7529,1515.4958],[43.713,40.8119,1609.1649],[43.6835,40.835,1705.0675],[43.6761,40.8444,1765.6606],[43.6762,40.8513,1782.8289],[43.679,40.8611,1822.4775],[43.6726,40.8776,1829.3568],[43.6758,40.8929,1951.2455],[43.6805,40.9034,2100.8914],[43.6719,40.9161,2197.4277],[43.6762,40.9277,2162.5061],[43.6718,40.9334,2140.4429],[43.599,40.9858,2256.3962]]]]}
,"properties": {"GID_2": "TUR.45.1_1","GID_0": "TUR","country": "Turkey","GID_1": "TUR.45_1","province": "Kars","NL_NAME_1": "NA","county": "Akyaka","VARNAME_2": "NA","NL_NAME_2": "NA","TYPE_2": "District","ENGTYPE_2": "District","CC_2": "NA","HASC_2": "TR.KA.AK","name": "Akyaka.county","area_km2": 330.6546,"hist_schema_id": "Elevation0-9000","hist_area_km2": {"1450": 7.362,"1475": 12.3583,"1500": 15.8423,"1525": 21.2361,"1550": 15.7193,"1575": 12.4726,"1600": 8.4739,"1625": 8.0715,"1650": 8.3756,"1675": 8.1343,"1700": 11.1822,"1725": 9.8979,"1750": 11.421,"1775": 15.2374,"1800": 17.8011,"1825": 12.9881,"1850": 9.4596,"1875": 5.9318,"1900": 4.5688,"1925": 3.8633,"1950": 4.4242,"1975": 4.1676,"2000": 5.5133,"2025": 18.3308,"2050": 17.0466,"2075": 23.0362,"2100": 15.7146,"2125": 6.5032,"2150": 4.437,"2175": 2.3387,"2200": 2.659,"2225": 1.6498,"2250": 1.1692,"2275": 1.041,"2300": 1.1531,"2325": 0.7848,"2350": 0.2723,"2375": 0.016}}}