{"type": "Feature","bbox": [28.7642,37.7976,29.0352,38.0003],"geometry": {"type": "MultiPolygon","coordinates": [[[[28.7931,37.9065,461.7833],[28.7676,37.8654,868.1385],[28.7653,37.8573,915.5406],[28.7642,37.8431,806.6518],[28.7756,37.8372,871.934],[28.7831,37.8211,1057.2643],[28.7942,37.8082,1183.1356],[28.8044,37.8122,870.0668],[28.8153,37.8229,733.0935],[28.8257,37.8289,677.179],[28.8405,37.8316,480.5444],[28.8641,37.8318,429.5101],[28.8795,37.83,464.2903],[28.9009,37.8226,550.9572],[28.928,37.8172,627.5915],[28.9774,37.7976,619.0958],[28.9866,37.8089,541.9429],[29.0163,37.8555,251.4094],[29.0185,37.8665,221.3169],[29.0176,37.8787,201.2864],[29.0221,37.8974,158.4596],[29.0324,37.9167,156.0748],[29.0343,37.9257,157.1612],[29.0352,37.9603,149.2225],[29.0337,37.9759,148.8812],[29.0231,38.0003,206.1346],[28.9922,37.9865,144.8579],[28.9765,37.9831,148.0086],[28.8697,37.9827,659.3022],[28.8641,37.9814,660.567],[28.859,37.9795,663.4611],[28.843,37.9682,492.3515],[28.8073,37.9173,228.286],[28.7931,37.9065,461.7833]]]]}
,"properties": {"GID_2": "TUR.25.17_1","GID_0": "TUR","country": "Turkey","GID_1": "TUR.25_1","province": "Denizli","NL_NAME_1": "NA","county": "Sarayköy","VARNAME_2": "NA","NL_NAME_2": "NA","TYPE_2": "District","ENGTYPE_2": "District","CC_2": "NA","HASC_2": "TR.DN.SA","name": "Sarayköy.county","area_km2": 360.9315,"hist_schema_id": "Elevation0-9000","hist_area_km2": {"125": 8.3945,"150": 109.1684,"175": 28.4534,"200": 16.9967,"225": 14.8736,"250": 13.904,"275": 12.181,"300": 11.5959,"325": 10.358,"350": 9.8732,"375": 9.0707,"400": 9.6735,"425": 9.49,"450": 9.4734,"475": 9.8255,"500": 10.0436,"525": 8.9564,"550": 8.806,"575": 7.7854,"600": 6.4627,"625": 4.9222,"650": 3.3653,"675": 3.2479,"700": 3.1477,"725": 3.2649,"750": 2.7962,"775": 2.7794,"800": 2.2938,"825": 2.595,"850": 1.9085,"875": 1.5905,"900": 0.9208,"925": 0.7033,"950": 0.4354,"975": 0.3182,"1000": 0.3182,"1025": 0.2177,"1050": 0.201,"1075": 0.201,"1100": 0.1005,"1125": 0.0838,"1150": 0.0838,"1175": 0.0335,"1200": 0.0168}}}