{"type": "Feature","bbox": [37.4136,37.5505,37.8046,37.8365],"geometry": {"type": "MultiPolygon","coordinates": [[[[37.8041,37.7265,1023.8157],[37.8046,37.7508,779.7999],[37.8029,37.7629,951.1771],[37.7991,37.7705,1115.1862],[37.7893,37.7828,1268.7915],[37.7793,37.7883,1198.2646],[37.7461,37.7921,990.1977],[37.7381,37.7964,1070.8359],[37.7342,37.8003,1100.1438],[37.7318,37.8052,1071.6111],[37.7316,37.8103,1052.8138],[37.7376,37.8251,1050.3403],[37.7373,37.8341,1090.9415],[37.7053,37.8365,888.3881],[37.6716,37.8362,978.9062],[37.6557,37.8338,955.189],[37.6307,37.8263,872.8317],[37.5942,37.8249,899.3051],[37.5778,37.8152,994.8257],[37.5582,37.8087,957.9552],[37.5405,37.7933,1080.6956],[37.5298,37.7769,1359.3325],[37.5213,37.7687,1217.4911],[37.5087,37.7604,1223.408],[37.4971,37.757,1227.8453],[37.4871,37.7445,1279.8322],[37.4804,37.7387,1135.0858],[37.4455,37.7215,1074.7612],[37.4222,37.7033,1035.4926],[37.4166,37.6961,1018.7026],[37.4136,37.6851,990.0424],[37.4138,37.6621,953.8041],[37.4166,37.6448,927.6773],[37.4139,37.6302,903.4179],[37.4146,37.6218,1037.2899],[37.4198,37.6114,939.804],[37.4265,37.6048,907.9849],[37.4505,37.587,808.3819],[37.4595,37.5824,851.0831],[37.4898,37.5713,987.7371],[37.5322,37.5663,958.7065],[37.5731,37.5505,888.3605],[37.5852,37.5529,878.2953],[37.6106,37.5604,907.3599],[37.6489,37.5837,944.6075],[37.6533,37.5929,836.11],[37.6573,37.6141,940.7854],[37.6649,37.6282,1034.2478],[37.6705,37.6464,1121.7778],[37.6756,37.6532,1169.9153],[37.6893,37.6602,1116.4457],[37.7125,37.6625,917.7582],[37.7237,37.6661,889.5524],[37.7271,37.6699,887.2706],[37.7343,37.6863,968.6091],[37.7456,37.6975,1156.5759],[37.757,37.7048,1172.3496],[37.7757,37.712,1215.7784],[37.8041,37.7265,1023.8157]]]]}
,"properties": {"GID_2": "TUR.2.4_1","GID_0": "TUR","country": "Turkey","GID_1": "TUR.2_1","province": "Adiyaman","NL_NAME_1": "NA","county": "Gölbaşı","VARNAME_2": "NA","NL_NAME_2": "NA","TYPE_2": "District","ENGTYPE_2": "District","CC_2": "NA","HASC_2": "TR.AD.GO","name": "Gölbaşı.county","area_km2": 677.8198,"hist_schema_id": "Elevation0-9000","hist_area_km2": {"775": 0.8047,"800": 2.3642,"825": 7.1821,"850": 13.0591,"875": 76.6851,"900": 65.6806,"925": 61.4845,"950": 59.0695,"975": 54.162,"1000": 52.0899,"1025": 42.0736,"1050": 36.2804,"1075": 28.6788,"1100": 23.0074,"1125": 19.5368,"1150": 19.738,"1175": 15.8136,"1200": 15.0256,"1225": 15.3437,"1250": 13.2143,"1275": 10.1785,"1300": 8.2836,"1325": 7.2607,"1350": 5.4496,"1375": 4.913,"1400": 4.5105,"1425": 3.4039,"1450": 3.0352,"1475": 2.968,"1500": 2.2638,"1525": 2.314,"1550": 1.2744,"1575": 0.4024,"1600": 0.2515,"1625": 0.0168}}}