{"type":"Feature","properties":{"GID_1":"TUR.39_1","GID_0":"TUR","country":"Turkey","province":"Isparta","VARNAME_1":"NA","NL_NAME_1":"NA","TYPE_1":"Il","ENGTYPE_1":"Province","CC_1":"NA","HASC_1":"TR.IP","ISO_1":"TR-32","name":"Isparta.province"},
"geometry":{"type": "MultiPolygon","coordinates": [[[[31.2466,37.4224,993.238],[31.2994,37.4224,1470.2113],[31.3233,37.4244,2184.9238],[31.3414,37.4442,1708.2092],[31.35,37.4674,1482.2671],[31.358,37.4813,1427.1449],[31.3614,37.4997,1455.926],[31.3625,37.5348,1485.6399],[31.3658,37.5499,1479.1917],[31.3743,37.5656,1322.933],[31.3792,37.5927,1564.3063],[31.3892,37.612,1633.7317],[31.3917,37.6316,1626.172],[31.3952,37.6422,1382.7083],[31.4045,37.6585,1420.3566],[31.4104,37.677,1231.6665],[31.4195,37.6938,1146.5881],[31.4255,37.7236,1137.0273],[31.4336,37.7375,1127.2579],[31.4396,37.7559,1122.0],[31.4488,37.7722,1122.0],[31.452,37.7871,1122.0],[31.4523,37.8528,1122.0],[31.4436,37.861,1122.0],[31.437,37.8706,1122.0],[31.4236,37.9083,1122.0],[31.4248,37.9312,1122.0],[31.4225,37.9517,1122.0],[31.4231,37.9602,1122.0],[31.4266,37.9708,1122.0],[31.4399,37.9918,1528.5497],[31.446,37.9987,1358.9407],[31.4748,38.0207,1327.4366],[31.4875,38.0259,1451.0001],[31.5113,38.0301,1411.9996],[31.5345,38.0379,1519.7687],[31.5561,38.0475,1690.0828],[31.5749,38.0536,1601.9061],[31.5993,38.065,1605.8434],[31.6157,38.0862,1593.7974],[31.6182,38.0943,1442.6605],[31.6188,38.1057,1468.702],[31.6176,38.1141,1501.6742],[31.6139,38.1221,1504.6652],[31.6076,38.129,1566.5833],[31.5866,38.1451,1445.495],[31.572,38.1532,1524.1171],[31.5511,38.1619,1645.705],[31.5051,38.1956,2100.6763],[31.4843,38.2042,1729.7366],[31.471,38.2118,2026.6156],[31.3635,38.2949,1728.584],[31.3499,38.3034,1717.4285],[31.3315,38.3103,2037.9156],[31.3207,38.3168,1928.9547],[31.2556,38.3668,1890.8162],[31.2474,38.3753,1998.0134],[31.2447,38.3801,2016.7422],[31.2426,38.3931,2098.3408],[31.2442,38.4117,2180.2969],[31.2504,38.4266,2123.7393],[31.2196,38.4352,1831.2823],[31.2093,38.4399,2256.8535],[31.2026,38.4455,2226.2998],[31.1938,38.4595,2157.2275],[31.1857,38.4678,1909.5547],[31.1464,38.497,1775.3505],[31.1309,38.5106,1551.2346],[31.1195,38.5157,1819.2112],[31.11,38.5168,2080.4951],[31.0973,38.5157,1842.5889],[31.0832,38.5091,2489.6628],[30.9279,38.3887,1557.6514],[30.9145,38.3805,1428.5458],[30.8933,38.3722,1367.9695],[30.8776,38.3616,1343.7451],[30.848,38.338,1351.7412],[30.8358,38.3243,1359.3373],[30.8303,38.3216,1342.3833],[30.817,38.3036,1309.0935],[30.8,38.2902,1293.1959],[30.7889,38.285,1462.8054],[30.7544,38.2743,1614.8596],[30.7309,38.2635,1627.2523],[30.6921,38.2588,1610.677],[30.6708,38.252,1559.5073],[30.6405,38.2458,1506.8901],[30.6101,38.2339,1504.3894],[30.5671,38.2027,1685.0994],[30.5502,38.1994,1711.3656],[30.5174,38.1864,1671.824],[30.3663,38.0713,1222.2126],[30.3443,38.0602,1439.7383],[30.3331,38.0507,1406.5795],[30.322,38.0463,1612.4021],[30.298,38.0319,1492.0387],[30.2826,38.0262,1125.7013],[30.2656,38.0161,1024.3314],[30.2393,37.9961,1512.7637],[30.2236,37.9809,1004.4731],[30.2082,37.9548,1037.5846],[30.2028,37.9246,1365.5028],[30.1826,37.9012,1437.8214],[30.2017,37.8672,1661.0786],[30.2032,37.8569,1507.4542],[30.1996,37.8497,1291.0592],[30.183,37.8335,1310.3364],[30.1732,37.8199,1139.6846],[30.1594,37.8092,1042.8683],[30.1416,37.8019,1071.2223],[30.1173,37.7873,1085.1027],[30.0844,37.7747,1761.0791],[30.0646,37.7722,1717.2638],[30.0105,37.7723,1452.4971],[30.0029,37.7549,1587.5316],[30.0187,37.7407,1224.6296],[30.0339,37.7193,1180.3029],[30.0468,37.709,1043.2928],[30.0563,37.7044,1020.3491],[30.0633,37.7029,985.9883],[30.0812,37.7035,841.0],[30.1144,37.716,841.0],[30.144,37.7337,841.0],[30.1651,37.7422,841.0],[30.2013,37.7672,841.0],[30.2306,37.7804,841.0],[30.2737,37.8123,886.9104],[30.2974,37.8226,971.3379],[30.3209,37.8371,864.6779],[30.3323,37.8402,855.597],[30.3435,37.8387,855.2233],[30.3575,37.8331,851.4188],[30.371,37.8303,850.0162],[30.3815,37.8199,870.4661],[30.4071,37.7801,1310.0514],[30.4382,37.7544,1227.2473],[30.4537,37.7434,1311.9766],[30.4771,37.7335,1574.2869],[30.5042,37.717,1571.6931],[30.534,37.7054,1549.7596],[30.5483,37.7025,1564.302],[30.624,37.7023,1364.3342],[30.6513,37.7006,876.9188],[30.6853,37.6887,1403.674],[30.7026,37.678,1055.2891],[30.7096,37.6712,932.3947],[30.715,37.6607,737.3844],[30.7153,37.6372,913.9838],[30.7193,37.6216,883.102],[30.7275,37.6077,625.264],[30.7332,37.5892,447.4435],[30.7425,37.5728,498.5197],[30.749,37.5516,434.6938],[30.7653,37.5256,372.1407],[30.7931,37.4976,490.0289],[30.8058,37.4923,313.2711],[30.8106,37.4793,485.2567],[30.8266,37.4639,381.8144],[30.8459,37.4508,304.8507],[30.873,37.4393,270.4951],[30.8898,37.4261,273.8396],[30.9079,37.3982,583.0831],[30.9159,37.3725,895.2529],[30.9291,37.3743,1007.0106],[30.9427,37.3719,1154.1095],[30.9541,37.3653,1322.0059],[30.9774,37.3476,1668.5486],[30.9864,37.3435,1818.5853],[30.9968,37.3428,1469.9009],[31.0471,37.3615,1419.702],[31.0743,37.3668,1261.5977],[31.096,37.3738,1323.6543],[31.1308,37.3776,1722.5272],[31.1525,37.3844,1681.5114],[31.1797,37.3897,1388.4541],[31.2043,37.4009,862.2271],[31.2154,37.4117,1192.3175],[31.2248,37.4182,949.1277],[31.2313,37.4205,851.8422],[31.2466,37.4224,993.238]]]]}}