{"type": "Feature","bbox": [31.318728135987186,37.601009921362987,31.706405691419604,37.977207275837259],"geometry": {"type": "Polygon","coordinates": [[[31.485632596070843,37.61042957343119,1122.0],[31.508298633859994,37.601009921362987,1122.0],[31.523899932597971,37.6048366550157,1123.416],[31.520073198945255,37.617199948355221,1123.277],[31.515657737038282,37.628385785186225,1129.538],[31.526254845615028,37.635744888364513,1122.0],[31.582478393897162,37.641337806780029,1122.0],[31.644294860594812,37.658116562026521,1122.0],[31.674908729816508,37.665770029331952,1122.0],[31.706405691419604,37.6763671379087,1122.0],[31.702284593639774,37.704920458240451,1124.0486],[31.686094566647512,37.7275864960296,1122.5146],[31.673142545053736,37.743776523021836,1133.3073],[31.654891969171558,37.772329843353617,1123.1964],[31.646355409484755,37.79587897352414,1126.1638],[31.62663301296692,37.795290245269882,1131.0839],[31.613092263118858,37.784693136693136,1128.655],[31.602200790414997,37.781160767167563,1140.1614],[31.594841687236709,37.794407152888482,1122.2554],[31.593075502473909,37.81766191893189,1123.064],[31.58071220913439,37.834146310051267,1127.7115],[31.575708018973131,37.847687059899329,1122.2563],[31.561578540870812,37.869470005307079,1127.8114],[31.527726666250686,37.886837488807828,1127.1874],[31.49887898179179,37.910386618978379,1125.9628],[31.474152395112725,37.932463928513243,1123.2048],[31.447953987798,37.957190515192309,1159.4271],[31.41851757508482,37.977207275837259,1129.9],[31.394674080787155,37.9663158031334,1174.7739],[31.357878564895714,37.962194705353539,1143.1125],[31.318728135987186,37.950420140268278,1123.0986],[31.324026690275559,37.918040086283781,1122.0],[31.339333624886422,37.8947853202404,1123.0807],[31.353757467115855,37.869175641179936,1122.0],[31.388786798244524,37.832968853542752,1122.0],[31.41263029254219,37.8008831636854,1122.0],[31.436473786839855,37.7573172728699,1122.0],[31.459139824629005,37.717872479834256,1122.0],[31.452663813832118,37.699327539824964,1131.1869],[31.451780721450717,37.6875529747397,1122.0],[31.459434188756148,37.669891127111782,1128.4908],[31.456490547484805,37.628091421059111,1122.0],[31.465027107171636,37.607780296287018,1122.0],[31.485632596070843,37.61042957343119,1122.0]]]}
,"properties": {"featurecla": "Lake","scalerank": 7,"name": "Beysehir","name_abb": "Beysehir","name_alt": null,"note": null,"delta": "New or modified in version 1.2","dam_name": null,"year": -99,"admin": null,"min_zoom": 5.7,"min_label": 6.7,"area_km2": 651.5958,"hist_schema_id": "Elevation0-9000","hist_area_km2": {"1125": 630.2495,"1150": 7.6364,"1175": 4.0023,"1200": 2.7964,"1225": 2.1937,"1250": 1.4061,"1275": 0.8197,"1300": 0.6524,"1325": 0.5353,"1350": 0.3512,"1375": 0.234,"1400": 0.1337,"1425": 0.1839,"1450": 0.117,"1475": 0.1003,"1500": 0.0501,"1525": 0.1337}}}