{"type":"Feature","properties":{"ISO3166-1-Alpha-3":"TUR","country":"Turkey","fill":"#00F","id":"2275","name":"Isparta"},
"geometry":{"type": "Polygon","coordinates": [[[31.25435,38.42298,2002.8281],[31.22955,38.42902,1993.4868],[31.20702,38.43962,2210.9316],[31.16216,38.49078,1616.7156],[31.14418,38.50328,1938.1465],[31.12382,38.51243,1513.0237],[31.09963,38.51519,1920.2101],[31.07968,38.50189,2555.5425],[31.03039,38.4598,1747.7415],[30.90564,38.3805,1354.7188],[30.84466,38.3249,1265.4019],[30.7811,38.27774,1443.9832],[30.70513,38.25451,1454.254],[30.68312,38.25394,1528.8662],[30.66235,38.25004,1514.2568],[30.6055,38.21369,1443.8339],[30.56654,38.20563,1699.475],[30.53016,38.19302,1677.825],[30.48117,38.14948,1316.1057],[30.42898,38.1122,1330.3669],[30.39032,38.09463,1536.0575],[30.29999,38.0244,1276.5479],[30.23219,37.99319,1330.7242],[30.21111,37.9619,1004.4559],[30.19767,37.85841,1379.7994],[30.16532,37.81041,1036.7777],[30.09339,37.77924,1671.7532],[30.01525,37.77651,1423.9866],[30.0291,37.74328,1460.1541],[30.04864,37.71408,1047.941],[30.08615,37.70315,841.0],[30.12346,37.71682,841.0],[30.23364,37.78131,841.0],[30.26268,37.79286,841.4759],[30.28997,37.808,847.5333],[30.33658,37.84614,862.8683],[30.38639,37.81816,895.7375],[30.43084,37.7685,1322.2899],[30.47001,37.73537,1472.853],[30.5129,37.70927,1596.8748],[30.58328,37.69935,1650.0581],[30.64633,37.69997,958.7529],[30.70648,37.67065,1058.0962],[30.73934,37.58998,467.3604],[30.76642,37.5421,342.8371],[30.82678,37.46893,418.2734],[30.83588,37.45133,329.199],[30.85458,37.43337,255.0],[30.87009,37.43544,259.5198],[30.90016,37.43213,396.9928],[30.92052,37.40898,1053.1858],[30.93499,37.38025,1174.1427],[31.02346,37.35139,1811.7118],[31.1265,37.3801,1786.7311],[31.18066,37.38671,1396.6453],[31.22738,37.41389,894.8505],[31.27771,37.42784,1065.9487],[31.33187,37.42224,2069.2974],[31.35853,37.47761,1450.0505],[31.36773,37.53755,1408.1217],[31.35378,37.57378,1419.0569],[31.32928,37.60388,1908.9712],[31.32918,37.63887,1895.1046],[31.37269,37.6492,1437.1061],[31.40514,37.6815,1195.7408],[31.40928,37.72912,1168.8416],[31.45072,37.78074,1122.0],[31.44824,37.85921,1122.0],[31.42519,37.93758,1122.0],[31.4471,38.00277,1571.8965],[31.47945,38.01874,1315.7983],[31.54963,38.03969,1686.5751],[31.61361,38.07199,1843.4912],[31.62074,38.10465,1404.2531],[31.54829,38.1548,1665.1497],[31.52534,38.1809,1856.5946],[31.49144,38.1926,1994.1061],[31.42189,38.23808,1835.2062],[31.36142,38.30004,1608.0115],[31.28329,38.35006,1866.5098],[31.25435,38.42298,2002.8281]]]}}