{"type": "Feature","bbox": [38.8578,38.4475,39.7518,38.8957],"geometry": {"type": "MultiPolygon","coordinates": [[[[38.9118,38.4475,1283.6949],[38.9608,38.4667,1368.7836],[38.9871,38.4821,1314.2375],[38.9972,38.4857,1382.6283],[39.0587,38.4887,1178.1774],[39.0838,38.4963,1141.4746],[39.095,38.4982,1112.2429],[39.1493,38.5002,1088.0016],[39.1773,38.5088,1017.0623],[39.201,38.5135,971.8093],[39.2187,38.5199,956.9403],[39.2326,38.5214,949.0322],[39.2465,38.5198,980.8568],[39.2675,38.5129,1140.5466],[39.3061,38.5076,1625.4784],[39.3327,38.4928,1328.9592],[39.3427,38.4891,1275.9224],[39.3578,38.4874,1237.5],[39.3922,38.4873,1237.5],[39.4057,38.485,1237.5],[39.4141,38.4777,1237.5],[39.4246,38.4578,1623.1443],[39.4386,38.4717,1419.5616],[39.4817,38.5069,1237.5],[39.5072,38.5467,1530.3171],[39.5252,38.563,1447.4475],[39.5463,38.577,1460.1885],[39.606,38.6005,1909.5376],[39.6184,38.6032,1821.7341],[39.6342,38.6023,1590.7281],[39.6487,38.5957,1435.9064],[39.6877,38.5644,1150.229],[39.6953,38.5558,1246.5719],[39.7024,38.5438,1255.7198],[39.7106,38.5358,1490.926],[39.7284,38.5252,1717.842],[39.7345,38.5235,1710.7174],[39.75,38.5502,1369.4404],[39.7518,38.559,1197.7277],[39.7407,38.5792,910.8984],[39.7202,38.5993,872.2539],[39.7154,38.6069,939.2009],[39.7134,38.6152,1222.4434],[39.7131,38.6295,1093.2924],[39.7146,38.641,863.5896],[39.7189,38.6549,883.4286],[39.6938,38.6604,836.0],[39.6664,38.6618,835.5],[39.647,38.6604,835.5],[39.6225,38.6531,835.5],[39.6125,38.6526,835.5],[39.5884,38.6593,835.5],[39.5497,38.6643,835.5],[39.5338,38.6727,835.5],[39.4951,38.698,886.3651],[39.4912,38.702,940.8966],[39.4884,38.7098,871.2715],[39.4877,38.7184,975.9502],[39.4906,38.7492,1147.8146],[39.4597,38.7573,835.5],[39.442,38.7639,1112.714],[39.4117,38.7701,862.3037],[39.3246,38.8039,835.5],[39.2919,38.8221,835.5],[39.2647,38.8276,871.3282],[39.2169,38.8456,872.6478],[39.1897,38.8508,835.5],[39.1419,38.869,835.5],[39.1147,38.8743,835.5],[39.0969,38.8806,835.5],[39.0697,38.886,835.5],[39.0415,38.8942,844.6559],[39.0274,38.8957,844.8085],[38.942,38.8938,835.5],[38.9234,38.8884,835.5],[38.9159,38.8637,835.5],[38.9064,38.8473,979.4436],[38.9004,38.8289,1055.7802],[38.8911,38.8125,1038.9175],[38.8878,38.7939,1109.2676],[38.888,38.7549,1450.916],[38.8856,38.736,1357.5308],[38.8621,38.6986,1251.5729],[38.8578,38.6843,1312.7977],[38.8581,38.6625,1379.3396],[38.8603,38.6506,1500.5938],[38.9025,38.6505,1744.1246],[38.9151,38.6586,1582.2556],[38.9283,38.661,1487.1862],[38.9348,38.6597,1437.6002],[38.9422,38.6553,1429.354],[38.9459,38.6484,1386.0918],[38.9445,38.6433,1416.2618],[38.9397,38.6396,1467.7844],[38.9175,38.6389,1569.5552],[38.9165,38.6261,1751.8872],[38.9142,38.6215,1783.491],[38.9097,38.6181,1849.7456],[38.8741,38.6137,2114.2908],[38.864,38.608,1971.3922],[38.8604,38.6014,1794.0896],[38.8625,38.5946,1582.0671],[38.8755,38.5869,1469.4493],[38.883,38.5792,1427.1261],[38.8859,38.5715,1349.0289],[38.8888,38.5524,1521.6941],[38.8926,38.545,1754.9707],[38.9015,38.5378,1703.8779],[38.9211,38.5293,1648.6917],[38.9277,38.5237,1827.746],[38.9306,38.5189,1952.3669],[38.9318,38.508,1731.3315],[38.9292,38.5,1653.3784],[38.9095,38.48,1142.285],[38.9053,38.4725,996.4109],[38.9052,38.4645,1004.4451],[38.9118,38.4475,1283.6949]]]]}
,"properties": {"GID_2": "TUR.29.9_1","GID_0": "TUR","country": "Turkey","GID_1": "TUR.29_1","province": "Elazığ","NL_NAME_1": "NA","county": "Merkez","VARNAME_2": "Elaziğ","NL_NAME_2": "NA","TYPE_2": "District","ENGTYPE_2": "District","CC_2": "NA","HASC_2": "TR.EG.EG","name": "Merkez.county","area_km2": 2219.975,"hist_schema_id": "Elevation0-9000","hist_area_km2": {"825": 186.132,"850": 84.294,"875": 93.047,"900": 106.177,"925": 98.098,"950": 89.201,"975": 91.778,"1000": 91.664,"1025": 91.278,"1050": 95.163,"1075": 103.122,"1100": 92.027,"1125": 89.55,"1150": 86.084,"1175": 86.873,"1200": 83.904,"1225": 69.036,"1250": 98.126,"1275": 54.352,"1300": 52.166,"1325": 50.112,"1350": 42.414,"1375": 38.373,"1400": 35.673,"1425": 30.777,"1450": 28.609,"1475": 25.777,"1500": 21.339,"1525": 17.844,"1550": 14.597,"1575": 12.312,"1600": 9.631,"1625": 8.106,"1650": 6.266,"1675": 5.106,"1700": 4.443,"1725": 4.708,"1750": 3.747,"1775": 3.664,"1800": 2.719,"1825": 2.238,"1850": 1.807,"1875": 1.492,"1900": 1.277,"1925": 1.243,"1950": 0.862,"1975": 0.663,"2000": 0.414,"2025": 0.348,"2050": 0.381,"2075": 0.381,"2100": 0.464,"2125": 0.116}}}