{"type":"Feature","properties":{"GID_2":"TUR.71.2_1","GID_0":"TUR","country":"Turkey","GID_1":"TUR.71_1","province":"Sirnak","NL_NAME_1":"NA","county":"Cizre","VARNAME_2":"NA","NL_NAME_2":"NA","TYPE_2":"District","ENGTYPE_2":"District","CC_2":"NA","HASC_2":"TR.SR.CI","name":"Cizre.county"},
"geometry":{"type": "MultiPolygon","coordinates": [[[[42.4585,37.1324,364.6996],[42.472,37.1365,368.7537],[42.5076,37.133,371.7972],[42.5122,37.134,375.4881],[42.5171,37.1377,375.2464],[42.5147,37.1448,375.0777],[42.4917,37.1821,435.8411],[42.486,37.2006,457.7484],[42.477,37.217,470.1987],[42.4701,37.2381,482.2758],[42.4501,37.2622,515.364],[42.4673,37.2822,675.4516],[42.4715,37.2894,608.4388],[42.4772,37.3079,674.4761],[42.4861,37.3244,763.5674],[42.4896,37.3464,1301.3716],[42.4924,37.3544,1409.3254],[42.5136,37.3776,1829.884],[42.5273,37.4018,1292.9822],[42.4855,37.4032,1407.9479],[42.4752,37.4051,1225.9855],[42.4576,37.4113,1466.2728],[42.4438,37.4128,1527.4546],[42.43,37.4113,1442.5731],[42.4124,37.4051,1430.9419],[42.3973,37.4027,1511.7922],[42.3491,37.4019,920.5606],[42.3174,37.4034,887.937],[42.2884,37.4119,909.7261],[42.2469,37.4175,503.7781],[42.2167,37.4289,504.9222],[42.1878,37.4436,855.8818],[42.1754,37.4219,557.329],[42.1728,37.3966,537.8903],[42.1758,37.3714,554.2696],[42.1853,37.3547,394.8242],[42.188,37.346,376.5891],[42.1889,37.3282,375.7039],[42.1862,37.3174,373.3007],[42.1828,37.3132,405.8988],[42.1659,37.3068,409.0151],[42.1617,37.3034,434.578],[42.1592,37.2985,440.1267],[42.158,37.29,504.2046],[42.1589,37.2812,499.8799],[42.1665,37.2662,481.9226],[42.1839,37.2751,474.0313],[42.1939,37.2822,462.2698],[42.2078,37.3002,363.3661],[42.2165,37.3152,364.6884],[42.2249,37.3191,375.3323],[42.2322,37.3174,421.003],[42.2349,37.3157,438.821],[42.233,37.3077,438.4478],[42.2188,37.284,365.8875],[42.2181,37.2805,366.2106],[42.2208,37.2775,357.0501],[42.2271,37.2766,366.353],[42.235,37.2805,358.8217],[42.2473,37.2804,356.1273],[42.2559,37.2788,367.4932],[42.267,37.2718,384.446],[42.2756,37.2711,374.4026],[42.295,37.2809,482.823],[42.3001,37.2746,417.3378],[42.3032,37.2651,359.4638],[42.3073,37.2613,353.9674],[42.3211,37.2568,407.515],[42.3275,37.2451,365.6512],[42.3351,37.2403,356.9771],[42.3498,37.2365,414.563],[42.3574,37.2275,386.8593],[42.3587,37.2181,352.8373],[42.3552,37.2106,360.401],[42.3402,37.1996,361.7968],[42.3353,37.1857,348.4503],[42.3371,37.1749,346.4636],[42.3494,37.1483,346.6935],[42.36,37.1352,377.0893],[42.3628,37.1269,341.1723],[42.3637,37.1093,338.6778],[42.3752,37.1178,342.4388],[42.3844,37.1175,344.0795],[42.3959,37.1121,343.9941],[42.4036,37.1121,345.3897],[42.4118,37.1163,348.7321],[42.4268,37.1197,368.7644],[42.4348,37.1243,363.6332],[42.4507,37.128,359.6649],[42.4585,37.1324,364.6996]]]]}}