{"type": "Feature","bbox": [27.1799,36.301,29.6843,37.5869],"geometry": {"type": "MultiPolygon","coordinates": [[[[29.0615,36.5396,0.0],[29.0618,36.5407,0.0],[29.0593,36.5421,0.0],[29.059,36.5393,0.0],[29.0615,36.5396,0.0]]],
[[[29.0751,36.5543,1.806],[29.064,36.5549,0.0],[29.0685,36.5513,0.0],[29.076,36.5535,0.0],[29.0751,36.5543,1.806]]],
[[[28.7646,36.6274,0.0],[28.7629,36.6288,0.0],[28.7613,36.6263,0.0],[28.7637,36.626,0.0],[28.7646,36.6274,0.0]]],
[[[29.1057,36.6518,0.0],[29.106,36.6532,0.0],[29.1024,36.6515,2.2289],[29.0982,36.6526,0.0],[29.0974,36.6463,0.0],[29.0996,36.646,0.0],[29.0996,36.649,7.6145],[29.1057,36.6518,0.0]]],
[[[29.0476,36.6624,3.6649],[29.0457,36.6646,0.0],[29.0438,36.6613,11.5898],[29.0413,36.6615,0.0],[29.0432,36.659,27.0704],[29.0432,36.6518,0.0],[29.0529,36.6563,0.0],[29.0524,36.6582,0.0],[29.0543,36.661,0.0],[29.0504,36.6601,19.8285],[29.0493,36.6624,0.0],[29.0476,36.6624,3.6649]]],
[[[28.8979,36.6699,31.8434],[28.8951,36.6701,22.3683],[28.8924,36.6668,18.0725],[28.889,36.6704,11.1256],[28.8879,36.6679,11.5004],[28.8951,36.661,4.1864],[28.899,36.6601,3.7265],[28.9026,36.6518,0.0],[28.9079,36.6512,10.6255],[28.9093,36.6571,11.548],[28.9074,36.6649,28.5078],[28.8996,36.6676,27.9051],[28.8979,36.6699,31.8434]]],
[[[28.9185,36.6807,0.0],[28.9129,36.6813,24.1787],[28.9121,36.6787,0.0],[28.9162,36.6751,2.4455],[28.9146,36.6746,2.4455],[28.9121,36.6771,0.0],[28.9093,36.6721,0.0],[28.9112,36.6632,43.9141],[28.9129,36.6615,83.582],[28.9124,36.6557,36.6975],[28.9149,36.6543,5.1707],[28.9168,36.6546,0.0],[28.9232,36.6615,0.0],[28.9238,36.664,26.7456],[28.9268,36.6643,0.0],[28.9268,36.6707,17.4586],[28.9296,36.6712,35.2882],[28.9332,36.6688,8.4641],[28.9396,36.6738,0.0],[28.9368,36.6757,3.7114],[28.9304,36.6754,105.9707],[28.9249,36.6785,13.1809],[28.9196,36.6774,15.5177],[28.9185,36.6807,0.0]]],
[[[29.0326,36.6696,14.7426],[29.0321,36.6715,6.5744],[29.0279,36.6712,0.0],[29.0299,36.6682,0.0],[29.0365,36.6668,0.0],[29.036,36.6688,0.0],[29.0332,36.6682,0.0],[29.0326,36.6696,14.7426]]],
[[[28.1288,36.5996,21.2737],[28.126,36.6007,0.0],[28.1218,36.5976,0.0],[28.1282,36.5954,0.0],[28.1299,36.5968,12.4138],[28.1288,36.5996,21.2737]]],
[[[28.6985,36.6929,0.0],[28.6982,36.6949,13.4997],[28.6935,36.6946,16.58],[28.6904,36.6921,0.0],[28.6921,36.691,0.0],[28.694,36.6926,23.2631],[28.6985,36.6929,0.0]]],
[[[28.2479,36.7126,0.0],[28.2485,36.7146,0.0],[28.2426,36.714,0.0],[28.2432,36.7124,0.0],[28.2479,36.7126,0.0]]],
[[[28.4435,36.7735,0.0],[28.4413,36.774,0.0],[28.441,36.7771,12.9064],[28.4426,36.779,0.3161],[28.441,36.779,0.0],[28.4368,36.7776,0.0],[28.4368,36.7743,3.6447],[28.431,36.7704,0.0],[28.4413,36.7707,0.0],[28.4435,36.7735,0.0]]],
[[[29.6607,36.8536,1187.9149],[29.6736,36.8748,1263.4207],[29.6768,36.8827,1282.4863],[29.6843,36.919,1246.9854],[29.6769,36.9326,1262.3442],[29.6586,36.9592,1378.5919],[29.6405,36.9774,1654.2111],[29.6307,36.9915,1883.3057],[29.6246,36.9975,1837.838],[29.6169,37.0022,1774.7324],[29.5572,37.0256,1501.6263],[29.5359,37.0282,1293.2278],[29.525,37.0277,1285.7903],[29.5118,37.0242,1413.6982],[29.5023,37.0171,1325.818],[29.4931,37.0031,1151.4045],[29.4842,36.9939,1116.1211],[29.4461,36.9644,1171.3604],[29.4117,36.949,1315.6556],[29.4027,36.948,1241.8365],[29.3967,36.95,1191.0206],[29.3923,36.9566,1127.6558],[29.3923,36.9694,1221.8972],[29.3956,36.9801,1079.5099],[29.4067,36.999,1086.8801],[29.4083,37.0246,1334.4189],[29.4062,37.0357,1262.9531],[29.3954,37.0547,1276.3052],[29.3878,37.0761,1530.646],[29.3763,37.0711,1310.2395],[29.362,37.0622,1243.7614],[29.3462,37.05,1246.0082],[29.3376,37.041,1253.8546],[29.333,37.0271,1565.6411],[29.3333,36.9761,1570.6027],[29.3296,36.9589,1315.8506],[29.3079,36.9359,1387.1566],[29.296,36.9191,1578.3943],[29.2801,36.9032,2055.0925],[29.2668,36.8849,2180.7236],[29.2563,36.8787,1957.4719],[29.2425,36.8767,1819.335],[29.2286,36.8785,1976.515],[29.2079,36.8858,1507.6646],[29.1909,36.8872,1261.3722],[29.1718,36.908,1236.0336],[29.1012,36.9637,1284.2073],[29.0951,36.9705,955.563],[29.0818,36.9915,1335.8497],[29.0789,36.9993,902.2738],[29.0777,37.0365,637.971],[29.0758,37.0476,691.7261],[29.0719,37.055,561.0334],[29.0566,37.0746,533.1283],[29.0609,37.0866,832.2907],[29.0634,37.1044,857.3254],[29.0434,37.134,971.033],[29.033,37.1444,1257.0342],[29.0228,37.1463,1441.179],[29.0109,37.1512,1550.6332],[28.973,37.1794,1251.0789],[28.9594,37.1818,1122.5414],[28.9509,37.1857,930.1089],[28.9388,37.1949,861.1015],[28.9283,37.2068,767.0852],[28.8816,37.2235,710.0818],[28.8577,37.2278,680.4996],[28.8299,37.2366,649.8422],[28.7979,37.2391,703.1802],[28.7862,37.2443,670.9906],[28.7783,37.2526,725.9338],[28.767,37.2711,823.4352],[28.7641,37.2791,961.1251],[28.7631,37.2879,798.6389],[28.762,37.3243,668.0307],[28.7602,37.33,660.0979],[28.744,37.3553,500.5992],[28.7344,37.3622,472.4743],[28.7282,37.3645,536.3612],[28.7048,37.369,459.7211],[28.6831,37.3756,577.864],[28.6334,37.3787,414.9951],[28.624,37.3825,624.9024],[28.6159,37.3905,635.5096],[28.6125,37.4028,426.6055],[28.6129,37.468,564.402],[28.6089,37.4764,333.738],[28.573,37.4841,631.3185],[28.5555,37.4902,415.4009],[28.5401,37.4934,500.942],[28.5165,37.4952,693.3292],[28.4784,37.4942,954.5856],[28.4611,37.4972,809.1911],[28.4281,37.5107,880.6038],[28.3659,37.5572,881.1219],[28.3417,37.5679,1025.2332],[28.3151,37.5839,1043.1036],[28.3016,37.5869,964.0122],[28.2875,37.5861,1021.8455],[28.2666,37.5786,1246.1002],[28.2428,37.5741,1052.7278],[28.228,37.5677,1024.0211],[28.2205,37.5622,863.9329],[28.2121,37.5539,784.8387],[28.2033,37.5396,723.9042],[28.187,37.5216,563.5905],[28.1768,37.4976,407.4971],[28.1716,37.4902,293.4601],[28.1644,37.4835,248.0],[28.1499,37.4745,269.2851],[28.1427,37.4723,316.6907],[28.127,37.4708,436.7902],[28.0704,37.4703,652.466],[28.059,37.4684,757.994],[28.0337,37.4607,948.502],[28.0059,37.4593,1063.8777],[27.9348,37.4595,615.3051],[27.885,37.457,559.1274],[27.8424,37.4694,432.4024],[27.7923,37.4731,845.7153],[27.7708,37.4802,1191.5569],[27.747,37.4847,734.3854],[27.7259,37.492,648.9406],[27.6986,37.4972,716.4916],[27.6511,37.5159,807.8627],[27.6176,37.5249,851.7236],[27.594,37.5379,909.0757],[27.5457,37.5568,239.86],[27.5197,37.5728,184.4599],[27.5062,37.5746,165.7522],[27.4967,37.5718,175.2571],[27.4889,37.5669,70.4993],[27.4743,37.5524,153.3483],[27.445,37.5056,1.0],[27.4421,37.4946,1.0],[27.4402,37.4689,122.0647],[27.4382,37.4609,268.4427],[27.4177,37.4268,233.2307],[27.4149,37.4154,0.0],[27.4176,37.4157,4.8914],[27.4221,37.4132,1.9583],[27.4246,37.4076,5.51],[27.4299,37.4032,1.2077],[27.4318,37.3988,4.6191],[27.4307,37.3924,0.0],[27.4326,37.3812,1.2503],[27.4229,37.3821,0.0],[27.4204,37.3804,47.2029],[27.4179,37.3838,0.0],[27.4135,37.3838,0.0],[27.4121,37.3826,0.0],[27.4129,37.3771,13.7102],[27.4037,37.3674,1.5738],[27.3915,37.3654,0.0],[27.3874,37.359,0.4956],[27.3832,37.3571,0.0],[27.3829,37.3535,0.0],[27.386,37.3524,3.1378],[27.3849,37.3504,0.0],[27.3863,37.3485,5.8847],[27.3835,37.3443,1.1907],[27.3843,37.3421,0.0],[27.3829,37.339,0.0],[27.3843,37.3396,4.4271],[27.3843,37.3365,0.0],[27.3863,37.3349,6.2471],[27.3851,37.3329,0.0],[27.3888,37.3321,2.2246],[27.3854,37.3282,0.0],[27.394,37.326,12.7552],[27.389,37.3246,0.0],[27.3888,37.3229,0.5974],[27.3946,37.3213,7.2813],[27.3943,37.3199,0.0],[27.3982,37.3193,0.0],[27.4013,37.3215,1.2128],[27.4001,37.3185,0.0],[27.4018,37.3185,0.0],[27.4018,37.3171,0.0],[27.3988,37.3143,0.0],[27.4051,37.3138,15.4276],[27.4049,37.3115,3.3272],[27.4074,37.3112,1.9894],[27.4068,37.3085,0.0],[27.4107,37.309,7.2371],[27.4118,37.3049,0.0],[27.4235,37.3071,5.4808],[27.426,37.3054,0.0],[27.4296,37.3057,10.1094],[27.4324,37.3018,0.0],[27.4432,37.3024,3.2217],[27.4471,37.3082,21.8074],[27.4496,37.3074,0.0],[27.4507,37.3099,0.3827],[27.4571,37.3101,0.0],[27.4638,37.3154,0.0],[27.4638,37.3174,4.4682],[27.4671,37.316,0.0],[27.4654,37.3196,5.4322],[27.4707,37.3193,2.2964],[27.4715,37.3218,9.2763],[27.4701,37.3224,9.6484],[27.4776,37.3288,1.1317],[27.4776,37.3318,1.3482],[27.4765,37.3354,0.0],[27.4732,37.3368,5.425],[27.4707,37.3438,0.8522],[27.4779,37.3443,2.1301],[27.4774,37.3401,0.0],[27.4779,37.339,0.0],[27.4804,37.3399,3.9249],[27.4804,37.3354,0.0],[27.4818,37.3368,1.6414],[27.4874,37.3357,1.7852],[27.4824,37.3338,1.1476],[27.4846,37.3285,0.0],[27.4871,37.3288,3.9006],[27.4896,37.3329,2.3609],[27.4935,37.3315,0.8575],[27.4957,37.3232,0.0],[27.4979,37.3213,0.0],[27.4974,37.316,1.1546],[27.4921,37.3135,1.104],[27.4929,37.3104,34.8339],[27.4879,37.3049,0.0],[27.4896,37.3015,0.0],[27.4863,37.2954,0.0],[27.4874,37.2932,5.266],[27.4849,37.291,9.5298],[27.4813,37.2915,2.799],[27.4796,37.2893,0.0],[27.4757,37.2885,6.0926],[27.4732,37.2846,6.7759],[27.4737,37.2813,5.1104],[27.4713,37.2807,0.0],[27.4724,37.279,19.1068],[27.4713,37.2724,0.0],[27.4615,37.2665,0.0],[27.4599,37.2621,26.2654],[27.4568,37.2604,25.7294],[27.4543,37.2554,0.0],[27.4574,37.2504,0.0],[27.466,37.2568,0.0],[27.4754,37.2549,0.0],[27.4799,37.2646,1.8998],[27.4765,37.2679,1.5074],[27.4768,37.2696,1.1744],[27.4846,37.266,0.0],[27.4857,37.2674,11.422],[27.4893,37.2668,0.0],[27.4929,37.2704,9.4109],[27.4943,37.2676,1.8097],[27.4982,37.271,12.4857],[27.4982,37.2768,13.9356],[27.5051,37.2779,1.3214],[27.5071,37.2801,0.0],[27.5093,37.2799,1.6519],[27.5104,37.276,0.6814],[27.5126,37.2749,0.0],[27.5185,37.2768,1.0741],[27.519,37.2751,0.0],[27.5224,37.274,0.5994],[27.5213,37.2704,14.8589],[27.5174,37.2679,15.019],[27.5168,37.2624,0.0],[27.5204,37.2618,6.9864],[27.519,37.2585,0.0],[27.5238,37.259,2.7661],[27.5249,37.2574,0.0],[27.5238,37.2557,0.9331],[27.5151,37.2543,0.0],[27.5146,37.251,0.0],[27.5163,37.2501,0.0],[27.5221,37.2521,3.7774],[27.5224,37.2504,10.7049],[27.5199,37.2499,4.2681],[27.5207,37.2476,2.7772],[27.5163,37.2443,1.113],[27.5138,37.2443,0.3628],[27.5138,37.2418,6.4695],[27.5107,37.2382,16.1999],[27.5054,37.239,0.0],[27.5035,37.2371,8.4707],[27.4988,37.2374,0.0],[27.4996,37.2343,6.8204],[27.5063,37.2329,3.4278],[27.5051,37.2293,3.1497],[27.5104,37.2299,2.623],[27.5107,37.2276,3.7869],[27.5135,37.2301,0.0],[27.5176,37.2274,3.606],[27.5196,37.2285,5.9873],[27.5226,37.2268,0.0],[27.5268,37.2285,0.0],[27.5276,37.2301,0.0],[27.521,37.2399,5.0912],[27.5251,37.2404,0.0],[27.528199999999998,37.2435,0.0],[27.5326,37.241,1.9187],[27.5338,37.2451,0.0],[27.5371,37.2451,0.0],[27.5335,37.2499,24.1059],[27.5349,37.2515,1.8063],[27.5382,37.2515,2.5546],[27.5379,37.2493,1.1426],[27.5404,37.2501,4.7644],[27.5418,37.2468,0.0],[27.5454,37.2479,3.4224],[27.546,37.2451,0.0],[27.5476,37.2454,0.0],[27.549,37.2435,0.0],[27.5524,37.2449,0.0],[27.5457,37.2513,2.3789],[27.5413,37.2515,5.2736],[27.541,37.254,3.9318],[27.5418,37.2596,35.1031],[27.5451,37.2596,0.0],[27.544,37.2629,1.2635],[27.5499,37.2643,14.478],[27.5515,37.2713,2.2747],[27.5551,37.2715,0.0],[27.5568,37.2776,1.9571],[27.5604,37.276,1.2507],[27.5649,37.2768,1.6992],[27.5699,37.274,2.5876],[27.5724,37.2746,0.3864],[27.5765,37.2724,0.8234],[27.5785,37.2732,3.3111],[27.5812,37.2713,0.0],[27.5829,37.2782,4.7376],[27.5851,37.2735,0.0],[27.5871,37.2732,0.0],[27.589,37.2804,0.0],[27.586,37.2824,0.626],[27.589,37.286,0.1061],[27.5946,37.2879,0.2854],[27.6013,37.2863,0.7151],[27.6024,37.2846,0.016],[27.5993,37.2788,0.0],[27.6004,37.2749,0.0],[27.6079,37.2818,0.5901],[27.6129,37.2799,0.0],[27.6101,37.2771,0.8137],[27.6107,37.2746,0.9107],[27.6157,37.2746,2.7637],[27.6165,37.2732,7.4117],[27.6076,37.2693,0.0],[27.6099,37.2657,0.0],[27.6129,37.2657,1.1607],[27.6099,37.2632,-0.1046],[27.6115,37.2579,0.0],[27.6074,37.2551,1.4997],[27.6057,37.2501,22.1681],[27.5993,37.2462,0.0],[27.6007,37.2438,0.0],[27.599,37.2429,0.0],[27.5993,37.2412,0.4018],[27.5949,37.2399,0.0],[27.5935,37.2374,0.9035],[27.589,37.2374,0.0],[27.590699999999998,37.2349,8.1198],[27.589,37.2346,1.479],[27.5901,37.2326,9.7445],[27.5874,37.2229,17.3079],[27.584,37.2221,0.0],[27.584,37.2199,8.9164],[27.5815,37.2176,6.8777],[27.5776,37.2182,1.6814],[27.5754,37.214,5.934],[27.5799,37.2132,14.718],[27.5871,37.2088,1.9392],[27.5876,37.2054,6.0921],[27.5918,37.2024,1.9845],[27.5932,37.199,0.0],[27.5951,37.2007,5.8497],[27.5999,37.2001,0.0],[27.6015,37.2015,0.5326],[27.6043,37.2012,0.1873],[27.6057,37.1979,0.0],[27.6085,37.1996,-0.3889],[27.6076,37.1957,-0.0259],[27.6046,37.1963,-0.0995],[27.6035,37.1949,-0.0841],[27.6151,37.1893,0.122],[27.6149,37.1879,0.543],[27.6101,37.1871,-0.0014],[27.6076,37.1904,-0.4984],[27.6021,37.1929,-0.395],[27.6015,37.196,-0.4219],[27.5999,37.1963,-0.4219],[27.6007,37.1946,-0.7961],[27.5993,37.1929,-0.1683],[27.6015,37.191,0.0],[27.599,37.1896,-0.0798],[27.5999,37.1876,-0.0811],[27.5976,37.1854,-0.2509],[27.5976,37.1826,-0.4058],[27.5951,37.1832,0.0],[27.5904,37.179,0.0],[27.5857,37.1787,-0.3018],[27.5838,37.1813,0.0],[27.5807,37.1815,0.0],[27.5746,37.179,-0.0437],[27.574,37.184,0.8139],[27.5774,37.1851,0.0],[27.5785,37.1876,0.8201],[27.581,37.1874,0.0],[27.5849,37.1921,0.9281],[27.5915,37.1915,0.0],[27.5935,37.1935,0.0],[27.5932,37.1954,11.2676],[27.5888,37.1974,0.0631],[27.5893,37.1993,0.0],[27.5832,37.2038,0.0],[27.5812,37.2071,0.0],[27.5707,37.2115,0.0],[27.5676,37.2104,0.0],[27.5679,37.2082,23.011],[27.5651,37.2076,7.9227],[27.5637,37.2051,1.4775],[27.5646,37.2024,4.3614],[27.561,37.2026,0.0],[27.5582,37.2007,0.0],[27.5593,37.1949,13.3207],[27.5549,37.1929,18.4727],[27.5446,37.1951,15.6997],[27.5432,37.1918,0.0],[27.5449,37.1901,30.7928],[27.5429,37.189,12.3857],[27.5343,37.1932,0.0],[27.5263,37.194,1.1306],[27.5274,37.1921,5.9675],[27.5326,37.1913,1.3324],[27.5374,37.1868,0.0],[27.5465,37.1843,11.5676],[27.5443,37.1824,3.7154],[27.5443,37.1799,41.4414],[27.5407,37.1785,0.9543],[27.5443,37.1749,17.6116],[27.5376,37.1732,1.1102],[27.5401,37.1729,12.8342],[27.5415,37.1674,0.0],[27.5446,37.1682,2.6405],[27.5501,37.1665,1.3186],[27.5396,37.1621,0.0],[27.5404,37.1585,0.0],[27.5426,37.1565,1.5784],[27.5415,37.154,0.0],[27.544,37.1512,11.8572],[27.5476,37.1501,0.0],[27.5529,37.1521,0.0],[27.5549,37.1549,0.0],[27.5546,37.1579,2.3063],[27.561,37.1546,17.8785],[27.5607,37.1532,1.4711],[27.5568,37.1535,12.6397],[27.5532,37.149,4.9161],[27.5543,37.146,17.8483],[27.5532,37.1421,3.985],[27.5563,37.1368,8.489],[27.5499,37.1357,0.0],[27.5571,37.1335,0.0],[27.5582,37.1368,8.489],[27.5618,37.1354,0.0],[27.5751,37.1393,7.6543],[27.5812,37.1385,6.3808],[27.5815,37.1368,6.5897],[27.5771,37.1357,0.0],[27.5776,37.1326,1.0051],[27.5732,37.1293,1.3676],[27.5715,37.1299,1.1789],[27.5721,37.1276,2.5238],[27.5699,37.1271,0.0],[27.5654,37.1282,7.6805],[27.5607,37.1265,34.0061],[27.559,37.1279,3.717],[27.5462,37.1251,17.7679],[27.5435,37.1285,8.9495],[27.5374,37.1288,0.0],[27.5371,37.1265,10.8974],[27.5357,37.1263,10.8974],[27.5365,37.1243,15.7422],[27.5329,37.1218,0.0],[27.5315,37.1185,6.4295],[27.521,37.1154,2.1727],[27.5121,37.1085,10.7195],[27.509,37.1096,0.0],[27.5032,37.1085,22.1454],[27.501,37.1065,23.9479],[27.5012,37.1035,8.8051],[27.4982,37.1007,0.0],[27.4963,37.1021,0.0],[27.4888,37.1013,1.3164],[27.4907,37.0946,16.4767],[27.4799,37.0913,0.0],[27.4788,37.0879,2.2553],[27.476,37.089,0.0],[27.4743,37.0818,15.0584],[27.471,37.0807,0.4372],[27.4676,37.0832,7.3984],[27.4646,37.0812,18.5554],[27.4574,37.0826,3.3621],[27.4554,37.0893,29.0716],[27.4596,37.0921,0.0],[27.4593,37.0971,0.0],[27.451,37.0968,16.406],[27.4451,37.0999,15.4016],[27.4438,37.104,4.4053],[27.4446,37.1068,13.7188],[27.4413,37.1082,15.7184],[27.439,37.1129,0.0],[27.4415,37.1146,0.0],[27.4401,37.1168,4.3067],[27.4371,37.1182,3.9021],[27.4301,37.1179,0.4448],[27.4301,37.1196,5.7567],[27.4351,37.1232,0.0],[27.4304,37.1285,1.6258],[27.4226,37.1213,20.252],[27.4215,37.1176,3.6515],[27.4146,37.1171,0.0],[27.4168,37.1201,0.0],[27.4165,37.1229,2.3451],[27.4201,37.1274,6.6181],[27.4179,37.1285,5.2887],[27.4151,37.1265,30.3653],[27.4126,37.1268,27.2126],[27.4104,37.1288,3.6839],[27.4104,37.1312,0.0],[27.4124,37.1312,0.0],[27.4126,37.1326,0.0],[27.4099,37.1346,0.0],[27.4068,37.131,8.6751],[27.4029,37.1321,0.0],[27.3999,37.131,4.1432],[27.3996,37.1274,0.0],[27.3963,37.1243,13.3924],[27.396,37.1193,4.0209],[27.3871,37.1201,3.0247],[27.3843,37.126,2.9491],[27.3799,37.129,0.0],[27.3782,37.1276,3.9554],[27.3762,37.1293,6.63],[27.3765,37.134,16.7239],[27.3818,37.1357,7.1515],[27.3835,37.1371,0.0],[27.3838,37.141,18.3882],[27.3882,37.1421,4.5149],[27.3904,37.1449,0.0],[27.386,37.1463,2.388],[27.3776,37.1418,7.9583],[27.3762,37.1449,13.4991],[27.3779,37.151,0.0],[27.3685,37.1515,11.6131],[27.3649,37.1571,0.0],[27.3615,37.156,3.3461],[27.3632,37.1457,13.6731],[27.361,37.1449,22.6621],[27.3599,37.1415,7.6037],[27.3557,37.1413,9.5753],[27.3563,37.1465,3.4102],[27.351,37.1446,8.715],[27.3499,37.1404,0.0],[27.3515,37.1382,17.5331],[27.3493,37.131,0.5673],[27.3438,37.1307,0.2001],[27.3401,37.1332,12.6342],[27.340699999999998,37.1393,2.9464],[27.344,37.1421,6.7462],[27.3432,37.1501,1.156],[27.3399,37.1515,0.0],[27.3374,37.1507,18.5193],[27.334,37.1563,8.4698],[27.3251,37.1601,8.8197],[27.3229,37.1582,0.0],[27.326,37.1557,59.9156],[27.3249,37.1521,12.3023],[27.3293,37.1499,3.0045],[27.3279,37.144,19.818],[27.3251,37.1424,0.0],[27.3207,37.1446,0.0],[27.3215,37.1415,4.0575],[27.3176,37.1429,1.3826],[27.3204,37.1413,4.0575],[27.3201,37.1396,11.0146],[27.3154,37.1407,0.0],[27.3151,37.1371,3.1816],[27.3121,37.1387,2.4248],[27.3099,37.1321,0.0],[27.3118,37.129,2.8769],[27.3151,37.129,12.464],[27.3179,37.1265,22.0604],[27.3168,37.1232,2.1565],[27.3188,37.1193,2.4644],[27.3157,37.1176,6.8641],[27.3146,37.1193,0.0],[27.3143,37.1162,7.1669],[27.3107,37.1154,46.6829],[27.3104,37.1193,1.8212],[27.3079,37.1201,13.3996],[27.3071,37.1232,5.3355],[27.3051,37.1243,0.0],[27.3029,37.1213,0.0],[27.3074,37.1193,13.3996],[27.3051,37.1151,10.2716],[27.2985,37.1174,3.7412],[27.2968,37.1243,0.0],[27.2901,37.1218,4.8903],[27.2887,37.1246,3.3571],[27.2876,37.1237,41.284],[27.2838,37.1263,8.3665],[27.2829,37.1288,4.7134],[27.2846,37.1296,4.7134],[27.2846,37.1326,0.0],[27.2829,37.1304,4.7134],[27.281,37.1304,6.3916],[27.279,37.1354,6.7022],[27.276,37.1363,10.9427],[27.2771,37.1382,2.3488],[27.2735,37.1407,0.0],[27.2713,37.134,29.9275],[27.2665,37.1349,8.1912],[27.2638,37.1338,0.0],[27.2632,37.1318,4.3824],[27.2651,37.1299,19.4886],[27.2635,37.1285,4.2732],[27.2651,37.1251,9.689],[27.2613,37.126,0.0],[27.2613,37.1246,0.0],[27.2649,37.1218,14.1717],[27.264,37.1201,3.2892],[27.2607,37.1207,1.4266],[27.2582,37.1237,8.7868],[27.256,37.131,0.0],[27.2526,37.1288,0.0],[27.2535,37.1257,0.0],[27.256,37.1249,14.6753],[27.2557,37.1224,0.0],[27.254,37.1218,10.917],[27.2551,37.1179,14.0062],[27.2526,37.1149,0.0],[27.2546,37.1115,0.0],[27.2599,37.1115,0.0],[27.2613,37.1154,2.3795],[27.2665,37.1126,2.07],[27.2693,37.1138,18.3329],[27.2704,37.116,0.0],[27.2687,37.1179,1.4656],[27.2707,37.119,9.705],[27.2771,37.1171,4.6552],[27.2768,37.1193,8.2376],[27.2793,37.1207,7.0507],[27.2851,37.1188,12.0839],[27.2885,37.1204,0.4339],[27.2926,37.1146,0.6532],[27.2932,37.1079,2.7349],[27.2871,37.1029,1.398],[27.279,37.1013,2.1162],[27.274,37.0982,2.5775],[27.2704,37.099,0.0],[27.2643,37.0924,10.4291],[27.2613,37.0918,32.253],[27.2546,37.0946,0.0],[27.2546,37.0874,31.2609],[27.2501,37.081,4.9529],[27.2457,37.0799,3.2837],[27.2388,37.0832,4.9232],[27.2357,37.0765,27.7575],[27.239,37.0704,0.5586],[27.2388,37.0663,1.8252],[27.2321,37.0638,0.0],[27.2293,37.0651,1.07],[27.2315,37.0635,15.9131],[27.2304,37.0604,1.8192],[27.2254,37.0585,1.0377],[27.2299,37.0526,0.0],[27.2324,37.0549,2.6411],[27.2318,37.0574,0.3787],[27.2335,37.0574,7.563],[27.2374,37.0524,5.2981],[27.2363,37.0499,2.5222],[27.2326,37.0482,0.9713],[27.2326,37.0457,0.0],[27.231,37.0457,0.0],[27.2299,37.0396,1.4703],[27.2329,37.0396,2.627],[27.2326,37.0374,0.0],[27.2376,37.0346,5.866],[27.2421,37.0354,0.0],[27.2501,37.0313,1.8353],[27.2496,37.0238,0.3577],[27.2515,37.0226,0.7482],[27.2529,37.0151,0.0],[27.2554,37.0121,2.5437],[27.2557,37.0065,0.188],[27.2588,37.0038,3.8435],[27.2596,37.0004,0.5567],[27.256,36.9893,4.3884],[27.2568,36.9824,3.6968],[27.2549,36.9763,3.3044],[27.2607,36.9726,0.6109],[27.2632,36.9643,1.7856],[27.2732,36.9615,0.0],[27.2787,36.9663,4.1911],[27.2838,36.9621,6.2339],[27.2838,36.9593,0.0],[27.2871,36.9576,2.4268],[27.2882,36.9593,6.1599],[27.2854,36.9613,6.1173],[27.284,36.9657,2.8271],[27.286,36.9665,0.3781],[27.289,36.9651,0.0],[27.2938,36.9682,0.8567],[27.296,36.966,0.822],[27.2968,36.9601,0.0],[27.3021,36.9571,5.5398],[27.304,36.9574,14.2326],[27.3068,36.9615,0.0],[27.3051,36.9635,58.9806],[27.3049,36.9693,1.4842],[27.2999,36.9693,1.9611],[27.3004,36.9726,0.5551],[27.3046,36.9743,4.116],[27.3054,36.9763,6.5665],[27.3093,36.9746,0.0],[27.3113,36.979,3.6335],[27.3157,36.9768,0.0],[27.3193,36.9776,13.9434],[27.3218,36.9826,2.9686],[27.3282,36.9885,0.0],[27.3321,36.9885,0.0],[27.3324,36.9949,0.0],[27.3293,36.9971,9.3967],[27.3304,36.999,2.4538],[27.3351,37.0004,4.496],[27.3374,36.9968,0.0],[27.3404,36.9985,0.8606],[27.3396,37.0029,4.505],[27.3351,37.0015,7.1708],[27.3299,37.0043,3.7702],[27.3299,37.0079,14.8401],[27.3285,37.0082,14.8401],[27.3279,37.011,0.4141],[27.329,37.0129,1.9043],[27.3315,37.0132,0.0],[27.331,37.0146,5.2407],[27.3349,37.0151,0.0],[27.3426,37.0201,0.0],[27.3524,37.0201,0.0],[27.3576,37.0226,1.9158],[27.3613,37.0218,5.2914],[27.364,37.0187,0.0],[27.3665,37.0238,16.1128],[27.3701,37.0215,0.769],[27.374,37.0238,6.2729],[27.3735,37.0268,0.0],[27.3826,37.0265,0.4779],[27.3846,37.0238,0.0],[27.379,37.0199,0.0],[27.3801,37.016,6.0407],[27.3782,37.0146,7.141],[27.3796,37.0126,11.4247],[27.379,37.0065,7.9495],[27.3743,37.0051,0.0],[27.374,37.0001,0.0],[27.3762,36.9987,0.0],[27.3799,37.0007,1.508],[27.3815,37.0051,0.0],[27.3849,37.0079,11.7254],[27.3879,37.006,4.043],[27.3896,37.0065,0.0],[27.3888,37.0107,10.124],[27.3901,37.0151,0.0],[27.3888,37.0185,4.7422],[27.3957,37.0271,5.9749],[27.396,37.0293,1.5712],[27.3993,37.0296,0.4735],[27.4013,37.0318,0.3544],[27.4099,37.0304,1.4211],[27.4018,37.0224,0.0],[27.4001,37.0182,0.0],[27.4046,37.0221,17.8588],[27.4093,37.0232,0.0],[27.4115,37.021,0.0],[27.4099,37.0193,0.0],[27.4101,37.0171,0.0],[27.4126,37.0168,0.0],[27.4138,37.0182,0.0],[27.4121,37.0201,3.0866],[27.4129,37.0215,0.0],[27.4149,37.0226,7.5807],[27.419,37.0218,0.0],[27.4179,37.0282,1.9445],[27.4204,37.0288,19.5227],[27.4224,37.0318,0.0],[27.4251,37.0318,0.0],[27.4257,37.0343,0.0],[27.4243,37.0357,3.7747],[27.429,37.0354,4.9954],[27.4296,37.0337,4.1012],[27.4257,37.0315,0.0],[27.4282,37.0304,0.0],[27.4321,37.0326,2.2637],[27.4376,37.0318,5.5965],[27.4379,37.0296,2.7228],[27.4407,37.0276,1.007],[27.439,37.0254,13.9414],[27.4415,37.0229,3.994],[27.4415,37.0207,5.7489],[27.4504,37.016,2.992],[27.4501,37.0107,0.6006],[27.4538,37.0074,2.8026],[27.4596,37.006,18.9484],[27.4604,37.0038,6.0965],[27.4629,37.0032,0.0],[27.4643,36.9979,4.0371],[27.4729,36.9968,0.7825],[27.4804,36.9935,0.0],[27.4826,36.9901,19.5339],[27.4818,36.9871,0.0],[27.4829,36.9863,2.0621],[27.486,36.9863,0.0],[27.4899,36.9896,1.9534],[27.5001,36.9865,6.1959],[27.5015,36.984,0.8215],[27.5024,36.9868,5.3276],[27.5082,36.9854,0.0],[27.5104,36.9868,1.8336],[27.5085,36.9899,9.8211],[27.5154,36.9949,0.4214],[27.5185,36.9951,1.7623],[27.5221,36.9921,13.2679],[27.5313,36.9918,0.0],[27.5349,36.9882,2.6523],[27.549,36.9874,10.0187],[27.5451,36.9829,0.0],[27.549,36.9837,0.0],[27.5524,36.9821,4.5138],[27.559,36.9854,0.0],[27.5599,36.9813,0.0],[27.5629,36.9793,19.453],[27.5637,36.9754,0.0],[27.5657,36.9746,1.2215],[27.5682,36.9765,1.4053],[27.5654,36.9774,3.901],[27.5657,36.9826,10.5658],[27.5696,36.9799,0.0],[27.571,36.9821,19.5314],[27.576,36.9843,1.4402],[27.5624,36.9871,0.0],[27.5629,36.9896,3.0908],[27.5704,36.991,3.2194],[27.574,36.9938,21.2547],[27.5807,36.9935,0.0],[27.5824,36.9949,3.2648],[27.594,36.9946,6.1767],[27.6001,36.9912,1.1778],[27.6049,36.9915,4.1299],[27.6096,36.9849,0.0],[27.6162,36.981,7.8747],[27.6224,36.9799,0.0],[27.624,36.981,10.3252],[27.6285,36.9782,0.0],[27.631,36.9804,8.5252],[27.634,36.9779,0.0],[27.6374,36.9776,8.7142],[27.6379,36.9801,28.7486],[27.6424,36.9787,0.0],[27.6476,36.9801,4.1359],[27.6468,36.9824,13.7552],[27.6421,36.984,2.9506],[27.6435,36.986,0.0],[27.6429,36.991,4.6899],[27.6463,36.9924,19.2367],[27.6474,36.9979,3.9829],[27.6526,36.9979,1.3381],[27.6574,36.9943,6.288],[27.6635,36.9949,0.0],[27.669,36.9963,4.313],[27.6715,36.9985,15.5326],[27.6754,36.9985,0.0],[27.6768,37.0013,2.7243],[27.684,37.0007,0.0],[27.6851,37.0035,0.0],[27.694,37.0024,1.8489],[27.6949,36.9987,0.0],[27.6971,36.9974,5.5462],[27.7018,36.999,21.4719],[27.7029,36.9971,25.2115],[27.7071,36.9963,0.0],[27.7213,37.0026,3.2639],[27.726,37.0026,3.9484],[27.729,37.0004,0.0],[27.734,37.0013,1.4193],[27.7349,36.9979,0.0],[27.7335,36.9929,5.2179],[27.7404,36.9938,14.1139],[27.7438,36.9979,6.5587],[27.7471,36.9982,0.8237],[27.7507,36.9963,5.2602],[27.7543,37.001,10.2328],[27.7563,37.001,11.271],[27.7596,36.999,11.8564],[27.7565,36.994,13.8956],[27.7571,36.991,1.0524],[27.759,36.9904,0.0],[27.7626,36.9943,16.246],[27.7649,36.9938,54.8838],[27.7657,36.9915,0.0],[27.7682,36.9915,0.0],[27.7696,36.9935,15.2046],[27.7749,36.9921,4.359],[27.7743,36.9963,26.2879],[27.7765,36.999,7.3325],[27.778199999999998,36.9985,0.0],[27.779,36.9926,2.2739],[27.7813,36.9924,0.0],[27.7893,36.9985,0.0],[27.7888,37.001,0.0],[27.786,37.0018,22.1647],[27.7876,37.0035,0.0],[27.7868,37.006,4.7829],[27.7879,37.006,4.7829],[27.789,37.0046,0.0],[27.7935,37.0054,0.0],[27.8001,37.0029,5.3647],[27.8004,37.001,8.6316],[27.7974,36.9963,35.5515],[27.7996,36.9949,0.0],[27.8046,36.9985,6.6411],[27.8054,37.001,5.9331],[27.8099,37.0015,0.0],[27.8132,37.0054,54.931],[27.814,37.0046,5.321],[27.8207,37.0118,0.3064],[27.8349,37.0115,0.0],[27.8437,37.0185,0.0],[27.8607,37.019,4.6548],[27.8846,37.0271,26.1254],[27.8929,37.0285,0.0],[27.9079,37.0221,0.4146],[27.9088,37.0238,2.1922],[27.926,37.031,0.5127],[27.9346,37.0268,0.0],[27.9438,37.0168,0.0],[27.9485,37.016,0.1415],[27.969,37.0213,0.4896],[27.9718,37.024,1.3073],[27.9732,37.0296,0.3205],[27.9782,37.0318,0.0],[27.9968,37.0276,46.648],[28.004,37.0235,0.0],[28.026,37.0215,0.0],[28.0657,37.0249,0.0],[28.0693,37.0224,23.7415],[28.0788,37.0215,0.0],[28.0807,37.0229,2.5384],[28.0807,37.0254,8.0741],[28.0837,37.0246,0.0],[28.0876,37.0288,34.7901],[28.0912,37.0265,0.0],[28.0901,37.021,1.5966],[28.0932,37.0207,6.8156],[28.096,37.0229,29.1833],[28.101,37.0204,0.0],[28.0987,37.0182,0.0],[28.1001,37.0163,18.045],[28.0968,37.0151,7.4244],[28.0974,37.0126,0.0],[28.0999,37.0118,0.0],[28.1157,37.0154,0.0],[28.1118,37.019,40.7464],[28.1143,37.021,0.0],[28.1135,37.0235,31.6883],[28.0979,37.0285,11.0365],[28.0976,37.0304,0.0],[28.101,37.0346,3.7474],[28.1201,37.0346,10.6076],[28.131,37.0313,13.3447],[28.1535,37.031,23.5415],[28.1637,37.0285,0.0],[28.1704,37.0299,0.0],[28.1771,37.0337,0.0],[28.1857,37.0337,0.0],[28.1915,37.0385,0.757],[28.1976,37.0399,3.3038],[28.2179,37.0407,7.9728],[28.2226,37.0393,2.8647],[28.2299,37.0412,22.076],[28.2412,37.0385,0.0],[28.2468,37.0412,10.9581],[28.2537,37.0407,11.8027],[28.2671,37.0446,4.3356],[28.2743,37.0493,46.3171],[28.2899,37.0471,28.9384],[28.3071,37.0488,24.6408],[28.3107,37.0513,10.8844],[28.3124,37.0493,0.0],[28.316,37.049,3.7595],[28.3237,37.0513,0.0],[28.3237,37.0496,0.0],[28.3265,37.0493,0.5947],[28.3304,37.0337,0.1868],[28.3299,37.0299,0.0711],[28.326,37.026,2.5822],[28.3213,37.0257,0.0],[28.3193,37.0226,7.8853],[28.3099,37.0251,19.6687],[28.3062,37.0213,16.4565],[28.3001,37.0229,16.2393],[28.2976,37.0213,61.6036],[28.2924,37.0215,3.7484],[28.2907,37.0187,78.239],[28.2787,37.0196,1.9482],[28.2682,37.0165,0.6582],[28.2671,37.0149,1.2051],[28.2685,37.0129,7.7335],[28.2654,37.011,9.8974],[28.2562,37.009,1.9626],[28.2504,37.004,1.8015],[28.2451,37.0032,0.9502],[28.2462,37.0004,0.0],[28.2485,37.0007,6.7485],[28.249,36.999,4.5081],[28.2565,36.9963,25.0193],[28.2568,36.9935,0.0],[28.2507,36.9899,0.165],[28.2443,36.9904,21.6982],[28.2421,36.9929,0.0],[28.2324,36.9918,54.3839],[28.2232,36.9963,33.4133],[28.2215,36.9993,2.3176],[28.219,36.9987,32.2366],[28.219,36.9974,32.2366],[28.2157,36.9987,9.3876],[28.2151,36.9951,20.208],[28.2132,36.994,5.7761],[28.2132,36.9899,4.6119],[28.2157,36.9874,1.2236],[28.2151,36.9851,22.1665],[28.1974,36.9826,0.7604],[28.199,36.9813,3.7554],[28.2054,36.9813,13.8653],[28.2088,36.9787,0.0],[28.216,36.9774,11.6447],[28.2143,36.9746,11.0312],[28.209,36.9738,0.0],[28.204,36.9693,7.8371],[28.201,36.9693,8.2912],[28.2065,36.959,0.0],[28.2057,36.9521,0.1828],[28.2032,36.9512,5.8823],[28.2024,36.949,1.2922],[28.1932,36.9479,4.6275],[28.1935,36.9432,12.7141],[28.1899,36.9401,1.1],[28.1851,36.9435,6.496],[28.1879,36.9449,0.0],[28.1876,36.9482,8.9051],[28.1776,36.9476,10.8423],[28.1743,36.9518,1.3515],[28.1735,36.9482,21.9068],[28.1746,36.946,7.4336],[28.1732,36.9451,24.7324],[28.1718,36.9499,4.7984],[28.169,36.9493,16.4213],[28.169,36.9512,3.0898],[28.1676,36.9515,3.0898],[28.1649,36.9485,40.399],[28.1615,36.9488,3.3919],[28.1579,36.9449,27.7396],[28.1599,36.9424,23.5835],[28.1688,36.9418,7.2367],[28.1707,36.9396,3.6716],[28.1704,36.9376,6.448],[28.1651,36.939,0.0],[28.1612,36.936,0.0],[28.1632,36.9343,7.8078],[28.1671,36.936,18.9849],[28.1679,36.9338,28.4644],[28.166,36.9321,14.6136],[28.1688,36.9315,4.6137],[28.1688,36.9293,3.3795],[28.1726,36.9265,2.5463],[28.1665,36.9201,5.7969],[28.1682,36.919,4.9842],[28.1726,36.921,2.8512],[28.1676,36.9132,9.0727],[28.1651,36.9135,0.0],[28.1679,36.9104,9.607],[28.1679,36.9068,16.3017],[28.1657,36.9079,0.0],[28.1643,36.9057,0.0099],[28.1596,36.9079,0.0],[28.1615,36.9174,0.0],[28.1568,36.9212,34.1818],[28.1568,36.9238,17.467],[28.1585,36.921,7.3803],[28.1588,36.9238,14.3629],[28.161,36.9232,1.0019],[28.159,36.9265,1.483],[28.1479,36.9282,0.0],[28.1499,36.9221,6.9323],[28.146,36.9188,0.0],[28.1437,36.921,6.0456],[28.1443,36.9232,6.5488],[28.1404,36.9254,10.7142],[28.1385,36.9293,14.3512],[28.1399,36.9307,0.0],[28.139,36.9346,0.0],[28.1363,36.9326,0.0],[28.1365,36.9293,0.8536],[28.1346,36.929,0.8536],[28.1299,36.9338,0.0],[28.1251,36.9343,10.1484],[28.1238,36.9371,1.8293],[28.1218,36.9368,0.0],[28.1218,36.9332,49.2009],[28.1185,36.9335,12.8869],[28.1182,36.9321,12.8869],[28.1101,36.9329,50.6847],[28.1099,36.9343,4.6645],[28.1124,36.9362,5.8884],[28.1065,36.9365,65.6753],[28.1054,36.9385,28.155],[28.0996,36.9404,33.6773],[28.0971,36.9407,1.8298],[28.0963,36.939,24.0781],[28.0993,36.9365,0.0],[28.099,36.9332,14.5186],[28.0946,36.931,3.1461],[28.0921,36.9315,2.6227],[28.0963,36.9324,0.0],[28.0974,36.9346,14.7902],[28.0935,36.9349,53.5318],[28.0921,36.9379,5.7238],[28.0843,36.9385,82.4305],[28.0799,36.9412,13.5614],[28.079,36.9396,37.9803],[28.0754,36.9393,38.0414],[28.0743,36.9424,2.7259],[28.0724,36.9424,0.0],[28.0721,36.9404,53.5472],[28.0688,36.9379,86.5851],[28.0651,36.9388,0.0],[28.0646,36.9368,64.0436],[28.0587,36.9351,65.9784],[28.0435,36.936,3.5508],[28.0443,36.934,28.454],[28.0521,36.9313,0.0],[28.0618,36.9321,49.981],[28.0732,36.9299,6.1552],[28.0718,36.9279,7.2931],[28.0688,36.9296,0.0],[28.0599,36.929,0.0],[28.0585,36.9263,0.0],[28.0543,36.9263,8.5941],[28.0535,36.9243,15.797],[28.051,36.9254,2.5004],[28.0507,36.9232,12.2509],[28.0443,36.921,44.0282],[28.0415,36.921,26.6359],[28.0396,36.9238,0.0],[28.0304,36.9215,17.5993],[28.0293,36.9235,8.279],[28.0304,36.9246,0.0],[28.0207,36.9257,0.0],[28.0213,36.9238,0.0],[28.0238,36.9243,2.083],[28.0271,36.9212,4.2229],[28.0232,36.9193,0.0],[28.0393,36.9182,1.4122],[28.0382,36.916,8.4057],[28.0407,36.9146,2.8034],[28.0404,36.9104,0.0],[28.0438,36.9101,15.0651],[28.0357,36.906,23.1964],[28.0287,36.9079,10.6705],[28.0143,36.9057,0.0],[28.016,36.904,3.7214],[28.019,36.9049,3.3846],[28.026,36.9035,19.0693],[28.0326,36.8974,10.5446],[28.0504,36.8971,24.6495],[28.0521,36.8946,0.0],[28.0488,36.8918,47.779],[28.0449,36.8918,19.3891],[28.0407,36.8871,0.0],[28.0404,36.8843,1.3023],[28.0424,36.8843,36.745],[28.0429,36.8821,9.5311],[28.0454,36.8812,2.9596],[28.0479,36.8824,18.4958],[28.051,36.8796,0.0],[28.0543,36.8799,0.0],[28.0565,36.8829,5.4152],[28.059,36.8835,2.5294],[28.0574,36.8804,0.0],[28.059,36.8788,5.1583],[28.0543,36.8757,19.9974],[28.0563,36.8715,14.9398],[28.0479,36.8721,0.0],[28.0465,36.8707,5.8529],[28.0485,36.8685,0.0],[28.0557,36.8682,1.609],[28.0535,36.8657,5.2534],[28.0474,36.8668,11.2944],[28.0435,36.8632,22.683],[28.0371,36.8651,4.0496],[28.0354,36.8624,2.2263],[28.0365,36.8601,24.1705],[28.0296,36.8568,7.4101],[28.028199999999998,36.8585,4.674],[28.0246,36.8568,13.8668],[28.0204,36.8582,13.8226],[28.0199,36.8624,0.0],[28.0171,36.864,0.0],[28.0151,36.8632,0.0],[28.016,36.8571,0.0],[28.0121,36.8565,3.5737],[28.0118,36.8551,28.2473],[28.0093,36.8557,2.7685],[28.0054,36.8529,5.5232],[28.0001,36.8535,0.0],[28.0068,36.8518,0.0],[28.014,36.8537,0.0],[28.0146,36.8499,18.2164],[28.0129,36.8485,0.0],[28.0179,36.8463,45.8882],[28.0118,36.8451,0.0],[28.0146,36.8438,15.2471],[28.0171,36.8449,14.8783],[28.019,36.8421,10.0255],[28.0215,36.8424,8.6872],[28.0218,36.8404,0.0],[28.0254,36.8387,8.606],[28.0312,36.839,16.1543],[28.0299,36.8371,5.392],[28.0146,36.8382,0.0],[28.0121,36.8368,33.632],[28.004,36.8371,0.0],[28.0024,36.8351,0.0],[28.0046,36.8351,0.0],[28.0054,36.8335,0.0],[28.0099,36.8343,17.8135],[28.0113,36.8326,5.3415],[28.0138,36.8329,6.4591],[28.0149,36.831,0.0],[28.0185,36.8304,10.878],[28.0174,36.8276,5.4099],[28.029,36.8282,0.0],[28.031,36.829,7.6876],[28.0304,36.8312,9.3904],[28.0365,36.8315,6.027],[28.0371,36.8299,0.0],[28.0388,36.8299,0.0],[28.0399,36.8321,19.1039],[28.0421,36.8304,0.0],[28.0446,36.831,22.6507],[28.044,36.829,24.8002],[28.0457,36.8285,0.0],[28.056,36.8338,13.9552],[28.0551,36.8307,22.5204],[28.0518,36.8299,0.0],[28.0526,36.8282,1.669],[28.0551,36.8279,15.6419],[28.0532,36.8254,0.0],[28.0557,36.8251,0.0],[28.0571,36.8268,0.2314],[28.0643,36.8243,0.492],[28.0651,36.821,2.9372],[28.0629,36.8176,2.6111],[28.0601,36.8179,0.0],[28.0593,36.816,4.1886],[28.0557,36.8165,0.0],[28.0554,36.8121,3.6885],[28.059,36.8107,7.2563],[28.0576,36.8096,0.0],[28.061,36.8043,10.5142],[28.0604,36.801,0.0],[28.0549,36.7996,9.6998],[28.0524,36.8013,0.0],[28.0499,36.7996,10.6482],[28.0421,36.8004,22.2716],[28.0432,36.7968,0.0],[28.0449,36.7974,12.1128],[28.0451,36.7957,10.379],[28.0432,36.7949,18.0008],[28.0368,36.7971,0.0],[28.0357,36.7951,23.0162],[28.0326,36.7949,5.8094],[28.0318,36.7932,3.2762],[28.0349,36.7899,7.0622],[28.0329,36.7876,0.0],[28.0285,36.7896,10.6827],[28.026,36.7926,0.0],[28.0251,36.7904,6.8944],[28.0226,36.7918,0.0],[28.0232,36.789,3.575],[28.0213,36.7893,14.7097],[28.0204,36.7926,3.0786],[28.0176,36.7918,32.4271],[28.0174,36.7938,0.0],[28.0143,36.789,4.6713],[28.0124,36.7899,5.2242],[28.014,36.7918,4.2619],[28.0124,36.7957,1.0151],[28.0074,36.7932,14.2104],[28.006,36.7976,1.7995],[28.0004,36.7951,11.7927],[28.0004,36.7974,0.0],[27.9907,36.7979,1.356],[27.9924,36.7999,1.5106],[27.9915,36.801,0.0],[27.9826,36.7993,7.1483],[27.9815,36.7971,2.0545],[27.9693,36.7949,13.3593],[27.9638,36.7988,0.0],[27.9585,36.7996,0.0],[27.9551,36.7971,5.9223],[27.9435,36.7976,4.2215],[27.9401,36.8007,1.9061],[27.9382,36.7982,14.7215],[27.931,36.7993,9.1459],[27.9196,36.7971,5.2878],[27.9118,36.8065,18.7208],[27.904,36.8099,13.6156],[27.9026,36.8074,18.6462],[27.8954,36.8079,1.5054],[27.894,36.8065,7.5445],[27.894,36.8104,0.0],[27.8929,36.8104,0.0],[27.8893,36.8068,4.6363],[27.886,36.8065,5.2291],[27.8846,36.8085,0.0],[27.8835,36.8063,4.9705],[27.8749,36.804,2.5157],[27.8571,36.8037,17.8562],[27.8424,36.8082,3.9004],[27.8401,36.8104,45.7841],[27.8368,36.8099,47.4215],[27.834,36.8118,22.7871],[27.829,36.811,58.4385],[27.8271,36.8135,11.6431],[27.8154,36.8129,0.0],[27.8085,36.8093,18.9319],[27.806,36.8096,16.0591],[27.804,36.8074,5.4387],[27.7901,36.801,29.8261],[27.784,36.8035,5.0563],[27.7801,36.7943,0.0],[27.7718,36.7885,7.7877],[27.7582,36.7896,8.9757],[27.7426,36.7849,12.4498],[27.7335,36.7857,0.0],[27.7293,36.7846,29.8042],[27.7251,36.786,2.1416],[27.7196,36.784,0.8101],[27.714,36.7868,36.1454],[27.6968,36.7851,31.5702],[27.686,36.7888,0.0],[27.6815,36.7943,11.259],[27.6815,36.7993,9.2107],[27.6765,36.8018,3.7155],[27.664,36.8018,15.7431],[27.6562,36.806,8.9952],[27.6474,36.8068,28.948],[27.6443,36.8107,3.1666],[27.6404,36.811,3.1622],[27.6432,36.8051,6.3567],[27.6415,36.8007,8.3229],[27.6276,36.801,0.0],[27.6235,36.7976,5.8908],[27.6221,36.794,0.0],[27.6274,36.7915,0.8485],[27.6246,36.7865,15.0078],[27.629,36.7837,0.0],[27.6288,36.7821,0.0],[27.6182,36.7693,12.894],[27.6099,36.764,1.2155],[27.6013,36.7629,33.6591],[27.591,36.7674,0.0],[27.5868,36.7665,58.7368],[27.5793,36.7682,4.4045],[27.5782,36.766,0.0],[27.5746,36.7646,3.1768],[27.5599,36.7637,0.0],[27.5582,36.7613,7.6862],[27.5546,36.7613,5.4613],[27.5515,36.7588,4.3161],[27.5479,36.759,0.0],[27.5424,36.7568,38.3012],[27.5399,36.7579,1.9586],[27.5357,36.7557,10.9654],[27.536,36.7537,88.9015],[27.5213,36.7529,12.8638],[27.521,36.7513,40.894],[27.514,36.7521,0.0],[27.5126,36.7504,49.2365],[27.4996,36.7501,73.0811],[27.4974,36.7529,5.0385],[27.4926,36.7526,8.9102],[27.4879,36.7546,0.0],[27.4868,36.7526,20.9361],[27.4796,36.7499,3.7094],[27.4743,36.7521,0.0],[27.4757,36.7557,0.0],[27.4737,36.7571,15.8959],[27.4754,36.7588,0.0],[27.4643,36.7624,2.3401],[27.4638,36.7599,61.2353],[27.4551,36.7574,0.0],[27.4524,36.754,0.0],[27.4543,36.7482,6.9668],[27.4479,36.7449,4.8332],[27.444,36.7451,6.243],[27.4387,36.7496,7.1528],[27.436,36.7476,38.6485],[27.4329,36.749,0.0],[27.4307,36.7474,3.9929],[27.4282,36.7485,2.1062],[27.4263,36.7468,0.0],[27.4268,36.7438,13.5316],[27.424,36.7435,0.0],[27.4238,36.7376,10.1019],[27.4199,36.7401,0.0],[27.4185,36.7329,29.795],[27.4165,36.7326,9.8009],[27.4165,36.7307,17.0872],[27.4196,36.7279,0.0],[27.4232,36.7274,26.8529],[27.4243,36.7246,1.0404],[27.421,36.7224,6.9387],[27.4238,36.7201,3.4658],[27.4215,36.7171,0.0],[27.4212,36.7135,54.2984],[27.4132,36.7104,18.6418],[27.4071,36.704,3.2583],[27.3982,36.7004,42.972],[27.3963,36.7004,19.9648],[27.3929,36.7049,22.8767],[27.3901,36.7049,22.7343],[27.3885,36.7071,0.0],[27.3865,36.7038,22.8826],[27.3835,36.7054,15.8014],[27.3824,36.7032,21.3215],[27.381,36.704,16.6368],[27.3813,36.7062,1.4695],[27.3721,36.7046,25.9833],[27.3718,36.7082,1.096],[27.3688,36.7071,5.1311],[27.3651,36.7101,9.2324],[27.3629,36.7099,15.2719],[27.3618,36.7082,5.3604],[27.3632,36.7049,48.4599],[27.3615,36.7038,12.1511],[27.3715,36.6971,44.8505],[27.3726,36.6935,6.7047],[27.3701,36.6913,0.0],[27.3732,36.6896,29.2966],[27.3713,36.6876,5.9727],[27.3724,36.6854,22.1948],[27.3632,36.6882,11.0771],[27.3624,36.6854,0.0],[27.374,36.6804,0.0],[27.3762,36.6813,18.247],[27.3729,36.6846,22.1948],[27.3749,36.6857,6.9751],[27.386,36.6846,38.8907],[27.386,36.681,12.1123],[27.3874,36.6804,0.0],[27.3893,36.6815,7.4942],[27.3907,36.6804,0.0],[27.391,36.6818,0.0],[27.3929,36.6796,0.0],[27.4024,36.6804,17.5929],[27.4051,36.6765,7.7192],[27.4015,36.6688,0.0],[27.406,36.6685,0.0],[27.4037,36.6651,0.0],[27.4049,36.6624,7.9795],[27.4096,36.6632,0.0],[27.4115,36.6651,21.6278],[27.4143,36.664,0.0],[27.4179,36.669,35.3912],[27.4243,36.6704,0.0],[27.4324,36.666,8.8794],[27.4321,36.6637,0.0],[27.4357,36.6643,10.1043],[27.4399,36.6618,0.0],[27.4476,36.6626,19.5018],[27.4513,36.6599,0.0],[27.4579,36.6615,15.3138],[27.4585,36.6585,0.0],[27.4613,36.6613,15.727],[27.4685,36.6615,14.2374],[27.4696,36.6593,0.0],[27.4679,36.6571,1.2498],[27.4696,36.6568,0.0],[27.4699,36.6543,26.1274],[27.4682,36.6526,2.09],[27.4707,36.6521,13.7884],[27.4729,36.6543,14.9273],[27.4768,36.6546,47.3325],[27.4771,36.6471,8.8775],[27.4799,36.6482,17.9619],[27.4801,36.6526,123.7356],[27.4843,36.6543,0.0],[27.484,36.6568,21.0456],[27.486,36.6582,19.8069],[27.4918,36.6582,0.0],[27.4907,36.6615,5.8462],[27.499,36.6629,0.0],[27.499,36.6649,0.0],[27.504,36.6707,2.3034],[27.514,36.6774,4.5958],[27.5235,36.6776,6.2221],[27.5274,36.6746,3.1899],[27.5279,36.6724,4.9675],[27.5326,36.6707,8.5006],[27.5338,36.6754,0.0],[27.5374,36.676,7.2774],[27.5379,36.6735,0.0],[27.5432,36.674,33.1637],[27.5532,36.6821,7.2616],[27.5613,36.6799,24.0239],[27.5596,36.6743,0.0],[27.5613,36.6724,0.0],[27.5626,36.6754,0.0],[27.5676,36.6768,0.0],[27.5735,36.6826,0.0],[27.5735,36.6849,0.0],[27.5785,36.6838,8.9888],[27.5776,36.6821,0.0],[27.5824,36.679,6.4891],[27.5849,36.679,27.9142],[27.5871,36.6813,63.9383],[27.5957,36.6821,15.5479],[27.5974,36.6815,3.0104],[27.5982,36.6782,0.0],[27.599,36.6801,3.353],[27.6071,36.6829,0.8073],[27.6076,36.681,2.7768],[27.6162,36.6793,11.688],[27.6149,36.6771,5.7314],[27.6179,36.6738,0.0],[27.6221,36.6746,3.1569],[27.6268,36.6712,0.0],[27.6288,36.6724,17.5403],[27.6338,36.6715,0.0],[27.636,36.6754,2.6767],[27.6382,36.6754,0.0],[27.6421,36.6707,7.5462],[27.6479,36.6688,24.7384],[27.6476,36.6657,0.0],[27.6499,36.6657,55.3337],[27.6515,36.6635,0.0],[27.6565,36.6626,8.9641],[27.6582,36.664,33.4442],[27.6668,36.661,33.5205],[27.669,36.6587,0.0],[27.6787,36.6576,0.0],[27.6721,36.6601,1.8462],[27.6749,36.664,0.0],[27.674,36.6701,0.0],[27.6721,36.6704,25.5663],[27.6738,36.6787,0.0],[27.6726,36.6835,12.3919],[27.6774,36.6885,0.0],[27.6757,36.689,0.0],[27.6757,36.6935,0.0],[27.6799,36.6971,0.0],[27.6785,36.6985,8.2897],[27.6763,36.6979,3.2478],[27.676,36.7004,0.0],[27.6807,36.7043,9.0923],[27.686,36.7015,0.0],[27.6913,36.7024,13.4853],[27.6932,36.709,6.9829],[27.6963,36.711,0.0],[27.6963,36.7185,0.0],[27.6929,36.7174,2.972],[27.6907,36.7193,0.0],[27.6879,36.7193,2.4262],[27.6874,36.721,2.6104],[27.6915,36.7229,2.8926],[27.6865,36.7254,0.0],[27.6882,36.7257,0.0],[27.691,36.7304,0.641],[27.6968,36.7315,0.0],[27.7004,36.734,0.0],[27.7013,36.7401,0.0],[27.7151,36.7554,0.0],[27.721,36.7596,0.8099],[27.7307,36.7632,2.0919],[27.7429,36.7654,3.8178],[27.7474,36.764,4.3965],[27.7501,36.7654,4.8081],[27.7515,36.764,4.8081],[27.7535,36.7649,4.0963],[27.7785,36.759,2.0453],[27.7801,36.7554,0.0],[27.7918,36.7604,0.0],[27.7929,36.7565,0.0],[27.796,36.7551,0.0],[27.8004,36.7582,2.1628],[27.8049,36.7643,4.6796],[27.8076,36.7643,22.4143],[27.809,36.7624,4.44],[27.8163,36.7632,1.7011],[27.8285,36.7593,7.6018],[27.836,36.7551,0.5209],[27.8368,36.7524,1.5241],[27.8343,36.751,1.7163],[27.8368,36.7476,33.2411],[27.8368,36.7449,1.507],[27.8487,36.7479,10.5206],[27.8554,36.7463,19.1007],[27.8565,36.7421,0.0],[27.8585,36.7412,0.0],[27.861,36.7421,0.0],[27.8599,36.7446,0.6314],[27.8649,36.7454,0.0],[27.8668,36.7432,0.0],[27.8712,36.7443,0.0],[27.869,36.7479,10.8759],[27.8715,36.7493,0.0],[27.8738,36.756,22.5657],[27.8776,36.7579,1.4981],[27.884,36.7579,3.0223],[27.8893,36.7554,0.0],[27.8896,36.7521,0.0],[27.8851,36.7501,0.0],[27.8913,36.7438,15.2443],[27.8907,36.741,0.0],[27.8935,36.7421,17.802],[27.8976,36.741,9.2402],[27.899,36.7424,2.8],[27.8987,36.7474,0.0],[27.8951,36.7476,4.9815],[27.891,36.7532,5.721],[27.8946,36.7568,0.4438],[27.9018,36.7549,0.0],[27.911,36.7554,0.0],[27.914,36.754,20.3038],[27.9149,36.7515,0.0],[27.9199,36.7546,5.7051],[27.9193,36.7496,0.0],[27.9251,36.7446,12.56],[27.9204,36.744,0.0],[27.9204,36.7424,0.0],[27.9257,36.7421,25.0308],[27.9276,36.7435,1.8707],[27.9304,36.7421,12.1353],[27.9338,36.7449,8.4723],[27.9374,36.7454,0.0],[27.9376,36.7474,0.0],[27.936,36.7482,76.0658],[27.9401,36.7493,0.0],[27.939,36.7521,21.8576],[27.9438,36.7504,0.0],[27.9435,36.7535,2.4211],[27.9474,36.7529,0.0],[27.9512,36.7599,21.4281],[27.9546,36.7593,2.8406],[27.956,36.761,5.2733],[27.9579,36.7607,12.5249],[27.9585,36.7588,1.962],[27.9674,36.7601,1.984],[27.9649,36.7565,9.2642],[27.9671,36.7521,21.1013],[27.9729,36.7562,0.0],[27.976,36.7621,28.801],[27.9779,36.7615,0.0],[27.9793,36.7576,0.0],[27.9849,36.7565,0.0],[27.9849,36.7579,0.0],[27.9885,36.7593,10.3232],[27.9932,36.7585,0.0],[27.9993,36.7599,0.0],[28.0051,36.7646,13.9843],[28.0082,36.7651,2.2905],[28.0113,36.7637,14.1436],[28.011,36.7593,0.0],[28.0143,36.7585,0.0],[28.0163,36.7596,9.3936],[28.0165,36.7618,45.2994],[28.0215,36.7632,0.0],[28.0226,36.7671,31.6867],[28.0315,36.7657,5.8292],[28.0324,36.7699,5.1595],[28.0385,36.7743,3.8857],[28.0413,36.7829,16.101],[28.0462,36.7849,0.0],[28.0493,36.784,0.0],[28.0457,36.7837,9.5052],[28.0443,36.7821,9.5052],[28.0454,36.7793,7.1214],[28.0404,36.7774,0.0],[28.0415,36.7732,2.0379],[28.0404,36.7718,0.0],[28.0421,36.7682,8.0735],[28.0446,36.7679,18.139],[28.0462,36.7657,24.9315],[28.0435,36.7649,5.2135],[28.0462,36.7643,25.3091],[28.0513,36.7596,6.6621],[28.0524,36.7613,0.0],[28.0501,36.7649,27.9208],[28.0524,36.766,17.3008],[28.0624,36.764,5.6449],[28.0646,36.766,0.0],[28.0646,36.7687,0.0],[28.0621,36.7693,11.5254],[28.0649,36.7718,0.0],[28.0646,36.7743,4.05],[28.0713,36.7751,3.004],[28.074,36.7726,5.6579],[28.0788,36.7751,4.7446],[28.0782,36.7779,48.4564],[28.0807,36.7801,0.0],[28.0818,36.7849,0.0],[28.0799,36.7865,0.0],[28.074,36.7868,37.176],[28.0735,36.7882,1.6663],[28.0765,36.7912,22.4666],[28.0796,36.7907,0.0],[28.0821,36.7921,3.4157],[28.0832,36.7935,0.0],[28.081,36.794,0.0],[28.0821,36.7962,4.4322],[28.0912,36.794,16.368],[28.0938,36.7951,0.0],[28.0957,36.799,1.7811],[28.1021,36.8026,9.7694],[28.1099,36.804,13.9505],[28.1201,36.8032,0.0],[28.1276,36.7993,0.4509],[28.1318,36.7943,12.5113],[28.1279,36.7918,0.0],[28.129,36.7876,3.1191],[28.1243,36.7846,22.3493],[28.1249,36.7815,29.1093],[28.1232,36.779,5.1677],[28.1254,36.7768,20.3857],[28.1251,36.7754,48.1572],[28.1226,36.776,3.2415],[28.1221,36.7732,0.0],[28.1293,36.7685,0.0],[28.1301,36.7599,0.0],[28.1335,36.7571,24.0848],[28.131,36.7543,0.0993],[28.1285,36.7543,0.0],[28.1274,36.7571,0.0],[28.1207,36.7621,0.0],[28.1215,36.7668,37.3361],[28.1193,36.769,0.0],[28.1171,36.7685,22.2903],[28.116,36.7718,0.0],[28.1124,36.7746,3.3775],[28.1124,36.7707,0.0],[28.1096,36.7701,0.0],[28.1143,36.7679,61.9341],[28.1138,36.7649,0.0],[28.1085,36.7629,3.8608],[28.1049,36.7671,0.0],[28.0996,36.7682,24.6499],[28.0946,36.7649,0.0],[28.0918,36.7613,3.5139],[28.094,36.7601,1.9587],[28.0943,36.7576,0.0],[28.0915,36.7568,14.4264],[28.091,36.7524,5.3205],[28.0874,36.7526,0.0],[28.0874,36.7501,40.2358],[28.0843,36.749,0.0],[28.0846,36.7435,0.0],[28.0876,36.7432,37.3797],[28.0885,36.7407,1.1432],[28.0929,36.7418,0.0],[28.0949,36.7399,0.0],[28.1043,36.7379,32.0412],[28.1054,36.7363,2.2559],[28.1204,36.7351,0.0],[28.1224,36.7337,53.8108],[28.1224,36.7313,0.0],[28.1262,36.7318,0.0],[28.1293,36.7257,0.0],[28.1126,36.7282,0.0],[28.1126,36.7235,0.0],[28.1148,36.7226,22.164],[28.1154,36.7204,4.6193],[28.1121,36.7154,75.4196],[28.1085,36.7149,10.6017],[28.1046,36.7115,22.3648],[28.1021,36.706,1.7635],[28.099,36.7051,2.81],[28.0954,36.7054,9.6775],[28.096,36.7079,0.0],[28.0893,36.7085,0.9252],[28.0854,36.7176,4.2691],[28.0879,36.7207,19.818],[28.0904,36.7204,0.0],[28.0957,36.7232,0.0],[28.0979,36.7268,0.0],[28.0876,36.7238,0.0],[28.0882,36.7282,0.0],[28.0821,36.7279,6.0761],[28.0613,36.7232,12.1261],[28.0587,36.7212,15.2662],[28.0501,36.7201,0.0],[28.0443,36.7163,36.2278],[28.0424,36.7124,63.7316],[28.0424,36.7038,62.5805],[28.0376,36.7057,12.0897],[28.0357,36.7085,17.4179],[28.0268,36.7046,16.6143],[28.0213,36.7079,13.4281],[28.0157,36.7076,4.0357],[28.0115,36.7015,11.5473],[28.0118,36.6993,13.7596],[28.0082,36.6974,0.7292],[28.0079,36.704,0.0],[28.0015,36.7043,4.3268],[28.001,36.7026,26.8038],[27.9976,36.7015,0.0],[27.9968,36.6971,4.6411],[27.9932,36.6971,0.0],[27.9904,36.6935,7.9444],[27.989,36.694,8.1832],[27.9899,36.6976,15.6448],[27.9888,36.6982,15.6448],[27.9818,36.6943,0.0],[27.9821,36.6915,0.0],[27.986,36.6885,2.0875],[27.986,36.6865,3.8736],[27.981,36.6829,4.889],[27.9779,36.6829,26.0976],[27.9807,36.6904,5.3072],[27.9779,36.691,29.7085],[27.9774,36.6932,7.3858],[27.9743,36.6918,24.4457],[27.9746,36.6879,35.6824],[27.9724,36.6854,35.2723],[27.9682,36.6846,6.0709],[27.9668,36.6865,0.0],[27.9635,36.6843,0.0],[27.964,36.6757,2.796],[27.9668,36.6768,4.3996],[27.9688,36.6757,12.909],[27.971,36.6785,0.0],[27.9754,36.6738,21.9845],[27.9871,36.6749,0.0],[27.9912,36.6704,0.0],[27.9963,36.6721,17.0634],[27.9976,36.6746,17.2252],[28.0024,36.6751,0.4034],[28.0038,36.674,17.3539],[28.0029,36.6718,0.0],[28.0057,36.6718,0.0],[28.0068,36.6699,0.0],[28.0151,36.6724,2.9198],[28.0176,36.6696,12.5045],[28.024,36.6679,0.0],[28.0296,36.6726,11.096],[28.0404,36.674,2.8228],[28.0379,36.6782,0.0],[28.0407,36.6824,1.8152],[28.0335,36.6874,3.159],[28.0376,36.6876,0.2668],[28.0393,36.6924,4.1665],[28.0413,36.6929,1.8538],[28.0449,36.6901,8.7444],[28.0465,36.686,1.1486],[28.0524,36.6835,13.2891],[28.0485,36.6754,3.8125],[28.0504,36.6732,0.0],[28.0532,36.6726,3.1835],[28.0571,36.6746,10.9623],[28.0671,36.6738,12.3742],[28.0724,36.6754,10.3212],[28.071,36.6732,54.833],[28.0685,36.6732,0.0],[28.0618,36.6613,6.6696],[28.0599,36.661,0.0],[28.061,36.6588,15.5199],[28.0549,36.6596,3.7743],[28.0526,36.6576,29.2784],[28.0529,36.6557,20.974],[28.0571,36.6538,11.6606],[28.061,36.6576,9.8184],[28.0682,36.6557,8.4194],[28.0671,36.654,0.0],[28.0646,36.6543,0.0],[28.066,36.6524,1.3794],[28.0621,36.6507,5.294],[28.0682,36.6479,12.9214],[28.0624,36.6474,0.0],[28.0615,36.6421,18.639],[28.0599,36.6407,6.3802],[28.0529,36.6421,0.9768],[28.0571,36.6376,8.9661],[28.0571,36.6354,0.0],[28.0613,36.6365,0.0],[28.0665,36.6421,57.0488],[28.0693,36.6479,0.0],[28.0715,36.6579,3.5015],[28.0729,36.6585,0.0],[28.0715,36.6588,18.4821],[28.0721,36.6604,18.4821],[28.0832,36.6604,0.651],[28.0846,36.6565,0.0],[28.0882,36.6538,8.604],[28.0876,36.6504,0.0],[28.0918,36.6501,0.6035],[28.0951,36.6463,0.0],[28.0951,36.6401,1.7939],[28.0785,36.6265,0.0],[28.0776,36.6207,0.0],[28.0746,36.6201,0.0],[28.0688,36.6132,78.0693],[28.0604,36.6107,0.0],[28.0596,36.6076,0.0],[28.0637,36.606,1.974],[28.0624,36.6049,15.9435],[28.0568,36.6049,23.3913],[28.0537,36.6082,3.2408],[28.0496,36.6085,1.699],[28.0485,36.6057,12.9366],[28.0435,36.604,10.5283],[28.0263,36.6026,21.9614],[28.0129,36.6063,24.479],[28.0043,36.6054,32.9731],[28.0012,36.6076,0.0],[27.9915,36.6082,0.9831],[27.9899,36.6068,33.6705],[27.9896,36.6085,23.5692],[27.9835,36.6118,18.617],[27.979,36.6093,6.7508],[27.9729,36.6115,6.2454],[27.9721,36.6099,12.5293],[27.974,36.6079,37.9858],[27.9632,36.6071,0.0],[27.9599,36.6018,66.9676],[27.9562,36.6013,8.893],[27.9571,36.5996,3.1081],[27.9626,36.5982,3.4335],[27.964,36.5957,25.1837],[27.9696,36.594,15.1307],[27.9699,36.5918,0.0],[27.9787,36.5863,2.8262],[27.9737,36.5826,10.9672],[27.9674,36.5829,1.4773],[27.9651,36.5799,5.8456],[27.965699999999998,36.5776,0.0],[27.9685,36.5776,18.9193],[27.9704,36.5757,48.3423],[27.971,36.5732,0.0],[27.9804,36.5679,13.5987],[27.9787,36.5537,0.0],[27.9815,36.5554,2.9039],[27.9835,36.5543,2.8246],[27.9876,36.5601,0.0],[27.991,36.5596,0.0],[27.991,36.5621,5.3733],[27.9974,36.5682,5.2351],[28.0035,36.5629,3.2789],[28.0043,36.566,17.7598],[28.0088,36.5663,9.8846],[28.014,36.5632,0.0],[28.0179,36.5646,0.0],[28.0185,36.5663,0.0],[28.0132,36.5671,0.0],[28.0126,36.5699,9.0753],[28.0107,36.5704,28.6238],[28.0113,36.5726,0.0],[28.0093,36.5751,0.0],[28.011,36.5762,4.6701],[28.0135,36.5762,2.0825],[28.0218,36.5685,0.0],[28.0265,36.5679,11.1978],[28.0243,36.5621,0.0],[28.0254,36.561,0.0],[28.0296,36.5632,0.0],[28.0354,36.5629,1.9514],[28.0365,36.5657,19.5496],[28.0449,36.5718,0.0],[28.049,36.5707,8.3921],[28.051,36.574,7.1954],[28.0504,36.5774,0.0],[28.0443,36.5768,8.5827],[28.0485,36.5843,0.0],[28.0493,36.5846,0.0],[28.0485,36.5793,3.3342],[28.0513,36.5779,0.0],[28.0529,36.5815,0.0],[28.059,36.584,5.0575],[28.0651,36.5907,0.0],[28.0663,36.5951,23.851],[28.074,36.5938,23.7418],[28.0757,36.5954,0.0],[28.0788,36.5954,0.0],[28.0799,36.5874,23.7981],[28.0851,36.5865,0.0],[28.0851,36.584,0.0],[28.0888,36.5821,7.1305],[28.0935,36.5868,0.0],[28.0951,36.5849,0.0],[28.0971,36.5896,27.4661],[28.1015,36.5893,3.6316],[28.1063,36.5921,0.0],[28.1087,36.5974,6.7455],[28.1149,36.5999,0.0],[28.1182,36.6054,0.0],[28.1179,36.6079,19.5138],[28.1213,36.6099,7.7165],[28.1204,36.6121,30.1628],[28.1265,36.6185,0.0],[28.1268,36.6215,10.8012],[28.1299,36.6221,32.3023],[28.1463,36.6437,0.0],[28.146,36.6482,17.4172],[28.1426,36.6507,25.7064],[28.1457,36.6521,14.4757],[28.1454,36.6504,0.0],[28.1476,36.6501,0.0],[28.1476,36.6549,12.2221],[28.1507,36.6557,7.9331],[28.1524,36.6604,0.0],[28.1574,36.6629,0.0],[28.1593,36.666,27.7895],[28.1632,36.666,13.0314],[28.1643,36.669,0.0],[28.1563,36.6715,13.9266],[28.1554,36.674,7.3235],[28.159,36.6785,10.2543],[28.1651,36.6801,0.0],[28.1638,36.6843,8.845],[28.1671,36.6824,32.5502],[28.1662,36.6815,0.0],[28.1704,36.6815,9.9274],[28.1763,36.679,16.0889],[28.1824,36.681,10.1354],[28.1826,36.6838,70.3504],[28.1885,36.6838,17.1457],[28.1915,36.6871,120.6163],[28.1971,36.6857,9.6244],[28.1993,36.6904,28.2239],[28.2018,36.6913,37.8958],[28.2096,36.6885,0.0],[28.2165,36.6913,0.0],[28.2201,36.6876,5.6385],[28.2243,36.6882,0.0],[28.2271,36.6913,0.0],[28.2226,36.6935,27.5284],[28.2221,36.6974,26.2579],[28.2243,36.699,3.2424],[28.2346,36.7007,17.3441],[28.2346,36.7021,0.0],[28.2326,36.7024,0.0],[28.2254,36.7001,6.9396],[28.2257,36.7024,37.184],[28.231,36.7046,4.0361],[28.2337,36.7088,55.2296],[28.2399,36.7118,0.0],[28.2401,36.7143,0.0],[28.2382,36.7157,0.0],[28.2396,36.7176,2.9174],[28.2474,36.7157,9.3461],[28.249,36.7188,3.6626],[28.2476,36.7232,35.6159],[28.251,36.724,18.4262],[28.2538,36.7299,6.2208],[28.2615,36.7329,18.5417],[28.2635,36.7329,4.6778],[28.264,36.7299,0.0],[28.2671,36.7299,0.0],[28.2749,36.7351,0.0],[28.2793,36.7346,1.6198],[28.2829,36.7274,57.9316],[28.2821,36.7226,0.0],[28.2882,36.7199,0.0],[28.2907,36.7201,0.0],[28.2918,36.7243,7.8038],[28.2949,36.7246,0.0],[28.3035,36.7301,0.0],[28.3007,36.7318,15.157],[28.2946,36.7313,20.8729],[28.2929,36.7335,18.8443],[28.2976,36.7363,7.2463],[28.2993,36.7354,0.0],[28.3004,36.7379,0.0],[28.2968,36.7393,28.4503],[28.2962,36.7432,23.3548],[28.2918,36.749,0.0],[28.2857,36.7504,3.0537],[28.2846,36.7482,0.0],[28.2796,36.7476,0.0],[28.2793,36.7454,39.4211],[28.276,36.7443,7.1112],[28.2693,36.7471,0.8345],[28.2676,36.7546,4.9427],[28.2713,36.7582,0.0],[28.2682,36.7582,23.7722],[28.2665,36.7604,3.0033],[28.2679,36.766,8.67],[28.2604,36.7674,2.8637],[28.2535,36.7724,0.0],[28.2524,36.7707,2.1221],[28.249,36.7726,1.8926],[28.2501,36.7785,0.0],[28.2535,36.7776,6.6374],[28.2557,36.779,2.6003],[28.2524,36.7826,26.3946],[28.2529,36.7857,86.2457],[28.2557,36.7871,29.726],[28.2565,36.7918,0.0],[28.2535,36.7918,56.8042],[28.2485,36.7951,15.8758],[28.2488,36.7976,0.0],[28.2462,36.7985,9.9943],[28.2454,36.801,0.0],[28.2376,36.7999,24.5172],[28.2329,36.8043,4.3388],[28.2337,36.8074,9.1114],[28.2412,36.8121,20.6723],[28.2446,36.8182,0.0],[28.2435,36.8251,28.8906],[28.2451,36.8324,1.3434],[28.2593,36.8463,2.4552],[28.2685,36.8526,4.6219],[28.2707,36.8526,7.2204],[28.2735,36.8496,0.9107],[28.2757,36.8499,0.2092],[28.276,36.8521,4.4099],[28.2776,36.8524,1.048],[28.2787,36.849,0.0],[28.284,36.8482,0.2536],[28.2882,36.8415,0.0],[28.294,36.839,9.2265],[28.2949,36.8335,0.0],[28.2968,36.8318,0.0],[28.3018,36.829,12.3036],[28.3074,36.8282,2.0615],[28.3074,36.8268,0.0],[28.3113,36.829,1.4324],[28.3154,36.8268,0.0],[28.3151,36.8232,0.0],[28.3121,36.8221,0.0],[28.3126,36.8179,0.5808],[28.3063,36.8201,0.0],[28.3043,36.8171,2.0508],[28.301,36.8196,0.0],[28.2982,36.8165,19.8668],[28.2935,36.8193,0.5995],[28.2815,36.8121,0.0],[28.2768,36.8146,2.6844],[28.2743,36.8124,15.464],[28.2657,36.814,0.0],[28.2735,36.8051,3.202],[28.2737,36.8026,8.1051],[28.2699,36.7996,0.0],[28.2701,36.7976,0.0],[28.2835,36.7946,6.8949],[28.2832,36.7924,4.995],[28.286,36.7904,0.0],[28.2885,36.7929,24.6029],[28.2918,36.7924,0.0],[28.2929,36.7957,33.2152],[28.3001,36.7943,3.6668],[28.3032,36.7965,0.0],[28.311,36.7938,5.3124],[28.314,36.7949,1.9008],[28.3118,36.7988,0.0],[28.3079,36.7985,38.6135],[28.3015,36.8037,3.7164],[28.306,36.8107,0.0],[28.3063,36.8157,1.0758],[28.3113,36.8171,0.2345],[28.3207,36.814,32.702],[28.3243,36.8112,20.0457],[28.3351,36.8093,11.8215],[28.3396,36.8065,0.0],[28.3421,36.8076,8.1383],[28.3537,36.8068,2.9236],[28.3576,36.8001,0.0],[28.3668,36.7946,0.0],[28.3721,36.7951,0.0],[28.3738,36.7982,2.7304],[28.3782,36.7979,10.5966],[28.3821,36.7943,16.1578],[28.3818,36.7879,3.3204],[28.391,36.7893,8.9399],[28.3946,36.7854,0.0],[28.3982,36.7846,0.0],[28.4076,36.7882,3.8399],[28.4076,36.7935,4.1679],[28.4126,36.7965,0.0],[28.4118,36.8015,0.0],[28.416,36.806,0.0],[28.4146,36.8104,0.0],[28.4254,36.8196,0.0],[28.4229,36.8243,0.0],[28.4235,36.8268,0.0],[28.4274,36.8288,0.0],[28.4257,36.8321,12.821],[28.4268,36.8357,0.0],[28.4243,36.839,0.0],[28.4176,36.8365,20.0395],[28.4079,36.8404,6.2526],[28.3971,36.8379,0.0],[28.3968,36.8354,7.8745],[28.3915,36.8351,1.2393],[28.391,36.8363,0.0],[28.3879,36.8351,0.9326],[28.3868,36.8393,0.0],[28.3824,36.8382,14.5382],[28.3835,36.8404,0.0],[28.3815,36.8407,1.827],[28.3785,36.8449,0.4414],[28.3799,36.8476,2.7032],[28.3832,36.8479,4.1084],[28.3888,36.8529,6.0468],[28.3957,36.8529,3.3239],[28.3965,36.8596,0.0],[28.4029,36.8665,0.0],[28.4076,36.8654,0.0],[28.4079,36.8626,0.0],[28.4054,36.8607,0.0],[28.4074,36.854,0.0],[28.4204,36.8557,18.501],[28.4221,36.8579,1.3711],[28.4257,36.8576,7.8345],[28.4274,36.8601,0.0],[28.4301,36.8601,2.2587],[28.4329,36.8576,0.0],[28.4357,36.8621,81.1018],[28.4387,36.8635,0.0],[28.4399,36.8665,0.0],[28.4446,36.8654,0.0],[28.4443,36.8743,8.464],[28.446,36.8807,3.2078],[28.4557,36.8793,4.3285],[28.4588,36.8768,0.3418],[28.4593,36.8729,0.2217],[28.454,36.8701,0.0],[28.4554,36.8674,0.0],[28.4679,36.8662,4.1526],[28.4676,36.8626,0.0],[28.4693,36.8624,6.6809],[28.4665,36.8596,0.0],[28.4685,36.8554,5.8134],[28.4654,36.8515,29.8534],[28.4543,36.8524,0.0],[28.4507,36.8457,0.0],[28.4518,36.8432,3.6698],[28.4562,36.8413,16.9443],[28.456,36.8374,13.1782],[28.4504,36.8371,0.0],[28.4513,36.8343,0.0],[28.4499,36.8321,9.4005],[28.4551,36.829,2.4924],[28.4513,36.824,0.0],[28.4565,36.8229,15.7471],[28.4565,36.8185,5.7186],[28.4588,36.8174,43.0946],[28.4621,36.8112,0.0],[28.4718,36.8157,80.7335],[28.4746,36.8138,0.0],[28.4799,36.8154,0.0],[28.4835,36.8138,0.0],[28.4829,36.8157,1.2365],[28.486,36.8171,24.4993],[28.4899,36.816,0.0],[28.4982,36.8179,0.0],[28.5021,36.8146,0.1029],[28.5024,36.8124,0.0],[28.499,36.8118,19.5816],[28.4999,36.8082,22.1838],[28.4951,36.8074,0.0],[28.4949,36.8032,14.9012],[28.489,36.8021,0.0],[28.4896,36.799,0.0],[28.4985,36.7982,0.0],[28.4982,36.7943,0.0],[28.5029,36.7904,0.0],[28.5079,36.7938,0.0],[28.511,36.7993,35.8315],[28.5182,36.7999,13.7823],[28.521,36.7957,0.0],[28.5187,36.794,0.0],[28.5187,36.7921,10.0597],[28.5213,36.7907,0.0],[28.5207,36.7888,0.0],[28.5257,36.7904,16.0986],[28.529,36.7893,17.7197],[28.5324,36.7857,7.9879],[28.536,36.7857,26.8519],[28.5415,36.7882,22.9709],[28.5418,36.7954,24.2041],[28.5401,36.7968,2.6545],[28.536,36.7962,2.7095],[28.5343,36.7999,0.0],[28.5293,36.8001,23.7064],[28.531,36.8051,8.443],[28.529,36.8071,17.4901],[28.5324,36.8101,5.8644],[28.5379,36.8107,9.888],[28.5396,36.8124,65.4189],[28.5443,36.8112,0.0],[28.5488,36.8143,12.062],[28.5496,36.8165,18.5499],[28.5471,36.8168,77.5182],[28.546,36.8196,7.4233],[28.5471,36.8215,1.6759],[28.5501,36.8221,52.0777],[28.5493,36.8304,6.0158],[28.5585,36.8321,18.8155],[28.5593,36.8288,0.0],[28.561,36.8271,25.2156],[28.564,36.8271,22.3547],[28.5657,36.8246,4.8732],[28.5657,36.8224,0.0],[28.5629,36.8221,0.0],[28.5624,36.8201,0.0],[28.5707,36.8163,0.0],[28.5768,36.8176,12.5888],[28.5782,36.8163,0.0],[28.5843,36.8168,0.0],[28.5876,36.8154,29.1145],[28.5957,36.8063,48.0812],[28.594,36.7985,0.0],[28.5976,36.799,0.0],[28.5987,36.8018,5.7869],[28.6021,36.8013,0.0],[28.6024,36.8032,5.4142],[28.6101,36.8018,-0.5],[28.6143,36.7965,0.067],[28.619,36.794,0.3178],[28.6212,36.7951,-0.5],[28.6218,36.7907,0.0],[28.6301,36.7815,0.0],[28.631,36.7762,2.042],[28.6296,36.7738,0.0],[28.6171,36.7715,8.603],[28.6143,36.7685,44.8866],[28.6129,36.764,16.7976],[28.6154,36.7613,10.1883],[28.6129,36.7593,1.0509],[28.619,36.7565,0.0],[28.6324,36.7579,14.1679],[28.6329,36.7549,19.7456],[28.6254,36.7526,2.1031],[28.626,36.7501,31.0315],[28.6232,36.7499,16.9503],[28.6224,36.7446,93.9236],[28.6193,36.744,0.0],[28.6204,36.741,15.3376],[28.6121,36.7401,17.528],[28.6104,36.7385,3.01],[28.6113,36.7357,0.0],[28.6076,36.7351,0.0],[28.6071,36.7337,0.0],[28.6096,36.7313,2.6043],[28.6135,36.7329,0.0],[28.6151,36.7354,0.0],[28.6185,36.7351,13.0353],[28.6188,36.7299,0.0],[28.6243,36.7276,30.9631],[28.621,36.7254,0.0],[28.6207,36.7224,0.0],[28.6232,36.7212,11.9078],[28.6235,36.7174,11.8713],[28.6212,36.7157,11.5681],[28.6168,36.7157,6.0872],[28.6151,36.7137,4.2512],[28.6179,36.7035,0.0],[28.6268,36.6982,0.0],[28.6299,36.7001,13.8946],[28.6329,36.6999,0.0],[28.6332,36.7015,0.0],[28.6371,36.7035,0.0],[28.6363,36.7062,169.095],[28.644,36.7176,82.5052],[28.6463,36.7176,0.0],[28.6457,36.7218,0.0],[28.6479,36.7218,0.0],[28.651,36.7182,0.0],[28.656,36.7171,26.1916],[28.6543,36.7165,0.0],[28.6543,36.7135,0.0],[28.666,36.7163,188.6431],[28.6649,36.7124,0.0],[28.6665,36.7074,21.6286],[28.6724,36.7074,11.9904],[28.6738,36.706,52.8145],[28.6718,36.7001,5.5427],[28.6735,36.6971,0.0],[28.6693,36.6954,0.0],[28.6701,36.6915,0.0],[28.6776,36.6929,3.4731],[28.6793,36.6954,10.0794],[28.6901,36.6971,2.5222],[28.6899,36.699,25.8487],[28.6921,36.7007,48.7617],[28.7065,36.7038,18.5244],[28.7088,36.7029,0.0],[28.7104,36.7057,1.3218],[28.7246,36.7062,1.5165],[28.7274,36.7049,0.0849],[28.7257,36.7093,3.2322],[28.7279,36.7118,0.6652],[28.7271,36.7074,1.3217],[28.7324,36.7032,0.0],[28.7382,36.7035,0.4114],[28.7512,36.7001,0.6922],[28.7674,36.6946,1.3234],[28.7707,36.6915,0.0],[28.7746,36.6921,0.6133],[28.7901,36.686,0.5527],[28.7979,36.679,13.3952],[28.7996,36.6726,9.8719],[28.8065,36.669,53.2075],[28.7957,36.6643,0.0],[28.796,36.6613,0.0],[28.794,36.6596,0.0],[28.7957,36.656,4.5711],[28.7938,36.654,0.0],[28.794,36.6504,0.0],[28.8021,36.6526,7.7094],[28.8035,36.6557,23.1699],[28.8104,36.6551,0.0],[28.8182,36.6593,26.5891],[28.8201,36.6585,6.1991],[28.8213,36.6554,0.0],[28.8246,36.6551,29.1086],[28.8307,36.6471,29.4705],[28.8296,36.6443,0.0],[28.8307,36.6387,0.0],[28.839,36.6418,0.0],[28.8438,36.6418,3.3665],[28.8512,36.6376,18.6913],[28.8438,36.6354,29.3379],[28.8374,36.6312,0.0],[28.8365,36.6276,18.7929],[28.8326,36.629,0.0],[28.8243,36.6257,15.2908],[28.8279,36.6213,0.0],[28.8249,36.6126,6.097],[28.8304,36.611,7.7779],[28.829,36.6101,0.0],[28.8301,36.6074,24.3798],[28.829,36.6054,0.0],[28.8304,36.604,10.3256],[28.8449,36.5968,17.935],[28.8457,36.5882,0.0],[28.8582,36.5954,0.0],[28.8618,36.6007,16.4701],[28.8676,36.6018,0.0],[28.8735,36.6004,0.0],[28.8757,36.6018,0.0],[28.869,36.6049,21.6749],[28.8674,36.6101,0.0],[28.8693,36.6129,0.0],[28.8674,36.6151,0.0],[28.8724,36.6165,0.0],[28.8657,36.6176,10.4315],[28.8688,36.6188,6.3614],[28.8685,36.6218,0.0],[28.8735,36.6201,0.0],[28.876,36.6218,0.0],[28.874,36.624,17.6009],[28.8749,36.6251,17.6009],[28.8824,36.6254,0.0],[28.8821,36.6288,0.0],[28.8779,36.629,4.1401],[28.8796,36.6304,0.0],[28.8918,36.6299,0.0],[28.886,36.6338,2.7662],[28.8876,36.6351,2.7662],[28.8868,36.6363,14.3057],[28.8901,36.6368,0.0],[28.8929,36.6401,9.1364],[28.8963,36.6393,0.0],[28.8988,36.6413,3.3275],[28.9015,36.6396,0.0],[28.9068,36.6396,0.0],[28.904,36.6457,28.3379],[28.9071,36.6463,2.0232],[28.9085,36.6488,0.0],[28.9046,36.6507,2.9528],[28.896,36.6488,0.0],[28.894,36.6443,34.9544],[28.8915,36.6454,15.3158],[28.8879,36.6443,0.0],[28.8851,36.6476,14.007],[28.8804,36.6488,0.0],[28.8779,36.6479,11.7519],[28.8771,36.6413,0.0],[28.8774,36.6376,12.3894],[28.8799,36.6368,3.3561],[28.8801,36.6349,9.5007],[28.8704,36.6335,40.0876],[28.8632,36.641,0.0],[28.8635,36.6424,7.3449],[28.8676,36.6418,0.0],[28.8654,36.6446,0.0],[28.8607,36.6446,0.0],[28.8554,36.6401,37.1599],[28.8501,36.6432,33.5001],[28.8532,36.6468,0.0],[28.8585,36.6488,35.3163],[28.8596,36.6507,49.1218],[28.8629,36.651,20.5618],[28.8662,36.654,11.0178],[28.8601,36.6546,23.3975],[28.8596,36.6565,0.0],[28.8571,36.6568,15.7879],[28.8576,36.6593,2.8247],[28.8524,36.6587,8.768],[28.851,36.6635,0.0],[28.8568,36.666,19.9393],[28.864,36.6665,0.0],[28.869,36.671,0.0],[28.8654,36.6749,8.3728],[28.8582,36.676,31.309],[28.8618,36.6799,6.9277],[28.866,36.6804,0.0],[28.8662,36.684,50.6683],[28.8685,36.6871,0.0],[28.8671,36.6904,0.0],[28.8685,36.6932,0.0],[28.8649,36.6946,20.4944],[28.8646,36.6971,64.8419],[28.8713,36.6971,58.9538],[28.8735,36.6943,7.7699],[28.8771,36.6935,0.0],[28.8796,36.6949,0.0],[28.8776,36.6988,0.0],[28.8785,36.7007,12.926],[28.8865,36.6993,0.0],[28.8926,36.7001,0.0],[28.9015,36.6974,4.5214],[28.9015,36.6999,5.8965],[28.8985,36.7007,0.0],[28.8982,36.7026,11.5451],[28.9013,36.7038,53.3892],[28.9065,36.7029,0.0],[28.9071,36.7051,0.0],[28.9093,36.7054,0.0],[28.9093,36.7079,5.2452],[28.906,36.709,0.0],[28.9018,36.7082,40.4441],[28.8988,36.7107,0.0],[28.8937,36.7093,3.3501],[28.8943,36.7121,11.7936],[28.901,36.7137,0.0],[28.9024,36.7124,5.4057],[28.9101,36.7129,13.9432],[28.9104,36.7179,0.0],[28.9149,36.7232,0.0],[28.9093,36.724,39.7892],[28.9143,36.729,12.5251],[28.9207,36.7282,0.0],[28.9229,36.731,0.0],[28.9204,36.7329,10.4915],[28.9299,36.7343,0.0],[28.9246,36.7424,32.7058],[28.926,36.7454,0.0],[28.931,36.7465,0.0],[28.9307,36.7518,1.7746],[28.9271,36.7496,2.641],[28.9218,36.7504,47.2954],[28.9221,36.7518,0.0],[28.9268,36.7524,0.0],[28.9288,36.7551,0.5348],[28.9365,36.7562,2.4947],[28.9412,36.7537,1.9507],[28.9426,36.7504,0.0],[28.9421,36.7457,0.0],[28.9485,36.7412,9.1019],[28.949,36.7368,0.0],[28.9607,36.7315,0.0],[28.9649,36.7224,2.5175],[28.9665,36.7243,0.0],[28.9649,36.7263,4.3675],[28.9654,36.7299,4.9973],[28.971,36.731,0.3891],[28.9746,36.7285,75.0059],[28.9746,36.726,5.503],[28.9774,36.7265,0.0],[28.979,36.7251,0.0],[28.9788,36.7218,0.0],[28.981,36.7193,36.1068],[28.9879,36.7199,1.006],[28.9876,36.7168,0.0],[28.9904,36.7146,0.0],[28.9915,36.711,0.0],[28.9957,36.7101,0.0],[28.996,36.7082,0.0],[29.0004,36.709,0.0],[28.9982,36.7126,62.1781],[28.9988,36.7146,0.0],[29.004,36.7113,0.0],[29.0093,36.7101,0.0],[29.0121,36.7129,17.4622],[29.0204,36.7154,0.0],[29.0213,36.711,0.0],[29.0146,36.7076,0.0],[29.0132,36.7043,0.0],[29.0201,36.7012,0.0],[29.0201,36.7035,0.0],[29.0218,36.7035,0.0],[29.024,36.7068,0.0],[29.028199999999998,36.7035,0.0],[29.0307,36.7054,0.0],[29.0301,36.7076,10.2228],[29.0332,36.7079,0.0],[29.0346,36.7054,29.409],[29.0318,36.7029,0.0],[29.0329,36.7029,0.0],[29.0335,36.6951,0.0],[29.0365,36.6963,0.7638],[29.0424,36.6899,1.1708],[29.046,36.6888,4.3626],[29.0543,36.6815,0.0],[29.0646,36.6793,0.3033],[29.0735,36.6815,0.2023],[29.0826,36.6771,0.2902],[29.0846,36.6787,0.3918],[29.0912,36.679,1.1415],[29.1032,36.6712,0.6741],[29.1101,36.6582,1.2804],[29.1101,36.6524,0.0],[29.1165,36.6538,2.8191],[29.1221,36.6474,0.0],[29.1213,36.6351,0.2821],[29.116,36.6265,0.0],[29.1065,36.6215,13.8175],[29.1015,36.6235,1.285],[29.0971,36.621,9.6782],[29.0924,36.6215,0.0],[29.0896,36.6199,12.7711],[29.0879,36.6229,0.0],[29.0932,36.6318,8.7314],[29.0971,36.6299,0.0],[29.1004,36.6312,5.5073],[29.1018,36.6346,0.0],[29.0985,36.6365,1.9761],[29.1018,36.641,0.0],[29.0996,36.6415,3.6252],[29.0968,36.6387,11.4036],[29.0946,36.641,14.4787],[29.0946,36.6435,13.0474],[29.0901,36.6446,0.0],[29.0851,36.6424,7.7776],[29.0843,36.644,0.0],[29.0776,36.6463,0.0],[29.0771,36.6437,51.7507],[29.0746,36.644,0.0],[29.0729,36.6404,0.0],[29.0765,36.639,3.125],[29.0782,36.6321,27.3673],[29.0779,36.6279,27.9769],[29.0735,36.6279,0.0],[29.0763,36.6268,0.0],[29.079,36.6207,26.5301],[29.0721,36.621,0.0],[29.0754,36.6143,0.7158],[29.0679,36.6149,30.4818],[29.0674,36.6168,6.0087],[29.0632,36.6157,2.8711],[29.0613,36.6185,5.3956],[29.0582,36.6151,19.7568],[29.0529,36.6132,10.913],[29.0521,36.6168,32.0464],[29.049,36.6174,0.0],[29.0457,36.6218,4.3943],[29.0401,36.6199,0.9499],[29.0351,36.6138,0.0],[29.036,36.6096,23.787],[29.031,36.6082,0.0],[29.0301,36.6037,4.4089],[29.0285,36.604,0.0],[29.0276,36.6021,3.1443],[29.0299,36.5982,10.8557],[29.0285,36.5968,3.073],[29.0296,36.5915,0.0],[29.028199999999998,36.5893,8.2829],[29.0238,36.5887,13.5151],[29.0224,36.586,0.0],[29.024,36.581,0.0],[29.0287,36.5807,52.0155],[29.0354,36.5776,109.5541],[29.0329,36.5754,0.0],[29.034,36.5713,187.9923],[29.0318,36.5701,44.1326],[29.0329,36.5671,14.4616],[29.0371,36.5665,0.0],[29.0415,36.5682,19.6521],[29.0432,36.5646,0.0],[29.046,36.5651,0.0],[29.0446,36.561,0.0],[29.0468,36.5582,26.9861],[29.0399,36.5563,0.0],[29.0357,36.5529,43.9173],[29.0318,36.5532,5.9533],[29.0257,36.5471,0.0],[29.0176,36.5471,0.0],[29.0163,36.549,0.0],[29.011,36.5479,0.0],[29.0113,36.546,22.5435],[29.0096,36.546,0.0],[29.0085,36.5435,0.0],[29.011,36.544,2.5746],[29.0124,36.5424,6.5692],[29.0149,36.5435,0.0],[29.016,36.5412,0.0],[29.0235,36.5407,55.7707],[29.0263,36.5385,0.0],[29.0307,36.5382,0.0],[29.0346,36.5429,7.2756],[29.0376,36.541,22.0265],[29.0374,36.539,0.0],[29.0421,36.5385,0.0],[29.0482,36.5407,13.3493],[29.0535,36.5388,0.0],[29.0543,36.5401,0.0],[29.051,36.5407,15.6335],[29.0571,36.544,0.0],[29.0515,36.5471,54.7999],[29.0513,36.5563,2.5398],[29.0493,36.5563,40.669],[29.0493,36.5585,13.0251],[29.0601,36.5563,0.0],[29.0607,36.5588,27.2611],[29.0668,36.5565,0.0],[29.079,36.559,42.0905],[29.0812,36.5579,0.0],[29.0863,36.5651,1.9424],[29.0888,36.5649,6.1438],[29.0904,36.5599,0.0],[29.0893,36.5565,3.4404],[29.0935,36.5546,7.9166],[29.0951,36.5501,0.0],[29.0932,36.5482,0.0],[29.0971,36.5451,0.0],[29.106,36.5465,17.0802],[29.1082,36.544,12.9076],[29.1113,36.5438,7.3145],[29.1113,36.5482,12.3923],[29.1043,36.5535,4.0703],[29.1046,36.5551,0.0],[29.1074,36.5554,0.0],[29.1121,36.5546,18.55],[29.1146,36.5518,0.0],[29.111,36.5493,0.0],[29.1165,36.5493,3.0579],[29.1238,36.5449,1.8363],[29.1257,36.5424,2.6873],[29.1274,36.5282,5.8862],[29.1249,36.5249,3.3885],[29.1262,36.5207,0.0],[29.1229,36.519,0.0],[29.1188,36.5043,0.0],[29.1207,36.5001,0.0],[29.1254,36.499,27.895],[29.126,36.4965,38.842],[29.1215,36.4954,174.0633],[29.1196,36.4976,0.0],[29.114,36.4971,0.0],[29.1113,36.4854,12.5509],[29.1007,36.4746,0.0],[29.1024,36.474,2.6945],[29.1038,36.4688,28.6014],[29.1124,36.4674,117.0498],[29.1146,36.4637,12.4976],[29.114,36.4621,12.4976],[29.1249,36.4615,5.7103],[29.1238,36.4576,15.4738],[29.119,36.4543,0.0],[29.1196,36.4507,0.0],[29.1235,36.449,3.5998],[29.121,36.4418,0.0],[29.1251,36.4451,0.0],[29.129,36.4449,0.0],[29.1282,36.4426,0.0],[29.131,36.4413,29.057],[29.131,36.4396,40.2377],[29.1285,36.4368,0.0],[29.1335,36.4279,28.2603],[29.1179,36.4254,0.0],[29.126,36.4207,7.0469],[29.129,36.421,25.6859],[29.1287,36.4179,0.0],[29.1315,36.4157,11.5346],[29.126,36.4135,28.4689],[29.1149,36.4129,11.8945],[29.1107,36.4063,5.564],[29.1029,36.4046,0.0],[29.1026,36.3979,23.4824],[29.0996,36.3921,12.089],[29.1013,36.3871,0.0],[29.1093,36.3857,6.8757],[29.1107,36.3901,11.0596],[29.1149,36.3924,12.7291],[29.1201,36.3907,0.9829],[29.1213,36.3832,0.0],[29.1243,36.3818,55.5438],[29.1179,36.3771,0.0],[29.1188,36.3754,0.0],[29.1296,36.3771,33.6504],[29.1313,36.3754,0.0],[29.1326,36.3771,101.7533],[29.1351,36.3774,121.4523],[29.1363,36.376,0.0],[29.1454,36.3782,0.0],[29.1468,36.3763,0.0],[29.1401,36.3688,5.204],[29.1426,36.3657,0.0],[29.1376,36.3643,0.0],[29.1382,36.3599,0.0],[29.1424,36.3587,0.0],[29.1426,36.3568,0.0],[29.1471,36.3576,84.3509],[29.151,36.354,1.4243],[29.1557,36.3568,0.0],[29.1607,36.3521,0.0],[29.164,36.3529,0.0],[29.1601,36.3474,0.0],[29.164,36.344,3.9171],[29.1649,36.341,0.0],[29.169,36.3407,0.0],[29.1746,36.3449,6.2001],[29.1804,36.3418,0.0],[29.1832,36.3426,14.3114],[29.1821,36.3371,0.0],[29.184,36.3349,0.0],[29.1901,36.3335,0.0],[29.194,36.336,3.2167],[29.1976,36.3351,0.0],[29.2032,36.3315,5.8224],[29.2043,36.329,0.0],[29.209599999999998,36.3271,19.2171],[29.209,36.3251,1.3804],[29.2071,36.3246,0.0],[29.2076,36.3232,0.0],[29.2129,36.3262,2.5112],[29.2165,36.3251,0.0],[29.2263,36.3288,10.672],[29.231,36.3246,0.0],[29.2404,36.3218,5.7479],[29.2446,36.3176,2.333],[29.2493,36.3176,2.0548],[29.2624,36.301,4.2172],[29.288,36.3091,4.3427],[29.2988,36.3188,5.0298],[29.3052,36.3397,20.0589],[29.3144,36.3559,17.5623],[29.3193,36.384,54.5465],[29.3285,36.4019,35.5084],[29.3277,36.41,42.0881],[29.3212,36.4206,35.1396],[29.3192,36.4269,41.235],[29.3214,36.4357,36.3024],[29.3271,36.4423,41.7131],[29.3969,36.4955,258.4297],[29.4294,36.5104,624.3032],[29.5021,36.5652,1984.3296],[29.5135,36.5714,2382.8772],[29.529,36.577,2617.9797],[29.5423,36.5851,2354.7129],[29.5615,36.6006,1814.8638],[29.574,36.6149,1868.9183],[29.5843,36.6327,1525.5865],[29.5868,36.6415,1617.2518],[29.5882,36.7236,2126.3066],[29.5911,36.7355,1921.1272],[29.6001,36.7522,1666.6917],[29.605,36.7791,1224.7073],[29.6207,36.8055,1141.2302],[29.645,36.8306,1388.0248],[29.6607,36.8536,1187.9149]]],
[[[29.0096,36.6971,0.0],[29.006,36.699,0.0],[29.004,36.6976,0.0],[29.006,36.6937,0.0],[29.0107,36.6918,0.0],[29.0132,36.6935,0.0],[29.0138,36.696,0.0],[29.0096,36.6971,0.0]]],
[[[28.934,36.6946,0.0],[28.9335,36.6971,0.0],[28.931,36.6963,24.4943],[28.9315,36.6943,9.8631],[28.934,36.6946,0.0]]],
[[[28.9301,36.6976,0.0],[28.9282,36.7001,18.6448],[28.9232,36.6988,0.8509],[28.926,36.6929,0.0],[28.9282,36.6937,0.0],[28.9301,36.6976,0.0]]],
[[[27.7915,36.7518,0.0],[27.7915,36.7532,0.0],[27.7901,36.7524,1.6958],[27.7904,36.7513,0.0],[27.7915,36.7518,0.0]]],
[[[27.7635,36.7521,2.811],[27.7649,36.7532,0.0],[27.7599,36.7526,0.0],[27.759,36.7513,0.0],[27.7599,36.751,0.0],[27.7635,36.7521,2.811]]],
[[[27.7757,36.7529,6.9475],[27.7754,36.7568,7.0711],[27.7732,36.7546,3.1763],[27.7738,36.7521,6.9298],[27.7757,36.7529,6.9475]]],
[[[27.8076,36.7588,0.0],[27.8076,36.7607,0.0],[27.8054,36.7604,9.1088],[27.8046,36.7576,0.0],[27.8071,36.7582,0.0],[27.8076,36.7588,0.0]]],
[[[28.5985,36.7965,0.0],[28.599,36.7976,1.7227],[28.5965,36.7974,1.321],[28.5954,36.7957,0.0],[28.5971,36.7951,0.0],[28.5985,36.7965,0.0]]],
[[[28.2601,36.8079,5.1839],[28.2588,36.8099,24.6821],[28.2532,36.8074,0.0],[28.251,36.8074,42.1077],[28.2504,36.8096,0.0],[28.2432,36.8082,0.0],[28.2446,36.8051,2.0502],[28.256,36.8035,60.8925],[28.2588,36.7979,0.0],[28.2599,36.7979,0.0],[28.2585,36.8004,1.3357],[28.2599,36.8026,23.0425],[28.2582,36.8037,23.0425],[28.2613,36.806,25.5414],[28.2601,36.8079,5.1839]]],
[[[28.0274,36.8676,0.5115],[28.0263,36.8688,0.0],[28.0179,36.8685,0.992],[28.0215,36.866,2.0056],[28.0276,36.866,0.0],[28.0274,36.8676,0.5115]]],
[[[28.0365,36.8699,0.0],[28.0374,36.8715,10.6967],[28.0321,36.8682,0.0],[28.0335,36.8682,0.0],[28.0365,36.8699,0.0]]],
[[[28.0451,36.8743,1.5865],[28.0451,36.8763,1.7505],[28.0413,36.876,0.0],[28.0424,36.8732,0.0],[28.0451,36.8743,1.5865]]],
[[[28.036,36.8843,0.0],[28.0346,36.8857,0.0],[28.0338,36.8854,0.8816],[28.0343,36.8826,0.0],[28.036,36.8843,0.0]]],
[[[28.2888,36.8199,4.2857],[28.2882,36.8213,3.2756],[28.2826,36.8213,0.0],[28.278199999999998,36.8196,0.0],[28.2793,36.8187,0.0],[28.2888,36.8199,4.2857]]],
[[[28.4457,36.8629,11.9032],[28.4451,36.8646,0.0],[28.4443,36.8649,0.0],[28.4443,36.8626,0.0],[28.4457,36.8629,11.9032]]],
[[[28.1571,36.9362,5.9905],[28.1549,36.9376,0.0],[28.153199999999998,36.9343,5.0254],[28.1565,36.9335,0.0],[28.1571,36.9362,5.9905]]],
[[[28.1565,36.9443,5.5694],[28.1568,36.9451,5.5694],[28.1535,36.9457,0.0],[28.154,36.944,0.0],[28.1565,36.9443,5.5694]]],
[[[28.199,36.9621,11.9688],[28.1985,36.9637,11.9688],[28.1965,36.9637,19.4545],[28.1893,36.9579,0.0],[28.1957,36.9571,29.6629],[28.1996,36.9585,0.0],[28.2004,36.9601,0.0],[28.199,36.9621,11.9688]]],
[[[28.2062,36.9949,0.0],[28.2046,36.9954,0.0],[28.2004,36.991,6.5285],[28.2104,36.9912,2.1477],[28.2096,36.9935,0.0],[28.2054,36.9932,1.0159],[28.2062,36.9949,0.0]]],
[[[28.2096,36.9979,0.0],[28.2088,36.9996,0.0],[28.2049,36.9993,0.0],[28.2051,36.9976,1.5942],[28.2096,36.9979,0.0]]],
[[[28.2418,37.0024,0.0],[28.2412,37.0035,3.4862],[28.2379,37.0029,3.0141],[28.2382,37.0018,0.0],[28.2418,37.0024,0.0]]],
[[[28.9357,36.7074,1.4284],[28.9346,36.7088,0.0],[28.9335,36.7074,2.3818],[28.934,36.7029,9.5109],[28.9326,36.7024,0.0],[28.9321,36.6988,1.3372],[28.9343,36.6999,1.0996],[28.9357,36.7074,1.4284]]],
[[[28.9326,36.7113,2.4446],[28.9335,36.7118,0.0],[28.9315,36.7121,0.0],[28.9296,36.7099,3.2672],[28.9318,36.7074,3.987],[28.9332,36.7079,2.3818],[28.9318,36.7101,4.4409],[28.9326,36.7113,2.4446]]],
[[[28.941,36.736,7.9844],[28.9396,36.7371,0.0],[28.9365,36.7343,0.0],[28.9376,36.7321,85.9202],[28.9351,36.7296,7.8651],[28.9365,36.7246,0.0],[28.9338,36.724,0.0],[28.9351,36.7199,6.056],[28.9385,36.7176,3.5463],[28.9446,36.7218,0.0],[28.9457,36.7254,4.9053],[28.9504,36.7254,0.0],[28.9488,36.7279,8.4656],[28.9454,36.729,0.0],[28.9465,36.7318,0.0],[28.941,36.736,7.9844]]],
[[[28.0362,36.5549,0.0],[28.0365,36.5582,0.0],[28.0351,36.559,0.0],[28.0343,36.5568,10.2212],[28.0362,36.5549,0.0]]],
[[[28.0401,36.5621,4.3328],[28.0407,36.5635,4.3328],[28.0365,36.5629,8.7707],[28.0357,36.561,1.0373],[28.0376,36.561,4.6275],[28.0401,36.5621,4.3328]]],
[[[28.0576,36.6179,10.3335],[28.0554,36.619,0.0],[28.0529,36.6135,0.0],[28.0554,36.6143,1.6555],[28.0576,36.6179,10.3335]]],
[[[28.0537,36.6232,0.0],[28.0532,36.6268,0.0],[28.0521,36.6274,0.0],[28.0507,36.6243,0.0],[28.0537,36.6232,0.0]]],
[[[28.056,36.6485,13.0358],[28.0546,36.6501,0.0],[28.0504,36.6501,3.0276],[28.0488,36.6482,0.0],[28.0515,36.6488,3.0276],[28.056,36.6463,0.0],[28.0601,36.6474,9.0193],[28.0599,36.649,0.0],[28.056,36.6485,13.0358]]],
[[[28.0365,36.6671,0.0],[28.036,36.6712,0.0],[28.0343,36.6668,33.5326],[28.0299,36.6643,9.1566],[28.0276,36.6599,37.9594],[28.029,36.6576,5.1198],[28.034,36.6579,85.2272],[28.0368,36.651,14.1185],[28.0415,36.6496,8.221],[28.046,36.6535,5.4252],[28.0462,36.6563,0.0],[28.0426,36.6565,13.421],[28.0435,36.6613,0.0],[28.0396,36.6632,50.2897],[28.0365,36.6671,0.0]]],
[[[28.0124,36.6671,17.1583],[28.0143,36.6668,0.0],[28.0143,36.6701,15.9356],[28.0115,36.6696,13.0572],[28.0124,36.6671,17.1583]]],
[[[28.041,36.6704,13.1738],[28.0421,36.6732,0.0],[28.0393,36.6721,0.0],[28.0401,36.6685,0.0],[28.0418,36.6688,13.1738],[28.041,36.6704,13.1738]]],
[[[28.0451,36.6835,0.0],[28.0432,36.6835,12.8257],[28.0426,36.6818,0.0],[28.0451,36.6826,0.0],[28.0451,36.6835,0.0]]],
[[[27.9979,36.709,22.575],[27.9965,36.7101,4.478],[27.9946,36.7082,9.8238],[27.9965,36.7071,9.8238],[27.9979,36.709,22.575]]],
[[[28.0026,36.7188,12.8046],[28.001,36.7201,12.8046],[27.9999,36.7179,0.0],[28.0046,36.7132,3.7766],[28.0043,36.7179,14.8083],[28.0026,36.7188,12.8046]]],
[[[28.0335,36.7243,62.075],[28.0338,36.7265,0.0],[28.0265,36.7243,3.7099],[28.0179,36.7243,11.1896],[28.0151,36.7224,0.0],[28.0168,36.7193,1.6955],[28.0126,36.7196,0.0],[28.0121,36.7165,0.0],[28.0149,36.7149,0.0],[28.0149,36.7118,0.0],[28.0176,36.7124,2.3369],[28.0221,36.7157,26.7948],[28.0318,36.7179,0.0],[28.0335,36.7243,62.075]]],
[[[28.0532,36.7343,0.0],[28.0521,36.7354,41.4907],[28.0468,36.7346,6.3848],[28.0471,36.7326,10.8716],[28.0529,36.7301,22.2415],[28.0451,36.7251,1.4032],[28.0546,36.7243,0.0],[28.0607,36.7265,0.0],[28.0665,36.7337,0.0],[28.0654,36.7349,0.0],[28.0607,36.7335,62.7831],[28.0532,36.7343,0.0]]],
[[[28.0599,36.7604,4.6272],[28.0596,36.7618,12.2662],[28.0571,36.7618,2.9155],[28.056,36.7596,0.0],[28.0585,36.7593,4.6272],[28.0599,36.7604,4.6272]]],
[[[28.0374,36.7599,0.0],[28.0374,36.761,0.0],[28.0332,36.7621,0.0],[28.0335,36.7601,0.0],[28.0374,36.7599,0.0]]],
[[[28.1257,36.7618,13.7119],[28.1235,36.7629,1.3109],[28.1243,36.761,13.7119],[28.1265,36.7601,0.0],[28.1271,36.7618,0.0],[28.1257,36.7618,13.7119]]],
[[[27.5118,36.6621,0.0],[27.5099,36.6629,4.523],[27.5076,36.6593,0.0],[27.5093,36.6576,12.6322],[27.5093,36.6546,0.0],[27.5115,36.6571,0.0],[27.5118,36.6621,0.0]]],
[[[27.9896,36.7032,22.7305],[27.9876,36.7049,0.0],[27.9874,36.7018,0.0],[27.9899,36.701,0.0],[27.9896,36.7032,22.7305]]],
[[[27.9662,36.7521,21.1013],[27.9618,36.7529,0.0],[27.9626,36.7504,0.0],[27.9649,36.7496,0.0],[27.9662,36.7521,21.1013]]],
[[[27.4068,36.7415,1.2928],[27.404,36.7426,1.2461],[27.4043,36.7412,1.4558],[27.414,36.7376,1.1426],[27.4115,36.7399,6.7456],[27.4068,36.7415,1.2928]]],
[[[27.4699,36.7693,0.0],[27.4682,36.7707,0.0],[27.4674,36.7704,0.0],[27.4688,36.7682,0.0],[27.4699,36.7693,0.0]]],
[[[27.4624,36.774,4.2727],[27.4593,36.7751,3.1863],[27.4585,36.7738,3.1863],[27.4643,36.7707,0.0],[27.4646,36.7724,0.0],[27.4624,36.774,4.2727]]],
[[[27.306,36.9504,0.0],[27.3062,36.9524,0.0],[27.3035,36.9518,0.0],[27.3046,36.9499,0.0],[27.306,36.9504,0.0]]],
[[[27.4313,36.9965,2.2747],[27.4243,36.9968,2.0214],[27.4249,36.9901,2.5851],[27.429,36.9893,39.293],[27.4301,36.9876,5.3848],[27.4357,36.9874,15.4207],[27.4376,36.9843,6.4917],[27.4429,36.9813,3.4819],[27.4457,36.9765,2.1113],[27.4457,36.9699,0.0],[27.4515,36.9701,7.8172],[27.4599,36.9635,0.0],[27.4613,36.966,12.9967],[27.4679,36.9657,19.2813],[27.469,36.9629,0.0],[27.4718,36.9624,16.445],[27.4729,36.9599,0.0],[27.4751,36.9607,10.2962],[27.4765,36.9579,1.0872],[27.479,36.9596,3.7199],[27.4799,36.9626,15.1617],[27.4868,36.9599,0.0],[27.4882,36.9637,12.9236],[27.4926,36.9674,0.0],[27.4915,36.9721,0.0],[27.484,36.9776,0.0],[27.474,36.9804,4.7506],[27.471,36.9799,21.2979],[27.4529,36.9854,38.3348],[27.4313,36.9965,2.2747]]],
[[[27.2329,36.9832,6.106],[27.2324,36.9868,4.0361],[27.2301,36.9868,3.0629],[27.2293,36.9826,7.2841],[27.2332,36.9815,0.0],[27.2329,36.9832,6.106]]],
[[[27.1993,36.9918,0.0],[27.199,36.9932,0.0],[27.1957,36.9935,0.0],[27.1965,36.9915,0.0],[27.1993,36.9918,0.0]]],
[[[27.3868,37.0001,0.0],[27.3871,37.0013,2.5737],[27.3846,37.0018,4.0055],[27.3818,36.9957,5.2591],[27.3796,36.9949,10.4003],[27.384,36.9901,0.0],[27.3851,36.9907,14.5326],[27.3868,37.0001,0.0]]],
[[[27.2213,37.0121,0.0],[27.2199,37.0135,14.3524],[27.2176,37.0124,0.0],[27.216,37.0099,0.0],[27.2168,37.0062,1.3573],[27.2149,37.0062,3.0467],[27.2096,36.9999,15.3728],[27.2062,36.9982,1.1161],[27.2032,36.9987,0.0],[27.2035,36.9976,0.0],[27.2049,36.9963,0.0],[27.2093,36.9963,0.0],[27.2118,36.999,7.4227],[27.215699999999998,36.9985,0.0],[27.2179,37.0065,1.3573],[27.2243,37.0082,5.0754],[27.2213,37.0121,0.0]]],
[[[27.1826,37.0043,6.4616],[27.1835,37.0057,3.3541],[27.1799,37.006,1.9274],[27.1804,37.0043,3.7645],[27.1826,37.0043,6.4616]]],
[[[27.3615,37.0093,0.0],[27.3601,37.0107,0.0],[27.3568,37.0101,2.5832],[27.3593,37.006,0.0],[27.3621,37.0071,3.2115],[27.3615,37.0093,0.0]]],
[[[27.2043,37.0493,7.2839],[27.2035,37.051,0.0],[27.1982,37.0499,0.0],[27.2021,37.046,2.5182],[27.204,37.0465,0.0],[27.2043,37.0493,7.2839]]],
[[[27.5921,36.9793,1.8896],[27.5888,36.9801,4.8337],[27.5876,36.9774,23.0749],[27.5885,36.9732,1.7801],[27.5918,36.9721,24.3878],[27.5918,36.9685,0.0],[27.5957,36.9701,5.7564],[27.5979,36.9676,2.4328],[27.6021,36.9665,0.0],[27.5979,36.9696,0.8246],[27.5985,36.9715,0.0],[27.5971,36.9726,3.4317],[27.6001,36.9754,0.0],[27.596,36.9785,5.8445],[27.5926,36.9768,29.0771],[27.5921,36.9793,1.8896]]],
[[[27.5785,36.9785,0.0],[27.5785,36.9768,0.0],[27.5815,36.9782,0.0],[27.5815,36.9787,0.0],[27.5785,36.9785,0.0]]],
[[[27.6568,36.9787,0.0],[27.6557,36.9799,1.8565],[27.6551,36.9799,1.8565],[27.6574,36.9776,0.0],[27.6568,36.9787,0.0]]],
[[[27.2146,37.0885,4.157],[27.2135,37.0899,0.5777],[27.2085,37.0899,0.0],[27.204,37.0824,0.0],[27.2062,37.0807,2.011],[27.2096,37.0812,2.5217],[27.2138,37.0843,1.316],[27.2146,37.0885,4.157]]],
[[[27.2379,37.0896,1.6826],[27.2357,37.0907,0.0],[27.2321,37.0887,0.0],[27.2363,37.086,1.2688],[27.2412,37.0876,0.6399],[27.2379,37.0896,1.6826]]],
[[[27.4757,37.1226,2.8972],[27.4749,37.124,0.0],[27.4724,37.1232,18.082],[27.469,37.1188,1.6624],[27.4729,37.1185,0.0],[27.4757,37.1226,2.8972]]],
[[[27.2579,37.131,0.0],[27.2579,37.1329,0.0],[27.2563,37.1338,0.0],[27.2554,37.1318,0.0],[27.2579,37.131,0.0]]],
[[[27.4815,37.1271,19.7127],[27.4821,37.1304,14.5683],[27.4807,37.1307,0.0],[27.4779,37.129,0.0],[27.4765,37.1257,5.1421],[27.4804,37.1249,0.0],[27.4815,37.1271,19.7127]]],
[[[27.5338,37.1638,0.0],[27.5315,37.1651,1.6699],[27.5299,37.1615,19.4524],[27.5265,37.1629,4.2146],[27.5235,37.1613,7.6442],[27.5199,37.1629,4.1133],[27.5171,37.1585,35.4093],[27.5149,37.1593,0.0],[27.511,37.1571,2.0126],[27.5076,37.1529,6.1699],[27.5051,37.1532,18.7057],[27.5024,37.1576,1.9666],[27.4971,37.1582,9.4956],[27.4943,37.1565,0.0],[27.4943,37.1546,0.0],[27.4971,37.151,11.6186],[27.4899,37.1413,0.0],[27.5015,37.1407,0.0],[27.5079,37.1476,9.8884],[27.5121,37.1476,3.9591],[27.5138,37.1496,5.5542],[27.5179,37.1504,14.901],[27.5176,37.1457,23.7048],[27.5201,37.1437,4.9366],[27.5204,37.1415,0.0],[27.5287,37.1413,1.9811],[27.5324,37.1482,2.5687],[27.531,37.1507,8.5448],[27.5357,37.1515,0.0],[27.5338,37.1554,0.0],[27.5335,37.1613,4.8872],[27.5365,37.1615,0.0],[27.5338,37.1638,0.0]]],
[[[27.5229,37.1957,0.0],[27.5221,37.1971,0.0],[27.519,37.1971,0.0],[27.521,37.1957,1.4301],[27.5229,37.1957,0.0]]],
[[[27.3946,37.1393,0.0],[27.3882,37.1404,9.8296],[27.3854,37.1396,0.0],[27.3851,37.1376,0.0],[27.389,37.1363,0.0],[27.3946,37.1393,0.0]]],
[[[27.3654,37.1738,0.0],[27.3629,37.1751,3.3784],[27.3613,37.1743,0.7044],[27.366,37.1674,3.328],[27.3674,37.1624,19.3979],[27.3724,37.1613,0.0],[27.379,37.1632,0.0],[27.3782,37.1676,0.0],[27.3713,37.1693,0.0],[27.3685,37.1738,0.0],[27.3654,37.1738,0.0]]],
[[[27.3596,37.1757,0.0],[27.3546,37.1771,0.0],[27.354,37.1724,0.0],[27.3604,37.174,0.0],[27.3596,37.1757,0.0]]],
[[[27.3671,37.2818,0.0],[27.3696,37.2821,0.0],[27.3704,37.2849,0.0],[27.366,37.2846,0.0],[27.3632,37.2804,0.0],[27.3654,37.2799,0.0],[27.3671,37.2818,0.0]]],
[[[27.551,37.2018,0.0],[27.5496,37.2026,0.0],[27.5507,37.1985,0.0],[27.5524,37.1979,0.0],[27.5526,37.199,0.0],[27.551,37.2018,0.0]]],
[[[27.551,37.2529,3.6688],[27.5479,37.2538,0.0],[27.5476,37.2524,0.0],[27.5579,37.2454,0.0],[27.5637,37.2446,1.1848],[27.5637,37.2471,0.0],[27.5615,37.2465,5.7151],[27.551,37.2529,3.6688]]],
[[[27.5607,37.2543,0.0],[27.5599,37.2551,0.5476],[27.5588,37.2551,0.5476],[27.5613,37.2532,0.0],[27.5607,37.2543,0.0]]]]}
,"properties": {"GID_1": "TUR.59_1","GID_0": "TUR","country": "Turkey","province": "Mugla","VARNAME_1": "Muğla","NL_NAME_1": "NA","TYPE_1": "Il","ENGTYPE_1": "Province","CC_1": "NA","HASC_1": "TR.MG","ISO_1": "TR-48","name": "Mugla.province","area_km2": 12825.775,"hist_schema_id": "Elevation0-9000","hist_area_km2": {"0": 608.471,"25": 491.421,"50": 386.86,"75": 383.92,"100": 380.745,"125": 342.324,"150": 343.111,"175": 348.151,"200": 322.338,"225": 297.659,"250": 279.738,"275": 266.825,"300": 262.799,"325": 260.311,"350": 244.299,"375": 224.051,"400": 207.541,"425": 200.64,"450": 214.202,"475": 230.591,"500": 228.508,"525": 224.156,"550": 220.35,"575": 222.011,"600": 229.882,"625": 259.926,"650": 239.58,"675": 221.172,"700": 205.957,"725": 197.28,"750": 193.122,"775": 183.231,"800": 170.04,"825": 160.761,"850": 158.288,"875": 158.417,"900": 155.006,"925": 154.607,"950": 145.791,"975": 136.585,"1000": 128.39,"1025": 123.253,"1050": 121.338,"1075": 115.195,"1100": 111.101,"1125": 128.649,"1150": 135.468,"1175": 115.353,"1200": 108.882,"1225": 104.793,"1250": 101.219,"1275": 101.012,"1300": 90.706,"1325": 88.596,"1350": 82.651,"1375": 77.012,"1400": 73.898,"1425": 68.603,"1450": 61.481,"1475": 57.296,"1500": 53.809,"1525": 51.949,"1550": 45.297,"1575": 39.592,"1600": 36.987,"1625": 33.109,"1650": 31.961,"1675": 31.862,"1700": 27.746,"1725": 27.461,"1750": 26.177,"1775": 22.94,"1800": 22.398,"1825": 20.923,"1850": 20.486,"1875": 18.708,"1900": 17.22,"1925": 15.438,"1950": 15.068,"1975": 13.81,"2000": 11.471,"2025": 9.809,"2050": 8.436,"2075": 7.91,"2100": 6.841,"2125": 8.744,"2150": 7.266,"2175": 6.994,"2200": 6.538,"2225": 6.281,"2250": 4.618,"2275": 3.532,"2300": 2.598,"2325": 2.157,"2350": 1.274,"2375": 1.02,"2400": 0.595,"2425": 0.238,"2450": 0.136,"2475": 0.17,"2500": 0.187,"2525": 0.136,"2550": 0.153,"2600": 0.102}}}