{"type": "Feature","id": "2278","bbox": [27.22877,36.29358,29.68887,37.57745],"geometry": {"type": "MultiPolygon","coordinates": [[[[28.12884,36.59915,21.2737],[28.12517,36.6009,0.0],[28.12265,36.5987,48.2258],[28.12639,36.59695,23.8323],[28.12884,36.59915,21.2737]]],
[[[28.9157,36.68289,0.0],[28.91147,36.68069,0.0],[28.90854,36.6671,0.0],[28.91538,36.6555,75.1215],[28.91993,36.65957,94.2103],[28.92644,36.66669,63.3615],[28.9288,36.66962,0.0],[28.93596,36.67129,9.7081],[28.93841,36.67605,0.0],[28.92465,36.67975,0.0],[28.92001,36.67886,18.1124],[28.9157,36.68289,0.0]]],
[[[27.4808,36.96182,0.0],[27.49024,36.96601,47.9618],[27.49065,36.97285,0.0],[27.4808,36.97875,2.4989],[27.4725,36.98184,0.0],[27.46184,36.98375,0.0],[27.45232,36.98729,0.0],[27.4402,36.99262,0.0],[27.43092,36.99677,2.2747],[27.42351,36.99177,0.0],[27.42701,36.98933,6.2026],[27.43507,36.98591,0.0],[27.44231,36.97936,0.0],[27.44581,36.97,0.0],[27.45354,36.96792,0.0],[27.45997,36.96581,12.9967],[27.46648,36.96454,0.0],[27.47429,36.95881,4.2874],[27.47714,36.95816,1.0872],[27.4808,36.96182,0.0]]],
[[[28.62082,37.46045,484.9903],[28.60893,37.47748,389.7029],[28.47819,37.49167,1013.5388],[28.40481,37.52301,1062.0195],[28.34259,37.56538,962.5393],[28.26993,37.57745,1274.2329],[28.21609,37.54727,694.259],[28.18074,37.49236,359.7334],[28.14136,37.46676,370.5555],[28.01982,37.45978,892.8545],[27.94975,37.46242,834.9291],[27.90727,37.47993,620.9583],[27.86128,37.47978,532.6509],[27.81611,37.47084,565.4496],[27.77043,37.4766,1079.3524],[27.70005,37.51495,694.0532],[27.61964,37.52438,855.3193],[27.58119,37.53567,707.4558],[27.54584,37.5545,223.7996],[27.51246,37.55306,231.7338],[27.48114,37.53916,162.6975],[27.46895,37.52192,43.9729],[27.41541,37.42893,242.3888],[27.40345,37.41258,0.0],[27.40349,37.41258,0.0],[27.40724,37.41275,0.0],[27.42652,37.40595,0.0],[27.43849,37.39081,24.6555],[27.41521,37.38166,59.3959],[27.39674,37.36563,0.0],[27.38868,37.34528,18.2224],[27.39682,37.32315,21.2858],[27.4183,37.30948,74.9798],[27.44614,37.30561,13.7106],[27.46852,37.31562,0.0],[27.47267,37.3437,0.0],[27.48015,37.3437,22.4904],[27.49138,37.32734,0.0],[27.49,37.31379,0.0],[27.48512,37.30305,0.0],[27.48634,37.29523,9.1241],[27.46795,37.277,0.0],[27.46144,37.26752,0.0],[27.45883,37.258,104.6383],[27.46363,37.25202,0.0],[27.47364,37.25642,19.8695],[27.48316,37.26411,0.0],[27.48634,37.26789,14.5499],[27.5088,37.26805,0.0],[27.51987,37.2591,9.0773],[27.51775,37.246,14.514],[27.50001,37.23383,6.8204],[27.51466,37.22932,0.0],[27.53053,37.23631,0.0],[27.54322,37.24982,22.9299],[27.54835,37.26484,14.478],[27.55323,37.27294,15.9309],[27.56479,37.27554,1.6992],[27.58937,37.27473,0.0],[27.59156,37.277,0.0],[27.59205,37.28107,0.0],[27.59441,37.28384,0.0],[27.60304,37.28217,2.5092],[27.60377,37.28148,25.939],[27.61598,37.27473,10.4405],[27.61402,37.26752,31.5424],[27.6128,37.25462,65.4791],[27.60987,37.24746,50.4749],[27.60426,37.24225,18.773],[27.59164,37.23505,12.2977],[27.58937,37.2307,26.0522],[27.58855,37.21113,108.0508],[27.59425,37.20429,26.6153],[27.60987,37.19965,-0.0728],[27.59474,37.18594,0.0],[27.58668,37.18146,0.0],[27.57553,37.17853,-0.0989],[27.58766,37.1988,1.4267],[27.57472,37.20116,109.1482],[27.52784,37.19282,5.4447],[27.52784,37.18537,0.0],[27.53956,37.17829,0.0],[27.54721,37.16181,123.2561],[27.55454,37.13011,0.0],[27.55909,37.13434,0.0],[27.56235,37.13581,4.3871],[27.57553,37.1376,0.0],[27.57553,37.13011,9.9441],[27.56511,37.12564,55.0384],[27.54151,37.12596,28.0198],[27.53102,37.12084,0.0],[27.52223,37.11498,30.7313],[27.50131,37.10749,1.936],[27.47511,37.09252,0.0],[27.45981,37.0895,0.0],[27.44557,37.09699,12.2164],[27.431,37.11774,2.6716],[27.43336,37.1197,0.0],[27.43491,37.12035,0.0],[27.43621,37.12124,0.0],[27.43849,37.12397,0.0],[27.42547,37.11961,69.7927],[27.41822,37.12124,0.0],[27.41245,37.12568,27.2126],[27.40431,37.13011,38.4974],[27.39381,37.1308,0.0],[27.38657,37.13007,0.0],[27.38299,37.13471,0.0],[27.38331,37.15184,0.0],[27.38111,37.14948,0.0],[27.38054,37.1481,0.0],[27.37941,37.14667,0.0],[27.37648,37.14444,13.4991],[27.36931,37.1507,9.863],[27.36158,37.14863,0.0],[27.35426,37.14086,57.2602],[27.34897,37.13011,11.4904],[27.3423,37.13011,2.6168],[27.34303,37.14179,0.0],[27.33961,37.15054,0.0],[27.33253,37.1562,8.4698],[27.32179,37.15868,0.0],[27.32472,37.14785,0.0],[27.3235,37.13886,52.9564],[27.3213,37.13109,81.4336],[27.32179,37.12397,63.069],[27.30299,37.11957,0.0],[27.27166,37.12885,86.9918],[27.26043,37.11774,47.6502],[27.25294,37.12397,0.0],[27.25489,37.11652,27.0317],[27.2566,37.11367,42.6356],[27.26043,37.1103,0.0],[27.27003,37.11603,26.1057],[27.27906,37.11758,0.0],[27.28745,37.11542,0.0],[27.29444,37.1103,2.5011],[27.28191,37.09833,12.3945],[27.26417,37.08902,28.1548],[27.24773,37.08344,0.0],[27.23911,37.08295,4.9232],[27.22877,37.06184,0.0],[27.23243,37.04731,0.9713],[27.24122,37.03437,0.0],[27.2461,37.01777,0.0],[27.24741,37.00023,0.0],[27.2527,36.97834,0.0],[27.26319,36.96336,0.0],[27.28094,36.96686,21.1061],[27.28696,36.95942,6.1599],[27.29396,36.96162,0.0],[27.299,36.96149,43.6357],[27.30812,36.95942,0.0],[27.30543,36.96328,0.0],[27.30063,36.97309,0.5551],[27.31463,36.97712,0.0],[27.32651,36.98599,0.0],[27.33269,36.99706,0.0],[27.32862,37.00788,14.8401],[27.32862,37.01411,5.0738],[27.34099,37.01846,0.0],[27.36744,37.02277,6.6237],[27.37648,37.02774,0.9549],[27.37989,37.0209,2.6534],[27.38168,37.01895,55.9176],[27.38087,37.01797,11.7956],[27.37648,37.01411,0.0],[27.37794,37.0102,4.3079],[27.37989,37.00918,20.7126],[27.38185,37.00898,23.836],[27.38331,37.00788,27.72],[27.38063,37.00243,8.3965],[27.37892,37.00072,28.9158],[27.37941,36.99897,0.0],[27.38331,36.9936,22.78],[27.39479,37.0183,0.0],[27.39682,37.02774,0.0],[27.40431,37.02774,0.0],[27.40235,37.02387,4.0689],[27.40805,37.01683,0.0],[27.42351,37.02717,0.0],[27.43849,37.02774,0.0],[27.44483,37.02253,22.9411],[27.46274,37.00113,0.0],[27.47267,36.9936,0.0],[27.48373,36.99079,37.286],[27.51417,36.9936,0.0],[27.52833,36.99128,0.0],[27.53875,36.98672,0.0],[27.56202,36.97309,0.0],[27.56715,36.99665,41.6197],[27.59034,36.99828,76.9164],[27.61801,36.98924,129.6216],[27.63649,36.98054,46.2916],[27.65577,36.99653,23.4204],[27.68767,37.00544,81.0472],[27.71974,37.00519,15.769],[27.73951,36.9936,0.0],[27.75123,36.99689,5.2602],[27.76287,36.9973,57.7493],[27.77296,36.99584,26.2879],[27.78045,36.9936,2.2739],[27.78639,37.00357,11.4487],[27.78785,37.00788,26.4521],[27.79412,37.00788,22.769],[27.8047,37.00458,106.2361],[27.88624,37.02619,0.0],[27.91139,37.02774,3.6585],[27.94093,37.0222,0.8906],[27.95183,37.02147,2.7432],[27.96315,37.02359,2.6211],[27.9756,37.03229,2.5722],[27.98658,37.03514,241.7287],[28.09295,37.02143,6.8156],[28.11004,37.01411,30.1727],[28.11004,37.02147,65.7909],[28.10727,37.03213,0.0],[28.12623,37.03587,133.2923],[28.17433,37.03514,39.5195],[28.3047,37.05085,89.4272],[28.31495,37.04881,15.1643],[28.32276,37.04385,0.0],[28.32936,37.03677,0.067],[28.3296,37.03046,-0.0309],[28.30006,37.02497,0.0],[28.24659,37.00788,0.0],[28.2531,36.99372,0.0],[28.24464,36.98819,87.0263],[28.22853,36.99055,75.4952],[28.21241,37.00043,0.0],[28.20688,36.99018,0.0],[28.1989,36.98054,3.7554],[28.21241,36.98054,27.7324],[28.21241,36.97309,33.5084],[28.20509,36.96629,84.6678],[28.18523,36.93891,73.1997],[28.18067,36.9433,83.2113],[28.17449,36.94599,7.4336],[28.16651,36.94693,41.1359],[28.15724,36.94579,4.789],[28.15724,36.93891,0.0],[28.16424,36.93618,38.0422],[28.16814,36.93342,42.421],[28.16847,36.93016,3.3795],[28.16529,36.92593,0.0],[28.16717,36.9208,2.9942],[28.16847,36.91889,4.9842],[28.16814,36.91682,3.2853],[28.16529,36.91161,0.0],[28.15919,36.92463,5.4467],[28.15724,36.93211,0.0],[28.1517,36.93211,0.0],[28.14194,36.9287,0.0],[28.12013,36.93769,0.0],[28.11004,36.93211,50.6847],[28.10328,36.93211,41.1426],[28.09816,36.93622,0.0],[28.09352,36.93789,0.0],[28.08855,36.93667,129.5166],[28.0822,36.93211,45.0008],[28.07504,36.9374,109.5896],[28.06544,36.93928,0.0],[28.04184,36.93891,0.0],[28.04184,36.93211,0.0],[28.0617,36.93211,49.981],[28.0617,36.92593,42.9199],[28.05323,36.9265,0.0],[28.0359,36.92544,0.0],[28.02752,36.92593,0.0],[28.0311,36.92133,17.5993],[28.03321,36.91767,0.0],[28.0359,36.91462,0.0],[28.04184,36.91161,4.5418],[28.03443,36.9042,81.5429],[28.02125,36.91161,0.0],[28.02752,36.90253,77.9772],[28.03549,36.89338,0.0],[28.05543,36.8769,19.9974],[28.05543,36.87067,14.9398],[28.04493,36.86725,0.0],[28.03631,36.86262,27.0672],[28.02866,36.86017,0.0],[28.02125,36.86323,0.0],[28.01734,36.86107,17.3124],[28.0145,36.85908,0.0],[28.01157,36.85765,0.0],[28.00701,36.857,0.0],[28.01873,36.84862,28.5082],[28.02459,36.8391,8.1228],[28.02329,36.83324,56.139],[28.01385,36.83592,46.3266],[28.00701,36.82909,0.0],[28.02573,36.8288,14.0144],[28.03956,36.82665,0.0],[28.04908,36.82062,0.0],[28.05543,36.80858,0.0],[28.03688,36.79735,0.0],[28.03077,36.79173,0.0],[28.02752,36.78132,60.6287],[28.01051,36.79434,7.2013],[27.99415,36.79841,1.2972],[27.95924,36.79499,52.3887],[27.93995,36.79564,63.9317],[27.91969,36.79971,0.0],[27.90366,36.80581,38.6143],[27.89715,36.81232,0.0],[27.88649,36.80882,0.0],[27.79908,36.80663,0.0],[27.78566,36.80109,68.1062],[27.76002,36.78132,100.6264],[27.74822,36.78441,46.9786],[27.7352,36.78242,54.1155],[27.7212,36.78168,24.8753],[27.70541,36.78876,0.0],[27.69117,36.78433,85.4044],[27.64536,36.80646,25.3227],[27.62338,36.80174,0.0],[27.61785,36.78962,0.0],[27.61695,36.77619,0.0],[27.6115,36.76533,1.2155],[27.59246,36.76081,181.7349],[27.55665,36.76268,0.0],[27.48316,36.75397,0.0],[27.45883,36.75568,122.1107],[27.44955,36.75397,0.0],[27.43849,36.74714,89.5732],[27.42726,36.73566,175.3251],[27.42311,36.71967,3.4658],[27.41432,36.7093,61.4197],[27.40162,36.70474,0.0],[27.38478,36.70502,15.8014],[27.36834,36.70824,5.1311],[27.3558,36.71239,0.0],[27.3558,36.7062,0.0],[27.36402,36.70258,9.2824],[27.36866,36.69741,0.0],[27.36866,36.69135,0.0],[27.3628,36.68513,0.0],[27.36638,36.68448,32.5906],[27.36915,36.68448,63.3251],[27.37062,36.68317,55.5089],[27.37029,36.6789,0.0],[27.38299,36.68476,0.0],[27.39405,36.68415,97.2452],[27.40203,36.67748,0.0],[27.40431,36.66523,54.2065],[27.41578,36.66901,70.9847],[27.42563,36.66865,0.0],[27.44842,36.66523,52.5681],[27.45574,36.66291,77.0662],[27.46803,36.65298,2.09],[27.47267,36.65095,0.0],[27.47771,36.65347,41.1263],[27.48194,36.65835,156.6839],[27.48634,36.66523,197.6748],[27.55454,36.68513,13.3686],[27.55974,36.67463,0.0],[27.57032,36.67381,0.0],[27.58513,36.67707,0.0],[27.60304,36.6789,0.0],[27.61988,36.67646,46.347],[27.63795,36.67133,0.0],[27.67115,36.65778,0.0],[27.67311,36.67963,41.1952],[27.68686,36.71113,22.1686],[27.68426,36.71988,17.9709],[27.68426,36.72671,7.3576],[27.6985,36.7342,5.5493],[27.71941,36.75625,0.0],[27.73609,36.76081,0.0],[27.75172,36.75922,0.0],[27.7645,36.7565,0.0],[27.77605,36.75593,7.0711],[27.78785,36.76081,21.7479],[27.78785,36.75397,0.0],[27.80649,36.76081,0.0],[27.82618,36.75747,0.0],[27.84376,36.74893,87.153],[27.85621,36.74038,0.0],[27.86305,36.74038,0.0],[27.87037,36.75259,60.8796],[27.8768,36.7508,0.0],[27.88315,36.74384,0.0],[27.89031,36.74038,0.0],[27.89772,36.74535,34.1128],[27.90545,36.75288,0.0],[27.91245,36.75414,20.3038],[27.91765,36.74038,0.0],[27.9323,36.74657,73.4761],[27.94467,36.75625,134.556],[27.95411,36.75959,2.8406],[27.95924,36.74714,0.0],[27.96608,36.74714,0.0],[27.98072,36.75381,0.0],[28.0197,36.76313,5.2432],[28.03443,36.77509,81.4213],[28.03932,36.76447,0.0],[28.04721,36.76333,3.5425],[28.0691,36.77509,0.0],[28.08627,36.7967,12.5219],[28.09498,36.80142,17.1629],[28.1067,36.80296,0.0],[28.11842,36.8006,0.0],[28.12371,36.7919,0.0],[28.12525,36.77131,0.0],[28.13054,36.75397,0.0993],[28.11752,36.76386,55.7574],[28.11345,36.76822,0.0],[28.11004,36.77509,0.0],[28.10328,36.76765,11.3064],[28.09164,36.75934,0.0],[28.08416,36.75373,0.0],[28.0822,36.74714,0.0],[28.08766,36.74087,1.1432],[28.10743,36.7392,40.3704],[28.11687,36.73355,0.0],[28.11638,36.71882,10.9559],[28.1006,36.70962,0.0],[28.08595,36.7106,28.1659],[28.08961,36.72671,0.0],[28.07976,36.72207,116.5549],[28.04184,36.71988,0.0],[28.04249,36.71845,0.0],[28.03826,36.71406,0.0],[28.03224,36.70921,0.0],[28.02752,36.7062,0.0],[28.02133,36.70506,117.9432],[28.00017,36.7062,0.0],[28.00701,36.69937,0.0],[27.9712,36.69253,0.0],[27.96608,36.68879,0.0],[27.97023,36.67984,49.0444],[27.98015,36.67585,140.2921],[27.99147,36.67585,118.2145],[28.00017,36.6789,65.6385],[28.00733,36.6752,88.7165],[28.01889,36.67133,59.4055],[28.02963,36.67036,0.0],[28.03443,36.6752,18.1973],[28.03533,36.68757,1.4047],[28.03793,36.69062,5.3711],[28.04802,36.68513,0.0],[28.05795,36.67666,89.933],[28.06121,36.66474,0.0],[28.05779,36.65278,0.0],[28.04802,36.64411,0.0],[28.04802,36.63788,0.0],[28.05665,36.64301,0.0],[28.07594,36.65778,0.0],[28.08961,36.64411,0.0],[28.07537,36.63125,0.0],[28.06544,36.61953,0.0],[28.05397,36.60961,0.0],[28.03443,36.60253,34.4764],[27.95924,36.60253,0.0],[27.96461,36.59565,25.1837],[27.96762,36.5926,0.0],[27.97291,36.5895,4.0991],[27.97088,36.58641,0.0],[27.96803,36.57892,62.6741],[27.96608,36.57587,0.0],[27.97771,36.56574,0.0],[27.9909,36.55976,0.0],[28.00367,36.56192,0.0],[28.01385,36.57587,2.0825],[28.01832,36.56704,0.0],[28.02589,36.56371,17.1292],[28.0359,36.56476,0.0],[28.04802,36.56904,0.0],[28.04615,36.5725,60.9323],[28.04396,36.57949,10.9989],[28.04184,36.58271,204.0775],[28.05063,36.58466,33.6733],[28.05502,36.58657,110.6463],[28.05787,36.58999,66.2528],[28.0617,36.59634,133.4277],[28.08815,36.58906,175.4892],[28.1115,36.60419,238.0388],[28.13071,36.62897,162.2289],[28.1443,36.65095,2.1629],[28.16228,36.67267,0.0],[28.1819,36.68464,70.3504],[28.23357,36.69937,0.0],[28.23162,36.70458,0.0],[28.23032,36.70474,4.0361],[28.22543,36.7062,262.7631],[28.2295,36.7093,155.71],[28.23194,36.71186,220.9804],[28.23325,36.71503,39.0331],[28.23357,36.71988,175.3452],[28.24,36.71548,0.0],[28.24659,36.71239,6.8442],[28.2531,36.72785,12.047],[28.26726,36.7309,55.3205],[28.28305,36.72663,57.2439],[28.2951,36.71988,0.0],[28.28858,36.74258,150.8204],[28.24887,36.76683,33.4677],[28.25343,36.78876,168.5004],[28.23951,36.79881,35.4574],[28.23666,36.81322,107.3482],[28.24317,36.82978,7.6058],[28.25717,36.84618,6.7528],[28.27312,36.852,6.5613],[28.28858,36.84589,5.9505],[28.30274,36.83568,61.7497],[28.31495,36.82909,2.0299],[28.31495,36.82225,0.0],[28.28891,36.81843,0.0],[28.27833,36.81415,2.6844],[28.27394,36.80516,3.202],[28.27817,36.79645,51.1693],[28.28858,36.79369,24.6029],[28.31495,36.79499,1.9008],[28.31284,36.80036,0.0],[28.30877,36.81607,0.0],[28.31495,36.81607,1.3514],[28.32496,36.81013,0.0],[28.37696,36.78876,0.0],[28.39601,36.7895,232.0945],[28.4065,36.79975,115.5894],[28.41424,36.8146,160.1875],[28.42482,36.82909,38.5838],[28.41472,36.8371,0.8863],[28.40512,36.83755,43.552],[28.39674,36.83539,7.8745],[28.39064,36.83592,0.0],[28.3838,36.84138,0.0],[28.37745,36.84837,20.6923],[28.37672,36.85444,158.2053],[28.38722,36.857,35.1311],[28.41619,36.85969,99.6232],[28.43621,36.86473,165.368],[28.44516,36.87377,8.464],[28.44744,36.88304,2.9703],[28.452,36.88361,6.2969],[28.45672,36.87751,0.0],[28.45883,36.86693,0.0],[28.46013,36.86376,0.0],[28.46258,36.86205,0.0],[28.46518,36.85936,0.0],[28.46632,36.85334,7.3386],[28.46412,36.84992,62.8002],[28.45948,36.84911,110.161],[28.45265,36.84955,0.0],[28.45607,36.82852,32.6262],[28.46388,36.81875,262.1436],[28.47804,36.81599,83.5703],[28.5005,36.81607,2.0711],[28.5005,36.80858,22.1838],[28.48683,36.80174,0.0],[28.49789,36.79849,0.0],[28.50799,36.79767,41.2716],[28.51775,36.79564,0.0],[28.52784,36.78876,17.7197],[28.52442,36.8133,281.1634],[28.54615,36.82343,65.4738],[28.57586,36.81953,87.4382],[28.58855,36.80801,0.0],[28.59099,36.8002,0.0],[28.59108,36.79902,0.0],[28.59669,36.79499,0.0],[28.59742,36.80256,49.4249],[28.59889,36.80687,54.3821],[28.60353,36.81607,146.7479],[28.61036,36.81607,-1.0],[28.60621,36.81013,5.4075],[28.60629,36.80687,-0.36],[28.60841,36.80475,-0.4393],[28.61036,36.80174,-0.5],[28.60719,36.80085,0.4571],[28.6045,36.80085,0.2573],[28.60304,36.79963,0.0],[28.60353,36.79499,0.0],[28.61411,36.78535,0.0],[28.61671,36.76699,104.9069],[28.61256,36.74714,0.0],[28.60353,36.73355,0.0],[28.61622,36.70596,0.0],[28.62338,36.69937,0.0],[28.63592,36.7145,253.5704],[28.64918,36.71833,0.0],[28.65992,36.711,0.0],[28.66489,36.69257,0.0],[28.67172,36.69257,23.9459],[28.70167,36.70506,13.3608],[28.74635,36.6977,0.0],[28.78273,36.67739,0.0],[28.78785,36.65095,0.0],[28.80502,36.65526,0.0],[28.8152,36.6518,0.0],[28.82545,36.64472,0.0],[28.84254,36.63788,0.0],[28.84254,36.63052,215.7854],[28.82716,36.62775,0.0],[28.81861,36.62079,0.0],[28.81861,36.61172,0.0],[28.82887,36.60253,0.0],[28.84156,36.60017,90.9165],[28.85873,36.6013,216.8825],[28.86964,36.60663,0.0],[28.86354,36.61685,71.8954],[28.87843,36.62592,71.2512],[28.89536,36.64142,33.9909],[28.9017,36.65827,56.5014],[28.88404,36.67145,0.0],[28.89015,36.65762,0.0],[28.88803,36.64842,0.0],[28.88233,36.64061,115.5049],[28.87664,36.63052,93.5526],[28.87037,36.63052,123.1818],[28.86687,36.63491,95.2835],[28.85678,36.64411,0.0],[28.86354,36.65095,0.0],[28.85792,36.65375,82.0131],[28.85499,36.65664,43.3066],[28.84995,36.66523,42.8845],[28.86248,36.66791,27.3878],[28.86264,36.67512,0.0],[28.86004,36.68423,240.4723],[28.86354,36.69257,74.214],[28.87086,36.69623,0.0],[28.87892,36.69807,0.0],[28.89772,36.69937,21.4302],[28.89772,36.7062,153.4055],[28.89088,36.7062,35.7342],[28.89088,36.71239,41.1422],[28.90414,36.72305,42.3631],[28.9227,36.74136,22.8315],[28.93898,36.75129,0.0],[28.94614,36.73697,0.0],[28.95631,36.72753,0.0],[29.03419,36.701,4.0098],[29.09636,36.66523,0.0],[29.10239,36.65961,0.0],[29.10922,36.652,0.0],[29.11451,36.64313,0.0],[29.11687,36.63422,0.0],[29.11061,36.62637,0.0],[29.09881,36.6236,0.0],[29.09059,36.6271,14.5317],[29.09636,36.63788,11.4036],[29.09636,36.64411,0.0],[29.0809,36.63862,125.6],[29.06821,36.62393,0.0],[29.05584,36.61424,0.0],[29.04176,36.62425,0.0],[29.035,36.61469,0.0],[29.02613,36.59626,0.0],[29.02052,36.5895,0.0],[29.03142,36.57477,0.0],[29.03688,36.56147,0.0],[29.03273,36.55183,91.7394],[29.01441,36.54792,14.5371],[29.03639,36.54531,133.8044],[29.08432,36.56025,0.0],[29.09636,36.54792,86.6113],[29.10377,36.54792,35.417],[29.11492,36.55268,4.6159],[29.12029,36.53563,0.0],[29.12428,36.5008,232.0651],[29.12428,36.49331,267.6265],[29.11557,36.49136,109.0496],[29.10955,36.48851,0.0],[29.09636,36.47964,0.0],[29.09636,36.47346,0.0],[29.11134,36.46678,0.0],[29.1242,36.4536,81.9979],[29.13014,36.43651,0.0],[29.12428,36.41816,0.0],[29.1277,36.41682,0.0],[29.12916,36.4169,0.0],[29.12989,36.41596,0.0],[29.13038,36.41136,141.2715],[29.11891,36.4101,228.2175],[29.10906,36.40648,19.5964],[29.10141,36.40021,0.0],[29.09636,36.39094,0.0],[29.10621,36.39086,198.7665],[29.1128,36.38939,0.0],[29.12428,36.38345,13.3364],[29.11687,36.37718,0.0],[29.1447,36.37718,0.0],[29.1447,36.36978,147.3746],[29.14177,36.36542,0.0],[29.1408,36.36245,205.0781],[29.1447,36.34931,0.0],[29.15846,36.35676,17.4343],[29.17498,36.33983,0.0],[29.23463,36.32429,4.66],[29.24781,36.31171,1.2678],[29.25668,36.29702,0.0],[29.26122,36.29358,0.0],[29.2892,36.30471,7.1643],[29.30708,36.32502,7.0423],[29.31369,36.35153,16.0222],[29.31287,36.36429,78.5216],[29.31328,36.37633,64.3458],[29.32248,36.39067,40.7175],[29.32889,36.40842,49.3842],[29.36196,36.46312,73.5807],[29.42439,36.48354,659.7034],[29.45487,36.47325,880.8027],[29.4773,36.4824,1268.4895],[29.47203,36.50932,1232.7417],[29.48113,36.53715,1436.8353],[29.52691,36.5702,2564.5215],[29.57549,36.59895,1963.4816],[29.59378,36.65433,2139.749],[29.58024,36.71605,2240.5918],[29.68887,36.91431,1245.9795],[29.60401,37.00857,1777.6771],[29.4834,36.99588,1133.9082],[29.43503,36.94736,1643.4209],[29.39669,36.95966,1121.8418],[29.41343,37.01759,1180.7953],[29.39038,37.06864,1431.1755],[29.34263,37.03802,1291.3081],[29.33571,36.97304,1524.1267],[29.32506,36.94736,1244.4661],[29.30439,36.92581,1625.4355],[29.27039,36.9116,1702.9287],[29.16993,36.9549,1158.865],[29.11505,36.95805,1361.7797],[29.09025,36.97787,1129.2097],[29.08683,36.9934,1379.6245],[29.08394,37.02642,801.4801],[29.07536,37.06549,761.1608],[29.06182,37.1029,826.8043],[29.00188,37.1497,1503.292],[28.92829,37.17659,1186.5183],[28.91651,37.18781,997.3331],[28.89822,37.21458,736.6012],[28.88612,37.22494,678.9939],[28.8115,37.23354,572.1127],[28.77791,37.27209,1053.3492],[28.76499,37.31852,620.0142],[28.73533,37.35986,445.051],[28.688,37.37467,539.5645],[28.65317,37.37472,389.5552],[28.62733,37.3825,567.311],[28.61741,37.41115,370.1105],[28.61679,37.43968,297.2353],[28.62082,37.46045,484.9903]]]]}
,"properties": {"ISO3166-1-Alpha-3": "TUR","country": "Turkey","fill": "#F00","name": "Mugla","area_km2": 12866.669,"hist_schema_id": "Elevation0-9000","hist_area_km2": {"0": 720.464,"25": 450.237,"50": 359.942,"75": 365.783,"100": 368.785,"125": 334.271,"150": 338.447,"175": 342.799,"200": 317.886,"225": 294.762,"250": 277.683,"275": 266.17,"300": 263.017,"325": 260.53,"350": 244.314,"375": 224.252,"400": 207.22,"425": 200.691,"450": 214.05,"475": 229.229,"500": 227.718,"525": 225.504,"550": 223.113,"575": 224.302,"600": 232.864,"625": 262.728,"650": 241.206,"675": 222.904,"700": 207.961,"725": 199.116,"750": 194.741,"775": 184.579,"800": 171.353,"825": 162.593,"850": 159.987,"875": 159.32,"900": 155.728,"925": 154.636,"950": 145.955,"975": 136.935,"1000": 129.659,"1025": 125.029,"1050": 123.284,"1075": 117.732,"1100": 112.267,"1125": 129.95,"1150": 136.178,"1175": 115.876,"1200": 108.894,"1225": 103.805,"1250": 97.694,"1275": 97.195,"1300": 88.329,"1325": 87.065,"1350": 81.607,"1375": 76.273,"1400": 73.53,"1425": 68.878,"1450": 62.146,"1475": 58.4,"1500": 55.473,"1525": 54.003,"1550": 47.046,"1575": 41.308,"1600": 38.989,"1625": 34.959,"1650": 33.183,"1675": 33.152,"1700": 29.053,"1725": 28.53,"1750": 27.246,"1775": 23.924,"1800": 23.213,"1825": 20.706,"1850": 20.948,"1875": 19.254,"1900": 18.054,"1925": 16.085,"1950": 15.578,"1975": 14.303,"2000": 11.846,"2025": 10.471,"2050": 8.945,"2075": 8.505,"2100": 7.503,"2125": 9.576,"2150": 7.538,"2175": 7.045,"2200": 6.385,"2225": 6.298,"2250": 4.602,"2275": 3.515,"2300": 2.734,"2325": 2.361,"2350": 1.478,"2375": 1.224,"2400": 0.902,"2425": 0.477,"2450": 0.409,"2475": 0.426,"2500": 0.392,"2525": 0.358,"2550": 0.306,"2575": 0.17,"2600": 0.221,"2625": 0.255,"2650": 0.119}}}