{"type":"Feature","properties":{"ISO3166-1-Alpha-3":"TUR","country":"Turkey","fill":"#F00","id":"3009","name":"Çankiri"},
"geometry":{"type": "Polygon","coordinates": [[[34.02721,40.86076,1498.0098],[33.98555,40.86218,1707.3838],[33.94452,40.86867,1660.7496],[33.91073,40.8867,1137.2866],[33.87962,40.90942,1138.3384],[33.82091,40.92536,795.3347],[33.78329,40.97383,1741.7758],[33.79497,41.00365,1505.5396],[33.82091,41.02504,2009.9248],[33.8512,41.05731,2024.0964],[33.84086,41.09661,2043.1689],[33.82587,41.10372,1706.8894],[33.79218,41.09398,1852.2544],[33.63002,41.02856,2136.1157],[33.55251,41.0177,2233.7468],[33.4475,40.97088,1444.4769],[33.40895,40.95985,1731.0181],[33.36234,40.97125,1353.3765],[33.32554,41.00494,689.4655],[33.23459,41.05039,690.6922],[33.10571,41.06127,749.7284],[33.09217,41.07041,761.9884],[33.06923,41.09302,865.6139],[33.02652,41.01153,1020.4832],[32.92954,40.97112,1501.6436],[32.83256,40.9792,1498.7688],[32.79619,40.96304,1335.1238],[32.74829,40.89742,1081.1077],[32.63051,40.82565,1156.1161],[32.52616,40.78875,1393.0684],[32.52456,40.7762,1432.4532],[32.52249,40.75989,1662.0248],[32.50709,40.70516,1540.7142],[32.58616,40.70759,1703.5111],[32.66512,40.6979,1609.9492],[32.95864,40.59401,1665.9166],[32.98737,40.56437,1380.3268],[33.01042,40.53058,1495.2428],[33.04339,40.50177,1496.2478],[33.08101,40.4796,1653.6555],[33.09817,40.47363,1821.3771],[33.14116,40.44438,1224.5845],[33.17258,40.43035,1168.9866],[33.19428,40.40482,1140.7688],[33.20555,40.37051,931.592],[33.27139,40.33108,826.7944],[33.34466,40.338,771.4335],[33.34921,40.36356,800.0515],[33.35996,40.39133,827.6661],[33.37794,40.39725,912.3569],[33.3982,40.39624,961.3244],[33.42952,40.38702,1063.417],[33.45969,40.37356,895.0451],[33.59519,40.33955,977.1088],[33.87052,40.2723,683.0658],[33.96416,40.2655,770.2119],[34.04302,40.29994,709.8434],[34.06359,40.30348,735.8615],[34.08178,40.31018,652.973],[34.1104,40.34811,552.0218],[34.13356,40.38965,546.9969],[34.147709999999996,40.39689,544.9208],[34.15019,40.42296,538.9284],[34.14275,40.44823,552.1896],[34.13159,40.47495,534.6677],[34.11661,40.49939,600.9971],[34.09139,40.53109,700.8464],[34.07867,40.56874,670.7857],[34.08167,40.60414,729.4137],[34.07464,40.6391,925.8119],[34.05046,40.67633,1038.3212],[34.04415,40.71912,1199.9966],[34.06493,40.75875,1384.7687],[34.07661,40.79823,1468.8336],[34.02721,40.86076,1498.0098]]]}}