{"type":"Feature","properties":{"GID_1":"TUR.23_1","GID_0":"TUR","country":"Turkey","province":"Çankiri","VARNAME_1":"Çankırı|Changra","NL_NAME_1":"NA","TYPE_1":"Il","ENGTYPE_1":"Province","CC_1":"NA","HASC_1":"TR.CI","ISO_1":"NA","name":"Çankiri.province"},
"geometry":{"type": "MultiPolygon","coordinates": [[[[34.1345,40.4829,555.4518],[34.1312,40.4935,632.7583],[34.1162,40.4935,610.7028],[34.1128,40.5041,611.7365],[34.1035,40.5205,647.0501],[34.0979,40.539,649.2204],[34.0896,40.5528,645.9984],[34.0828,40.5739,699.6435],[34.0738,40.5906,788.904],[34.0688,40.6176,761.7227],[34.0589,40.6372,848.0355],[34.0538,40.6641,894.696],[34.0449,40.6808,1084.4622],[34.0424,40.6899,1094.1238],[34.0411,40.7157,1191.8625],[34.0421,40.7481,1230.2772],[34.0452,40.7602,1366.6407],[34.0554,40.7797,1370.6401],[34.0572,40.8008,1684.3977],[34.0538,40.8186,1806.2385],[34.0359,40.851,1542.2826],[34.0015,40.8563,1537.5898],[33.9803,40.8633,1776.0905],[33.9532,40.8688,1650.9948],[33.9257,40.8829,1277.7738],[33.8929,40.8916,1013.3163],[33.836,40.9136,834.7008],[33.8155,40.9249,845.4243],[33.7998,40.9371,1127.5814],[33.7895,40.9486,1424.9476],[33.7868,40.9568,1640.4869],[33.7859,40.9768,1796.9789],[33.7875,40.9881,1470.8794],[33.7912,40.9959,1488.7318],[33.8023,41.0068,1635.7056],[33.8259,41.0248,2032.549],[33.8577,41.0451,2024.8672],[33.8606,41.0528,2079.7998],[33.8619,41.0668,1719.3505],[33.8581,41.0778,1992.9401],[33.8467,41.0891,2030.6575],[33.8314,41.0967,1759.5023],[33.821,41.0973,1745.1671],[33.7871,41.0875,1766.656],[33.7707,41.0778,1810.8422],[33.7508,41.0714,1764.0504],[33.6836,41.0445,1997.1715],[33.6532,41.0384,2172.3467],[33.632,41.0312,2047.826],[33.608,41.0269,1966.6741],[33.5775,41.016,2080.033],[33.5535,41.0043,1790.8922],[33.5498,41.0008,1666.832],[33.5466,40.9945,1509.665],[33.5163,40.9937,1623.3837],[33.5056,40.9912,1660.5328],[33.4967,40.9864,1601.2997],[33.478,40.981,1499.3445],[33.4669,40.9749,1415.0135],[33.4535,40.9704,1400.2734],[33.4489,40.9663,1395.6372],[33.4492,40.9623,1469.1626],[33.4076,40.9594,1760.8765],[33.3858,40.961,1600.9254],[33.3499,40.9747,1161.5846],[33.3391,40.9841,927.3492],[33.3316,40.996,732.5692],[33.3229,41.0049,699.2245],[33.2963,41.0247,857.359],[33.2445,41.045,695.1744],[33.2152,41.0624,712.8531],[33.1855,41.0745,588.648],[33.1482,41.087,999.4327],[33.0771,41.0889,1150.7039],[33.0485,41.0423,922.2196],[33.0279,41.0165,928.1813],[33.0107,41.0158,907.3862],[32.9859,41.0086,1112.6525],[32.9511,41.0047,1086.014],[32.9258,40.997,1408.0725],[32.891,40.9931,1023.4548],[32.8694,40.9859,1400.7338],[32.8098,40.9737,1491.8918],[32.7437,40.9708,1344.6055],[32.7191,40.9631,1299.7902],[32.6919,40.9579,1317.4365],[32.6748,40.9483,1280.7003],[32.6255,40.9105,1011.1086],[32.6141,40.9043,993.9075],[32.5986,40.8985,1002.51],[32.5875,40.8919,1060.2552],[32.5193,40.8392,1248.0756],[32.5371,40.8197,1338.5725],[32.5401,40.8088,1393.0214],[32.5399,40.7976,1520.0542],[32.537,40.7867,1505.6062],[32.527,40.7675,1617.8177],[32.5241,40.7374,1714.8434],[32.5214,40.7286,1740.3396],[32.5013,40.7043,1498.0011],[32.6305,40.7044,1787.588],[32.6549,40.7026,1620.7557],[32.7334,40.6727,1656.5193],[32.7582,40.6668,1852.6595],[32.7718,40.6598,1755.4449],[32.7936,40.6549,1574.137],[32.8413,40.6367,1718.17],[32.8621,40.632,1959.0747],[32.8727,40.6258,1834.2233],[32.8932,40.6202,1688.4308],[32.9068,40.6131,1823.6781],[32.9288,40.6084,1601.911],[32.9614,40.5957,1692.4642],[32.9708,40.5889,1629.8405],[32.9867,40.5728,1405.2219],[32.9984,40.5566,1538.9238],[33.0701,40.5021,1514.0481],[33.0964,40.4878,1688.3298],[33.1016,40.4791,1802.4351],[33.1126,40.4692,1657.7839],[33.1232,40.4627,1527.3739],[33.1476,40.4525,1234.3806],[33.1717,40.4348,1194.4698],[33.1825,40.4235,1271.9067],[33.1941,40.4047,1140.7688],[33.2041,40.3763,942.6702],[33.221,40.3512,884.9772],[33.231,40.3447,949.4324],[33.2674,40.3311,828.2693],[33.2803,40.3284,808.4224],[33.3176,40.3311,811.0587],[33.3308,40.3347,781.2946],[33.3457,40.353,774.5503],[33.3539,40.3761,808.0217],[33.3641,40.3859,910.712],[33.3737,40.3909,883.0799],[33.4099,40.389,984.0569],[33.427,40.3857,974.2443],[33.4769,40.3675,841.9762],[33.4982,40.3572,731.9723],[33.5315,40.3451,833.347],[33.567,40.3414,1022.3455],[33.577,40.3391,1086.2593],[33.664,40.3053,616.6973],[33.6964,40.2865,649.6929],[33.7182,40.2803,632.9564],[33.7291,40.2784,643.9974],[33.7556,40.2839,686.0584],[33.794,40.284,693.9617],[33.8139,40.2814,731.9919],[33.8355,40.2746,703.8435],[33.8816,40.271,725.4644],[33.9179,40.2616,762.2877],[33.9655,40.2608,795.5469],[33.9818,40.2701,702.2629],[34.0275,40.2877,672.7039],[34.0538,40.3035,745.8075],[34.0994,40.3209,565.6608],[34.1072,40.3255,563.6042],[34.1133,40.3315,555.4915],[34.1569,40.3988,543.6732],[34.161,40.4121,541.669],[34.1593,40.4317,568.9087],[34.1497,40.4481,606.6837],[34.144,40.4666,536.6505],[34.1345,40.4829,555.4518]]]]}}