{"type":"Feature","properties":{"GID_2":"TUR.20.10_1","GID_0":"TUR","country":"Turkey","GID_1":"TUR.20_1","province":"Burdur","NL_NAME_1":"NA","county":"Tefenni","VARNAME_2":"NA","NL_NAME_2":"NA","TYPE_2":"District","ENGTYPE_2":"District","CC_2":"NA","HASC_2":"TR.BD.TE","name":"Tefenni.county"},
"geometry":{"type": "MultiPolygon","coordinates": [[[[30.0477,37.2378,1790.6862],[30.0184,37.2555,1706.6638],[30.0065,37.2705,1843.6737],[29.9952,37.2793,1483.4186],[29.9794,37.2834,1449.5],[29.9506,37.2858,1452.0073],[29.9173,37.2986,1105.4036],[29.8941,37.3129,1148.6963],[29.8636,37.3272,1099.5013],[29.7923,37.3814,1268.2886],[29.7677,37.3924,1385.4049],[29.7414,37.4079,1618.7898],[29.7345,37.4101,1655.0927],[29.7078,37.412,1671.8424],[29.6052,37.4117,1544.0293],[29.5792,37.4102,1382.5529],[29.5627,37.3873,1099.2677],[29.5542,37.364,943.7639],[29.5379,37.3465,885.8375],[29.5918,37.3052,1375.699],[29.6025,37.2989,1178.5049],[29.6204,37.292,1250.0637],[29.6277,37.2868,1578.3937],[29.6531,37.2473,1439.2542],[29.6614,37.2389,1378.3372],[29.6741,37.23,1217.4368],[29.7135,37.2153,1197.9028],[29.7536,37.2134,1213.1411],[29.7677,37.2112,1366.8318],[29.7975,37.1941,1354.0676],[29.8183,37.1853,1385.7004],[29.8422,37.1706,1814.983],[29.8695,37.1627,1887.3033],[29.8774,37.1614,1912.8864],[29.9203,37.1882,1815.0115],[30.0262,37.2282,1673.7467],[30.0477,37.2378,1790.6862]]]]}}