{"type":"Feature","properties":{"GID_2":"TUR.47.7_1","GID_0":"TUR","country":"Turkey","GID_1":"TUR.47_1","province":"Kayseri","NL_NAME_1":"NA","county":"Kocasinan","VARNAME_2":"NA","NL_NAME_2":"NA","TYPE_2":"District","ENGTYPE_2":"District","CC_2":"NA","HASC_2":"TR.KY.KK","name":"Kocasinan.county"},
"geometry":{"type": "MultiPolygon","coordinates": [[[[35.7348,39.0487,1157.0566],[35.7348,39.0603,1303.7935],[35.6989,39.0602,1276.3752],[35.6797,39.062,1208.5914],[35.6688,39.0658,1304.9854],[35.6447,39.0786,1511.1057],[35.6045,39.0542,1484.3774],[35.5768,39.0418,1375.5911],[35.5264,39.0058,1244.9481],[35.4332,38.9697,1205.837],[35.4153,38.9673,1128.5131],[35.3967,38.9669,1123.5591],[35.3781,38.9672,1113.3077],[35.3602,38.9696,1119.813],[35.3277,38.9824,1142.4994],[35.3167,38.9918,1203.3287],[35.2915,39.0283,1231.4767],[35.2711,39.0173,1251.3069],[35.2412,39.0057,1289.1021],[35.2206,39.0033,1308.5465],[35.2102,39.0049,1288.1868],[35.1889,39.0119,1234.4872],[35.1505,39.0169,1190.2673],[35.0992,39.0359,1114.2059],[35.0801,39.0377,1102.3982],[35.0374,39.0381,1125.9531],[35.0131,39.0249,1121.8975],[35.0058,39.0182,1129.8435],[35.0008,39.0103,1141.6602],[34.996,38.9835,1153.9491],[34.9855,38.961,1198.3354],[34.9811,38.9251,1215.1267],[34.9704,38.9028,1251.6246],[34.966,38.8669,1174.5562],[34.955,38.8446,1079.996],[34.9533,38.8293,1081.3821],[34.9532,38.7983,978.0],[34.9786,38.8117,1043.3379],[34.9881,38.8149,1092.8557],[35.0503,38.8175,1174.1602],[35.0636,38.8218,1154.9603],[35.0902,38.8368,1169.5898],[35.1389,38.8414,1183.9741],[35.1464,38.8452,1122.1475],[35.1549,38.8544,1132.4312],[35.162,38.8593,1153.5481],[35.1716,38.8622,1199.6235],[35.1858,38.8623,1109.1056],[35.2019,38.8564,1023.5618],[35.2342,38.8333,1034.4539],[35.2642,38.8192,1077.1447],[35.2977,38.7926,1338.4258],[35.4163,38.7931,1106.1201],[35.444,38.7912,1068.0652],[35.4954,38.7724,1051.8623],[35.5191,38.7679,1056.7683],[35.5292,38.764,1061.7269],[35.5497,38.7497,1077.724],[35.5663,38.7326,1125.1887],[35.5969,38.7543,1178.0748],[35.6271,38.7662,1238.6989],[35.6413,38.7691,1295.7131],[35.6725,38.7699,1334.7441],[35.6956,38.7685,1368.3505],[35.706,38.7659,1387.5291],[35.7378,38.7518,1557.9775],[35.7341,38.7752,1420.1913],[35.7354,38.798,1373.1335],[35.7386,38.8057,1356.915],[35.7627,38.8426,1328.5693],[35.7647,38.8538,1260.0962],[35.7636,38.8678,1265.5049],[35.7604,38.8756,1200.709],[35.7316,38.9197,1263.2014],[35.7091,38.9424,1302.0597],[35.6936,38.9657,1680.5444],[35.6898,38.9763,1762.5996],[35.6887,38.9905,1769.8586],[35.6898,39.0047,1710.4279],[35.6942,39.0154,1537.4816],[35.7054,39.0264,1360.8567],[35.7348,39.0487,1157.0566]]]]}}