{"type":"Feature","properties":{"GID_2":"TUR.22.4_1","GID_0":"TUR","country":"Turkey","GID_1":"TUR.22_1","province":"Çanakkale","NL_NAME_1":"NA","county":"Bozcaada","VARNAME_2":"NA","NL_NAME_2":"NA","TYPE_2":"District","ENGTYPE_2":"District","CC_2":"NA","HASC_2":"TR.CK.BO","name":"Bozcaada.county"},
"geometry":{"type": "MultiPolygon","coordinates": [[[[26.054,39.8471,0.0],[26.0401,39.8443,0.0],[26.0382,39.8415,4.6818],[26.0237,39.8446,0.8643],[26.0026,39.844,0.0],[25.9979,39.8454,0.0],[25.9976,39.8432,3.9481],[25.9935,39.8415,3.6056],[25.9829,39.8418,1.0485],[25.9726,39.839,0.0],[25.9632,39.8399,0.0],[25.9621,39.8371,0.0],[25.9676,39.8318,0.0],[25.9699,39.8249,0.0],[25.974,39.8218,0.0],[25.9824,39.8199,26.9233],[25.9837,39.8168,0.0],[25.9904,39.8215,0.0],[25.9937,39.8215,0.9265],[25.9974,39.8187,0.0],[26.0038,39.8174,3.3803],[26.0051,39.8146,2.3908],[26.0035,39.8121,0.8003],[26.0074,39.8126,3.1156],[26.0151,39.8082,0.0],[26.021,39.8079,0.0],[26.0235,39.804,2.2592],[26.0326,39.8018,0.0],[26.0362,39.7982,0.0],[26.0457,39.7968,0.3917],[26.0451,39.7926,1.096],[26.0485,39.7926,1.7583],[26.0515,39.7865,0.0],[26.059,39.7885,0.0],[26.0607,39.7904,2.5936],[26.0613,39.7888,2.5936],[26.0604,39.7871,1.0941],[26.0618,39.7871,1.0941],[26.0635,39.7904,0.0],[26.0668,39.7896,0.0],[26.0676,39.7921,4.1126],[26.074,39.7924,0.7936],[26.0737,39.794,4.8904],[26.0771,39.7957,4.5728],[26.0793,39.7949,0.0],[26.0793,39.7974,4.6748],[26.081,39.7971,0.0],[26.0838,39.8013,0.0],[26.0788,39.8021,11.7653],[26.0779,39.8043,2.501],[26.0807,39.8063,0.0],[26.0737,39.8129,0.4368],[26.0774,39.8154,0.0],[26.0743,39.8185,4.9494],[26.0746,39.8213,0.7255],[26.0779,39.8224,8.9154],[26.0804,39.821,0.2369],[26.0799,39.8246,0.0],[26.0774,39.8257,0.6499],[26.0779,39.8288,0.0],[26.0749,39.8307,0.0],[26.0765,39.8329,4.9274],[26.074,39.8354,0.0],[26.0757,39.8365,0.0],[26.071,39.8379,0.0],[26.0715,39.8401,0.0],[26.0701,39.8413,0.0],[26.0604,39.8415,3.6282],[26.0574,39.8465,3.7192],[26.054,39.8471,0.0]]],
[[[26.0868,39.9201,5.723],[26.0812,39.9182,1.185],[26.086,39.9171,5.3457],[26.0879,39.9182,0.0],[26.0868,39.9201,5.723]]],
[[[26.0535,39.9313,0.0],[26.0513,39.9315,0.0],[26.0501,39.9299,0.6376],[26.0526,39.9293,0.0],[26.0535,39.9313,0.0]]],
[[[26.0624,39.9404,6.7315],[26.0574,39.9385,0.9656],[26.0579,39.934,0.0],[26.0676,39.9313,0.0],[26.0732,39.9324,0.0],[26.0799,39.9374,0.0],[26.0785,39.9385,0.5899],[26.0729,39.9362,3.2891],[26.0687,39.939,0.0],[26.0624,39.9404,6.7315]]]]}}