{"type": "Feature","bbox": [29.2507,40.8497,29.4338,40.9882],"geometry": {"type": "MultiPolygon","coordinates": [[[[29.2507,40.8699,0.0],[29.2626,40.8613,3.561],[29.2593,40.8579,0.0],[29.2596,40.856,0.8456],[29.2654,40.8549,2.852],[29.2729,40.8574,12.8809],[29.2793,40.8537,0.0],[29.2849,40.8551,4.2242],[29.2871,40.8497,0.0],[29.3221,40.8588,103.5447],[29.335,40.8667,110.1815],[29.3384,40.871,94.5724],[29.3435,40.8853,79.7644],[29.3485,40.8911,101.7929],[29.3697,40.9015,138.9802],[29.4123,40.9164,172.4442],[29.42,40.9205,199.8388],[29.4253,40.9283,224.6084],[29.421,40.9403,158.3337],[29.4203,40.9476,165.0128],[29.4284,40.9637,157.8637],[29.4319,40.9743,255.5551],[29.4338,40.9746,245.3661],[29.4306,40.9882,156.3264],[29.3964,40.9876,128.8737],[29.3712,40.9721,86.1269],[29.3437,40.9583,68.0004],[29.3275,40.9517,196.5187],[29.3173,40.9517,148.4379],[29.3095,40.9409,142.0973],[29.3077,40.9325,116.7873],[29.2999,40.9151,111.4523],[29.2813,40.8977,100.6668],[29.2789,40.8887,83.2404],[29.2694,40.8887,81.1488],[29.2622,40.8857,83.3528],[29.2598,40.8798,41.2639],[29.2507,40.8699,0.0]]]]}
,"properties": {"GID_2": "TUR.40.35_1","GID_0": "TUR","country": "Turkey","GID_1": "TUR.40_1","province": "Istanbul","NL_NAME_1": "NA","county": "Tuzla","VARNAME_2": "NA","NL_NAME_2": "NA","TYPE_2": "District","ENGTYPE_2": "District","CC_2": "NA","HASC_2": "TR.IB.TU","name": "Tuzla.county","area_km2": 106.25072,"hist_schema_id": "Elevation0-9000","hist_area_km2": {"0": 3.03057,"25": 4.77776,"50": 7.55067,"75": 15.03146,"100": 32.82634,"125": 19.95415,"150": 10.7305,"175": 7.31974,"200": 3.82851,"225": 0.86485,"250": 0.17609,"275": 0.12807,"300": 0.03202}}}