{"type": "Feature","bbox": [41.2276,37.6539,41.8739,37.7846],"geometry": {"type": "MultiPolygon","coordinates": [[[[41.4466,37.7505,1043.7605],[41.4186,37.7418,742.4424],[41.3949,37.7408,711.8342],[41.3796,37.7431,720.9617],[41.3619,37.7495,938.2246],[41.3508,37.7515,861.8268],[41.2669,37.7534,686.3607],[41.2282,37.764,890.4667],[41.2276,37.719,559.0334],[41.231,37.7071,608.5482],[41.2393,37.6991,756.2527],[41.248,37.6952,673.6769],[41.2713,37.6908,781.8245],[41.2861,37.6857,643.3915],[41.3049,37.6827,814.3624],[41.3914,37.682,1091.6311],[41.4068,37.6797,1033.064],[41.4246,37.6735,1099.4291],[41.4442,37.6709,764.1544],[41.5604,37.6712,1050.6223],[41.5752,37.6749,1222.7053],[41.6045,37.6916,889.6863],[41.6148,37.6936,995.3134],[41.6254,37.6934,982.3688],[41.6353,37.6906,978.5322],[41.6448,37.6835,1207.5382],[41.6492,37.6763,1346.6484],[41.658,37.6539,861.1837],[41.6788,37.6707,1131.2452],[41.6947,37.6801,1210.6519],[41.782,37.7135,431.9843],[41.8124,37.7196,550.7194],[41.8572,37.7367,720.9506],[41.8739,37.7402,1127.9463],[41.8728,37.7517,761.5668],[41.8682,37.7591,1039.3943],[41.8569,37.7632,997.7393],[41.839,37.7642,789.2418],[41.8125,37.7543,619.1444],[41.7886,37.7498,502.5365],[41.7683,37.7427,480.9395],[41.7546,37.743,478.6547],[41.7455,37.7469,504.2158],[41.7009,37.7777,716.9011],[41.6782,37.7841,701.0132],[41.6715,37.7846,700.2559],[41.6585,37.7813,618.6111],[41.6356,37.768,480.4591],[41.6248,37.7649,465.2825],[41.5563,37.763,536.7037],[41.5156,37.7529,707.9954],[41.4466,37.7505,1043.7605]]]]}
,"properties": {"GID_2": "TUR.14.3_1","GID_0": "TUR","country": "Turkey","GID_1": "TUR.14_1","province": "Batman","NL_NAME_1": "NA","county": "Hasankeyf","VARNAME_2": "NA","NL_NAME_2": "NA","TYPE_2": "District","ENGTYPE_2": "District","CC_2": "NA","HASC_2": "TR.BM.HA","name": "Hasankeyf.county","area_km2": 433.0757,"hist_schema_id": "Elevation0-9000","hist_area_km2": {"425": 4.0414,"450": 19.1821,"475": 29.0752,"500": 30.9711,"525": 30.1336,"550": 29.2961,"575": 30.9058,"600": 32.9178,"625": 26.8983,"650": 22.7739,"675": 20.6115,"700": 17.459,"725": 15.5142,"750": 13.3178,"775": 11.7243,"800": 11.1709,"825": 10.9361,"850": 8.8565,"875": 8.0513,"900": 7.4476,"925": 6.8937,"950": 6.0223,"975": 5.754,"1000": 4.9156,"1025": 4.7817,"1050": 4.1609,"1075": 3.7416,"1100": 2.6677,"1125": 2.5839,"1150": 2.2317,"1175": 1.6109,"1200": 1.3424,"1225": 1.2082,"1250": 0.9733,"1275": 0.7719,"1300": 0.7551,"1325": 0.537,"1350": 0.4867,"1375": 0.2182,"1400": 0.1343}}}