{"type":"Feature","properties":{"GID_2":"TUR.38.1_1","GID_0":"TUR","country":"Turkey","GID_1":"TUR.38_1","province":"Iğdır","NL_NAME_1":"NA","county":"Aralık","VARNAME_2":"NA","NL_NAME_2":"NA","TYPE_2":"District","ENGTYPE_2":"District","CC_2":"NA","HASC_2":"TR.IG.AR","name":"Aralık.county"},
"geometry":{"type": "MultiPolygon","coordinates": [[[[44.3397,40.0303,829.3687],[44.3207,40.0145,829.8381],[44.315,40.0075,830.2985],[44.3082,39.9864,830.1654],[44.282,39.9439,828.8968],[44.2811,39.9331,826.386],[44.2826,39.9195,825.1629],[44.2874,39.9131,824.0934],[44.2977,39.909,824.0709],[44.3187,39.9145,823.8201],[44.3342,39.9135,822.9359],[44.341,39.9074,822.4899],[44.3426,39.8933,828.5613],[44.3404,39.8844,906.5086],[44.335,39.8763,1047.814],[44.3083,39.8541,1168.146],[44.2992,39.8447,1203.2898],[44.2542,39.7749,2500.3521],[44.2517,39.7662,2874.0376],[44.2507,39.7541,3240.6445],[44.2506,39.6704,2889.6118],[44.3004,39.6709,3352.0947],[44.3208,39.6727,3696.7139],[44.3686,39.6904,2947.5574],[44.3802,39.6932,2717.8408],[44.4519,39.6947,1705.7333],[44.4754,39.6977,1445.8365],[44.4829,39.7005,1380.0793],[44.4965,39.696,1314.746],[44.5132,39.7084,1189.4807],[44.5406,39.7223,1033.1373],[44.6066,39.7734,814.1669],[44.6235,39.7772,804.637],[44.6314,39.776,804.8433],[44.6349,39.7719,803.8597],[44.6386,39.7605,803.6248],[44.6518,39.738,802.8445],[44.6564,39.7328,802.5857],[44.6691,39.7235,802.1801],[44.6784,39.7199,802.6794],[44.7219,39.7073,800.1039],[44.7778,39.6609,796.0744],[44.8138,39.6391,797.0154],[44.8202,39.6252,841.0467],[44.8217,39.6453,796.1329],[44.8152,39.6607,797.1865],[44.8127,39.677,797.2483],[44.8038,39.6851,797.7966],[44.7973,39.6869,798.2643],[44.7886,39.697,799.1154],[44.776,39.7026,797.9821],[44.7741,39.7048,799.9419],[44.7762,39.709,798.6897],[44.7742,39.7135,798.9476],[44.7627,39.7147,801.3005],[44.7577,39.7188,799.7609],[44.7467,39.7368,801.8769],[44.7385,39.7424,802.3429],[44.7272,39.7457,802.7393],[44.725,39.7488,801.3289],[44.7222,39.762,801.4985],[44.7176,39.7677,802.4246],[44.7119,39.7705,803.0203],[44.7048,39.7676,803.8332],[44.7007,39.7676,804.0594],[44.6958,39.7774,803.477],[44.7011,39.7888,804.4239],[44.6982,39.7936,804.8028],[44.6914,39.7934,806.9547],[44.6836,39.7885,806.2824],[44.6752,39.7877,805.6246],[44.6216,39.8154,806.0],[44.6269,39.8227,809.9222],[44.6255,39.8283,811.7985],[44.6079,39.8236,811.2979],[44.6016,39.8255,809.6709],[44.5985,39.8288,809.9982],[44.5969,39.8504,811.2654],[44.5902,39.8597,813.635],[44.5736,39.8687,812.3297],[44.5642,39.8774,813.9186],[44.5611,39.8958,814.3452],[44.5575,39.9038,814.8248],[44.5405,39.9188,815.4712],[44.5292,39.9222,816.1777],[44.523,39.9264,818.0432],[44.5099,39.9428,818.3852],[44.4887,39.9651,820.3401],[44.4847,39.9673,820.6846],[44.472,39.9681,820.8363],[44.4656,39.9702,821.3542],[44.4552,39.9791,821.983],[44.4192,40.0,821.3829],[44.3973,40.0,825.583],[44.3878,40.0052,823.7151],[44.3798,40.0053,822.9125],[44.3397,40.0303,829.3687]]]]}}