{"type":"Feature","properties":{"GID_2":"TUR.11.7_1","GID_0":"TUR","country":"Turkey","GID_1":"TUR.11_1","province":"Aydin","NL_NAME_1":"NA","county":"Karacasu","VARNAME_2":"NA","NL_NAME_2":"NA","TYPE_2":"District","ENGTYPE_2":"District","CC_2":"NA","HASC_2":"TR.AY.KC","name":"Karacasu.county"},
"geometry":{"type": "MultiPolygon","coordinates": [[[[28.5505,37.571,468.2645],[28.5873,37.6019,792.6064],[28.5964,37.607,795.4136],[28.6067,37.6098,803.6815],[28.6215,37.6106,827.8525],[28.6355,37.6094,812.5443],[28.66,37.6016,813.1147],[28.6754,37.5991,862.7552],[28.7083,37.5985,970.8828],[28.7404,37.6001,1340.6882],[28.757,37.6152,1060.7141],[28.7862,37.6287,934.9308],[28.8315,37.6617,881.1316],[28.8636,37.6762,973.5736],[28.8761,37.6875,1163.9692],[28.8796,37.697,1258.8654],[28.8662,37.733,1679.7075],[28.8575,37.7438,1691.7642],[28.849,37.7632,1747.4607],[28.8327,37.7772,1457.2231],[28.811,37.7873,1167.9498],[28.8,37.7956,1091.8767],[28.7942,37.8082,1183.1356],[28.7831,37.8211,1057.2643],[28.7781,37.8331,964.8423],[28.7716,37.8404,793.1348],[28.7642,37.8431,806.6518],[28.752,37.837,1028.5327],[28.7463,37.8367,1118.426],[28.7202,37.8448,885.8453],[28.7029,37.8521,780.2608],[28.6724,37.8582,362.6855],[28.6426,37.8701,410.4827],[28.6217,37.8836,276.4938],[28.6097,37.8885,172.2139],[28.592,37.8892,100.1053],[28.579,37.8858,87.9439],[28.5551,37.8763,113.0592],[28.5086,37.8485,664.8199],[28.5087,37.8157,943.7089],[28.5102,37.8035,1050.8762],[28.5134,37.7953,1128.1533],[28.5353,37.7607,1112.5137],[28.5415,37.7309,1418.6667],[28.5514,37.7113,1330.7937],[28.5534,37.6992,1405.4911],[28.5549,37.6552,963.3845],[28.5573,37.6465,861.2036],[28.5649,37.6305,713.624],[28.5643,37.6228,664.8149],[28.5572,37.6093,699.3403],[28.5545,37.6007,698.9149],[28.5505,37.571,468.2645]]]]}}