{"type":"Feature","properties":{"GID_2":"TUR.28.4_1","GID_0":"TUR","country":"Turkey","GID_1":"TUR.28_1","province":"Edirne","NL_NAME_1":"NA","county":"Keşan","VARNAME_2":"NA","NL_NAME_2":"NA","TYPE_2":"District","ENGTYPE_2":"District","CC_2":"NA","HASC_2":"TR.ED.KE","name":"Keşan.county"},
"geometry":{"type": "MultiPolygon","coordinates": [[[[26.7388,40.6188,0.0],[26.7332,40.6174,0.0],[26.7307,40.6151,0.0],[26.7332,40.6129,0.0],[26.7368,40.6138,6.6252],[26.7376,40.6113,0.0],[26.741,40.6132,0.0],[26.7412,40.6171,8.8716],[26.7388,40.6188,0.0]]],
[[[26.7571,40.6218,11.4044],[26.7549,40.6218,10.7525],[26.754,40.619,18.648],[26.7579,40.6193,0.0],[26.7588,40.6207,0.0],[26.7571,40.6218,11.4044]]],
[[[26.7701,40.7212,286.3256],[26.7838,40.7462,214.2646],[26.7645,40.7633,99.6318],[26.7532,40.7797,48.925],[26.7353,40.7976,106.2826],[26.7305,40.8054,167.9469],[26.728,40.8263,242.7073],[26.7284,40.8849,237.7101],[26.7308,40.9027,205.1959],[26.7401,40.9193,181.1127],[26.747,40.9403,193.1262],[26.7717,40.977,177.4401],[26.7819,40.9951,207.5674],[26.783,40.9996,194.6087],[26.7811,41.0063,172.7212],[26.7719,41.0219,137.2989],[26.7629,41.0293,126.9095],[26.7573,41.0319,127.4502],[26.7305,41.0373,77.3516],[26.7127,41.0436,104.514],[26.7011,41.0455,149.3671],[26.6389,41.0462,82.9157],[26.5849,41.0032,73.6095],[26.5442,40.9402,101.5986],[26.5098,40.9101,50.1588],[26.4986,40.8938,68.0634],[26.4798,40.8753,91.5553],[26.4748,40.8658,89.2954],[26.4712,40.8403,41.0627],[26.4671,40.8331,31.6688],[26.4608,40.8268,39.5671],[26.4382,40.8099,47.3156],[26.4088,40.7969,16.9955],[26.3721,40.7719,22.0971],[26.3588,40.7679,26.9545],[26.3233,40.7643,15.0131],[26.3214,40.7501,0.2886],[26.3161,40.7392,0.2372],[26.3049,40.7256,23.7307],[26.2853,40.7139,173.5572],[26.2818,40.7093,173.117],[26.2812,40.7046,164.8637],[26.2836,40.7001,111.9188],[26.2884,40.6973,100.7173],[26.3395,40.6855,79.7729],[26.3451,40.6834,122.0639],[26.3497,40.6797,129.9623],[26.3529,40.6718,108.1197],[26.3537,40.6629,104.3512],[26.3511,40.604,18.7617],[26.3529,40.6035,0.0],[26.3587,40.6063,10.0082],[26.3718,40.6057,2.9488],[26.3735,40.6079,1.2128],[26.3779,40.6082,0.6398],[26.4007,40.6032,0.4664],[26.4015,40.6018,0.0],[26.4085,40.6018,0.8901],[26.414,40.5985,0.0],[26.4307,40.6024,0.0],[26.4365,40.6096,5.0786],[26.4418,40.6132,0.0],[26.4613,40.6168,1.4654],[26.4735,40.614,3.0245],[26.4765,40.6115,0.0],[26.4782,40.6121,0.3535],[26.4876,40.6079,0.5239],[26.5074,40.5957,2.5183],[26.5099,40.5965,0.2772],[26.5143,40.5946,0.0],[26.5213,40.5979,0.995],[26.5338,40.5913,0.0],[26.539,40.5951,0.0],[26.5421,40.6013,0.6835],[26.5454,40.6013,0.0],[26.5518,40.6082,40.858],[26.5585,40.6113,3.3068],[26.5651,40.6099,0.0],[26.5713,40.6154,0.0],[26.5774,40.6185,0.0],[26.5801,40.624,5.144],[26.5868,40.6271,19.5205],[26.590699999999998,40.631,6.2628],[26.5968,40.6285,0.0],[26.5999,40.6299,0.0],[26.6021,40.634,5.078],[26.6076,40.6346,0.0],[26.6099,40.6368,0.0],[26.6151,40.6371,5.1216],[26.6224,40.6343,0.0],[26.6296,40.636,8.4459],[26.6332,40.6351,0.0],[26.6382,40.6376,1.2517],[26.6432,40.6363,0.0],[26.6435,40.6379,1.9361],[26.6626,40.6357,4.3623],[26.6674,40.6385,0.0],[26.6774,40.6368,0.0],[26.6893,40.6393,0.8448],[26.6929,40.6371,13.6494],[26.6971,40.6371,5.0743],[26.7024,40.6379,0.0],[26.7132,40.6432,0.0],[26.7257,40.6424,3.8215],[26.7324,40.6449,0.0],[26.7432,40.6435,0.0],[26.7504,40.6499,0.2848],[26.7704,40.656,1.0114],[26.784,40.6576,1.0194],[26.7926,40.6568,0.0],[26.7749,40.6684,25.9397],[26.7611,40.686,163.6603],[26.7593,40.6914,217.0451],[26.76,40.7051,336.6484],[26.7701,40.7212,286.3256]]]]}}