{"type":"Feature","properties":{"GID_2":"TUR.66.7_1","GID_0":"TUR","country":"Turkey","GID_1":"TUR.66_1","province":"Sakarya","NL_NAME_1":"NA","county":"Kaynarca","VARNAME_2":"NA","NL_NAME_2":"NA","TYPE_2":"District","ENGTYPE_2":"District","CC_2":"NA","HASC_2":"TR.SK.KN","name":"Kaynarca.county"},
"geometry":{"type": "MultiPolygon","coordinates": [[[[30.353,40.9521,229.1851],[30.3917,40.9479,184.8639],[30.4215,40.9364,70.3885],[30.431,40.9307,23.512],[30.4775,40.9408,23.3148],[30.4941,40.9604,71.5822],[30.5109,40.9859,10.5923],[30.513,40.9995,12.1084],[30.5103,41.0075,68.8874],[30.5066,41.0117,125.4649],[30.4963,41.0176,50.4608],[30.4783,41.0209,167.3078],[30.473,41.0233,127.6656],[30.4687,41.0298,96.5209],[30.4681,41.0349,93.5966],[30.4704,41.0427,101.4742],[30.4813,41.0521,96.6886],[30.5218,41.0665,96.0498],[30.478,41.0832,76.2038],[30.4668,41.0907,117.6479],[30.4578,41.0999,94.3359],[30.454,41.1082,82.4732],[30.4526,41.1233,4.6505],[30.4542,41.1447,3.7465],[30.457,41.1546,0.0],[30.4107,41.1654,1.3458],[30.3693,41.179,0.0],[30.3727,41.1763,3.1339],[30.3774,41.1627,15.3546],[30.3782,41.1457,49.3362],[30.3754,41.1377,32.7957],[30.3646,41.1281,22.6476],[30.3465,41.1212,63.2496],[30.327,41.108,42.8499],[30.3206,41.101,48.548],[30.3062,41.0774,71.5846],[30.3002,41.0473,115.4973],[30.289,41.0258,72.6606],[30.2897,41.0121,44.0949],[30.2943,41.0045,69.3765],[30.3236,40.9792,83.8792],[30.3374,40.961,126.9247],[30.347,40.9543,244.1085],[30.353,40.9521,229.1851]]],
[[[30.369,41.1792,0.0],[30.3693,41.179,0.0],[30.3693,41.1793,0.0],[30.369,41.1792,0.0]]]]}}