{"type":"Feature","properties":{"GID_2":"TUR.80.3_1","GID_0":"TUR","country":"Turkey","GID_1":"TUR.80_1","province":"Yozgat","NL_NAME_1":"NA","county":"Boğazlıyan","VARNAME_2":"NA","NL_NAME_2":"NA","TYPE_2":"District","ENGTYPE_2":"District","CC_2":"NA","HASC_2":"TR.YZ.BO","name":"Boğazlıyan.county"},
"geometry":{"type": "MultiPolygon","coordinates": [[[[35.5182,39.1874,1350.0134],[35.5058,39.2018,1313.8577],[35.4846,39.222,1204.6663],[35.4532,39.2711,1325.876],[35.4473,39.3013,1224.6304],[35.438,39.3175,1283.8269],[35.4358,39.3283,1285.7441],[35.4377,39.3393,1263.0402],[35.4488,39.3581,1227.7426],[35.451,39.374,1215.7939],[35.4104,39.3744,1192.9508],[35.3952,39.3727,1168.3002],[35.3813,39.369,1143.8801],[35.3731,39.3693,1158.181],[35.3683,39.3716,1172.567],[35.3631,39.3768,1183.2026],[35.3583,39.39,1188.0498],[35.3552,39.3939,1190.9912],[35.3496,39.3968,1204.4468],[35.3391,39.3986,1262.783],[35.2828,39.3976,1442.3606],[35.2714,39.3955,1529.1188],[35.25,39.3882,1597.7527],[35.2305,39.3866,1439.9797],[35.2111,39.3888,1352.8093],[35.1776,39.4017,1222.5319],[35.1625,39.4111,1198.874],[35.1462,39.4242,1165.5153],[35.1379,39.4343,1144.7256],[35.135,39.443,1119.0227],[35.1342,39.4551,1129.8723],[35.1356,39.4702,1125.1743],[35.1382,39.4789,1108.2023],[35.1476,39.4952,1107.1941],[35.1521,39.5243,1103.7715],[35.1278,39.5263,1108.1467],[35.1063,39.5242,1105.4246],[35.0288,39.4937,1095.5261],[34.9932,39.4813,1035.2579],[34.9746,39.4713,1043.7108],[34.9582,39.4595,1011.8842],[34.9462,39.449,965.6372],[34.9358,39.4365,1010.4048],[34.925,39.4288,1052.2413],[34.9166,39.4201,1055.8058],[34.9408,39.4125,1039.0383],[34.9715,39.4067,1042.4733],[35.0285,39.385,1196.6417],[35.0386,39.3784,1215.5598],[35.044,39.3719,1166.4991],[35.0578,39.3484,1080.0547],[35.0599,39.3173,1121.8889],[35.0628,39.306399999999996,1145.9762],[35.0706,39.297,1156.6956],[35.1,39.2718,1312.0762],[35.1315,39.2234,1077.5398],[35.132,39.2154,1042.3938],[35.1282,39.2079,1029.8684],[35.0855,39.1734,1080.3928],[35.0791,39.1668,1082.5288],[35.0698,39.1529,1057.295],[35.0633,39.1473,1052.6377],[35.028,39.1329,1055.3135],[35.0019,39.1294,1113.4401],[34.9997,39.1105,1109.105],[35.0022,39.0967,1112.8646],[35.0101,39.0829,1098.2461],[35.0173,39.062,1106.0741],[35.0374,39.0381,1125.9531],[35.0801,39.0377,1102.3982],[35.0992,39.0359,1114.2059],[35.1505,39.0169,1190.2673],[35.1889,39.0119,1234.4872],[35.2102,39.0049,1288.1868],[35.2206,39.0033,1308.5465],[35.2412,39.0057,1289.1021],[35.2711,39.0173,1251.3069],[35.2915,39.0283,1231.4767],[35.3282,39.0395,1280.3464],[35.483,39.0996,1256.7219],[35.4878,39.1053,1287.9465],[35.4884,39.1099,1301.8276],[35.4656,39.1483,1284.2703],[35.4633,39.168,1416.2124],[35.4656,39.1809,1352.7485],[35.4718,39.1868,1307.3718],[35.4811,39.1889,1298.7834],[35.5182,39.1874,1350.0134]]]]}}