{"type":"Feature","properties":{"GID_1":"TUR.14_1","GID_0":"TUR","country":"Turkey","province":"Batman","VARNAME_1":"NA","NL_NAME_1":"NA","TYPE_1":"Il","ENGTYPE_1":"Province","CC_1":"NA","HASC_1":"TR.BM","ISO_1":"TR-72","name":"Batman.province"},
"geometry":{"type": "MultiPolygon","coordinates": [[[[41.7374,37.7524,540.8829],[41.7161,37.7684,704.9968],[41.7009,37.7777,716.9011],[41.7197,37.7971,906.2559],[41.7379,37.8256,773.3407],[41.7401,37.8374,762.4656],[41.7393,37.8459,758.0801],[41.7368,37.8511,755.3662],[41.7316,37.8551,766.7111],[41.714,37.8577,997.5945],[41.5465,37.8566,679.0074],[41.5187,37.8585,803.3321],[41.4515,37.8837,798.7858],[41.4249,37.9014,821.2039],[41.4175,37.9081,775.325],[41.4121,37.9158,766.9016],[41.4112,37.9239,884.1632],[41.4141,37.9312,842.8894],[41.4259,37.9495,674.0502],[41.4325,37.9564,649.0156],[41.4522,37.9695,698.9357],[41.4701,37.9767,687.7851],[41.4808,37.9862,661.5475],[41.4842,37.9998,640.8536],[41.4813,38.0212,599.6221],[41.5233,38.0196,680.1438],[41.5506,38.0209,700.7964],[41.6067,38.0385,931.4594],[41.6221,38.0655,1019.4398],[41.6461,38.1024,1150.0],[41.6521,38.1325,828.7628],[41.662,38.1516,917.6825],[41.6668,38.1792,1008.4264],[41.6749,38.1952,915.0513],[41.6782,38.2068,974.0597],[41.6797,38.2235,1267.4033],[41.6791,38.3585,1605.9033],[41.6776,38.3649,1788.6166],[41.6668,38.3878,1790.7042],[41.6624,38.4211,1884.1699],[41.6526,38.4426,1799.9937],[41.6479,38.4701,2263.2529],[41.6391,38.4867,2112.8391],[41.6335,38.5052,2171.0039],[41.6286,38.513,1955.5597],[41.6079,38.531,1710.6578],[41.5991,38.5369,1733.113],[41.5857,38.5424,1748.4902],[41.5603,38.5442,1873.6692],[41.5222,38.5419,2118.1565],[41.4892,38.5441,2607.7285],[41.4724,38.5438,2290.3276],[41.4527,38.5403,1874.3992],[41.4303,38.5309,2165.3354],[41.4169,38.5222,2059.3596],[41.4317,38.504,1889.9902],[41.4343,38.4973,2027.3352],[41.4312,38.4886,1804.9995],[41.4214,38.4772,1859.3347],[41.4083,38.4739,1724.2406],[41.3661,38.4737,1345.384],[41.3512,38.4716,1324.3838],[41.2611,38.4373,995.2083],[41.2558,38.4342,1106.072],[41.2478,38.4262,962.8321],[41.2406,38.4056,748.843],[41.233,38.3917,791.3289],[41.2268,38.3618,848.0483],[41.2179,38.3451,1050.5798],[41.2149,38.333,982.6572],[41.2141,38.2285,738.4648],[41.2152,38.2162,730.5475],[41.2178,38.2075,716.803],[41.2258,38.1937,656.0],[41.2294,38.176,690.4594],[41.2278,38.1549,660.3044],[41.2167,38.1325,601.5215],[41.2115,38.1056,585.6398],[41.2024,38.0889,581.4866],[41.1943,38.0654,581.7664],[41.1596,38.0122,562.8159],[41.155,38.0023,560.5594],[41.153,37.9916,555.4734],[41.1058,37.9163,545.9668],[41.0975,37.9072,541.1741],[41.0736,37.8892,537.5847],[41.0416,37.8743,528.4785],[41.0357,37.868,525.9627],[41.0336,37.8626,525.6312],[41.033,37.8544,524.7554],[41.0352,37.8462,528.0888],[41.0517,37.8251,698.9454],[41.079,37.8125,767.1663],[41.1124,37.8047,784.275],[41.1064,37.7794,650.4347],[41.0996,37.7695,596.3408],[41.0737,37.7492,577.073],[41.0648,37.7442,667.3307],[41.0518,37.7396,636.5194],[41.0495,37.7267,705.4729],[41.0513,37.7185,734.9834],[41.0582,37.7096,781.5462],[41.0729,37.6954,843.6921],[41.0865,37.6768,845.0894],[41.1334,37.6375,1025.5656],[41.1704,37.5787,1341.5753],[41.189,37.5568,1091.7344],[41.2288,37.5544,1060.5747],[41.4461,37.5544,1138.3301],[41.4667,37.557,1170.7814],[41.4883,37.5638,1217.4431],[41.5229,37.568,1224.5649],[41.5485,37.5755,1216.9681],[41.5732,37.5775,1133.6602],[41.5839,37.5881,1007.3328],[41.5909,37.5999,987.7126],[41.5983,37.6081,964.6287],[41.6865,37.6759,1317.7585],[41.782,37.7135,431.9843],[41.8124,37.7196,550.7194],[41.8572,37.7367,720.9506],[41.8739,37.7402,1127.9463],[41.8728,37.7517,761.5668],[41.8704,37.7568,929.9767],[41.863,37.7618,1082.6335],[41.8569,37.7632,997.7393],[41.839,37.7642,789.2418],[41.8125,37.7543,619.1444],[41.7886,37.7498,502.5365],[41.7683,37.7427,480.9395],[41.7615,37.7421,472.315],[41.7514,37.744,493.1609],[41.7374,37.7524,540.8829]]]]}}