{"type":"Feature","properties":{"ISO3166-1-Alpha-3":"TUR","country":"Turkey","fill":"#F0F","id":"3042","name":"Batman"},
"geometry":{"type": "Polygon","coordinates": [[[41.67728,38.22136,1198.3123],[41.67387,38.24369,1274.3961],[41.67914,38.26624,1115.6586],[41.67883,38.3028,1062.1034],[41.67397,38.33885,2061.3918],[41.65072,38.39373,1767.1938],[41.6161,38.52876,1638.1361],[41.53124,38.55439,2028.2842],[41.47533,38.54801,2251.4209],[41.42055,38.5346,1938.8032],[41.42634,38.50091,1917.1833],[41.38841,38.48401,1279.2932],[41.35678,38.48127,1205.7185],[41.32433,38.473,1255.8395],[41.27162,38.453,1139.6097],[41.24919,38.42815,1011.4475],[41.2403,38.39257,781.3431],[41.22077,38.33758,1153.8882],[41.2092,38.28009,794.4924],[41.22191,38.17049,715.4483],[41.21457,38.11509,587.8722],[41.19865,38.09196,588.7361],[41.18036,38.07034,577.6765],[41.13302,37.94911,563.4498],[41.09334,37.91262,539.5157],[41.04507,37.88588,528.8563],[41.03546,37.86208,526.2202],[41.04548,37.8334,700.2323],[41.05375,37.7956,613.6727],[41.07525,37.76493,613.4767],[41.10068,37.76573,550.765],[41.11969,37.75821,498.5662],[41.18997,37.68796,884.45],[41.26025,37.57223,955.3771],[41.36774,37.51851,1041.3076],[41.5206,37.54332,1074.5724],[41.63222,37.60944,1134.1106],[41.81691,37.71382,425.75],[41.71066,37.8078,853.7521],[41.52887,37.86565,839.9831],[41.42138,37.94417,709.7257],[41.41311,38.01029,585.5996],[41.44618,38.05577,671.5958],[41.56194,38.08057,753.8137],[41.61155,38.12602,1073.4091],[41.63222,38.17974,901.7384],[41.67728,38.22136,1198.3123]]]}}